{"type":"FeatureCollection","metadata":{"description":"수관 아래(CHM > 2 m) — 시각 무관. 구간 회랑 ±200 m 절단","source":"위성 기반 추정 — Copernicus GLO-30 지형(30 m) + Meta/WRI 수관 높이(1 m CHM, 2018 촬영). 그늘 = 수관(CHM > 2 m) ∪ 나무·지형 그림자 ∪ 원거리 지형 마스크. 현장과 다를 수 있음.","datasetVersion":"2026-09-06.0","collectedAt":"2026-09-06","coordinateOrder":"[longitude, latitude]","crs":"EPSG:4326","representativeDate":"2026-08-01","hours":["10:00","11:00","12:00","13:00","14:00","15:00","16:00","17:00","18:00"],"chmAcquisition":["2018-03"],"assets":{"glo30":{"dataset":"Copernicus DEM GLO-30 (COG, s3://copernicus-dem-30m)","tiles":["Copernicus_DSM_COG_10_N38_00_E127_00_DEM"]},"chm":{"dataset":"Meta/WRI Global Canopy Height Map v1 (alsgedi_global_v6_float, 1 m, CC-BY 4.0)","quadkeys":["132110303"],"acquisition":["2018-03"]}},"method":{"gridResM":2,"canopyThresholdM":2,"bufferHalfM":25,"corridorHalfM":200,"simplifyTolM":2,"minAreaM2":25,"coordDecimals":5},"generator":"scripts/shade 0.1.0","builtAt":"2026-09-06T05:53:24Z","layer":"canopy"},"features":[{"type":"Feature","properties":{"valleyId":"bisun-sanjeong","layer":"canopy","date":"2026-08-01"},"geometry":{"type":"Polygon","coordinates":[[[127.30725,38.0753],[127.30723,38.07522],[127.30718,38.0752],[127.30719,38.07511],[127.30732,38.07512],[127.30732,38.07519],[127.30737,38.07519],[127.30739,38.07522],[127.30736,38.0753],[127.30725,38.0753]]]}},{"type":"Feature","properties":{"valleyId":"bisun-sanjeong","layer":"canopy","date":"2026-08-01"},"geometry":{"type":"Polygon","coordinates":[[[127.30516,38.07597],[127.30512,38.07595],[127.30512,38.0759],[127.30519,38.07568],[127.30526,38.07563],[127.30531,38.07563],[127.3054,38.07554],[127.30554,38.0755],[127.30556,38.07543],[127.3054,38.07543],[127.30533,38.07534],[127.30532,38.07512],[127.30527,38.0751],[127.3053,38.075],[127.30521,38.07496],[127.30517,38.07474],[127.30526,38.07474],[127.30528,38.0748],[127.30535,38.07482],[127.30534,38.07493],[127.30543,38.07496],[127.30541,38.07509],[127.30545,38.07509],[127.30547,38.07518],[127.30554,38.07518],[127.30557,38.07509],[127.30564,38.07509],[127.30566,38.07506],[127.30575,38.07506],[127.30575,38.07509],[127.30598,38.07508],[127.30598,38.07495],[127.30605,38.07494],[127.30608,38.07486],[127.30608,38.07476],[127.30603,38.07466],[127.30604,38.07425],[127.30616,38.07422],[127.30639,38.07422],[127.30652,38.07426],[127.30654,38.07429],[127.30666,38.0743],[127.30668,38.07433],[127.30673,38.07433],[127.30677,38.07437],[127.30679,38.07453],[127.30684,38.07453],[127.30688,38.0746],[127.3069,38.07477],[127.30701,38.07479],[127.30712,38.07486],[127.30724,38.07486],[127.3073,38.07495],[127.3074,38.07497],[127.30742,38.07508],[127.3073,38.0751],[127.3073,38.07506],[127.30721,38.07501],[127.30698,38.075],[127.30685,38.07496],[127.30655,38.07498],[127.30648,38.07507],[127.30641,38.07507],[127.30639,38.07514],[127.30632,38.07514],[127.30618,38.07521],[127.3062,38.07537],[127.30611,38.07544],[127.30606,38.07544],[127.30599,38.07553],[127.30583,38.07553],[127.30588,38.07538],[127.3057,38.07542],[127.30572,38.07551],[127.30581,38.07551],[127.30581,38.07556],[127.30558,38.07558],[127.30556,38.07563],[127.30542,38.07563],[127.30542,38.0757],[127.30532,38.07575],[127.30532,38.07581],[127.30528,38.07583],[127.3053,38.07597],[127.30516,38.07597]]]}},{"type":"Feature","properties":{"valleyId":"bisun-sanjeong","layer":"canopy","date":"2026-08-01"},"geometry":{"type":"Polygon","coordinates":[[[127.30521,38.07402],[127.30521,38.07391],[127.30537,38.07374],[127.30549,38.07336],[127.30556,38.07329],[127.30563,38.07329],[127.30561,38.0734],[127.30556,38.07341],[127.30556,38.07349],[127.3056,38.07352],[127.3056,38.0737],[127.30555,38.07381],[127.30534,38.07395],[127.30534,38.07401],[127.30521,38.07402]]]}},{"type":"Feature","properties":{"valleyId":"bisun-sanjeong","layer":"canopy","date":"2026-08-01"},"geometry":{"type":"Polygon","coordinates":[[[127.30466,38.07284],[127.30462,38.07279],[127.30462,38.07272],[127.30471,38.07272],[127.30476,38.07277],[127.30475,38.07284],[127.30466,38.07284]]]}},{"type":"Feature","properties":{"valleyId":"bisun-sanjeong","layer":"canopy","date":"2026-08-01"},"geometry":{"type":"Polygon","coordinates":[[[127.30594,38.07268],[127.30594,38.07263],[127.30601,38.07263],[127.30601,38.07268],[127.30594,38.07268]]]}},{"type":"Feature","properties":{"valleyId":"bisun-sanjeong","layer":"canopy","date":"2026-08-01"},"geometry":{"type":"Polygon","coordinates":[[[127.30733,38.07367],[127.30734,38.07357],[127.30711,38.07356],[127.30709,38.07349],[127.30684,38.07349],[127.30684,38.07341],[127.30679,38.07338],[127.30657,38.07332],[127.30652,38.07323],[127.30641,38.07321],[127.30632,38.07314],[127.30631,38.07279],[127.30635,38.07278],[127.30635,38.07272],[127.3064,38.07269],[127.30647,38.07269],[127.30649,38.07256],[127.30667,38.0726],[127.3067,38.07264],[127.30679,38.07266],[127.30697,38.07279],[127.30701,38.07279],[127.30728,38.07299],[127.30728,38.07302],[127.30739,38.0731],[127.30739,38.07313],[127.3075,38.07323],[127.30752,38.0733],[127.30759,38.07335],[127.30759,38.07343],[127.30752,38.07342],[127.30752,38.07339],[127.30746,38.07335],[127.30734,38.07335],[127.30732,38.07344],[127.30752,38.07344],[127.30752,38.07348],[127.30766,38.07346],[127.30768,38.07357],[127.30765,38.07362],[127.30759,38.07362],[127.30758,38.07368],[127.30733,38.07367]]]}},{"type":"Feature","properties":{"valleyId":"bisun-sanjeong","layer":"canopy","date":"2026-08-01"},"geometry":{"type":"Polygon","coordinates":[[[127.30487,38.07591],[127.30466,38.07585],[127.30421,38.07565],[127.30381,38.07535],[127.30381,38.07532],[127.30361,38.07513],[127.30356,38.07503],[127.30347,38.07493],[127.30343,38.07479],[127.30352,38.07479],[127.30357,38.07472],[127.30371,38.07472],[127.30375,38.07469],[127.30376,38.07461],[127.30373,38.07456],[127.30367,38.07456],[127.30357,38.0747],[127.30337,38.0747],[127.30332,38.07452],[127.30339,38.07452],[127.30346,38.07447],[127.30346,38.07439],[127.30342,38.07437],[127.30338,38.07427],[127.30328,38.07426],[127.30329,38.07396],[127.30334,38.07392],[127.30341,38.07392],[127.30341,38.07367],[127.30346,38.07364],[127.3036,38.07364],[127.30355,38.07351],[127.30346,38.07351],[127.30346,38.07346],[127.3036,38.07324],[127.30365,38.07322],[127.30375,38.07308],[127.30381,38.07305],[127.30382,38.07301],[127.30407,38.07282],[127.30434,38.07282],[127.30443,38.07286],[127.30446,38.07293],[127.30459,38.07297],[127.30461,38.0732],[127.30475,38.0732],[127.30477,38.07331],[127.30483,38.07331],[127.30493,38.07321],[127.30493,38.07315],[127.30486,38.0731],[127.30489,38.07294],[127.30496,38.07286],[127.30507,38.07287],[127.30512,38.07283],[127.3051,38.07265],[127.30499,38.07256],[127.30485,38.07252],[127.30485,38.07247],[127.30536,38.07238],[127.30599,38.07241],[127.30595,38.07254],[127.30585,38.07261],[127.30576,38.07261],[127.30571,38.07271],[127.30558,38.07271],[127.30555,38.07293],[127.30543,38.07296],[127.30538,38.07321],[127.30534,38.07321],[127.30531,38.07345],[127.30517,38.0735],[127.30512,38.07359],[127.30496,38.07369],[127.30494,38.07375],[127.3049,38.07456],[127.30494,38.07465],[127.30499,38.07467],[127.30498,38.07474],[127.30503,38.07476],[127.30505,38.07492],[127.30509,38.07494],[127.3051,38.07552],[127.30503,38.07557],[127.30505,38.07582],[127.30498,38.07591],[127.30487,38.07591]],[[127.30368,38.07488],[127.30377,38.07488],[127.30377,38.07483],[127.30366,38.07481],[127.30368,38.07488]],[[127.30347,38.07403],[127.30361,38.07402],[127.30361,38.07389],[127.30343,38.07392],[127.30347,38.07403]],[[127.30397,38.07402],[127.3042,38.07403],[127.30423,38.0739],[127.304,38.07391],[127.304,38.07381],[127.30393,38.07377],[127.30382,38.07377],[127.30386,38.07397],[127.30397,38.07402]],[[127.30364,38.07369],[127.30371,38.07369],[127.30371,38.07364],[127.30364,38.07364],[127.30364,38.07369]]]}},{"type":"Feature","properties":{"valleyId":"bisun-sanjeong","layer":"canopy","date":"2026-08-01"},"geometry":{"type":"Polygon","coordinates":[[[127.30313,38.07228],[127.30315,38.07208],[127.30318,38.07205],[127.30324,38.07205],[127.30324,38.07228],[127.30313,38.07228]]]}},{"type":"Feature","properties":{"valleyId":"bisun-sanjeong","layer":"canopy","date":"2026-08-01"},"geometry":{"type":"Polygon","coordinates":[[[127.30329,38.07207],[127.30329,38.07201],[127.30338,38.07201],[127.30338,38.07207],[127.30329,38.07207]]]}},{"type":"Feature","properties":{"valleyId":"bisun-sanjeong","layer":"canopy","date":"2026-08-01"},"geometry":{"type":"Polygon","coordinates":[[[127.30295,38.0721],[127.30293,38.07204],[127.30281,38.07204],[127.30274,38.07199],[127.30277,38.07191],[127.30295,38.07192],[127.30297,38.07201],[127.30304,38.07201],[127.30304,38.0721],[127.30295,38.0721]]]}},{"type":"Feature","properties":{"valleyId":"bisun-sanjeong","layer":"canopy","date":"2026-08-01"},"geometry":{"type":"Polygon","coordinates":[[[127.3024,38.07196],[127.30245,38.07186],[127.3025,38.07186],[127.30254,38.0718],[127.30261,38.0718],[127.30261,38.07186],[127.30247,38.07196],[127.3024,38.07196]]]}},{"type":"Feature","properties":{"valleyId":"bisun-sanjeong","layer":"canopy","date":"2026-08-01"},"geometry":{"type":"Polygon","coordinates":[[[127.30204,38.07183],[127.30204,38.07167],[127.30214,38.07167],[127.30218,38.07171],[127.30218,38.07182],[127.30204,38.07183]]]}},{"type":"Feature","properties":{"valleyId":"bisun-sanjeong","layer":"canopy","date":"2026-08-01"},"geometry":{"type":"Polygon","coordinates":[[[127.30189,38.07167],[127.30189,38.07161],[127.30195,38.07161],[127.30195,38.07167],[127.30189,38.07167]]]}},{"type":"Feature","properties":{"valleyId":"bisun-sanjeong","layer":"canopy","date":"2026-08-01"},"geometry":{"type":"Polygon","coordinates":[[[127.32294,38.07206],[127.32292,38.07202],[127.32288,38.07202],[127.32288,38.07195],[127.32292,38.07192],[127.32311,38.07195],[127.32313,38.0719],[127.3232,38.0719],[127.32319,38.07205],[127.32294,38.07206]]]}},{"type":"Feature","properties":{"valleyId":"bisun-sanjeong","layer":"canopy","date":"2026-08-01"},"geometry":{"type":"Polygon","coordinates":[[[127.30295,38.07192],[127.30295,38.07184],[127.30298,38.07181],[127.30302,38.07181],[127.30302,38.07176],[127.30293,38.07172],[127.30289,38.07165],[127.3028,38.07164],[127.30278,38.07157],[127.30316,38.07154],[127.30321,38.07158],[127.30321,38.07165],[127.30316,38.07167],[127.30318,38.07183],[127.30307,38.07185],[127.30302,38.07192],[127.30295,38.07192]]]}},{"type":"Feature","properties":{"valleyId":"bisun-sanjeong","layer":"canopy","date":"2026-08-01"},"geometry":{"type":"Polygon","coordinates":[[[127.30198,38.07158],[127.302,38.07151],[127.30218,38.07153],[127.30218,38.07158],[127.30198,38.07158]]]}},{"type":"Feature","properties":{"valleyId":"bisun-sanjeong","layer":"canopy","date":"2026-08-01"},"geometry":{"type":"Polygon","coordinates":[[[127.30269,38.07157],[127.30266,38.0715],[127.30278,38.0715],[127.30278,38.07157],[127.30269,38.07157]]]}},{"type":"Feature","properties":{"valleyId":"bisun-sanjeong","layer":"canopy","date":"2026-08-01"},"geometry":{"type":"Polygon","coordinates":[[[127.30357,38.0709],[127.30357,38.07079],[127.30373,38.07076],[127.30373,38.07081],[127.30366,38.07086],[127.30366,38.0709],[127.30357,38.0709]]]}},{"type":"Feature","properties":{"valleyId":"bisun-sanjeong","layer":"canopy","date":"2026-08-01"},"geometry":{"type":"Polygon","coordinates":[[[127.30454,38.07234],[127.30454,38.07226],[127.30449,38.07221],[127.3045,38.07207],[127.30445,38.07203],[127.30446,38.07192],[127.30439,38.07188],[127.30439,38.07178],[127.30435,38.07177],[127.3043,38.07165],[127.30412,38.07165],[127.3041,38.07161],[127.30385,38.07159],[127.30383,38.07151],[127.30406,38.0715],[127.30408,38.07143],[127.30378,38.07141],[127.30369,38.07135],[127.3037,38.07126],[127.30377,38.07121],[127.3039,38.07121],[127.30386,38.0711],[127.30391,38.07108],[127.30391,38.07105],[127.30402,38.07103],[127.30404,38.07096],[127.30411,38.07092],[127.30439,38.07096],[127.30439,38.07102],[127.30429,38.07111],[127.30429,38.07118],[127.3044,38.07127],[127.30445,38.07127],[127.30445,38.07133],[127.30454,38.07131],[127.30463,38.07109],[127.30477,38.0711],[127.30479,38.07106],[127.30489,38.07104],[127.305,38.07105],[127.305,38.07108],[127.30518,38.07108],[127.30518,38.07125],[127.30522,38.07125],[127.30525,38.07128],[127.30536,38.07127],[127.30536,38.07107],[127.30532,38.07101],[127.30523,38.07098],[127.30505,38.07097],[127.305,38.07094],[127.30484,38.07095],[127.30471,38.07091],[127.30466,38.07095],[127.30464,38.07104],[127.30457,38.07104],[127.30455,38.071],[127.30445,38.071],[127.30446,38.07084],[127.30453,38.07079],[127.30453,38.07075],[127.30462,38.07075],[127.30471,38.07068],[127.30483,38.07065],[127.30481,38.0705],[127.30497,38.0705],[127.30499,38.07056],[127.30506,38.07056],[127.30508,38.07052],[127.30513,38.07052],[127.30513,38.0704],[127.30531,38.07036],[127.30541,38.07029],[127.30541,38.07026],[127.30554,38.07022],[127.30561,38.07017],[127.30561,38.07013],[127.30571,38.07008],[127.30571,38.07003],[127.30594,38.07003],[127.30598,38.07021],[127.30577,38.07017],[127.30575,38.07028],[127.30582,38.07032],[127.30604,38.07032],[127.30608,38.07075],[127.30598,38.0712],[127.30591,38.07136],[127.30581,38.07147],[127.30581,38.07153],[127.30574,38.07158],[127.30567,38.0717],[127.30555,38.07179],[127.30555,38.07183],[127.3052,38.07209],[127.30516,38.07209],[127.30511,38.07215],[127.30507,38.07215],[127.30504,38.07218],[127.30472,38.07232],[127.30454,38.07234]]]}},{"type":"Feature","properties":{"valleyId":"bisun-sanjeong","layer":"canopy","date":"2026-08-01"},"geometry":{"type":"Polygon","coordinates":[[[127.30338,38.06999],[127.30336,38.06985],[127.3035,38.06987],[127.30347,38.06998],[127.30338,38.06999]]]}},{"type":"Feature","properties":{"valleyId":"bisun-sanjeong","layer":"canopy","date":"2026-08-01"},"geometry":{"type":"Polygon","coordinates":[[[127.32545,38.07013],[127.32545,38.06997],[127.32554,38.06997],[127.32556,38.07013],[127.32545,38.07013]]]}},{"type":"Feature","properties":{"valleyId":"bisun-sanjeong","layer":"canopy","date":"2026-08-01"},"geometry":{"type":"Polygon","coordinates":[[[127.30371,38.06973],[127.30371,38.06966],[127.30378,38.06966],[127.30378,38.06973],[127.30371,38.06973]]]}},{"type":"Feature","properties":{"valleyId":"bisun-sanjeong","layer":"canopy","date":"2026-08-01"},"geometry":{"type":"Polygon","coordinates":[[[127.32477,38.06996],[127.32477,38.06989],[127.32486,38.06989],[127.32486,38.06994],[127.32477,38.06996]]]}},{"type":"Feature","properties":{"valleyId":"bisun-sanjeong","layer":"canopy","date":"2026-08-01"},"geometry":{"type":"Polygon","coordinates":[[[127.32375,38.06964],[127.32375,38.06958],[127.32382,38.06958],[127.32382,38.06964],[127.32375,38.06964]]]}},{"type":"Feature","properties":{"valleyId":"bisun-sanjeong","layer":"canopy","date":"2026-08-01"},"geometry":{"type":"Polygon","coordinates":[[[127.30998,38.06951],[127.30996,38.06939],[127.31005,38.06937],[127.3101,38.06948],[127.31005,38.06951],[127.30998,38.06951]]]}},{"type":"Feature","properties":{"valleyId":"bisun-sanjeong","layer":"canopy","date":"2026-08-01"},"geometry":{"type":"Polygon","coordinates":[[[127.32229,38.06965],[127.32227,38.06962],[127.32222,38.06962],[127.32223,38.06953],[127.32239,38.06953],[127.32241,38.06964],[127.32229,38.06965]]]}},{"type":"Feature","properties":{"valleyId":"bisun-sanjeong","layer":"canopy","date":"2026-08-01"},"geometry":{"type":"Polygon","coordinates":[[[127.32387,38.06953],[127.32387,38.06948],[127.32394,38.06948],[127.32394,38.06953],[127.32387,38.06953]]]}},{"type":"Feature","properties":{"valleyId":"bisun-sanjeong","layer":"canopy","date":"2026-08-01"},"geometry":{"type":"Polygon","coordinates":[[[127.30427,38.06927],[127.30427,38.06916],[127.30434,38.06916],[127.30433,38.06927],[127.30427,38.06927]]]}},{"type":"Feature","properties":{"valleyId":"bisun-sanjeong","layer":"canopy","date":"2026-08-01"},"geometry":{"type":"Polygon","coordinates":[[[127.31012,38.06933],[127.31015,38.06924],[127.31026,38.06925],[127.31026,38.06934],[127.31012,38.06933]]]}},{"type":"Feature","properties":{"valleyId":"bisun-sanjeong","layer":"canopy","date":"2026-08-01"},"geometry":{"type":"Polygon","coordinates":[[[127.30152,38.07054],[127.30155,38.07029],[127.30163,38.07008],[127.30191,38.06963],[127.30237,38.06924],[127.30249,38.06921],[127.30256,38.06914],[127.30274,38.0691],[127.30276,38.06926],[127.30271,38.06932],[127.30265,38.06933],[127.30264,38.06939],[127.30244,38.0694],[127.30246,38.0696],[127.30236,38.06967],[127.30236,38.06971],[127.30225,38.06978],[127.3022,38.06996],[127.30206,38.07003],[127.30199,38.07003],[127.30199,38.0701],[127.30192,38.07015],[127.30192,38.07019],[127.30183,38.07026],[127.30178,38.07026],[127.30171,38.07038],[127.30166,38.07038],[127.30164,38.07051],[127.30159,38.07055],[127.30152,38.07054]]]}},{"type":"Feature","properties":{"valleyId":"bisun-sanjeong","layer":"canopy","date":"2026-08-01"},"geometry":{"type":"Polygon","coordinates":[[[127.31029,38.06925],[127.31029,38.06919],[127.31036,38.06919],[127.31035,38.06925],[127.31029,38.06925]]]}},{"type":"Feature","properties":{"valleyId":"bisun-sanjeong","layer":"canopy","date":"2026-08-01"},"geometry":{"type":"Polygon","coordinates":[[[127.30456,38.0692],[127.30459,38.06911],[127.30479,38.06911],[127.30479,38.06919],[127.30456,38.0692]]]}},{"type":"Feature","properties":{"valleyId":"bisun-sanjeong","layer":"canopy","date":"2026-08-01"},"geometry":{"type":"Polygon","coordinates":[[[127.32366,38.06951],[127.32362,38.06946],[127.32362,38.06938],[127.32371,38.06937],[127.32375,38.06949],[127.32366,38.06951]]]}},{"type":"Feature","properties":{"valleyId":"bisun-sanjeong","layer":"canopy","date":"2026-08-01"},"geometry":{"type":"Polygon","coordinates":[[[127.32519,38.06944],[127.32524,38.06932],[127.32533,38.0693],[127.32528,38.06944],[127.32519,38.06944]]]}},{"type":"Feature","properties":{"valleyId":"bisun-sanjeong","layer":"canopy","date":"2026-08-01"},"geometry":{"type":"Polygon","coordinates":[[[127.31044,38.06927],[127.31043,38.06912],[127.31047,38.06909],[127.31054,38.06909],[127.31054,38.06925],[127.31044,38.06927]]]}},{"type":"Feature","properties":{"valleyId":"bisun-sanjeong","layer":"canopy","date":"2026-08-01"},"geometry":{"type":"Polygon","coordinates":[[[127.30304,38.06923],[127.30302,38.06907],[127.30304,38.06902],[127.30311,38.069],[127.30311,38.06895],[127.30332,38.06897],[127.30334,38.069],[127.30345,38.06902],[127.30347,38.06911],[127.30338,38.06911],[127.30334,38.06904],[127.30325,38.06904],[127.30327,38.06916],[127.30311,38.06916],[127.3031,38.06923],[127.30304,38.06923]]]}},{"type":"Feature","properties":{"valleyId":"bisun-sanjeong","layer":"canopy","date":"2026-08-01"},"geometry":{"type":"Polygon","coordinates":[[[127.31089,38.06976],[127.31073,38.06974],[127.31071,38.06967],[127.31053,38.06968],[127.31058,38.06954],[127.31062,38.0695],[127.31076,38.06951],[127.31087,38.0694],[127.3109,38.06933],[127.3111,38.06935],[127.3111,38.06931],[127.3112,38.0693],[127.31122,38.06913],[127.31118,38.06912],[127.31118,38.06906],[127.31134,38.06908],[127.31136,38.06915],[127.31131,38.06924],[127.31131,38.0695],[127.31124,38.06957],[127.31126,38.06968],[127.31114,38.06976],[127.31089,38.06976]]]}},{"type":"Feature","properties":{"valleyId":"bisun-sanjeong","layer":"canopy","date":"2026-08-01"},"geometry":{"type":"Polygon","coordinates":[[[127.32291,38.06945],[127.32291,38.06941],[127.32271,38.06939],[127.32271,38.06933],[127.32278,38.06934],[127.3228,38.06921],[127.32292,38.06921],[127.32289,38.06934],[127.32298,38.06934],[127.323,38.06937],[127.32316,38.06938],[127.32316,38.06943],[127.32291,38.06945]]]}},{"type":"Feature","properties":{"valleyId":"bisun-sanjeong","layer":"canopy","date":"2026-08-01"},"geometry":{"type":"Polygon","coordinates":[[[127.32543,38.06993],[127.32543,38.06977],[127.32521,38.06978],[127.32521,38.06968],[127.32526,38.06961],[127.32532,38.06961],[127.32537,38.06962],[127.32539,38.06972],[127.3255,38.0697],[127.32551,38.06964],[127.32542,38.06963],[127.32542,38.06955],[127.32551,38.06952],[127.32551,38.06941],[127.32547,38.06941],[127.32549,38.06923],[127.32558,38.06923],[127.32558,38.06934],[127.32563,38.06934],[127.32567,38.06939],[127.32562,38.06968],[127.32569,38.06974],[127.32568,38.06985],[127.32573,38.06986],[127.32573,38.06994],[127.32561,38.06993],[127.32561,38.06988],[127.32552,38.06988],[127.3255,38.06993],[127.32543,38.06993]]]}},{"type":"Feature","properties":{"valleyId":"bisun-sanjeong","layer":"canopy","date":"2026-08-01"},"geometry":{"type":"Polygon","coordinates":[[[127.32405,38.06943],[127.32398,38.06937],[127.32401,38.06919],[127.32419,38.06918],[127.32417,38.06941],[127.32405,38.06943]]]}},{"type":"Feature","properties":{"valleyId":"bisun-sanjeong","layer":"canopy","date":"2026-08-01"},"geometry":{"type":"Polygon","coordinates":[[[127.30359,38.06893],[127.30359,38.06888],[127.30366,38.06888],[127.30366,38.06893],[127.30359,38.06893]]]}},{"type":"Feature","properties":{"valleyId":"bisun-sanjeong","layer":"canopy","date":"2026-08-01"},"geometry":{"type":"Polygon","coordinates":[[[127.3257,38.06925],[127.32572,38.06918],[127.32581,38.06918],[127.32579,38.06925],[127.3257,38.06925]]]}},{"type":"Feature","properties":{"valleyId":"bisun-sanjeong","layer":"canopy","date":"2026-08-01"},"geometry":{"type":"Polygon","coordinates":[[[127.3231,38.0693],[127.3231,38.06923],[127.32317,38.06922],[127.32317,38.06914],[127.32328,38.06913],[127.32328,38.06918],[127.32324,38.06918],[127.32328,38.06929],[127.3231,38.0693]]]}},{"type":"Feature","properties":{"valleyId":"bisun-sanjeong","layer":"canopy","date":"2026-08-01"},"geometry":{"type":"Polygon","coordinates":[[[127.32232,38.06918],[127.32233,38.06909],[127.32246,38.06911],[127.32246,38.06919],[127.32232,38.06918]]]}},{"type":"Feature","properties":{"valleyId":"bisun-sanjeong","layer":"canopy","date":"2026-08-01"},"geometry":{"type":"Polygon","coordinates":[[[127.32447,38.0692],[127.32445,38.06911],[127.32452,38.06911],[127.32456,38.06914],[127.32456,38.0692],[127.32447,38.0692]]]}},{"type":"Feature","properties":{"valleyId":"bisun-sanjeong","layer":"canopy","date":"2026-08-01"},"geometry":{"type":"Polygon","coordinates":[[[127.31065,38.06907],[127.31066,38.069],[127.31079,38.06898],[127.31079,38.06895],[127.31086,38.06889],[127.31093,38.0689],[127.31093,38.06897],[127.31088,38.069],[127.31079,38.069],[127.31075,38.06907],[127.31065,38.06907]]]}},{"type":"Feature","properties":{"valleyId":"bisun-sanjeong","layer":"canopy","date":"2026-08-01"},"geometry":{"type":"Polygon","coordinates":[[[127.32351,38.06911],[127.32349,38.06904],[127.32361,38.06902],[127.3236,38.06911],[127.32351,38.06911]]]}},{"type":"Feature","properties":{"valleyId":"bisun-sanjeong","layer":"canopy","date":"2026-08-01"},"geometry":{"type":"Polygon","coordinates":[[[127.31104,38.06897],[127.31102,38.06882],[127.31112,38.06881],[127.31114,38.06888],[127.31121,38.06888],[127.3112,38.06895],[127.31104,38.06897]]]}},{"type":"Feature","properties":{"valleyId":"bisun-sanjeong","layer":"canopy","date":"2026-08-01"},"geometry":{"type":"Polygon","coordinates":[[[127.30995,38.06883],[127.30995,38.06877],[127.31002,38.06877],[127.31002,38.06883],[127.30995,38.06883]]]}},{"type":"Feature","properties":{"valleyId":"bisun-sanjeong","layer":"canopy","date":"2026-08-01"},"geometry":{"type":"Polygon","coordinates":[[[127.32456,38.06902],[127.32456,38.06896],[127.32461,38.06893],[127.32475,38.06895],[127.32475,38.069],[127.32456,38.06902]]]}},{"type":"Feature","properties":{"valleyId":"bisun-sanjeong","layer":"canopy","date":"2026-08-01"},"geometry":{"type":"Polygon","coordinates":[[[127.30907,38.06878],[127.30907,38.06872],[127.30918,38.06871],[127.30918,38.06878],[127.30907,38.06878]]]}},{"type":"Feature","properties":{"valleyId":"bisun-sanjeong","layer":"canopy","date":"2026-08-01"},"geometry":{"type":"Polygon","coordinates":[[[127.32326,38.06898],[127.32324,38.06889],[127.32329,38.06886],[127.32356,38.06886],[127.32356,38.06893],[127.32347,38.06899],[127.32326,38.06898]]]}},{"type":"Feature","properties":{"valleyId":"bisun-sanjeong","layer":"canopy","date":"2026-08-01"},"geometry":{"type":"Polygon","coordinates":[[[127.3113,38.06897],[127.31127,38.0689],[127.31134,38.06888],[127.31134,38.06881],[127.31125,38.06877],[127.31126,38.0687],[127.3113,38.06867],[127.31139,38.06867],[127.31143,38.06888],[127.31137,38.06888],[127.31136,38.06897],[127.3113,38.06897]]]}},{"type":"Feature","properties":{"valleyId":"bisun-sanjeong","layer":"canopy","date":"2026-08-01"},"geometry":{"type":"Polygon","coordinates":[[[127.30898,38.06869],[127.30898,38.06862],[127.30905,38.06862],[127.30904,38.06869],[127.30898,38.06869]]]}},{"type":"Feature","properties":{"valleyId":"bisun-sanjeong","layer":"canopy","date":"2026-08-01"},"geometry":{"type":"Polygon","coordinates":[[[127.32504,38.06895],[127.32502,38.06888],[127.32477,38.06888],[127.3247,38.06886],[127.3247,38.0688],[127.32491,38.06877],[127.32493,38.06872],[127.32516,38.06868],[127.32514,38.06879],[127.32507,38.06881],[127.32507,38.06886],[127.32514,38.06888],[127.32513,38.06894],[127.32504,38.06895]]]}},{"type":"Feature","properties":{"valleyId":"bisun-sanjeong","layer":"canopy","date":"2026-08-01"},"geometry":{"type":"Polygon","coordinates":[[[127.32375,38.06852],[127.32376,38.06845],[127.32387,38.06845],[127.32384,38.06852],[127.32375,38.06852]]]}},{"type":"Feature","properties":{"valleyId":"bisun-sanjeong","layer":"canopy","date":"2026-08-01"},"geometry":{"type":"Polygon","coordinates":[[[127.32443,38.06875],[127.32441,38.06867],[127.32423,38.06867],[127.32418,38.06863],[127.32414,38.06856],[127.32414,38.06847],[127.32426,38.06842],[127.32433,38.06842],[127.32437,38.06846],[127.32474,38.06844],[127.32473,38.0685],[127.32462,38.06851],[127.32462,38.06857],[127.32473,38.06859],[127.32475,38.06868],[127.32462,38.06869],[127.32452,38.06875],[127.32443,38.06875]]]}},{"type":"Feature","properties":{"valleyId":"bisun-sanjeong","layer":"canopy","date":"2026-08-01"},"geometry":{"type":"Polygon","coordinates":[[[127.32034,38.06844],[127.32034,38.06836],[127.32045,38.06838],[127.32045,38.06844],[127.32034,38.06844]]]}},{"type":"Feature","properties":{"valleyId":"bisun-sanjeong","layer":"canopy","date":"2026-08-01"},"geometry":{"type":"Polygon","coordinates":[[[127.30936,38.06869],[127.3093,38.06867],[127.30927,38.06858],[127.30935,38.06848],[127.30946,38.06846],[127.30944,38.06824],[127.30958,38.06814],[127.30974,38.06814],[127.30981,38.06819],[127.3099,38.0682],[127.30995,38.06814],[127.31006,38.06814],[127.31006,38.06832],[127.30985,38.06836],[127.3098,38.06845],[127.30964,38.06853],[127.30962,38.06866],[127.30957,38.0687],[127.30936,38.06869]]]}},{"type":"Feature","properties":{"valleyId":"bisun-sanjeong","layer":"canopy","date":"2026-08-01"},"geometry":{"type":"Polygon","coordinates":[[[127.32357,38.06845],[127.32357,38.06841],[127.32353,38.06839],[127.32353,38.06825],[127.3236,38.06825],[127.32365,38.06819],[127.32372,38.0682],[127.32376,38.06823],[127.32376,38.06829],[127.32371,38.0683],[127.32371,38.06845],[127.32357,38.06845]]]}},{"type":"Feature","properties":{"valleyId":"bisun-sanjeong","layer":"canopy","date":"2026-08-01"},"geometry":{"type":"Polygon","coordinates":[[[127.31,38.06793],[127.31,38.06785],[127.31009,38.06786],[127.31009,38.06793],[127.31,38.06793]]]}},{"type":"Feature","properties":{"valleyId":"bisun-sanjeong","layer":"canopy","date":"2026-08-01"},"geometry":{"type":"Polygon","coordinates":[[[127.32497,38.06838],[127.32499,38.06829],[127.32508,38.06825],[127.32515,38.06818],[127.3252,38.06804],[127.32543,38.06799],[127.32547,38.06806],[127.32547,38.06826],[127.32538,38.06829],[127.32528,38.06838],[127.32497,38.06838]]]}},{"type":"Feature","properties":{"valleyId":"bisun-sanjeong","layer":"canopy","date":"2026-08-01"},"geometry":{"type":"Polygon","coordinates":[[[127.32103,38.069],[127.32098,38.06897],[127.32083,38.06897],[127.32078,38.06884],[127.32094,38.06882],[127.32097,38.06875],[127.32113,38.06866],[127.32115,38.06857],[127.32127,38.06854],[127.32136,38.06847],[127.32136,38.06841],[127.32148,38.06827],[127.32148,38.06822],[127.32155,38.06822],[127.32175,38.06851],[127.32179,38.06855],[127.32186,38.06855],[127.3222,38.0685],[127.3222,38.06844],[127.32235,38.06827],[127.32235,38.06821],[127.32256,38.06793],[127.32263,38.06793],[127.3226,38.06805],[127.32267,38.06813],[127.32285,38.06813],[127.32287,38.06808],[127.32294,38.06808],[127.32294,38.06811],[127.32328,38.06812],[127.32328,38.06808],[127.32338,38.06805],[127.32349,38.06805],[127.3236,38.0681],[127.3236,38.06816],[127.32346,38.06819],[127.32346,38.06823],[127.32339,38.06826],[127.32339,38.06841],[127.32325,38.06842],[127.32318,38.06848],[127.32316,38.06855],[127.32302,38.06865],[127.32302,38.06871],[127.32286,38.06874],[127.32256,38.06874],[127.32247,38.0687],[127.32236,38.0687],[127.32236,38.06866],[127.32197,38.06866],[127.32181,38.06869],[127.32172,38.0688],[127.32158,38.06883],[127.32158,38.06889],[127.32149,38.06897],[127.32103,38.069]]]}},{"type":"Feature","properties":{"valleyId":"bisun-sanjeong","layer":"canopy","date":"2026-08-01"},"geometry":{"type":"Polygon","coordinates":[[[127.32119,38.06793],[127.32115,38.06787],[127.32108,38.06785],[127.3211,38.06778],[127.32119,38.06778],[127.32126,38.06785],[127.32126,38.06793],[127.32119,38.06793]]]}},{"type":"Feature","properties":{"valleyId":"bisun-sanjeong","layer":"canopy","date":"2026-08-01"},"geometry":{"type":"Polygon","coordinates":[[[127.32386,38.06786],[127.32386,38.06773],[127.32395,38.06771],[127.32397,38.06784],[127.32386,38.06786]]]}},{"type":"Feature","properties":{"valleyId":"bisun-sanjeong","layer":"canopy","date":"2026-08-01"},"geometry":{"type":"Polygon","coordinates":[[[127.32556,38.06819],[127.32559,38.06808],[127.32554,38.06806],[127.32555,38.06793],[127.32569,38.06779],[127.32569,38.06772],[127.3258,38.0677],[127.32585,38.06776],[127.32589,38.06776],[127.32589,38.06783],[127.3258,38.06783],[127.3258,38.06788],[127.32584,38.06788],[127.32598,38.06801],[127.32597,38.0681],[127.32584,38.0681],[127.32579,38.06808],[127.32579,38.06804],[127.3257,38.06804],[127.3257,38.06812],[127.32565,38.06813],[127.32565,38.06817],[127.32556,38.06819]]]}},{"type":"Feature","properties":{"valleyId":"bisun-sanjeong","layer":"canopy","date":"2026-08-01"},"geometry":{"type":"Polygon","coordinates":[[[127.32692,38.06783],[127.32694,38.06768],[127.3271,38.06767],[127.3271,38.06774],[127.32701,38.06776],[127.32701,38.06783],[127.32692,38.06783]]]}},{"type":"Feature","properties":{"valleyId":"bisun-sanjeong","layer":"canopy","date":"2026-08-01"},"geometry":{"type":"Polygon","coordinates":[[[127.32589,38.0676],[127.32594,38.06749],[127.32601,38.06749],[127.32601,38.06758],[127.32589,38.0676]]]}},{"type":"Feature","properties":{"valleyId":"bisun-sanjeong","layer":"canopy","date":"2026-08-01"},"geometry":{"type":"Polygon","coordinates":[[[127.31192,38.06747],[127.31192,38.06741],[127.31188,38.06738],[127.3119,38.06727],[127.31195,38.06723],[127.31213,38.06725],[127.31213,38.0674],[127.31204,38.06747],[127.31192,38.06747]]]}},{"type":"Feature","properties":{"valleyId":"bisun-sanjeong","layer":"canopy","date":"2026-08-01"},"geometry":{"type":"Polygon","coordinates":[[[127.31085,38.06733],[127.31088,38.06722],[127.31093,38.06722],[127.31093,38.06718],[127.31104,38.06718],[127.31101,38.06729],[127.31097,38.06733],[127.31085,38.06733]]]}},{"type":"Feature","properties":{"valleyId":"bisun-sanjeong","layer":"canopy","date":"2026-08-01"},"geometry":{"type":"Polygon","coordinates":[[[127.31414,38.06728],[127.31414,38.06721],[127.31421,38.06721],[127.31421,38.06728],[127.31414,38.06728]]]}},{"type":"Feature","properties":{"valleyId":"bisun-sanjeong","layer":"canopy","date":"2026-08-01"},"geometry":{"type":"Polygon","coordinates":[[[127.32713,38.06749],[127.32711,38.0674],[127.32722,38.06738],[127.32722,38.06747],[127.32713,38.06749]]]}},{"type":"Feature","properties":{"valleyId":"bisun-sanjeong","layer":"canopy","date":"2026-08-01"},"geometry":{"type":"Polygon","coordinates":[[[127.31245,38.06724],[127.31245,38.06717],[127.31252,38.06717],[127.31254,38.06724],[127.31245,38.06724]]]}},{"type":"Feature","properties":{"valleyId":"bisun-sanjeong","layer":"canopy","date":"2026-08-01"},"geometry":{"type":"Polygon","coordinates":[[[127.31772,38.06728],[127.3177,38.06721],[127.31781,38.06723],[127.31781,38.06728],[127.31772,38.06728]]]}},{"type":"Feature","properties":{"valleyId":"bisun-sanjeong","layer":"canopy","date":"2026-08-01"},"geometry":{"type":"Polygon","coordinates":[[[127.31788,38.06725],[127.31788,38.06717],[127.31799,38.06716],[127.31799,38.06721],[127.31795,38.06725],[127.31788,38.06725]]]}},{"type":"Feature","properties":{"valleyId":"bisun-sanjeong","layer":"canopy","date":"2026-08-01"},"geometry":{"type":"Polygon","coordinates":[[[127.32018,38.07224],[127.31984,38.07216],[127.3198,38.07212],[127.31952,38.07205],[127.3195,38.07201],[127.31941,38.07199],[127.31939,38.07195],[127.31921,38.07188],[127.31889,38.07164],[127.3189,38.07161],[127.31878,38.07153],[127.31874,38.07144],[127.31867,38.0714],[127.31856,38.07122],[127.31852,38.0712],[127.31852,38.07117],[127.31847,38.07115],[127.31847,38.07111],[127.31843,38.07109],[127.31843,38.07106],[127.31838,38.07104],[127.31838,38.071],[127.31834,38.07098],[127.31834,38.07095],[127.3183,38.07093],[127.3183,38.07089],[127.31825,38.07088],[127.31825,38.07084],[127.31821,38.07082],[127.31821,38.07078],[127.31816,38.07077],[127.31816,38.07073],[127.31812,38.07071],[127.31812,38.07067],[127.31807,38.07066],[127.31807,38.07062],[127.31803,38.0706],[127.31803,38.07057],[127.31798,38.07055],[127.31799,38.07051],[127.31772,38.07022],[127.3177,38.07015],[127.31747,38.06991],[127.31745,38.06984],[127.31732,38.06971],[127.3173,38.06964],[127.31725,38.06962],[127.31719,38.06949],[127.31705,38.06936],[127.31692,38.06914],[127.31618,38.06883],[127.31598,38.0687],[127.31588,38.0687],[127.31563,38.06891],[127.31558,38.06891],[127.31554,38.06896],[127.31549,38.06896],[127.31533,38.06907],[127.31524,38.06908],[127.31521,38.06912],[127.31448,38.06931],[127.31427,38.06929],[127.31425,38.06936],[127.31404,38.06939],[127.31303,38.06979],[127.31296,38.06979],[127.31285,38.06984],[127.31278,38.06984],[127.31276,38.0698],[127.31264,38.0698],[127.31264,38.06988],[127.31248,38.06991],[127.31225,38.06989],[127.31226,38.06985],[127.31221,38.06983],[127.31203,38.06985],[127.31203,38.0699],[127.31175,38.0699],[127.31137,38.0698],[127.31137,38.06971],[127.31141,38.06971],[127.31142,38.06948],[127.31144,38.06944],[127.31149,38.06944],[127.31155,38.06894],[127.31164,38.06885],[127.31164,38.0688],[127.3118,38.06873],[127.31183,38.0686],[127.31201,38.06857],[127.31203,38.06853],[127.31208,38.06853],[127.3121,38.06848],[127.31233,38.06841],[127.3124,38.06836],[127.31252,38.06836],[127.31254,38.06829],[127.31266,38.06825],[127.31268,38.06818],[127.31293,38.0681],[127.31293,38.06806],[127.31298,38.06804],[127.31301,38.06792],[127.31312,38.0679],[127.31314,38.06786],[127.31324,38.06787],[127.31323,38.0679],[127.3133,38.0679],[127.31337,38.06785],[127.31346,38.06785],[127.31356,38.0678],[127.31376,38.06782],[127.31376,38.06775],[127.31381,38.06771],[127.31392,38.06771],[127.31395,38.06768],[127.31411,38.06768],[127.31411,38.06761],[127.31422,38.06752],[127.31457,38.06752],[127.31461,38.06758],[127.31461,38.06765],[127.31458,38.06769],[127.31454,38.06769],[127.31454,38.06776],[127.31474,38.06778],[127.31474,38.06771],[127.3147,38.06769],[127.3147,38.06744],[127.31477,38.0674],[127.31478,38.06733],[127.31482,38.06731],[127.31482,38.06728],[127.31491,38.06726],[127.31501,38.06719],[127.31567,38.06722],[127.31571,38.06718],[127.31599,38.06718],[127.31601,38.06713],[127.31631,38.06712],[127.31638,38.06708],[127.31638,38.06705],[127.31672,38.06709],[127.31674,38.06712],[127.31681,38.06712],[127.31686,38.06705],[127.31706,38.06707],[127.31706,38.06718],[127.31719,38.0672],[127.31722,38.06731],[127.31731,38.06733],[127.31735,38.06744],[127.31753,38.06758],[127.31764,38.0676],[127.31775,38.06771],[127.3177,38.06795],[127.31772,38.06822],[127.31767,38.06824],[127.31767,38.06833],[127.31749,38.06834],[127.31749,38.06847],[127.31755,38.06849],[127.31753,38.06859],[127.3176,38.06863],[127.31759,38.06879],[127.31748,38.0689],[127.31747,38.06922],[127.3174,38.06924],[127.3174,38.06929],[127.31744,38.0693],[127.31751,38.0694],[127.31755,38.06942],[127.31753,38.06957],[127.31757,38.0696],[127.31757,38.06968],[127.31764,38.06971],[127.31764,38.06977],[127.31777,38.06988],[127.31782,38.06988],[127.31782,38.06993],[127.31788,38.06999],[127.31785,38.07026],[127.31792,38.07031],[127.31799,38.07031],[127.31803,38.07039],[127.31817,38.07042],[127.31821,38.07046],[127.31823,38.07057],[127.31839,38.07066],[127.31839,38.07073],[127.31844,38.07079],[127.31843,38.07095],[127.31859,38.07097],[127.31861,38.07102],[127.31875,38.07113],[127.31888,38.07115],[127.31893,38.07121],[127.31913,38.07128],[127.31922,38.07136],[127.31922,38.07141],[127.31931,38.07145],[127.31933,38.07152],[127.31944,38.07154],[127.31949,38.07158],[127.31949,38.07163],[127.31962,38.07165],[127.31967,38.07176],[127.31973,38.0718],[127.31973,38.07185],[127.31984,38.072],[127.32018,38.07211],[127.32025,38.07218],[127.32032,38.07218],[127.32032,38.07224],[127.32018,38.07224]],[[127.31439,38.06909],[127.31451,38.06907],[127.31449,38.06898],[127.31435,38.069],[127.31435,38.06905],[127.31439,38.06909]]]}},{"type":"Feature","properties":{"valleyId":"bisun-sanjeong","layer":"canopy","date":"2026-08-01"},"geometry":{"type":"Polygon","coordinates":[[[127.32265,38.07209],[127.32265,38.07198],[127.32253,38.07196],[127.32254,38.07184],[127.32261,38.07175],[127.32261,38.07166],[127.32263,38.07162],[127.3227,38.07162],[127.3227,38.07159],[127.32277,38.07157],[127.32282,38.07152],[127.32298,38.07148],[127.32298,38.07143],[127.32284,38.07141],[127.32278,38.07135],[127.32276,38.07117],[127.32283,38.0711],[127.32292,38.07109],[127.32304,38.071],[127.32308,38.07091],[127.32313,38.07091],[127.32315,38.07085],[127.3232,38.07086],[127.3232,38.07082],[127.32334,38.07071],[127.32357,38.07072],[127.32357,38.07068],[127.32371,38.07057],[127.32387,38.07058],[127.32393,38.07063],[127.324,38.07063],[127.324,38.0706],[127.32405,38.0706],[127.32412,38.07054],[127.32412,38.07045],[127.32417,38.07044],[127.32415,38.07033],[127.32405,38.07033],[127.32398,38.07047],[127.32385,38.07047],[127.32385,38.07016],[127.32392,38.07013],[127.32395,38.07002],[127.32408,38.07002],[127.32409,38.06982],[127.32414,38.06973],[127.32425,38.06965],[127.32437,38.06965],[127.32441,38.0697],[127.32448,38.0697],[127.32453,38.06959],[127.32462,38.06954],[127.3248,38.06956],[127.32521,38.06948],[127.32521,38.06955],[127.32514,38.06962],[127.32491,38.0696],[127.32487,38.06965],[127.32469,38.06965],[127.32459,38.06972],[127.32461,38.06985],[127.32457,38.06988],[127.3245,38.06988],[127.32443,38.06995],[127.32447,38.07008],[127.32442,38.0701],[127.3244,38.07019],[127.32458,38.07021],[127.32467,38.07014],[127.32488,38.0701],[127.32497,38.07],[127.32504,38.07],[127.32506,38.07016],[127.32513,38.07016],[127.32518,38.07009],[127.32516,38.06987],[127.32536,38.0699],[127.32536,38.07011],[127.32529,38.07018],[127.32531,38.0704],[127.32544,38.07038],[127.32545,38.07027],[127.32552,38.07022],[127.32558,38.07022],[127.3257,38.07012],[127.32579,38.07012],[127.32575,38.07001],[127.32575,38.06994],[127.3258,38.06994],[127.3258,38.06983],[127.32587,38.06983],[127.32586,38.06994],[127.32595,38.06998],[127.32607,38.06998],[127.32611,38.06994],[127.3263,38.06994],[127.32637,38.06987],[127.32648,38.06986],[127.32649,38.06969],[127.32667,38.0697],[127.32665,38.06955],[127.32656,38.06955],[127.32654,38.06952],[127.32647,38.06951],[127.32646,38.0696],[127.3264,38.0696],[127.3264,38.06957],[127.32626,38.06957],[127.32626,38.06951],[127.32622,38.06949],[127.32624,38.06929],[127.3259,38.06924],[127.3259,38.06916],[127.32604,38.06911],[127.32604,38.06908],[127.32611,38.06902],[127.32616,38.06892],[127.32614,38.06875],[127.32619,38.06872],[127.32619,38.06865],[127.32628,38.06857],[127.32642,38.06858],[127.32654,38.06851],[127.32654,38.06847],[127.32663,38.06845],[127.32668,38.06831],[127.32675,38.06829],[127.32679,38.06824],[127.32711,38.06824],[127.32711,38.06815],[127.32723,38.06807],[127.32725,38.06799],[127.3275,38.068],[127.32751,38.06796],[127.32755,38.06794],[127.32753,38.06771],[127.32765,38.06764],[127.32767,38.06757],[127.32788,38.06741],[127.32786,38.06734],[127.32773,38.0673],[127.32773,38.06723],[127.32784,38.06721],[127.32786,38.06726],[127.32793,38.06726],[127.32798,38.06723],[127.32814,38.06723],[127.3282,38.06729],[127.32823,38.06736],[127.32836,38.06741],[127.32838,38.06749],[127.32852,38.06749],[127.32861,38.06758],[127.32884,38.06762],[127.32894,38.06789],[127.32898,38.06818],[127.3289,38.06872],[127.32881,38.06893],[127.32874,38.06901],[127.32873,38.06906],[127.32866,38.06917],[127.32862,38.06918],[127.32857,38.06929],[127.32841,38.06943],[127.32841,38.06947],[127.32834,38.0695],[127.32834,38.06954],[127.32796,38.06982],[127.32792,38.06982],[127.32787,38.06988],[127.32783,38.06988],[127.32766,38.06998],[127.32727,38.07014],[127.327,38.07019],[127.32688,38.07024],[127.32679,38.07024],[127.3267,38.07029],[127.32636,38.07038],[127.3262,38.07039],[127.32615,38.07043],[127.32615,38.07048],[127.32608,38.07055],[127.32601,38.07072],[127.32596,38.07073],[127.32594,38.0708],[127.32589,38.07082],[127.3258,38.07096],[127.32563,38.07107],[127.32563,38.07111],[127.32559,38.07111],[127.32538,38.07128],[127.32533,38.07128],[127.32494,38.07157],[127.32487,38.07156],[127.32485,38.07153],[127.32469,38.07153],[127.32462,38.07145],[127.32458,38.07145],[127.32455,38.07138],[127.32444,38.07138],[127.32441,38.07156],[127.32455,38.07156],[127.32457,38.07163],[127.32453,38.07165],[127.3245,38.07178],[127.32443,38.07177],[127.32441,38.07185],[127.32399,38.07197],[127.32354,38.07201],[127.32356,38.07189],[127.32374,38.07191],[127.32379,38.07184],[127.32379,38.07173],[127.32373,38.07173],[127.32368,38.07176],[127.32352,38.07176],[127.3235,38.07169],[127.32343,38.07163],[127.32327,38.07161],[127.32318,38.0717],[127.32313,38.0717],[127.32311,38.07179],[127.32306,38.07183],[127.32297,38.07186],[127.3229,38.07186],[127.32288,38.07182],[127.32277,38.07182],[127.32276,38.07191],[127.32281,38.07193],[127.32281,38.07199],[127.32285,38.07199],[127.32285,38.07204],[127.32278,38.07209],[127.32265,38.07209]],[[127.3243,38.07163],[127.32437,38.07163],[127.32437,38.07158],[127.3243,38.07157],[127.3243,38.07163]],[[127.32362,38.07156],[127.32375,38.07155],[127.32376,38.07144],[127.32366,38.07142],[127.3236,38.07135],[127.32342,38.07131],[127.32321,38.07136],[127.32321,38.07141],[127.32337,38.0714],[127.32346,38.07145],[127.32346,38.07153],[127.32359,38.07153],[127.32362,38.07156]],[[127.32376,38.07113],[127.32385,38.07114],[127.32386,38.07092],[127.32379,38.07092],[127.32372,38.07099],[127.32372,38.07108],[127.32376,38.0711],[127.32376,38.07113]],[[127.32401,38.0711],[127.32408,38.0711],[127.32408,38.07105],[127.32402,38.07105],[127.32401,38.0711]],[[127.32442,38.07111],[127.32449,38.07111],[127.32449,38.07105],[127.32443,38.07105],[127.32442,38.07111]],[[127.32494,38.07057],[127.32521,38.07056],[127.32528,38.07051],[127.32528,38.07045],[127.32496,38.0705],[127.32494,38.07057]],[[127.32467,38.07048],[127.32476,38.07048],[127.32476,38.07043],[127.32458,38.07039],[127.32453,38.07033],[127.3244,38.07031],[127.32438,38.07024],[127.32433,38.07022],[127.32417,38.0702],[127.32417,38.07031],[127.32433,38.07031],[127.32433,38.07035],[127.32442,38.0704],[127.32451,38.07041],[127.32458,38.07046],[127.32467,38.07048]],[[127.32652,38.07004],[127.32659,38.07004],[127.32666,38.06993],[127.32673,38.06993],[127.32675,38.06999],[127.32682,38.06999],[127.32682,38.06988],[127.32673,38.06988],[127.32673,38.06979],[127.32664,38.06981],[127.32664,38.06991],[127.3265,38.06993],[127.32652,38.07004]],[[127.32663,38.06946],[127.32683,38.06945],[127.32683,38.06941],[127.32704,38.06941],[127.32704,38.06947],[127.32711,38.06947],[127.32715,38.06942],[127.32716,38.06927],[127.32711,38.06916],[127.32698,38.06916],[127.32698,38.06922],[127.32702,38.06922],[127.327,38.06932],[127.32688,38.0693],[127.32688,38.06921],[127.32682,38.06916],[127.32661,38.06916],[127.32643,38.06924],[127.32636,38.06924],[127.32638,38.0694],[127.32658,38.06943],[127.32663,38.06946]],[[127.328,38.06932],[127.32814,38.0693],[127.32814,38.06923],[127.32802,38.06923],[127.328,38.06932]],[[127.3274,38.06859],[127.32749,38.06859],[127.32751,38.06856],[127.32752,38.0685],[127.32747,38.06847],[127.32738,38.06846],[127.3274,38.06859]]]}},{"type":"Feature","properties":{"valleyId":"bisun-sanjeong","layer":"canopy","date":"2026-08-01"},"geometry":{"type":"Polygon","coordinates":[[[127.31446,38.06711],[127.31446,38.06705],[127.31453,38.067],[127.3146,38.067],[127.3146,38.06706],[127.31453,38.06711],[127.31446,38.06711]]]}},{"type":"Feature","properties":{"valleyId":"bisun-sanjeong","layer":"canopy","date":"2026-08-01"},"geometry":{"type":"Polygon","coordinates":[[[127.32467,38.0672],[127.32467,38.06713],[127.32483,38.06715],[127.32483,38.0672],[127.32467,38.0672]]]}},{"type":"Feature","properties":{"valleyId":"bisun-sanjeong","layer":"canopy","date":"2026-08-01"},"geometry":{"type":"Polygon","coordinates":[[[127.32659,38.06806],[127.32632,38.06802],[127.32632,38.06787],[127.32639,38.06786],[127.32639,38.0678],[127.3263,38.06775],[127.3263,38.06766],[127.32621,38.06762],[127.32621,38.06756],[127.32615,38.06756],[127.32615,38.06753],[127.3261,38.06751],[127.32608,38.06738],[127.32599,38.06738],[127.32599,38.06747],[127.3259,38.06745],[127.32585,38.06736],[127.32586,38.06725],[127.32577,38.06723],[127.32579,38.06714],[127.32586,38.06714],[127.32595,38.06709],[127.32604,38.06709],[127.32618,38.06726],[127.32624,38.06726],[127.32631,38.06719],[127.3265,38.06721],[127.32652,38.06724],[127.32659,38.06725],[127.32663,38.06719],[127.32677,38.06721],[127.32677,38.06728],[127.32668,38.06737],[127.32663,38.06753],[127.32662,38.06784],[127.32669,38.06788],[127.32671,38.068],[127.32668,38.06806],[127.32659,38.06806]]]}},{"type":"Feature","properties":{"valleyId":"bisun-sanjeong","layer":"canopy","date":"2026-08-01"},"geometry":{"type":"Polygon","coordinates":[[[127.31788,38.06698],[127.31789,38.06692],[127.31795,38.06692],[127.31795,38.06698],[127.31788,38.06698]]]}},{"type":"Feature","properties":{"valleyId":"bisun-sanjeong","layer":"canopy","date":"2026-08-01"},"geometry":{"type":"Polygon","coordinates":[[[127.31615,38.06695],[127.31615,38.06686],[127.31622,38.06686],[127.31624,38.06695],[127.31615,38.06695]]]}},{"type":"Feature","properties":{"valleyId":"bisun-sanjeong","layer":"canopy","date":"2026-08-01"},"geometry":{"type":"Polygon","coordinates":[[[127.31467,38.06691],[127.31467,38.06686],[127.31476,38.06684],[127.31476,38.0669],[127.31467,38.06691]]]}},{"type":"Feature","properties":{"valleyId":"bisun-sanjeong","layer":"canopy","date":"2026-08-01"},"geometry":{"type":"Polygon","coordinates":[[[127.31572,38.06698],[127.31554,38.06694],[127.31549,38.06691],[127.31547,38.06676],[127.31552,38.06673],[127.31563,38.06673],[127.31577,38.0668],[127.31581,38.06696],[127.31572,38.06698]]]}},{"type":"Feature","properties":{"valleyId":"bisun-sanjeong","layer":"canopy","date":"2026-08-01"},"geometry":{"type":"Polygon","coordinates":[[[127.32288,38.06687],[127.32288,38.06681],[127.32295,38.06681],[127.32295,38.06687],[127.32288,38.06687]]]}},{"type":"Feature","properties":{"valleyId":"bisun-sanjeong","layer":"canopy","date":"2026-08-01"},"geometry":{"type":"Polygon","coordinates":[[[127.31711,38.0668],[127.31709,38.06673],[127.31721,38.06671],[127.31723,38.06679],[127.31711,38.0668]]]}},{"type":"Feature","properties":{"valleyId":"bisun-sanjeong","layer":"canopy","date":"2026-08-01"},"geometry":{"type":"Polygon","coordinates":[[[127.32465,38.06706],[127.32465,38.067],[127.32452,38.067],[127.32454,38.06691],[127.32461,38.06691],[127.32484,38.06681],[127.32498,38.06683],[127.32504,38.06688],[127.32502,38.06701],[127.3249,38.06702],[127.32486,38.06706],[127.32465,38.06706]]]}},{"type":"Feature","properties":{"valleyId":"bisun-sanjeong","layer":"canopy","date":"2026-08-01"},"geometry":{"type":"Polygon","coordinates":[[[127.32577,38.06705],[127.32573,38.067],[127.32566,38.06698],[127.32566,38.06691],[127.32573,38.06691],[127.32575,38.06696],[127.32589,38.06695],[127.32585,38.06669],[127.32592,38.06669],[127.32594,38.06682],[127.32598,38.06686],[127.32598,38.067],[127.32593,38.067],[127.32586,38.06705],[127.32577,38.06705]]]}},{"type":"Feature","properties":{"valleyId":"bisun-sanjeong","layer":"canopy","date":"2026-08-01"},"geometry":{"type":"Polygon","coordinates":[[[127.31696,38.06658],[127.31694,38.06651],[127.31703,38.06651],[127.31703,38.06659],[127.31696,38.06658]]]}},{"type":"Feature","properties":{"valleyId":"bisun-sanjeong","layer":"canopy","date":"2026-08-01"},"geometry":{"type":"Polygon","coordinates":[[[127.31475,38.06663],[127.31475,38.06648],[127.3148,38.06645],[127.31486,38.06645],[127.31488,38.06659],[127.31484,38.06663],[127.31475,38.06663]]]}},{"type":"Feature","properties":{"valleyId":"bisun-sanjeong","layer":"canopy","date":"2026-08-01"},"geometry":{"type":"Polygon","coordinates":[[[127.31643,38.06656],[127.3163,38.06654],[127.31628,38.06643],[127.31637,38.06643],[127.31641,38.06649],[127.31653,38.06651],[127.31653,38.06656],[127.31643,38.06656]]]}},{"type":"Feature","properties":{"valleyId":"bisun-sanjeong","layer":"canopy","date":"2026-08-01"},"geometry":{"type":"Polygon","coordinates":[[[127.31671,38.06656],[127.31669,38.06644],[127.31678,38.06638],[127.31685,38.06639],[127.31689,38.06642],[127.31689,38.06651],[127.31685,38.06651],[127.3168,38.06656],[127.31671,38.06656]]]}},{"type":"Feature","properties":{"valleyId":"bisun-sanjeong","layer":"canopy","date":"2026-08-01"},"geometry":{"type":"Polygon","coordinates":[[[127.32628,38.06672],[127.32628,38.0665],[127.32649,38.0665],[127.32644,38.06667],[127.32637,38.06672],[127.32628,38.06672]]]}},{"type":"Feature","properties":{"valleyId":"bisun-sanjeong","layer":"canopy","date":"2026-08-01"},"geometry":{"type":"Polygon","coordinates":[[[127.31482,38.06643],[127.31482,38.06632],[127.31489,38.06632],[127.31491,38.06641],[127.31482,38.06643]]]}},{"type":"Feature","properties":{"valleyId":"bisun-sanjeong","layer":"canopy","date":"2026-08-01"},"geometry":{"type":"Polygon","coordinates":[[[127.31512,38.06641],[127.31512,38.06631],[127.31521,38.06631],[127.31523,38.0664],[127.31512,38.06641]]]}},{"type":"Feature","properties":{"valleyId":"bisun-sanjeong","layer":"canopy","date":"2026-08-01"},"geometry":{"type":"Polygon","coordinates":[[[127.32852,38.06742],[127.32845,38.06734],[127.32836,38.06734],[127.32832,38.06731],[127.32832,38.0672],[127.32828,38.06716],[127.32818,38.06716],[127.32812,38.06705],[127.32791,38.06701],[127.32762,38.06701],[127.32762,38.06704],[127.32755,38.06708],[127.3275,38.06715],[127.32718,38.06711],[127.32714,38.06713],[127.32711,38.06722],[127.327,38.06721],[127.32695,38.06727],[127.32679,38.06725],[127.32679,38.06719],[127.32684,38.06716],[127.32695,38.06716],[127.32695,38.06712],[127.32707,38.06707],[127.32707,38.06698],[127.32703,38.06694],[127.32703,38.0668],[127.32696,38.06676],[127.32694,38.06669],[127.32697,38.06646],[127.32715,38.06646],[127.32742,38.06652],[127.32742,38.06663],[127.32737,38.06672],[127.32739,38.06682],[127.32717,38.06684],[127.32716,38.06691],[127.32737,38.06691],[127.32744,38.06688],[127.32744,38.06679],[127.32749,38.06677],[127.32749,38.06665],[127.32754,38.06659],[127.32776,38.06663],[127.32779,38.06667],[127.32792,38.06671],[127.3281,38.06683],[127.32815,38.06683],[127.32824,38.06693],[127.32828,38.06693],[127.32839,38.06702],[127.32839,38.06705],[127.32853,38.06715],[127.32853,38.06718],[127.32859,38.06722],[127.32866,38.06735],[127.3287,38.06737],[127.3287,38.06742],[127.32852,38.06742]]]}},{"type":"Feature","properties":{"valleyId":"bisun-sanjeong","layer":"canopy","date":"2026-08-01"},"geometry":{"type":"Polygon","coordinates":[[[127.31721,38.06657],[127.31719,38.0665],[127.31703,38.0665],[127.31703,38.06642],[127.31708,38.06642],[127.31708,38.06637],[127.31699,38.06633],[127.31701,38.06624],[127.31708,38.06624],[127.3171,38.06635],[127.31719,38.06637],[127.31719,38.06648],[127.31728,38.06648],[127.31728,38.06657],[127.31721,38.06657]]]}},{"type":"Feature","properties":{"valleyId":"bisun-sanjeong","layer":"canopy","date":"2026-08-01"},"geometry":{"type":"Polygon","coordinates":[[[127.31724,38.06617],[127.31724,38.0661],[127.31733,38.06609],[127.31731,38.06618],[127.31724,38.06617]]]}},{"type":"Feature","properties":{"valleyId":"bisun-sanjeong","layer":"canopy","date":"2026-08-01"},"geometry":{"type":"Polygon","coordinates":[[[127.31845,38.06608],[127.31848,38.06601],[127.31859,38.06601],[127.31857,38.06609],[127.31845,38.06608]]]}},{"type":"Feature","properties":{"valleyId":"bisun-sanjeong","layer":"canopy","date":"2026-08-01"},"geometry":{"type":"Polygon","coordinates":[[[127.31446,38.06595],[127.31447,38.0659],[127.31453,38.0659],[127.31453,38.06596],[127.31446,38.06595]]]}},{"type":"Feature","properties":{"valleyId":"bisun-sanjeong","layer":"canopy","date":"2026-08-01"},"geometry":{"type":"Polygon","coordinates":[[[127.32554,38.06617],[127.32549,38.06615],[127.3255,38.06609],[127.32559,38.0661],[127.32564,38.06599],[127.3257,38.06599],[127.3257,38.06608],[127.32563,38.06613],[127.32563,38.06617],[127.32554,38.06617]]]}},{"type":"Feature","properties":{"valleyId":"bisun-sanjeong","layer":"canopy","date":"2026-08-01"},"geometry":{"type":"Polygon","coordinates":[[[127.31476,38.06587],[127.31481,38.06574],[127.31488,38.06574],[127.31488,38.06585],[127.31476,38.06587]]]}},{"type":"Feature","properties":{"valleyId":"bisun-sanjeong","layer":"canopy","date":"2026-08-01"},"geometry":{"type":"Polygon","coordinates":[[[127.32568,38.06597],[127.32568,38.06592],[127.32577,38.0659],[127.32577,38.06595],[127.32568,38.06597]]]}},{"type":"Feature","properties":{"valleyId":"bisun-sanjeong","layer":"canopy","date":"2026-08-01"},"geometry":{"type":"Polygon","coordinates":[[[127.32279,38.06786],[127.3227,38.06784],[127.32268,38.06769],[127.32269,38.06737],[127.32274,38.06714],[127.32278,38.06701],[127.3229,38.06703],[127.32292,38.06708],[127.32301,38.06712],[127.32301,38.0673],[127.32285,38.06732],[127.32282,38.06739],[127.32303,38.06739],[127.32303,38.0673],[127.3231,38.0673],[127.32312,38.06721],[127.32313,38.06687],[127.32308,38.06687],[127.32304,38.06674],[127.32297,38.06672],[127.32298,38.06667],[127.32312,38.06653],[127.32312,38.06649],[127.32319,38.06646],[127.32319,38.06642],[127.32328,38.06637],[127.32328,38.06633],[127.3236,38.0661],[127.32365,38.0661],[127.32381,38.066],[127.3239,38.06598],[127.32393,38.06595],[127.32399,38.06595],[127.32425,38.06584],[127.32477,38.06576],[127.32534,38.06579],[127.32534,38.06586],[127.32514,38.06585],[127.32514,38.06591],[127.325,38.06587],[127.32493,38.06609],[127.32483,38.06617],[127.32483,38.06652],[127.32478,38.06657],[127.32482,38.06672],[127.32468,38.06671],[127.32466,38.06675],[127.32457,38.06677],[127.32448,38.06685],[127.32441,38.06687],[127.32441,38.06691],[127.32424,38.06698],[127.3241,38.06712],[127.32399,38.06714],[127.32394,38.06719],[127.32383,38.06722],[127.32383,38.06726],[127.32378,38.06726],[127.32378,38.0673],[127.32371,38.06733],[127.32371,38.06746],[127.32364,38.06753],[127.32353,38.06754],[127.32348,38.06751],[127.32314,38.0675],[127.32309,38.06754],[127.32302,38.06754],[127.32302,38.06759],[127.32289,38.06759],[127.32288,38.06764],[127.32295,38.06766],[127.32295,38.06784],[127.32279,38.06786]]]}},{"type":"Feature","properties":{"valleyId":"bisun-sanjeong","layer":"canopy","date":"2026-08-01"},"geometry":{"type":"Polygon","coordinates":[[[127.31695,38.06586],[127.31693,38.06577],[127.31707,38.06576],[127.31714,38.06567],[127.31723,38.06567],[127.3173,38.06562],[127.31744,38.06565],[127.31743,38.06578],[127.31727,38.06581],[127.31709,38.06581],[127.31704,38.06587],[127.31695,38.06586]]]}},{"type":"Feature","properties":{"valleyId":"bisun-sanjeong","layer":"canopy","date":"2026-08-01"},"geometry":{"type":"Polygon","coordinates":[[[127.31755,38.06558],[127.31751,38.06557],[127.31751,38.06551],[127.31762,38.06549],[127.31764,38.06557],[127.31755,38.06558]]]}},{"type":"Feature","properties":{"valleyId":"bisun-sanjeong","layer":"canopy","date":"2026-08-01"},"geometry":{"type":"Polygon","coordinates":[[[127.31514,38.0653],[127.31514,38.06523],[127.31521,38.06523],[127.31521,38.0653],[127.31514,38.0653]]]}},{"type":"Feature","properties":{"valleyId":"bisun-sanjeong","layer":"canopy","date":"2026-08-01"},"geometry":{"type":"Polygon","coordinates":[[[127.31481,38.06563],[127.31477,38.06554],[127.31461,38.06552],[127.31471,38.06516],[127.31483,38.06517],[127.31482,38.06524],[127.31487,38.06526],[127.31484,38.06542],[127.31489,38.06544],[127.31488,38.06564],[127.31481,38.06563]]]}},{"type":"Feature","properties":{"valleyId":"bisun-sanjeong","layer":"canopy","date":"2026-08-01"},"geometry":{"type":"Polygon","coordinates":[[[127.31476,38.06504],[127.31476,38.0649],[127.31488,38.0649],[127.31487,38.06504],[127.31476,38.06504]]]}},{"type":"Feature","properties":{"valleyId":"bisun-sanjeong","layer":"canopy","date":"2026-08-01"},"geometry":{"type":"Polygon","coordinates":[[[127.31514,38.06517],[127.31511,38.06486],[127.31517,38.06487],[127.31518,38.06481],[127.31524,38.06481],[127.31529,38.0649],[127.31535,38.06492],[127.31535,38.06499],[127.31533,38.06503],[127.31526,38.06503],[127.31526,38.06514],[127.31521,38.06517],[127.31514,38.06517]]]}},{"type":"Feature","properties":{"valleyId":"bisun-sanjeong","layer":"canopy","date":"2026-08-01"},"geometry":{"type":"Polygon","coordinates":[[[127.3152,38.06472],[127.3152,38.06467],[127.31527,38.06467],[127.31527,38.06472],[127.3152,38.06472]]]}},{"type":"Feature","properties":{"valleyId":"bisun-sanjeong","layer":"canopy","date":"2026-08-01"},"geometry":{"type":"Polygon","coordinates":[[[127.31457,38.06424],[127.31457,38.06415],[127.31467,38.06414],[127.31464,38.06424],[127.31457,38.06424]]]}},{"type":"Feature","properties":{"valleyId":"bisun-sanjeong","layer":"canopy","date":"2026-08-01"},"geometry":{"type":"Polygon","coordinates":[[[127.31507,38.06447],[127.315,38.06441],[127.315,38.0643],[127.31505,38.06425],[127.31505,38.06418],[127.31499,38.06414],[127.31501,38.06407],[127.31508,38.06407],[127.31512,38.06411],[127.31512,38.06416],[127.31519,38.0642],[127.31519,38.06425],[127.31514,38.06429],[127.31514,38.06447],[127.31507,38.06447]]]}},{"type":"Feature","properties":{"valleyId":"bisun-sanjeong","layer":"canopy","date":"2026-08-01"},"geometry":{"type":"Polygon","coordinates":[[[127.32035,38.06869],[127.32019,38.06867],[127.32017,38.06852],[127.31999,38.06852],[127.31997,38.06857],[127.3199,38.06857],[127.31988,38.06847],[127.32002,38.06847],[127.32002,38.06839],[127.31986,38.06836],[127.31986,38.06828],[127.31977,38.06828],[127.3198,38.06814],[127.31966,38.06812],[127.31964,38.06816],[127.31957,38.06815],[127.31952,38.06808],[127.31951,38.06772],[127.31953,38.06763],[127.31958,38.06761],[127.31956,38.06742],[127.31961,38.0674],[127.31963,38.06731],[127.31959,38.06709],[127.31964,38.06702],[127.31971,38.06698],[127.31969,38.06677],[127.31978,38.06675],[127.31978,38.0667],[127.31969,38.0667],[127.31962,38.06664],[127.31954,38.06641],[127.31954,38.06628],[127.3195,38.06624],[127.31931,38.06626],[127.3192,38.06617],[127.3192,38.06611],[127.31907,38.06609],[127.31898,38.06604],[127.31875,38.06605],[127.31875,38.06594],[127.31852,38.06596],[127.31857,38.06581],[127.31839,38.06581],[127.31839,38.06588],[127.31832,38.06588],[127.31829,38.06596],[127.31834,38.06599],[127.31838,38.06619],[127.31845,38.06626],[127.31845,38.06637],[127.31835,38.06642],[127.31833,38.0665],[127.31819,38.06658],[127.31814,38.06678],[127.31798,38.06687],[127.31782,38.06689],[127.31779,38.06698],[127.3177,38.06703],[127.3177,38.06712],[127.31761,38.06717],[127.31738,38.06719],[127.31715,38.06711],[127.31713,38.06707],[127.31706,38.06707],[127.31706,38.06698],[127.31716,38.06693],[127.31716,38.06688],[127.31732,38.06688],[127.31737,38.06673],[127.31755,38.06659],[127.31755,38.0665],[127.3176,38.06649],[127.3176,38.06641],[127.31767,38.06636],[127.31765,38.06611],[127.31772,38.066],[127.31782,38.06598],[127.31784,38.06593],[127.31789,38.06593],[127.31789,38.0659],[127.31802,38.06581],[127.31816,38.06581],[127.31818,38.06585],[127.31825,38.06585],[127.3183,38.06574],[127.31819,38.06565],[127.31812,38.06565],[127.31812,38.0657],[127.31807,38.06574],[127.31796,38.06572],[127.31794,38.06559],[127.31776,38.06548],[127.31772,38.06539],[127.31733,38.0654],[127.31731,38.06536],[127.31721,38.06536],[127.31721,38.06551],[127.31716,38.06556],[127.31707,38.0656],[127.31705,38.06568],[127.31666,38.06566],[127.31655,38.06557],[127.31607,38.06554],[127.31602,38.06558],[127.31593,38.06558],[127.31589,38.06549],[127.3158,38.06545],[127.31579,38.06505],[127.31583,38.06504],[127.31583,38.06498],[127.31579,38.06487],[127.3158,38.0646],[127.31573,38.06449],[127.31564,38.06444],[127.31553,38.06444],[127.31551,38.0651],[127.31548,38.06527],[127.31539,38.06528],[127.31539,38.06535],[127.31544,38.06536],[127.31543,38.06545],[127.31536,38.06553],[127.31525,38.06553],[127.31527,38.0657],[127.31513,38.06569],[127.31509,38.06542],[127.3153,38.06539],[127.3153,38.06523],[127.31542,38.06503],[127.31542,38.06492],[127.31538,38.06492],[127.3154,38.06408],[127.31547,38.06408],[127.31548,38.06433],[127.3155,38.06438],[127.31557,38.06438],[127.31558,38.06395],[127.31567,38.06395],[127.31572,38.06401],[127.31576,38.06401],[127.31605,38.06425],[127.31605,38.06428],[127.31612,38.06434],[127.31644,38.06436],[127.31673,38.06442],[127.31705,38.06455],[127.31712,38.06455],[127.31714,38.06459],[127.31723,38.06461],[127.31725,38.06464],[127.31743,38.06472],[127.31786,38.06507],[127.31786,38.0651],[127.3179,38.06512],[127.31801,38.0653],[127.31806,38.06532],[127.31806,38.06538],[127.31812,38.06543],[127.31822,38.06545],[127.31824,38.06549],[127.31842,38.06556],[127.31846,38.06562],[127.31851,38.06562],[127.31869,38.06578],[127.31923,38.0659],[127.31964,38.06606],[127.31986,38.06623],[127.31991,38.06623],[127.32022,38.06651],[127.32022,38.06654],[127.3204,38.06672],[127.32042,38.0668],[127.32055,38.06692],[127.32057,38.067],[127.32062,38.06702],[127.32068,38.06714],[127.32073,38.06716],[127.32073,38.0672],[127.32077,38.06722],[127.32084,38.06734],[127.32088,38.06736],[127.32088,38.0674],[127.32102,38.06754],[127.32102,38.0676],[127.32097,38.06762],[127.32086,38.06761],[127.32081,38.06756],[127.32074,38.06756],[127.32072,38.06759],[127.32065,38.06759],[127.32063,38.06765],[127.32054,38.06766],[127.32053,38.06775],[127.32046,38.06779],[127.32046,38.06786],[127.32051,38.06788],[127.3205,38.06817],[127.32036,38.06829],[127.32013,38.06831],[127.32009,38.06834],[127.32009,38.06841],[127.32018,38.06845],[127.32017,38.06851],[127.32036,38.06849],[127.32047,38.06851],[127.32052,38.06855],[127.32051,38.06865],[127.32047,38.06869],[127.32035,38.06869]],[[127.31936,38.06619],[127.31945,38.06619],[127.31945,38.06613],[127.31936,38.06613],[127.31936,38.06619]]]}},{"type":"Feature","properties":{"valleyId":"bisun-sanjeong","layer":"canopy","date":"2026-08-01"},"geometry":{"type":"Polygon","coordinates":[[[127.31538,38.06402],[127.31536,38.06382],[127.31543,38.06382],[127.31544,38.06402],[127.31538,38.06402]]]}},{"type":"Feature","properties":{"valleyId":"bisun-sanjeong","layer":"canopy","date":"2026-08-01"},"geometry":{"type":"Polygon","coordinates":[[[127.30883,38.06829],[127.30883,38.06822],[127.30892,38.06816],[127.30894,38.06807],[127.30895,38.06802],[127.3089,38.06802],[127.3089,38.06795],[127.30897,38.06791],[127.30897,38.06782],[127.30906,38.06782],[127.30907,38.0677],[127.30911,38.06763],[127.30912,38.06748],[127.30907,38.06746],[127.30907,38.06737],[127.30924,38.0673],[127.30922,38.06721],[127.30915,38.06718],[127.30903,38.06717],[127.30904,38.06712],[127.30913,38.06703],[127.30915,38.06696],[127.3092,38.06694],[127.3092,38.06691],[127.30925,38.06689],[127.30925,38.06685],[127.30932,38.06682],[127.30932,38.06678],[127.30964,38.06653],[127.30969,38.06653],[127.30983,38.06643],[127.31022,38.06627],[127.31058,38.06619],[127.31109,38.06614],[127.31111,38.06605],[127.31141,38.06595],[127.31152,38.06595],[127.31152,38.06602],[127.31159,38.06602],[127.31164,38.0659],[127.31205,38.06587],[127.31199,38.06554],[127.312,38.06516],[127.31205,38.06495],[127.31217,38.06466],[127.31236,38.06439],[127.31252,38.06425],[127.31252,38.06421],[127.31303,38.06386],[127.31361,38.06365],[127.31381,38.06364],[127.31383,38.06371],[127.31401,38.06373],[127.31404,38.06382],[127.31417,38.06382],[127.31426,38.06388],[127.31435,38.06388],[127.31444,38.06399],[127.31444,38.06417],[127.31439,38.06426],[127.31439,38.06442],[127.31443,38.06448],[127.31442,38.06502],[127.31437,38.06507],[127.31432,38.06529],[127.31425,38.06532],[127.31425,38.06543],[127.31413,38.06563],[127.31415,38.06575],[127.31406,38.06584],[127.31403,38.06591],[127.31396,38.06597],[127.31392,38.06596],[127.3138,38.06607],[127.31375,38.06629],[127.31361,38.06634],[127.31359,38.06641],[127.31343,38.06648],[127.31322,38.06669],[127.3131,38.06671],[127.31299,38.06678],[127.31298,38.06701],[127.31294,38.06701],[127.31287,38.06707],[127.31271,38.06703],[127.3127,38.06721],[127.31264,38.06721],[127.31261,38.06714],[127.31255,38.06712],[127.3125,38.06704],[127.31237,38.06704],[127.31232,38.06708],[127.31211,38.06707],[127.31211,38.06711],[127.31207,38.06713],[127.31179,38.06714],[127.3118,38.06693],[127.31191,38.06693],[127.31191,38.06704],[127.31214,38.06702],[127.31216,38.06698],[127.31225,38.06699],[127.31225,38.06691],[127.3123,38.06691],[127.3123,38.06686],[127.31226,38.06682],[127.31212,38.06682],[127.31207,38.06688],[127.312,38.06687],[127.31182,38.06676],[127.31178,38.06667],[127.3116,38.06667],[127.31164,38.0668],[127.31153,38.0668],[127.31153,38.06683],[127.31139,38.06681],[127.31137,38.06692],[127.31121,38.06692],[127.31123,38.06703],[127.31107,38.06701],[127.31105,38.06695],[127.31096,38.0669],[127.31096,38.06684],[127.31073,38.06686],[127.31073,38.06698],[127.31082,38.06698],[127.31086,38.06702],[127.31086,38.06711],[127.31081,38.06718],[127.31074,38.0672],[127.31074,38.06727],[127.3106,38.06729],[127.3106,38.06734],[127.31067,38.06734],[127.31067,38.06741],[127.31058,38.06741],[127.31053,38.06736],[127.31038,38.06734],[127.31037,38.06741],[127.31028,38.06743],[127.31028,38.0675],[127.31017,38.0675],[127.31017,38.06739],[127.31026,38.06735],[127.31026,38.06726],[127.31017,38.06724],[127.3102,38.0671],[127.31011,38.0671],[127.3101,38.06732],[127.31015,38.06733],[127.31015,38.06742],[127.31008,38.06744],[127.31007,38.06751],[127.30998,38.06753],[127.30998,38.06758],[127.31009,38.06764],[127.31009,38.06773],[127.31005,38.06777],[127.30991,38.06778],[127.30979,38.06791],[127.30972,38.0679],[127.30963,38.06796],[127.30963,38.06801],[127.30956,38.06801],[127.30956,38.06797],[127.30934,38.06795],[127.30931,38.06804],[127.30938,38.06808],[127.30938,38.06813],[127.30933,38.06817],[127.30915,38.06815],[127.30903,38.06824],[127.30892,38.06824],[127.30889,38.06829],[127.30883,38.06829]],[[127.30957,38.06769],[127.30964,38.06769],[127.30964,38.06753],[127.30957,38.06752],[127.30957,38.06769]],[[127.30981,38.06701],[127.30997,38.06699],[127.31004,38.06683],[127.30993,38.06681],[127.30986,38.06688],[127.30979,38.06688],[127.30977,38.06695],[127.30981,38.06697],[127.30981,38.06701]],[[127.31265,38.06678],[127.31271,38.06678],[127.31271,38.06672],[127.31265,38.06672],[127.31265,38.06678]],[[127.31153,38.0666],[127.3116,38.0666],[127.31158,38.06649],[127.31149,38.06649],[127.31149,38.06656],[127.31153,38.0666]]]}}]}
