{"type":"FeatureCollection","metadata":{"description":"개방지(CHM ≤ 2 m)에 드리운 나무·지형 그림자, 2026-08-01 10:00 KST. canopy 위에 겹쳐 그린다","source":"위성 기반 추정 — Copernicus GLO-30 지형(30 m) + Meta/WRI 수관 높이(1 m CHM, 2018 촬영). 그늘 = 수관(CHM > 2 m) ∪ 나무·지형 그림자 ∪ 원거리 지형 마스크. 현장과 다를 수 있음.","datasetVersion":"2026-09-06.0","collectedAt":"2026-09-06","coordinateOrder":"[longitude, latitude]","crs":"EPSG:4326","representativeDate":"2026-08-01","hours":["10:00","11:00","12:00","13:00","14:00","15:00","16:00","17:00","18:00"],"chmAcquisition":["2018-03"],"assets":{"glo30":{"dataset":"Copernicus DEM GLO-30 (COG, s3://copernicus-dem-30m)","tiles":["Copernicus_DSM_COG_10_N38_00_E127_00_DEM"]},"chm":{"dataset":"Meta/WRI Global Canopy Height Map v1 (alsgedi_global_v6_float, 1 m, CC-BY 4.0)","quadkeys":["132110303"],"acquisition":["2018-03"]}},"method":{"gridResM":2,"canopyThresholdM":2,"bufferHalfM":25,"corridorHalfM":200,"simplifyTolM":2,"minAreaM2":25,"coordDecimals":5},"generator":"scripts/shade 0.1.0","builtAt":"2026-09-06T05:53:24Z","layer":"shadow","timeLocal":"10:00"},"features":[{"type":"Feature","properties":{"valleyId":"bisun-sanjeong","layer":"shadow","date":"2026-08-01","timeLocal":"10:00"},"geometry":{"type":"Polygon","coordinates":[[[127.30366,38.07486],[127.30366,38.07481],[127.30375,38.07481],[127.30375,38.07487],[127.30366,38.07486]]]}},{"type":"Feature","properties":{"valleyId":"bisun-sanjeong","layer":"shadow","date":"2026-08-01","timeLocal":"10:00"},"geometry":{"type":"Polygon","coordinates":[[[127.30366,38.0747],[127.30362,38.07468],[127.30362,38.07461],[127.30366,38.07459],[127.30367,38.07456],[127.30373,38.07456],[127.30375,38.07469],[127.30366,38.0747]]]}},{"type":"Feature","properties":{"valleyId":"bisun-sanjeong","layer":"shadow","date":"2026-08-01","timeLocal":"10:00"},"geometry":{"type":"Polygon","coordinates":[[[127.30332,38.07452],[127.30333,38.07436],[127.30328,38.07434],[127.30328,38.07428],[127.30338,38.07427],[127.30342,38.07437],[127.30346,38.07439],[127.30346,38.07447],[127.30339,38.07452],[127.30332,38.07452]]]}},{"type":"Feature","properties":{"valleyId":"bisun-sanjeong","layer":"shadow","date":"2026-08-01","timeLocal":"10:00"},"geometry":{"type":"Polygon","coordinates":[[[127.30416,38.07401],[127.30416,38.0739],[127.30423,38.0739],[127.30423,38.07401],[127.30416,38.07401]]]}},{"type":"Feature","properties":{"valleyId":"bisun-sanjeong","layer":"shadow","date":"2026-08-01","timeLocal":"10:00"},"geometry":{"type":"Polygon","coordinates":[[[127.30393,38.0739],[127.30391,38.07379],[127.30398,38.07379],[127.304,38.0739],[127.30393,38.0739]]]}},{"type":"Feature","properties":{"valleyId":"bisun-sanjeong","layer":"shadow","date":"2026-08-01","timeLocal":"10:00"},"geometry":{"type":"Polygon","coordinates":[[[127.30364,38.07369],[127.30364,38.07364],[127.30371,38.07364],[127.30371,38.07369],[127.30364,38.07369]]]}},{"type":"Feature","properties":{"valleyId":"bisun-sanjeong","layer":"shadow","date":"2026-08-01","timeLocal":"10:00"},"geometry":{"type":"Polygon","coordinates":[[[127.30288,38.07211],[127.30288,38.07206],[127.30295,38.07206],[127.30295,38.07211],[127.30288,38.07211]]]}},{"type":"Feature","properties":{"valleyId":"bisun-sanjeong","layer":"shadow","date":"2026-08-01","timeLocal":"10:00"},"geometry":{"type":"Polygon","coordinates":[[[127.30529,38.07127],[127.30527,38.07114],[127.3053,38.0711],[127.30536,38.0711],[127.30536,38.07127],[127.30529,38.07127]]]}},{"type":"Feature","properties":{"valleyId":"bisun-sanjeong","layer":"shadow","date":"2026-08-01","timeLocal":"10:00"},"geometry":{"type":"Polygon","coordinates":[[[127.32357,38.07144],[127.32355,38.07137],[127.32362,38.07137],[127.32364,38.07144],[127.32357,38.07144]]]}},{"type":"Feature","properties":{"valleyId":"bisun-sanjeong","layer":"shadow","date":"2026-08-01","timeLocal":"10:00"},"geometry":{"type":"Polygon","coordinates":[[[127.32442,38.07111],[127.32443,38.07105],[127.32449,38.07105],[127.32449,38.07111],[127.32442,38.07111]]]}},{"type":"Feature","properties":{"valleyId":"bisun-sanjeong","layer":"shadow","date":"2026-08-01","timeLocal":"10:00"},"geometry":{"type":"Polygon","coordinates":[[[127.3257,38.07008],[127.32568,38.06997],[127.32575,38.06997],[127.32577,38.07008],[127.3257,38.07008]]]}},{"type":"Feature","properties":{"valleyId":"bisun-sanjeong","layer":"shadow","date":"2026-08-01","timeLocal":"10:00"},"geometry":{"type":"Polygon","coordinates":[[[127.32675,38.06999],[127.32675,38.06991],[127.32682,38.06992],[127.32682,38.06999],[127.32675,38.06999]]]}},{"type":"Feature","properties":{"valleyId":"bisun-sanjeong","layer":"shadow","date":"2026-08-01","timeLocal":"10:00"},"geometry":{"type":"Polygon","coordinates":[[[127.32678,38.0699],[127.32678,38.06984],[127.32685,38.06984],[127.32685,38.0699],[127.32678,38.0699]]]}},{"type":"Feature","properties":{"valleyId":"bisun-sanjeong","layer":"shadow","date":"2026-08-01","timeLocal":"10:00"},"geometry":{"type":"Polygon","coordinates":[[[127.32708,38.06942],[127.32709,38.06936],[127.32715,38.06936],[127.32715,38.06942],[127.32708,38.06942]]]}},{"type":"Feature","properties":{"valleyId":"bisun-sanjeong","layer":"shadow","date":"2026-08-01","timeLocal":"10:00"},"geometry":{"type":"Polygon","coordinates":[[[127.32617,38.06935],[127.32618,38.06929],[127.32624,38.06929],[127.32624,38.06935],[127.32617,38.06935]]]}},{"type":"Feature","properties":{"valleyId":"bisun-sanjeong","layer":"shadow","date":"2026-08-01","timeLocal":"10:00"},"geometry":{"type":"Polygon","coordinates":[[[127.32802,38.0693],[127.32805,38.06923],[127.32814,38.06923],[127.32814,38.0693],[127.32802,38.0693]]]}},{"type":"Feature","properties":{"valleyId":"bisun-sanjeong","layer":"shadow","date":"2026-08-01","timeLocal":"10:00"},"geometry":{"type":"Polygon","coordinates":[[[127.30937,38.06842],[127.30937,38.06833],[127.30944,38.06833],[127.30944,38.06842],[127.30937,38.06842]]]}},{"type":"Feature","properties":{"valleyId":"bisun-sanjeong","layer":"shadow","date":"2026-08-01","timeLocal":"10:00"},"geometry":{"type":"Polygon","coordinates":[[[127.32547,38.06804],[127.32548,38.06799],[127.32554,38.06799],[127.32554,38.06804],[127.32547,38.06804]]]}},{"type":"Feature","properties":{"valleyId":"bisun-sanjeong","layer":"shadow","date":"2026-08-01","timeLocal":"10:00"},"geometry":{"type":"Polygon","coordinates":[[[127.30957,38.06767],[127.30957,38.06752],[127.30964,38.06753],[127.30964,38.06767],[127.30957,38.06767]]]}},{"type":"Feature","properties":{"valleyId":"bisun-sanjeong","layer":"shadow","date":"2026-08-01","timeLocal":"10:00"},"geometry":{"type":"Polygon","coordinates":[[[127.31183,38.06747],[127.31181,38.06734],[127.31188,38.06734],[127.31192,38.06747],[127.31183,38.06747]]]}},{"type":"Feature","properties":{"valleyId":"bisun-sanjeong","layer":"shadow","date":"2026-08-01","timeLocal":"10:00"},"geometry":{"type":"Polygon","coordinates":[[[127.32825,38.06725],[127.32825,38.06721],[127.32818,38.06721],[127.32818,38.06716],[127.32828,38.06716],[127.32827,38.0672],[127.32832,38.0672],[127.32832,38.06725],[127.32825,38.06725]]]}},{"type":"Feature","properties":{"valleyId":"bisun-sanjeong","layer":"shadow","date":"2026-08-01","timeLocal":"10:00"},"geometry":{"type":"Polygon","coordinates":[[[127.32807,38.06714],[127.32807,38.06707],[127.32814,38.06707],[127.32814,38.06714],[127.32807,38.06714]]]}},{"type":"Feature","properties":{"valleyId":"bisun-sanjeong","layer":"shadow","date":"2026-08-01","timeLocal":"10:00"},"geometry":{"type":"Polygon","coordinates":[[[127.31951,38.06655],[127.31951,38.06648],[127.31958,38.06648],[127.31958,38.06655],[127.31951,38.06655]]]}},{"type":"Feature","properties":{"valleyId":"bisun-sanjeong","layer":"shadow","date":"2026-08-01","timeLocal":"10:00"},"geometry":{"type":"Polygon","coordinates":[[[127.32747,38.06661],[127.32747,38.06655],[127.32754,38.06656],[127.32754,38.06661],[127.32747,38.06661]]]}},{"type":"Feature","properties":{"valleyId":"bisun-sanjeong","layer":"shadow","date":"2026-08-01","timeLocal":"10:00"},"geometry":{"type":"Polygon","coordinates":[[[127.31505,38.06643],[127.31505,38.06634],[127.31512,38.06634],[127.31512,38.06643],[127.31505,38.06643]]]}}]}
