{"type":"FeatureCollection","metadata":{"description":"개방지(CHM ≤ 2 m)에 드리운 나무·지형 그림자, 2026-08-01 18:00 KST. canopy 위에 겹쳐 그린다","source":"위성 기반 추정 — Copernicus GLO-30 지형(30 m) + Meta/WRI 수관 높이(1 m CHM, 2018 촬영). 그늘 = 수관(CHM > 2 m) ∪ 나무·지형 그림자 ∪ 원거리 지형 마스크. 현장과 다를 수 있음.","datasetVersion":"2026-09-06.0","collectedAt":"2026-09-06","coordinateOrder":"[longitude, latitude]","crs":"EPSG:4326","representativeDate":"2026-08-01","hours":["10:00","11:00","12:00","13:00","14:00","15:00","16:00","17:00","18:00"],"chmAcquisition":["2018-03"],"assets":{"glo30":{"dataset":"Copernicus DEM GLO-30 (COG, s3://copernicus-dem-30m)","tiles":["Copernicus_DSM_COG_10_N38_00_E127_00_DEM"]},"chm":{"dataset":"Meta/WRI Global Canopy Height Map v1 (alsgedi_global_v6_float, 1 m, CC-BY 4.0)","quadkeys":["132110303"],"acquisition":["2018-03"]}},"method":{"gridResM":2,"canopyThresholdM":2,"bufferHalfM":25,"corridorHalfM":200,"simplifyTolM":2,"minAreaM2":25,"coordDecimals":5},"generator":"scripts/shade 0.1.0","builtAt":"2026-09-06T05:53:24Z","layer":"shadow","timeLocal":"18:00"},"features":[{"type":"Feature","properties":{"valleyId":"bisun-sanjeong","layer":"shadow","date":"2026-08-01","timeLocal":"18:00"},"geometry":{"type":"Polygon","coordinates":[[[127.3053,38.07597],[127.30528,38.07583],[127.30532,38.07581],[127.30532,38.07575],[127.30542,38.0757],[127.30542,38.07563],[127.30556,38.07563],[127.30555,38.07569],[127.30539,38.07583],[127.30541,38.07595],[127.3053,38.07597]]]}},{"type":"Feature","properties":{"valleyId":"bisun-sanjeong","layer":"shadow","date":"2026-08-01","timeLocal":"18:00"},"geometry":{"type":"Polygon","coordinates":[[[127.30558,38.07563],[127.30558,38.07558],[127.30565,38.07558],[127.30565,38.07563],[127.30558,38.07563]]]}},{"type":"Feature","properties":{"valleyId":"bisun-sanjeong","layer":"shadow","date":"2026-08-01","timeLocal":"18:00"},"geometry":{"type":"Polygon","coordinates":[[[127.30604,38.07551],[127.30604,38.07546],[127.30611,38.07546],[127.30611,38.07551],[127.30604,38.07551]]]}},{"type":"Feature","properties":{"valleyId":"bisun-sanjeong","layer":"shadow","date":"2026-08-01","timeLocal":"18:00"},"geometry":{"type":"Polygon","coordinates":[[[127.30572,38.07551],[127.3057,38.07542],[127.30586,38.0754],[127.30583,38.07551],[127.30572,38.07551]]]}},{"type":"Feature","properties":{"valleyId":"bisun-sanjeong","layer":"shadow","date":"2026-08-01","timeLocal":"18:00"},"geometry":{"type":"Polygon","coordinates":[[[127.3062,38.07535],[127.30618,38.07521],[127.30627,38.07519],[127.30627,38.07535],[127.3062,38.07535]]]}},{"type":"Feature","properties":{"valleyId":"bisun-sanjeong","layer":"shadow","date":"2026-08-01","timeLocal":"18:00"},"geometry":{"type":"Polygon","coordinates":[[[127.30737,38.07522],[127.30732,38.07521],[127.30732,38.0751],[127.30744,38.0751],[127.30743,38.07523],[127.30737,38.07522]]]}},{"type":"Feature","properties":{"valleyId":"bisun-sanjeong","layer":"shadow","date":"2026-08-01","timeLocal":"18:00"},"geometry":{"type":"Polygon","coordinates":[[[127.30575,38.07509],[127.30575,38.07504],[127.30587,38.07504],[127.30586,38.07509],[127.30575,38.07509]]]}},{"type":"Feature","properties":{"valleyId":"bisun-sanjeong","layer":"shadow","date":"2026-08-01","timeLocal":"18:00"},"geometry":{"type":"Polygon","coordinates":[[[127.30684,38.07511],[127.30685,38.07505],[127.30691,38.07506],[127.30691,38.07511],[127.30684,38.07511]]]}},{"type":"Feature","properties":{"valleyId":"bisun-sanjeong","layer":"shadow","date":"2026-08-01","timeLocal":"18:00"},"geometry":{"type":"Polygon","coordinates":[[[127.30368,38.07488],[127.30366,38.07481],[127.30375,38.07481],[127.30377,38.07488],[127.30368,38.07488]]]}},{"type":"Feature","properties":{"valleyId":"bisun-sanjeong","layer":"shadow","date":"2026-08-01","timeLocal":"18:00"},"geometry":{"type":"Polygon","coordinates":[[[127.30742,38.07508],[127.3074,38.07497],[127.30728,38.07494],[127.30726,38.07484],[127.30737,38.07486],[127.3074,38.07492],[127.30749,38.07496],[127.30758,38.07496],[127.30758,38.07505],[127.30751,38.07508],[127.30742,38.07508]]]}},{"type":"Feature","properties":{"valleyId":"bisun-sanjeong","layer":"shadow","date":"2026-08-01","timeLocal":"18:00"},"geometry":{"type":"Polygon","coordinates":[[[127.30345,38.07479],[127.30346,38.07475],[127.30341,38.07475],[127.30341,38.0747],[127.30357,38.0747],[127.30357,38.07476],[127.30352,38.07479],[127.30345,38.07479]]]}},{"type":"Feature","properties":{"valleyId":"bisun-sanjeong","layer":"shadow","date":"2026-08-01","timeLocal":"18:00"},"geometry":{"type":"Polygon","coordinates":[[[127.30763,38.07476],[127.30763,38.07469],[127.3077,38.07469],[127.3077,38.07476],[127.30763,38.07476]]]}},{"type":"Feature","properties":{"valleyId":"bisun-sanjeong","layer":"shadow","date":"2026-08-01","timeLocal":"18:00"},"geometry":{"type":"Polygon","coordinates":[[[127.30359,38.0747],[127.3036,38.07463],[127.30366,38.07459],[127.30367,38.07456],[127.30373,38.07456],[127.30373,38.07467],[127.30369,38.07467],[127.30368,38.0747],[127.30359,38.0747]]]}},{"type":"Feature","properties":{"valleyId":"bisun-sanjeong","layer":"shadow","date":"2026-08-01","timeLocal":"18:00"},"geometry":{"type":"Polygon","coordinates":[[[127.30332,38.07452],[127.3033,38.07443],[127.30344,38.07443],[127.30344,38.07448],[127.30339,38.07452],[127.30332,38.07452]]]}},{"type":"Feature","properties":{"valleyId":"bisun-sanjeong","layer":"shadow","date":"2026-08-01","timeLocal":"18:00"},"geometry":{"type":"Polygon","coordinates":[[[127.30712,38.07486],[127.30703,38.07482],[127.30703,38.07479],[127.3069,38.07477],[127.30688,38.0746],[127.30684,38.07453],[127.30679,38.07453],[127.30677,38.07437],[127.30666,38.07431],[127.30666,38.07426],[127.30675,38.07426],[127.30677,38.0743],[127.30686,38.0743],[127.30691,38.07433],[127.30693,38.07444],[127.30697,38.07444],[127.30697,38.07453],[127.30704,38.07464],[127.30703,38.07477],[127.30715,38.07477],[127.30722,38.07481],[127.30722,38.07486],[127.30712,38.07486]]]}},{"type":"Feature","properties":{"valleyId":"bisun-sanjeong","layer":"shadow","date":"2026-08-01","timeLocal":"18:00"},"geometry":{"type":"Polygon","coordinates":[[[127.30654,38.07429],[127.30652,38.07426],[127.30634,38.07422],[127.30634,38.07416],[127.30643,38.07417],[127.30646,38.0742],[127.30659,38.0742],[127.30659,38.07424],[127.30664,38.07424],[127.30664,38.07429],[127.30654,38.07429]]]}},{"type":"Feature","properties":{"valleyId":"bisun-sanjeong","layer":"shadow","date":"2026-08-01","timeLocal":"18:00"},"geometry":{"type":"Polygon","coordinates":[[[127.30397,38.07402],[127.30388,38.07398],[127.30388,38.07393],[127.30404,38.07395],[127.30404,38.07402],[127.30397,38.07402]]]}},{"type":"Feature","properties":{"valleyId":"bisun-sanjeong","layer":"shadow","date":"2026-08-01","timeLocal":"18:00"},"geometry":{"type":"Polygon","coordinates":[[[127.30347,38.07403],[127.30343,38.07392],[127.30357,38.07391],[127.30361,38.07402],[127.30347,38.07403]]]}},{"type":"Feature","properties":{"valleyId":"bisun-sanjeong","layer":"shadow","date":"2026-08-01","timeLocal":"18:00"},"geometry":{"type":"Polygon","coordinates":[[[127.30384,38.07391],[127.30384,38.0738],[127.30396,38.07381],[127.30391,38.07391],[127.30384,38.07391]]]}},{"type":"Feature","properties":{"valleyId":"bisun-sanjeong","layer":"shadow","date":"2026-08-01","timeLocal":"18:00"},"geometry":{"type":"Polygon","coordinates":[[[127.30683,38.07359],[127.30684,38.07354],[127.3069,38.07354],[127.3069,38.0736],[127.30683,38.07359]]]}},{"type":"Feature","properties":{"valleyId":"bisun-sanjeong","layer":"shadow","date":"2026-08-01","timeLocal":"18:00"},"geometry":{"type":"Polygon","coordinates":[[[127.30732,38.07344],[127.30732,38.07337],[127.30741,38.07335],[127.30743,38.07344],[127.30732,38.07344]]]}},{"type":"Feature","properties":{"valleyId":"bisun-sanjeong","layer":"shadow","date":"2026-08-01","timeLocal":"18:00"},"geometry":{"type":"Polygon","coordinates":[[[127.30505,38.07595],[127.305,38.07593],[127.305,38.07586],[127.30505,38.07582],[127.30503,38.07557],[127.3051,38.07552],[127.30511,38.07514],[127.30509,38.07494],[127.30503,38.07487],[127.30503,38.07476],[127.30496,38.07474],[127.30496,38.07465],[127.3049,38.07456],[127.30494,38.07375],[127.30496,38.07369],[127.30512,38.07359],[127.30517,38.0735],[127.30529,38.07346],[127.30529,38.07339],[127.30533,38.07336],[127.30534,38.07321],[127.30538,38.07318],[127.30545,38.07318],[127.3054,38.07347],[127.30535,38.07347],[127.30535,38.07359],[127.30531,38.07359],[127.3053,38.07366],[127.30524,38.07366],[127.30523,38.07375],[127.30528,38.07375],[127.30528,38.07386],[127.30521,38.07391],[127.30521,38.07402],[127.30534,38.07401],[127.30534,38.07395],[127.30555,38.07381],[127.3056,38.0737],[127.30556,38.07341],[127.30563,38.07334],[127.30563,38.07322],[127.30573,38.07322],[127.30572,38.07325],[127.30579,38.07326],[127.30577,38.07344],[127.30579,38.07351],[127.30588,38.07358],[127.30588,38.07365],[127.30578,38.07369],[127.30569,38.07385],[127.30562,38.07387],[127.30559,38.07397],[127.30555,38.07401],[127.30546,38.07401],[127.30539,38.07408],[127.30534,38.07408],[127.30532,38.07419],[127.30536,38.07419],[127.30538,38.07424],[127.30552,38.0743],[127.30556,38.07462],[127.30569,38.07462],[127.30569,38.07488],[127.30573,38.07506],[127.30557,38.07509],[127.30554,38.07518],[127.30547,38.07518],[127.30545,38.07509],[127.30541,38.07509],[127.30543,38.07496],[127.30534,38.07493],[127.30535,38.07482],[127.30528,38.0748],[127.30528,38.07465],[127.30515,38.07463],[127.30521,38.07496],[127.3053,38.075],[127.30527,38.0751],[127.30532,38.07512],[127.30531,38.07525],[127.30533,38.07534],[127.30538,38.07538],[127.30538,38.07545],[127.30524,38.07548],[127.30515,38.07557],[127.30516,38.07577],[127.30512,38.07582],[127.30512,38.07595],[127.30505,38.07595]]]}},{"type":"Feature","properties":{"valleyId":"bisun-sanjeong","layer":"shadow","date":"2026-08-01","timeLocal":"18:00"},"geometry":{"type":"Polygon","coordinates":[[[127.30586,38.07317],[127.30586,38.07311],[127.30593,38.07311],[127.30593,38.07317],[127.30586,38.07317]]]}},{"type":"Feature","properties":{"valleyId":"bisun-sanjeong","layer":"shadow","date":"2026-08-01","timeLocal":"18:00"},"geometry":{"type":"Polygon","coordinates":[[[127.30541,38.07307],[127.30541,38.07298],[127.30548,38.07298],[127.30548,38.07307],[127.30541,38.07307]]]}},{"type":"Feature","properties":{"valleyId":"bisun-sanjeong","layer":"shadow","date":"2026-08-01","timeLocal":"18:00"},"geometry":{"type":"Polygon","coordinates":[[[127.30587,38.07281],[127.30587,38.07273],[127.30594,38.07273],[127.30594,38.07281],[127.30587,38.07281]]]}},{"type":"Feature","properties":{"valleyId":"bisun-sanjeong","layer":"shadow","date":"2026-08-01","timeLocal":"18:00"},"geometry":{"type":"Polygon","coordinates":[[[127.30557,38.07291],[127.30558,38.07271],[127.30565,38.07271],[127.30565,38.07275],[127.30571,38.07275],[127.30571,38.0728],[127.30564,38.07284],[127.30564,38.07291],[127.30557,38.07291]]]}},{"type":"Feature","properties":{"valleyId":"bisun-sanjeong","layer":"shadow","date":"2026-08-01","timeLocal":"18:00"},"geometry":{"type":"Polygon","coordinates":[[[127.30477,38.07331],[127.30475,38.0732],[127.30461,38.0732],[127.30457,38.07295],[127.30446,38.07293],[127.30443,38.07286],[127.30437,38.07284],[127.30437,38.07278],[127.30446,38.07279],[127.3045,38.07282],[127.30462,38.07282],[127.30466,38.07288],[127.30478,38.07288],[127.30478,38.07281],[127.30471,38.07274],[127.30471,38.07268],[127.30492,38.07272],[127.30486,38.0731],[127.30493,38.07315],[127.30493,38.07321],[127.30483,38.07331],[127.30477,38.07331]]]}},{"type":"Feature","properties":{"valleyId":"bisun-sanjeong","layer":"shadow","date":"2026-08-01","timeLocal":"18:00"},"geometry":{"type":"Polygon","coordinates":[[[127.30595,38.07257],[127.30595,38.07248],[127.30602,38.07248],[127.30601,38.07257],[127.30595,38.07257]]]}},{"type":"Feature","properties":{"valleyId":"bisun-sanjeong","layer":"shadow","date":"2026-08-01","timeLocal":"18:00"},"geometry":{"type":"Polygon","coordinates":[[[127.30324,38.07226],[127.30324,38.07219],[127.3032,38.07215],[127.3032,38.0721],[127.30324,38.0721],[127.30324,38.07207],[127.30334,38.07207],[127.30333,38.07216],[127.30352,38.07218],[127.30351,38.07223],[127.30342,38.07227],[127.30324,38.07226]]]}},{"type":"Feature","properties":{"valleyId":"bisun-sanjeong","layer":"shadow","date":"2026-08-01","timeLocal":"18:00"},"geometry":{"type":"Polygon","coordinates":[[[127.30238,38.07209],[127.30236,38.07202],[127.30247,38.07202],[127.30247,38.07207],[127.30238,38.07209]]]}},{"type":"Feature","properties":{"valleyId":"bisun-sanjeong","layer":"shadow","date":"2026-08-01","timeLocal":"18:00"},"geometry":{"type":"Polygon","coordinates":[[[127.30338,38.07207],[127.30338,38.072],[127.30356,38.072],[127.30356,38.07205],[127.30338,38.07207]]]}},{"type":"Feature","properties":{"valleyId":"bisun-sanjeong","layer":"shadow","date":"2026-08-01","timeLocal":"18:00"},"geometry":{"type":"Polygon","coordinates":[[[127.30304,38.0721],[127.30304,38.07201],[127.30295,38.07201],[127.30295,38.07192],[127.30302,38.07192],[127.30307,38.07185],[127.30318,38.07185],[127.30318,38.07194],[127.3032,38.07199],[127.30325,38.07199],[127.30324,38.07205],[127.30318,38.07205],[127.30318,38.07208],[127.30313,38.0721],[127.30304,38.0721]]]}},{"type":"Feature","properties":{"valleyId":"bisun-sanjeong","layer":"shadow","date":"2026-08-01","timeLocal":"18:00"},"geometry":{"type":"Polygon","coordinates":[[[127.30254,38.07195],[127.30254,38.07189],[127.30261,38.07186],[127.30261,38.07179],[127.30273,38.07179],[127.30268,38.07191],[127.30263,38.07195],[127.30254,38.07195]]]}},{"type":"Feature","properties":{"valleyId":"bisun-sanjeong","layer":"shadow","date":"2026-08-01","timeLocal":"18:00"},"geometry":{"type":"Polygon","coordinates":[[[127.32285,38.07208],[127.32285,38.07202],[127.32292,38.07202],[127.32292,38.07208],[127.32285,38.07208]]]}},{"type":"Feature","properties":{"valleyId":"bisun-sanjeong","layer":"shadow","date":"2026-08-01","timeLocal":"18:00"},"geometry":{"type":"Polygon","coordinates":[[[127.30226,38.07201],[127.30227,38.07198],[127.30222,38.07198],[127.30222,38.07187],[127.30211,38.07187],[127.30211,38.07181],[127.30218,38.07182],[127.30218,38.07171],[127.30214,38.07169],[127.30214,38.07162],[127.30221,38.07162],[127.3023,38.07169],[127.30239,38.07169],[127.30239,38.07175],[127.30227,38.07176],[127.30225,38.07187],[127.3024,38.07187],[127.3024,38.07194],[127.30236,38.07194],[127.30236,38.07202],[127.30226,38.07201]]]}},{"type":"Feature","properties":{"valleyId":"bisun-sanjeong","layer":"shadow","date":"2026-08-01","timeLocal":"18:00"},"geometry":{"type":"Polygon","coordinates":[[[127.30195,38.07174],[127.30196,38.0716],[127.30209,38.0716],[127.30204,38.07174],[127.30195,38.07174]]]}},{"type":"Feature","properties":{"valleyId":"bisun-sanjeong","layer":"shadow","date":"2026-08-01","timeLocal":"18:00"},"geometry":{"type":"Polygon","coordinates":[[[127.32322,38.07205],[127.3232,38.0719],[127.32327,38.0719],[127.32329,38.07205],[127.32322,38.07205]]]}},{"type":"Feature","properties":{"valleyId":"bisun-sanjeong","layer":"shadow","date":"2026-08-01","timeLocal":"18:00"},"geometry":{"type":"Polygon","coordinates":[[[127.32281,38.07199],[127.32281,38.07193],[127.32276,38.07191],[127.32277,38.07182],[127.32286,38.07182],[127.32288,38.07199],[127.32281,38.07199]]]}},{"type":"Feature","properties":{"valleyId":"bisun-sanjeong","layer":"shadow","date":"2026-08-01","timeLocal":"18:00"},"geometry":{"type":"Polygon","coordinates":[[[127.30318,38.07185],[127.30319,38.07152],[127.30332,38.07153],[127.30337,38.07156],[127.30339,38.07172],[127.30336,38.07178],[127.3033,38.0718],[127.3033,38.07183],[127.30318,38.07185]]]}},{"type":"Feature","properties":{"valleyId":"bisun-sanjeong","layer":"shadow","date":"2026-08-01","timeLocal":"18:00"},"geometry":{"type":"Polygon","coordinates":[[[127.30218,38.07158],[127.30219,38.07149],[127.3023,38.07149],[127.3023,38.07156],[127.30218,38.07158]]]}},{"type":"Feature","properties":{"valleyId":"bisun-sanjeong","layer":"shadow","date":"2026-08-01","timeLocal":"18:00"},"geometry":{"type":"Polygon","coordinates":[[[127.30284,38.07159],[127.30285,38.07155],[127.30278,38.07155],[127.30278,38.07145],[127.30287,38.07145],[127.30287,38.07154],[127.30291,38.07154],[127.30291,38.07159],[127.30284,38.07159]]]}},{"type":"Feature","properties":{"valleyId":"bisun-sanjeong","layer":"shadow","date":"2026-08-01","timeLocal":"18:00"},"geometry":{"type":"Polygon","coordinates":[[[127.32443,38.07181],[127.32443,38.07176],[127.3245,38.07176],[127.3245,38.07181],[127.32443,38.07181]]]}},{"type":"Feature","properties":{"valleyId":"bisun-sanjeong","layer":"shadow","date":"2026-08-01","timeLocal":"18:00"},"geometry":{"type":"Polygon","coordinates":[[[127.32313,38.07176],[127.32313,38.0717],[127.3232,38.0717],[127.3232,38.07176],[127.32313,38.07176]]]}},{"type":"Feature","properties":{"valleyId":"bisun-sanjeong","layer":"shadow","date":"2026-08-01","timeLocal":"18:00"},"geometry":{"type":"Polygon","coordinates":[[[127.30246,38.07144],[127.30246,38.07139],[127.30253,38.07139],[127.30253,38.07144],[127.30246,38.07144]]]}},{"type":"Feature","properties":{"valleyId":"bisun-sanjeong","layer":"shadow","date":"2026-08-01","timeLocal":"18:00"},"geometry":{"type":"Polygon","coordinates":[[[127.32452,38.07174],[127.32453,38.07165],[127.32459,38.07165],[127.32459,38.07174],[127.32452,38.07174]]]}},{"type":"Feature","properties":{"valleyId":"bisun-sanjeong","layer":"shadow","date":"2026-08-01","timeLocal":"18:00"},"geometry":{"type":"Polygon","coordinates":[[[127.30344,38.07135],[127.30344,38.07127],[127.30351,38.07128],[127.30351,38.07135],[127.30344,38.07135]]]}},{"type":"Feature","properties":{"valleyId":"bisun-sanjeong","layer":"shadow","date":"2026-08-01","timeLocal":"18:00"},"geometry":{"type":"Polygon","coordinates":[[[127.3243,38.07163],[127.3243,38.07157],[127.32437,38.07158],[127.32437,38.07163],[127.3243,38.07163]]]}},{"type":"Feature","properties":{"valleyId":"bisun-sanjeong","layer":"shadow","date":"2026-08-01","timeLocal":"18:00"},"geometry":{"type":"Polygon","coordinates":[[[127.30445,38.07133],[127.30445,38.07127],[127.30436,38.07123],[127.30436,38.07118],[127.30452,38.07118],[127.30454,38.07129],[127.30452,38.07133],[127.30445,38.07133]]]}},{"type":"Feature","properties":{"valleyId":"bisun-sanjeong","layer":"shadow","date":"2026-08-01","timeLocal":"18:00"},"geometry":{"type":"Polygon","coordinates":[[[127.30429,38.07118],[127.30429,38.07111],[127.30436,38.07111],[127.30436,38.07118],[127.30429,38.07118]]]}},{"type":"Feature","properties":{"valleyId":"bisun-sanjeong","layer":"shadow","date":"2026-08-01","timeLocal":"18:00"},"geometry":{"type":"Polygon","coordinates":[[[127.32362,38.07156],[127.32359,38.07153],[127.32346,38.07153],[127.32344,38.0714],[127.32357,38.07138],[127.32366,38.07142],[127.32366,38.07151],[127.32371,38.07151],[127.32371,38.07157],[127.32362,38.07156]]]}},{"type":"Feature","properties":{"valleyId":"bisun-sanjeong","layer":"shadow","date":"2026-08-01","timeLocal":"18:00"},"geometry":{"type":"Polygon","coordinates":[[[127.32441,38.07156],[127.32444,38.07138],[127.32455,38.07138],[127.32455,38.07156],[127.32441,38.07156]]]}},{"type":"Feature","properties":{"valleyId":"bisun-sanjeong","layer":"shadow","date":"2026-08-01","timeLocal":"18:00"},"geometry":{"type":"Polygon","coordinates":[[[127.32321,38.07141],[127.32321,38.07136],[127.32328,38.07136],[127.32328,38.07142],[127.32321,38.07141]]]}},{"type":"Feature","properties":{"valleyId":"bisun-sanjeong","layer":"shadow","date":"2026-08-01","timeLocal":"18:00"},"geometry":{"type":"Polygon","coordinates":[[[127.30525,38.07128],[127.30522,38.07125],[127.30518,38.07125],[127.30518,38.07107],[127.30525,38.07107],[127.30525,38.0711],[127.30534,38.07114],[127.30536,38.07119],[127.30536,38.07127],[127.30525,38.07128]]]}},{"type":"Feature","properties":{"valleyId":"bisun-sanjeong","layer":"shadow","date":"2026-08-01","timeLocal":"18:00"},"geometry":{"type":"Polygon","coordinates":[[[127.305,38.07108],[127.305,38.07103],[127.30507,38.07103],[127.30507,38.07108],[127.305,38.07108]]]}},{"type":"Feature","properties":{"valleyId":"bisun-sanjeong","layer":"shadow","date":"2026-08-01","timeLocal":"18:00"},"geometry":{"type":"Polygon","coordinates":[[[127.30436,38.07107],[127.30439,38.07098],[127.30445,38.07098],[127.30445,38.07107],[127.30436,38.07107]]]}},{"type":"Feature","properties":{"valleyId":"bisun-sanjeong","layer":"shadow","date":"2026-08-01","timeLocal":"18:00"},"geometry":{"type":"Polygon","coordinates":[[[127.30466,38.07106],[127.30466,38.07095],[127.30477,38.07093],[127.30473,38.07106],[127.30466,38.07106]]]}},{"type":"Feature","properties":{"valleyId":"bisun-sanjeong","layer":"shadow","date":"2026-08-01","timeLocal":"18:00"},"geometry":{"type":"Polygon","coordinates":[[[127.30272,38.07096],[127.30272,38.0709],[127.30279,38.07091],[127.30279,38.07096],[127.30272,38.07096]]]}},{"type":"Feature","properties":{"valleyId":"bisun-sanjeong","layer":"shadow","date":"2026-08-01","timeLocal":"18:00"},"geometry":{"type":"Polygon","coordinates":[[[127.30236,38.07083],[127.30236,38.07077],[127.30245,38.07077],[127.30245,38.07083],[127.30236,38.07083]]]}},{"type":"Feature","properties":{"valleyId":"bisun-sanjeong","layer":"shadow","date":"2026-08-01","timeLocal":"18:00"},"geometry":{"type":"Polygon","coordinates":[[[127.32401,38.0711],[127.32402,38.07105],[127.32408,38.07105],[127.32408,38.0711],[127.32401,38.0711]]]}},{"type":"Feature","properties":{"valleyId":"bisun-sanjeong","layer":"shadow","date":"2026-08-01","timeLocal":"18:00"},"geometry":{"type":"Polygon","coordinates":[[[127.32442,38.07111],[127.32443,38.07105],[127.32449,38.07105],[127.32449,38.07111],[127.32442,38.07111]]]}},{"type":"Feature","properties":{"valleyId":"bisun-sanjeong","layer":"shadow","date":"2026-08-01","timeLocal":"18:00"},"geometry":{"type":"Polygon","coordinates":[[[127.30368,38.0709],[127.30368,38.07085],[127.30373,38.07081],[127.30373,38.07067],[127.3038,38.07067],[127.3038,38.07085],[127.30375,38.07086],[127.30375,38.0709],[127.30368,38.0709]]]}},{"type":"Feature","properties":{"valleyId":"bisun-sanjeong","layer":"shadow","date":"2026-08-01","timeLocal":"18:00"},"geometry":{"type":"Polygon","coordinates":[[[127.32376,38.07113],[127.32376,38.0711],[127.32372,38.07108],[127.32372,38.07099],[127.32377,38.07097],[127.32377,38.07094],[127.32384,38.07094],[127.32385,38.07114],[127.32376,38.07113]]]}},{"type":"Feature","properties":{"valleyId":"bisun-sanjeong","layer":"shadow","date":"2026-08-01","timeLocal":"18:00"},"geometry":{"type":"Polygon","coordinates":[[[127.30499,38.07056],[127.30499,38.0705],[127.30506,38.07051],[127.30506,38.07056],[127.30499,38.07056]]]}},{"type":"Feature","properties":{"valleyId":"bisun-sanjeong","layer":"shadow","date":"2026-08-01","timeLocal":"18:00"},"geometry":{"type":"Polygon","coordinates":[[[127.32393,38.07067],[127.32393,38.0706],[127.324,38.0706],[127.324,38.07067],[127.32393,38.07067]]]}},{"type":"Feature","properties":{"valleyId":"bisun-sanjeong","layer":"shadow","date":"2026-08-01","timeLocal":"18:00"},"geometry":{"type":"Polygon","coordinates":[[[127.32494,38.07057],[127.32496,38.0705],[127.3251,38.0705],[127.3251,38.07056],[127.32494,38.07057]]]}},{"type":"Feature","properties":{"valleyId":"bisun-sanjeong","layer":"shadow","date":"2026-08-01","timeLocal":"18:00"},"geometry":{"type":"Polygon","coordinates":[[[127.30582,38.07032],[127.30575,38.07028],[127.30575,38.07019],[127.30586,38.07019],[127.30588,38.07026],[127.30595,38.07027],[127.30595,38.07032],[127.30582,38.07032]]]}},{"type":"Feature","properties":{"valleyId":"bisun-sanjeong","layer":"shadow","date":"2026-08-01","timeLocal":"18:00"},"geometry":{"type":"Polygon","coordinates":[[[127.32403,38.07043],[127.32403,38.07036],[127.3241,38.07036],[127.3241,38.07044],[127.32403,38.07043]]]}},{"type":"Feature","properties":{"valleyId":"bisun-sanjeong","layer":"shadow","date":"2026-08-01","timeLocal":"18:00"},"geometry":{"type":"Polygon","coordinates":[[[127.32467,38.07048],[127.32458,38.07046],[127.32455,38.07042],[127.32444,38.07042],[127.3244,38.07037],[127.32435,38.07037],[127.32435,38.07031],[127.32456,38.07035],[127.32458,38.07039],[127.32474,38.07041],[127.32476,38.07048],[127.32467,38.07048]]]}},{"type":"Feature","properties":{"valleyId":"bisun-sanjeong","layer":"shadow","date":"2026-08-01","timeLocal":"18:00"},"geometry":{"type":"Polygon","coordinates":[[[127.32417,38.07029],[127.32417,38.0702],[127.32426,38.0702],[127.32431,38.07024],[127.32431,38.07029],[127.32417,38.07029]]]}},{"type":"Feature","properties":{"valleyId":"bisun-sanjeong","layer":"shadow","date":"2026-08-01","timeLocal":"18:00"},"geometry":{"type":"Polygon","coordinates":[[[127.30284,38.06995],[127.30284,38.06988],[127.30291,38.06988],[127.30291,38.06995],[127.30284,38.06995]]]}},{"type":"Feature","properties":{"valleyId":"bisun-sanjeong","layer":"shadow","date":"2026-08-01","timeLocal":"18:00"},"geometry":{"type":"Polygon","coordinates":[[[127.3035,38.06998],[127.3035,38.06987],[127.30343,38.06985],[127.30343,38.0698],[127.30352,38.0698],[127.30355,38.06983],[127.30382,38.06984],[127.30382,38.06989],[127.30377,38.06989],[127.30377,38.06993],[127.30361,38.06994],[127.30361,38.06998],[127.3035,38.06998]]]}},{"type":"Feature","properties":{"valleyId":"bisun-sanjeong","layer":"shadow","date":"2026-08-01","timeLocal":"18:00"},"geometry":{"type":"Polygon","coordinates":[[[127.32506,38.07016],[127.32504,38.07],[127.32511,38.07],[127.32516,38.07002],[127.32515,38.07014],[127.32506,38.07016]]]}},{"type":"Feature","properties":{"valleyId":"bisun-sanjeong","layer":"shadow","date":"2026-08-01","timeLocal":"18:00"},"geometry":{"type":"Polygon","coordinates":[[[127.30357,38.06969],[127.30357,38.06964],[127.30364,38.06964],[127.30364,38.06969],[127.30357,38.06969]]]}},{"type":"Feature","properties":{"valleyId":"bisun-sanjeong","layer":"shadow","date":"2026-08-01","timeLocal":"18:00"},"geometry":{"type":"Polygon","coordinates":[[[127.30378,38.06973],[127.30378,38.06962],[127.30392,38.06964],[127.30391,38.0697],[127.30378,38.06973]]]}},{"type":"Feature","properties":{"valleyId":"bisun-sanjeong","layer":"shadow","date":"2026-08-01","timeLocal":"18:00"},"geometry":{"type":"Polygon","coordinates":[[[127.32595,38.06998],[127.32596,38.06992],[127.32605,38.06992],[127.32605,38.06998],[127.32595,38.06998]]]}},{"type":"Feature","properties":{"valleyId":"bisun-sanjeong","layer":"shadow","date":"2026-08-01","timeLocal":"18:00"},"geometry":{"type":"Polygon","coordinates":[[[127.32447,38.07021],[127.3244,38.07019],[127.3244,38.07013],[127.32447,38.07008],[127.32443,38.06995],[127.3245,38.06988],[127.32459,38.06988],[127.32459,38.06997],[127.32465,38.06999],[127.32468,38.07008],[127.32463,38.07008],[127.32456,38.07014],[127.32456,38.07021],[127.32447,38.07021]]]}},{"type":"Feature","properties":{"valleyId":"bisun-sanjeong","layer":"shadow","date":"2026-08-01","timeLocal":"18:00"},"geometry":{"type":"Polygon","coordinates":[[[127.3265,38.07004],[127.3265,38.06993],[127.32664,38.06991],[127.32661,38.07002],[127.3265,38.07004]]]}},{"type":"Feature","properties":{"valleyId":"bisun-sanjeong","layer":"shadow","date":"2026-08-01","timeLocal":"18:00"},"geometry":{"type":"Polygon","coordinates":[[[127.32486,38.06994],[127.32486,38.06989],[127.32493,38.06989],[127.32493,38.06994],[127.32486,38.06994]]]}},{"type":"Feature","properties":{"valleyId":"bisun-sanjeong","layer":"shadow","date":"2026-08-01","timeLocal":"18:00"},"geometry":{"type":"Polygon","coordinates":[[[127.32531,38.0704],[127.32529,38.07018],[127.32536,38.07011],[127.32536,38.06988],[127.32543,38.06988],[127.32544,38.07036],[127.32531,38.0704]]]}},{"type":"Feature","properties":{"valleyId":"bisun-sanjeong","layer":"shadow","date":"2026-08-01","timeLocal":"18:00"},"geometry":{"type":"Polygon","coordinates":[[[127.32556,38.07011],[127.32557,38.06997],[127.3255,38.06997],[127.32552,38.06988],[127.32559,38.06988],[127.32559,38.06995],[127.32573,38.06995],[127.3257,38.07012],[127.32556,38.07011]]]}},{"type":"Feature","properties":{"valleyId":"bisun-sanjeong","layer":"shadow","date":"2026-08-01","timeLocal":"18:00"},"geometry":{"type":"Polygon","coordinates":[[[127.32618,38.06994],[127.32618,38.06989],[127.32625,38.06989],[127.32625,38.06994],[127.32618,38.06994]]]}},{"type":"Feature","properties":{"valleyId":"bisun-sanjeong","layer":"shadow","date":"2026-08-01","timeLocal":"18:00"},"geometry":{"type":"Polygon","coordinates":[[[127.32675,38.06999],[127.32671,38.06991],[127.32664,38.06991],[127.32667,38.06979],[127.32673,38.06979],[127.32673,38.06986],[127.32682,38.06986],[127.32682,38.06999],[127.32675,38.06999]]]}},{"type":"Feature","properties":{"valleyId":"bisun-sanjeong","layer":"shadow","date":"2026-08-01","timeLocal":"18:00"},"geometry":{"type":"Polygon","coordinates":[[[127.32571,38.06986],[127.32568,38.06985],[127.32566,38.06968],[127.32573,38.06968],[127.32578,38.06977],[127.32577,38.06986],[127.32571,38.06986]]]}},{"type":"Feature","properties":{"valleyId":"bisun-sanjeong","layer":"shadow","date":"2026-08-01","timeLocal":"18:00"},"geometry":{"type":"Polygon","coordinates":[[[127.32539,38.06972],[127.32537,38.06962],[127.32548,38.06963],[127.32548,38.0697],[127.32539,38.06972]]]}},{"type":"Feature","properties":{"valleyId":"bisun-sanjeong","layer":"shadow","date":"2026-08-01","timeLocal":"18:00"},"geometry":{"type":"Polygon","coordinates":[[[127.31131,38.06944],[127.31131,38.06937],[127.31138,38.06937],[127.31138,38.06944],[127.31131,38.06944]]]}},{"type":"Feature","properties":{"valleyId":"bisun-sanjeong","layer":"shadow","date":"2026-08-01","timeLocal":"18:00"},"geometry":{"type":"Polygon","coordinates":[[[127.31007,38.06959],[127.31003,38.06957],[127.31003,38.06951],[127.3101,38.06948],[127.31006,38.06935],[127.31024,38.06935],[127.31026,38.06944],[127.31017,38.06946],[127.31014,38.06959],[127.31007,38.06959]]]}},{"type":"Feature","properties":{"valleyId":"bisun-sanjeong","layer":"shadow","date":"2026-08-01","timeLocal":"18:00"},"geometry":{"type":"Polygon","coordinates":[[[127.32241,38.06964],[127.32241,38.06951],[127.32282,38.0695],[127.32282,38.06955],[127.32277,38.06957],[127.32254,38.0696],[127.32252,38.06964],[127.32241,38.06964]]]}},{"type":"Feature","properties":{"valleyId":"bisun-sanjeong","layer":"shadow","date":"2026-08-01","timeLocal":"18:00"},"geometry":{"type":"Polygon","coordinates":[[[127.32646,38.06962],[127.32647,38.06955],[127.32653,38.06955],[127.32656,38.06962],[127.32646,38.06962]]]}},{"type":"Feature","properties":{"valleyId":"bisun-sanjeong","layer":"shadow","date":"2026-08-01","timeLocal":"18:00"},"geometry":{"type":"Polygon","coordinates":[[[127.32519,38.0696],[127.32521,38.06946],[127.32528,38.06946],[127.32528,38.06961],[127.32519,38.0696]]]}},{"type":"Feature","properties":{"valleyId":"bisun-sanjeong","layer":"shadow","date":"2026-08-01","timeLocal":"18:00"},"geometry":{"type":"Polygon","coordinates":[[[127.30433,38.06927],[127.30434,38.06913],[127.30452,38.06915],[127.30452,38.0692],[127.30445,38.06925],[127.30433,38.06927]]]}},{"type":"Feature","properties":{"valleyId":"bisun-sanjeong","layer":"shadow","date":"2026-08-01","timeLocal":"18:00"},"geometry":{"type":"Polygon","coordinates":[[[127.31031,38.06939],[127.31031,38.06934],[127.31026,38.06934],[127.31026,38.06925],[127.31035,38.06925],[127.31036,38.06918],[127.31042,38.06918],[127.31042,38.0693],[127.31038,38.0693],[127.31037,38.06939],[127.31031,38.06939]]]}},{"type":"Feature","properties":{"valleyId":"bisun-sanjeong","layer":"shadow","date":"2026-08-01","timeLocal":"18:00"},"geometry":{"type":"Polygon","coordinates":[[[127.32704,38.06947],[127.32704,38.06941],[127.32711,38.06942],[127.32711,38.06947],[127.32704,38.06947]]]}},{"type":"Feature","properties":{"valleyId":"bisun-sanjeong","layer":"shadow","date":"2026-08-01","timeLocal":"18:00"},"geometry":{"type":"Polygon","coordinates":[[[127.32562,38.06965],[127.32567,38.06954],[127.32567,38.06938],[127.32574,38.06938],[127.32574,38.06943],[127.32581,38.06949],[127.3258,38.06956],[127.32576,38.06956],[127.32569,38.06965],[127.32562,38.06965]]]}},{"type":"Feature","properties":{"valleyId":"bisun-sanjeong","layer":"shadow","date":"2026-08-01","timeLocal":"18:00"},"geometry":{"type":"Polygon","coordinates":[[[127.30479,38.06919],[127.3048,38.06908],[127.30491,38.06908],[127.30495,38.06912],[127.30493,38.06919],[127.30479,38.06919]]]}},{"type":"Feature","properties":{"valleyId":"bisun-sanjeong","layer":"shadow","date":"2026-08-01","timeLocal":"18:00"},"geometry":{"type":"Polygon","coordinates":[[[127.30158,38.0711],[127.30152,38.07085],[127.30152,38.07062],[127.30155,38.07056],[127.30164,38.07051],[127.30166,38.07038],[127.30171,38.07038],[127.30178,38.07026],[127.30183,38.07026],[127.30192,38.07019],[127.30192,38.07015],[127.30199,38.0701],[127.30199,38.07003],[127.30206,38.07003],[127.3022,38.06996],[127.30225,38.06978],[127.30236,38.06971],[127.30236,38.06967],[127.30246,38.0696],[127.30244,38.0694],[127.30264,38.06939],[127.30265,38.06933],[127.30271,38.06932],[127.30276,38.06926],[127.30274,38.06907],[127.30284,38.06905],[127.30283,38.06909],[127.30302,38.06909],[127.30304,38.06925],[127.30301,38.06934],[127.30296,38.06938],[127.30296,38.06947],[127.30292,38.06948],[127.30289,38.06977],[127.30277,38.06977],[127.30277,38.06988],[127.30272,38.06988],[127.30272,38.07026],[127.30244,38.07025],[127.30246,38.07038],[127.30242,38.07045],[127.30237,38.07045],[127.30237,38.07052],[127.3023,38.07052],[127.30225,38.07059],[127.30216,38.07061],[127.30209,38.07077],[127.30202,38.07077],[127.30201,38.07106],[127.30165,38.07105],[127.30165,38.0711],[127.30158,38.0711]]]}},{"type":"Feature","properties":{"valleyId":"bisun-sanjeong","layer":"shadow","date":"2026-08-01","timeLocal":"18:00"},"geometry":{"type":"Polygon","coordinates":[[[127.32382,38.06966],[127.32382,38.06957],[127.32366,38.06958],[127.32366,38.06953],[127.32375,38.06949],[127.32371,38.06935],[127.32389,38.06935],[127.32389,38.06939],[127.32401,38.06943],[127.32403,38.06948],[127.32412,38.06948],[127.32412,38.06955],[127.324,38.06955],[127.324,38.06952],[127.32396,38.06951],[127.32394,38.06948],[127.32385,38.06948],[127.32384,38.06955],[127.32391,38.06955],[127.32391,38.0696],[127.32389,38.06966],[127.32382,38.06966]]]}},{"type":"Feature","properties":{"valleyId":"bisun-sanjeong","layer":"shadow","date":"2026-08-01","timeLocal":"18:00"},"geometry":{"type":"Polygon","coordinates":[[[127.32663,38.06946],[127.32658,38.06944],[127.32658,38.06939],[127.3267,38.06941],[127.3267,38.06946],[127.32663,38.06946]]]}},{"type":"Feature","properties":{"valleyId":"bisun-sanjeong","layer":"shadow","date":"2026-08-01","timeLocal":"18:00"},"geometry":{"type":"Polygon","coordinates":[[[127.32244,38.06935],[127.32244,38.06929],[127.32255,38.0693],[127.32255,38.06935],[127.32244,38.06935]]]}},{"type":"Feature","properties":{"valleyId":"bisun-sanjeong","layer":"shadow","date":"2026-08-01","timeLocal":"18:00"},"geometry":{"type":"Polygon","coordinates":[[[127.30992,38.06915],[127.30992,38.0691],[127.30999,38.0691],[127.30999,38.06915],[127.30992,38.06915]]]}},{"type":"Feature","properties":{"valleyId":"bisun-sanjeong","layer":"shadow","date":"2026-08-01","timeLocal":"18:00"},"geometry":{"type":"Polygon","coordinates":[[[127.31054,38.06925],[127.31054,38.06907],[127.31063,38.06907],[127.31063,38.06923],[127.31054,38.06925]]]}},{"type":"Feature","properties":{"valleyId":"bisun-sanjeong","layer":"shadow","date":"2026-08-01","timeLocal":"18:00"},"geometry":{"type":"Polygon","coordinates":[[[127.32533,38.06937],[127.32533,38.06928],[127.3254,38.06928],[127.32542,38.06936],[127.32533,38.06937]]]}},{"type":"Feature","properties":{"valleyId":"bisun-sanjeong","layer":"shadow","date":"2026-08-01","timeLocal":"18:00"},"geometry":{"type":"Polygon","coordinates":[[[127.32316,38.06943],[127.32316,38.06938],[127.32289,38.06936],[127.32292,38.06921],[127.32305,38.06921],[127.32307,38.06932],[127.32321,38.06931],[127.32325,38.06943],[127.32316,38.06943]]]}},{"type":"Feature","properties":{"valleyId":"bisun-sanjeong","layer":"shadow","date":"2026-08-01","timeLocal":"18:00"},"geometry":{"type":"Polygon","coordinates":[[[127.3031,38.06923],[127.30311,38.06916],[127.30327,38.06916],[127.30325,38.06904],[127.30336,38.06904],[127.30338,38.06911],[127.30347,38.06911],[127.30345,38.06902],[127.30334,38.06902],[127.30334,38.06897],[127.30352,38.06897],[127.30352,38.06893],[127.30359,38.06893],[127.30359,38.06897],[127.30377,38.06899],[127.30377,38.06906],[127.30366,38.06906],[127.30363,38.0691],[127.30359,38.0691],[127.30359,38.06913],[127.30354,38.06913],[127.30354,38.06917],[127.30342,38.06918],[127.3034,38.06922],[127.3031,38.06923]]]}},{"type":"Feature","properties":{"valleyId":"bisun-sanjeong","layer":"shadow","date":"2026-08-01","timeLocal":"18:00"},"geometry":{"type":"Polygon","coordinates":[[[127.30322,38.06896],[127.30323,38.06891],[127.30334,38.06891],[127.30334,38.06897],[127.30322,38.06896]]]}},{"type":"Feature","properties":{"valleyId":"bisun-sanjeong","layer":"shadow","date":"2026-08-01","timeLocal":"18:00"},"geometry":{"type":"Polygon","coordinates":[[[127.31079,38.06906],[127.31079,38.069],[127.31086,38.069],[127.31086,38.06906],[127.31079,38.06906]]]}},{"type":"Feature","properties":{"valleyId":"bisun-sanjeong","layer":"shadow","date":"2026-08-01","timeLocal":"18:00"},"geometry":{"type":"Polygon","coordinates":[[[127.32638,38.0694],[127.32636,38.06924],[127.32654,38.06921],[127.32651,38.06941],[127.32638,38.0694]]]}},{"type":"Feature","properties":{"valleyId":"bisun-sanjeong","layer":"shadow","date":"2026-08-01","timeLocal":"18:00"},"geometry":{"type":"Polygon","coordinates":[[[127.328,38.06932],[127.32802,38.06923],[127.32814,38.06923],[127.32814,38.0693],[127.328,38.06932]]]}},{"type":"Feature","properties":{"valleyId":"bisun-sanjeong","layer":"shadow","date":"2026-08-01","timeLocal":"18:00"},"geometry":{"type":"Polygon","coordinates":[[[127.32269,38.06921],[127.32269,38.06915],[127.32276,38.06916],[127.32276,38.06921],[127.32269,38.06921]]]}},{"type":"Feature","properties":{"valleyId":"bisun-sanjeong","layer":"shadow","date":"2026-08-01","timeLocal":"18:00"},"geometry":{"type":"Polygon","coordinates":[[[127.32417,38.06941],[127.32419,38.06916],[127.32426,38.06916],[127.32426,38.06939],[127.32417,38.06941]]]}},{"type":"Feature","properties":{"valleyId":"bisun-sanjeong","layer":"shadow","date":"2026-08-01","timeLocal":"18:00"},"geometry":{"type":"Polygon","coordinates":[[[127.30366,38.06893],[127.30366,38.06886],[127.3038,38.06888],[127.3038,38.06894],[127.30366,38.06893]]]}},{"type":"Feature","properties":{"valleyId":"bisun-sanjeong","layer":"shadow","date":"2026-08-01","timeLocal":"18:00"},"geometry":{"type":"Polygon","coordinates":[[[127.32328,38.06929],[127.32324,38.06918],[127.32328,38.06918],[127.32328,38.06911],[127.32338,38.06911],[127.32337,38.06922],[127.32342,38.06922],[127.32342,38.06927],[127.32328,38.06929]]]}},{"type":"Feature","properties":{"valleyId":"bisun-sanjeong","layer":"shadow","date":"2026-08-01","timeLocal":"18:00"},"geometry":{"type":"Polygon","coordinates":[[[127.32246,38.0692],[127.32246,38.0691],[127.32253,38.0691],[127.32255,38.06919],[127.32246,38.0692]]]}},{"type":"Feature","properties":{"valleyId":"bisun-sanjeong","layer":"shadow","date":"2026-08-01","timeLocal":"18:00"},"geometry":{"type":"Polygon","coordinates":[[[127.32702,38.06931],[127.32702,38.06922],[127.32698,38.06922],[127.32698,38.06916],[127.32707,38.06916],[127.32713,38.06924],[127.32713,38.06929],[127.32702,38.06931]]]}},{"type":"Feature","properties":{"valleyId":"bisun-sanjeong","layer":"shadow","date":"2026-08-01","timeLocal":"18:00"},"geometry":{"type":"Polygon","coordinates":[[[127.32456,38.06922],[127.32456,38.06911],[127.32463,38.06911],[127.32463,38.06922],[127.32456,38.06922]]]}},{"type":"Feature","properties":{"valleyId":"bisun-sanjeong","layer":"shadow","date":"2026-08-01","timeLocal":"18:00"},"geometry":{"type":"Polygon","coordinates":[[[127.32221,38.06913],[127.32221,38.06908],[127.32228,38.06908],[127.32228,38.06913],[127.32221,38.06913]]]}},{"type":"Feature","properties":{"valleyId":"bisun-sanjeong","layer":"shadow","date":"2026-08-01","timeLocal":"18:00"},"geometry":{"type":"Polygon","coordinates":[[[127.31088,38.06904],[127.31088,38.06899],[127.31093,38.06899],[127.31093,38.0689],[127.31102,38.0689],[127.31102,38.06897],[127.31095,38.06899],[127.31095,38.06904],[127.31088,38.06904]]]}},{"type":"Feature","properties":{"valleyId":"bisun-sanjeong","layer":"shadow","date":"2026-08-01","timeLocal":"18:00"},"geometry":{"type":"Polygon","coordinates":[[[127.31136,38.06896],[127.31137,38.0689],[127.31143,38.0689],[127.31143,38.06896],[127.31136,38.06896]]]}},{"type":"Feature","properties":{"valleyId":"bisun-sanjeong","layer":"shadow","date":"2026-08-01","timeLocal":"18:00"},"geometry":{"type":"Polygon","coordinates":[[[127.30991,38.06892],[127.30991,38.06886],[127.31,38.06886],[127.31,38.06892],[127.30991,38.06892]]]}},{"type":"Feature","properties":{"valleyId":"bisun-sanjeong","layer":"shadow","date":"2026-08-01","timeLocal":"18:00"},"geometry":{"type":"Polygon","coordinates":[[[127.3236,38.06911],[127.32361,38.069],[127.32379,38.06903],[127.32379,38.06908],[127.3236,38.06911]]]}},{"type":"Feature","properties":{"valleyId":"bisun-sanjeong","layer":"shadow","date":"2026-08-01","timeLocal":"18:00"},"geometry":{"type":"Polygon","coordinates":[[[127.31111,38.06888],[127.31112,38.06879],[127.31123,38.06881],[127.31123,38.06888],[127.31111,38.06888]]]}},{"type":"Feature","properties":{"valleyId":"bisun-sanjeong","layer":"shadow","date":"2026-08-01","timeLocal":"18:00"},"geometry":{"type":"Polygon","coordinates":[[[127.31002,38.06885],[127.31002,38.06876],[127.31016,38.06876],[127.31014,38.06885],[127.31002,38.06885]]]}},{"type":"Feature","properties":{"valleyId":"bisun-sanjeong","layer":"shadow","date":"2026-08-01","timeLocal":"18:00"},"geometry":{"type":"Polygon","coordinates":[[[127.32349,38.069],[127.32349,38.06895],[127.32356,38.06895],[127.32356,38.069],[127.32349,38.069]]]}},{"type":"Feature","properties":{"valleyId":"bisun-sanjeong","layer":"shadow","date":"2026-08-01","timeLocal":"18:00"},"geometry":{"type":"Polygon","coordinates":[[[127.32475,38.069],[127.32473,38.06889],[127.32484,38.0689],[127.32486,38.06899],[127.32475,38.069]]]}},{"type":"Feature","properties":{"valleyId":"bisun-sanjeong","layer":"shadow","date":"2026-08-01","timeLocal":"18:00"},"geometry":{"type":"Polygon","coordinates":[[[127.32156,38.06894],[127.32158,38.06883],[127.32169,38.06882],[127.32169,38.06891],[127.32156,38.06894]]]}},{"type":"Feature","properties":{"valleyId":"bisun-sanjeong","layer":"shadow","date":"2026-08-01","timeLocal":"18:00"},"geometry":{"type":"Polygon","coordinates":[[[127.32356,38.06893],[127.32356,38.06884],[127.32365,38.06884],[127.3237,38.06888],[127.3237,38.06893],[127.32356,38.06893]]]}},{"type":"Feature","properties":{"valleyId":"bisun-sanjeong","layer":"shadow","date":"2026-08-01","timeLocal":"18:00"},"geometry":{"type":"Polygon","coordinates":[[[127.31144,38.06883],[127.31144,38.06879],[127.31139,38.06878],[127.31139,38.06865],[127.31151,38.06867],[127.3115,38.06883],[127.31144,38.06883]]]}},{"type":"Feature","properties":{"valleyId":"bisun-sanjeong","layer":"shadow","date":"2026-08-01","timeLocal":"18:00"},"geometry":{"type":"Polygon","coordinates":[[[127.32445,38.06891],[127.32445,38.06882],[127.32452,38.06882],[127.32452,38.06891],[127.32445,38.06891]]]}},{"type":"Feature","properties":{"valleyId":"bisun-sanjeong","layer":"shadow","date":"2026-08-01","timeLocal":"18:00"},"geometry":{"type":"Polygon","coordinates":[[[127.30918,38.06878],[127.30918,38.06871],[127.30904,38.06871],[127.30905,38.0686],[127.30927,38.0686],[127.30927,38.06869],[127.30932,38.06869],[127.30932,38.06875],[127.30927,38.06878],[127.30918,38.06878]]]}},{"type":"Feature","properties":{"valleyId":"bisun-sanjeong","layer":"shadow","date":"2026-08-01","timeLocal":"18:00"},"geometry":{"type":"Polygon","coordinates":[[[127.32513,38.06894],[127.32514,38.06886],[127.32507,38.06886],[127.32509,38.06879],[127.32516,38.06879],[127.32516,38.06885],[127.32523,38.06885],[127.32523,38.06892],[127.32513,38.06894]]]}},{"type":"Feature","properties":{"valleyId":"bisun-sanjeong","layer":"shadow","date":"2026-08-01","timeLocal":"18:00"},"geometry":{"type":"Polygon","coordinates":[[[127.32174,38.0688],[127.32174,38.06874],[127.32183,38.06873],[127.32183,38.06878],[127.32174,38.0688]]]}},{"type":"Feature","properties":{"valleyId":"bisun-sanjeong","layer":"shadow","date":"2026-08-01","timeLocal":"18:00"},"geometry":{"type":"Polygon","coordinates":[[[127.30893,38.06858],[127.30889,38.06852],[127.30889,38.06845],[127.30905,38.06847],[127.30905,38.06858],[127.30893,38.06858]]]}},{"type":"Feature","properties":{"valleyId":"bisun-sanjeong","layer":"shadow","date":"2026-08-01","timeLocal":"18:00"},"geometry":{"type":"Polygon","coordinates":[[[127.32516,38.06876],[127.32516,38.06867],[127.32523,38.06867],[127.32525,38.06876],[127.32516,38.06876]]]}},{"type":"Feature","properties":{"valleyId":"bisun-sanjeong","layer":"shadow","date":"2026-08-01","timeLocal":"18:00"},"geometry":{"type":"Polygon","coordinates":[[[127.31078,38.06846],[127.31078,38.06841],[127.31085,38.06841],[127.31085,38.06846],[127.31078,38.06846]]]}},{"type":"Feature","properties":{"valleyId":"bisun-sanjeong","layer":"shadow","date":"2026-08-01","timeLocal":"18:00"},"geometry":{"type":"Polygon","coordinates":[[[127.32051,38.0686],[127.32052,38.06853],[127.32058,38.06853],[127.32058,38.0686],[127.32051,38.0686]]]}},{"type":"Feature","properties":{"valleyId":"bisun-sanjeong","layer":"shadow","date":"2026-08-01","timeLocal":"18:00"},"geometry":{"type":"Polygon","coordinates":[[[127.3248,38.0687],[127.3248,38.06866],[127.32475,38.06866],[127.32476,38.06859],[127.32482,38.06859],[127.32482,38.06863],[127.32491,38.06865],[127.32491,38.0687],[127.3248,38.0687]]]}},{"type":"Feature","properties":{"valleyId":"bisun-sanjeong","layer":"shadow","date":"2026-08-01","timeLocal":"18:00"},"geometry":{"type":"Polygon","coordinates":[[[127.32015,38.06851],[127.32015,38.06843],[127.32022,38.06843],[127.32022,38.06851],[127.32015,38.06851]]]}},{"type":"Feature","properties":{"valleyId":"bisun-sanjeong","layer":"shadow","date":"2026-08-01","timeLocal":"18:00"},"geometry":{"type":"Polygon","coordinates":[[[127.30892,38.06829],[127.30892,38.06824],[127.30899,38.06824],[127.30899,38.06829],[127.30892,38.06829]]]}},{"type":"Feature","properties":{"valleyId":"bisun-sanjeong","layer":"shadow","date":"2026-08-01","timeLocal":"18:00"},"geometry":{"type":"Polygon","coordinates":[[[127.32599,38.06853],[127.32599,38.06848],[127.32606,38.06848],[127.32606,38.06854],[127.32599,38.06853]]]}},{"type":"Feature","properties":{"valleyId":"bisun-sanjeong","layer":"shadow","date":"2026-08-01","timeLocal":"18:00"},"geometry":{"type":"Polygon","coordinates":[[[127.32387,38.0685],[127.32387,38.06843],[127.32398,38.06843],[127.32396,38.06851],[127.32387,38.0685]]]}},{"type":"Feature","properties":{"valleyId":"bisun-sanjeong","layer":"shadow","date":"2026-08-01","timeLocal":"18:00"},"geometry":{"type":"Polygon","coordinates":[[[127.30915,38.0682],[127.30915,38.06815],[127.30924,38.06815],[127.30924,38.0682],[127.30915,38.0682]]]}},{"type":"Feature","properties":{"valleyId":"bisun-sanjeong","layer":"shadow","date":"2026-08-01","timeLocal":"18:00"},"geometry":{"type":"Polygon","coordinates":[[[127.31068,38.06815],[127.31068,38.06808],[127.31075,38.06808],[127.31074,38.06815],[127.31068,38.06815]]]}},{"type":"Feature","properties":{"valleyId":"bisun-sanjeong","layer":"shadow","date":"2026-08-01","timeLocal":"18:00"},"geometry":{"type":"Polygon","coordinates":[[[127.32538,38.06835],[127.32538,38.06829],[127.32545,38.06829],[127.32544,38.06835],[127.32538,38.06835]]]}},{"type":"Feature","properties":{"valleyId":"bisun-sanjeong","layer":"shadow","date":"2026-08-01","timeLocal":"18:00"},"geometry":{"type":"Polygon","coordinates":[[[127.32302,38.06871],[127.32302,38.06865],[127.32316,38.06855],[127.32318,38.06848],[127.32325,38.06842],[127.32339,38.06841],[127.32339,38.06826],[127.32346,38.06823],[127.32346,38.06819],[127.32358,38.06819],[127.32358,38.06825],[127.32353,38.06825],[127.32353,38.0683],[127.32348,38.06832],[127.32348,38.06841],[127.32341,38.06841],[127.32337,38.06855],[127.32327,38.06862],[127.32313,38.06866],[127.32311,38.06871],[127.32302,38.06871]]]}},{"type":"Feature","properties":{"valleyId":"bisun-sanjeong","layer":"shadow","date":"2026-08-01","timeLocal":"18:00"},"geometry":{"type":"Polygon","coordinates":[[[127.32371,38.06843],[127.32371,38.0683],[127.32376,38.06829],[127.32374,38.06818],[127.3236,38.06818],[127.3236,38.0681],[127.32354,38.06808],[127.32354,38.06803],[127.32376,38.06805],[127.32376,38.06818],[127.3239,38.0682],[127.32387,38.06843],[127.32371,38.06843]]]}},{"type":"Feature","properties":{"valleyId":"bisun-sanjeong","layer":"shadow","date":"2026-08-01","timeLocal":"18:00"},"geometry":{"type":"Polygon","coordinates":[[[127.32565,38.06819],[127.3257,38.06804],[127.32579,38.06804],[127.32581,38.06815],[127.32577,38.06815],[127.32574,38.06819],[127.32565,38.06819]]]}},{"type":"Feature","properties":{"valleyId":"bisun-sanjeong","layer":"shadow","date":"2026-08-01","timeLocal":"18:00"},"geometry":{"type":"Polygon","coordinates":[[[127.32547,38.06827],[127.32547,38.06806],[127.32543,38.06802],[127.32543,38.06797],[127.32554,38.06799],[127.32554,38.06806],[127.32559,38.06808],[127.32556,38.06819],[127.32563,38.06819],[127.32561,38.06826],[127.32547,38.06827]]]}},{"type":"Feature","properties":{"valleyId":"bisun-sanjeong","layer":"shadow","date":"2026-08-01","timeLocal":"18:00"},"geometry":{"type":"Polygon","coordinates":[[[127.30957,38.06769],[127.30957,38.06752],[127.30964,38.06753],[127.30964,38.06769],[127.30957,38.06769]]]}},{"type":"Feature","properties":{"valleyId":"bisun-sanjeong","layer":"shadow","date":"2026-08-01","timeLocal":"18:00"},"geometry":{"type":"Polygon","coordinates":[[[127.32701,38.06781],[127.32701,38.06776],[127.3271,38.06776],[127.3271,38.06781],[127.32701,38.06781]]]}},{"type":"Feature","properties":{"valleyId":"bisun-sanjeong","layer":"shadow","date":"2026-08-01","timeLocal":"18:00"},"geometry":{"type":"Polygon","coordinates":[[[127.32397,38.06784],[127.32398,38.06766],[127.32405,38.06766],[127.32405,38.0677],[127.32418,38.06773],[127.32416,38.06782],[127.32397,38.06784]]]}},{"type":"Feature","properties":{"valleyId":"bisun-sanjeong","layer":"shadow","date":"2026-08-01","timeLocal":"18:00"},"geometry":{"type":"Polygon","coordinates":[[[127.32598,38.06807],[127.32598,38.06801],[127.32591,38.06797],[127.32591,38.06794],[127.32584,38.06788],[127.3258,38.06788],[127.3258,38.06783],[127.32589,38.06783],[127.32589,38.06776],[127.32582,38.06774],[127.32582,38.06768],[127.32592,38.06769],[127.32598,38.06776],[127.326,38.06785],[127.32612,38.06789],[127.32609,38.06801],[127.32604,38.06803],[127.32604,38.06807],[127.32598,38.06807]]]}},{"type":"Feature","properties":{"valleyId":"bisun-sanjeong","layer":"shadow","date":"2026-08-01","timeLocal":"18:00"},"geometry":{"type":"Polygon","coordinates":[[[127.31454,38.06776],[127.31454,38.0677],[127.31458,38.0677],[127.31461,38.06765],[127.31459,38.06751],[127.31468,38.06751],[127.3147,38.06763],[127.31465,38.06767],[127.31465,38.06776],[127.31454,38.06776]]]}},{"type":"Feature","properties":{"valleyId":"bisun-sanjeong","layer":"shadow","date":"2026-08-01","timeLocal":"18:00"},"geometry":{"type":"Polygon","coordinates":[[[127.3271,38.06776],[127.3271,38.06765],[127.32722,38.06765],[127.32719,38.06774],[127.3271,38.06776]]]}},{"type":"Feature","properties":{"valleyId":"bisun-sanjeong","layer":"shadow","date":"2026-08-01","timeLocal":"18:00"},"geometry":{"type":"Polygon","coordinates":[[[127.32267,38.06813],[127.3226,38.06805],[127.32263,38.06789],[127.3227,38.06784],[127.32295,38.06784],[127.32295,38.06766],[127.32288,38.06764],[127.32289,38.06753],[127.32309,38.06754],[127.32314,38.0675],[127.32341,38.06751],[127.32341,38.06761],[127.3233,38.06763],[127.32329,38.06785],[127.32315,38.06785],[127.32315,38.06788],[127.32306,38.0679],[127.32312,38.0681],[127.32294,38.06811],[127.32294,38.06808],[127.32287,38.06808],[127.32285,38.06813],[127.32267,38.06813]]]}},{"type":"Feature","properties":{"valleyId":"bisun-sanjeong","layer":"shadow","date":"2026-08-01","timeLocal":"18:00"},"geometry":{"type":"Polygon","coordinates":[[[127.32701,38.06765],[127.32701,38.06754],[127.3271,38.06754],[127.32708,38.06765],[127.32701,38.06765]]]}},{"type":"Feature","properties":{"valleyId":"bisun-sanjeong","layer":"shadow","date":"2026-08-01","timeLocal":"18:00"},"geometry":{"type":"Polygon","coordinates":[[[127.3287,38.0676],[127.32861,38.06758],[127.32856,38.06754],[127.32856,38.06749],[127.32868,38.06749],[127.32875,38.06751],[127.32875,38.06755],[127.32881,38.06755],[127.32881,38.0676],[127.3287,38.0676]]]}},{"type":"Feature","properties":{"valleyId":"bisun-sanjeong","layer":"shadow","date":"2026-08-01","timeLocal":"18:00"},"geometry":{"type":"Polygon","coordinates":[[[127.31211,38.06745],[127.31213,38.06724],[127.31254,38.06726],[127.31254,38.06731],[127.31252,38.06735],[127.31247,38.06735],[127.31247,38.06739],[127.31211,38.06745]]]}},{"type":"Feature","properties":{"valleyId":"bisun-sanjeong","layer":"shadow","date":"2026-08-01","timeLocal":"18:00"},"geometry":{"type":"Polygon","coordinates":[[[127.32601,38.06756],[127.32599,38.06738],[127.32608,38.06738],[127.32608,38.06756],[127.32601,38.06756]]]}},{"type":"Feature","properties":{"valleyId":"bisun-sanjeong","layer":"shadow","date":"2026-08-01","timeLocal":"18:00"},"geometry":{"type":"Polygon","coordinates":[[[127.31254,38.06724],[127.31254,38.06717],[127.31264,38.06717],[127.31263,38.06724],[127.31254,38.06724]]]}},{"type":"Feature","properties":{"valleyId":"bisun-sanjeong","layer":"shadow","date":"2026-08-01","timeLocal":"18:00"},"geometry":{"type":"Polygon","coordinates":[[[127.31423,38.06727],[127.31423,38.06719],[127.3143,38.0672],[127.31432,38.06727],[127.31423,38.06727]]]}},{"type":"Feature","properties":{"valleyId":"bisun-sanjeong","layer":"shadow","date":"2026-08-01","timeLocal":"18:00"},"geometry":{"type":"Polygon","coordinates":[[[127.32722,38.06747],[127.32722,38.06736],[127.32734,38.06736],[127.32736,38.06744],[127.32731,38.06747],[127.32722,38.06747]]]}},{"type":"Feature","properties":{"valleyId":"bisun-sanjeong","layer":"shadow","date":"2026-08-01","timeLocal":"18:00"},"geometry":{"type":"Polygon","coordinates":[[[127.31015,38.06739],[127.31015,38.06733],[127.3101,38.06732],[127.31011,38.0671],[127.3102,38.0671],[127.31017,38.06724],[127.31026,38.06726],[127.31026,38.06735],[127.31021,38.06739],[127.31015,38.06739]]]}},{"type":"Feature","properties":{"valleyId":"bisun-sanjeong","layer":"shadow","date":"2026-08-01","timeLocal":"18:00"},"geometry":{"type":"Polygon","coordinates":[[[127.32039,38.07226],[127.32018,38.07211],[127.31984,38.072],[127.31973,38.07185],[127.31973,38.0718],[127.31967,38.07176],[127.31962,38.07165],[127.31949,38.07163],[127.31949,38.07158],[127.31944,38.07154],[127.31933,38.07152],[127.31931,38.07145],[127.31922,38.07141],[127.31922,38.07136],[127.31913,38.07128],[127.31893,38.07121],[127.31888,38.07115],[127.31875,38.07113],[127.31861,38.07102],[127.31859,38.07097],[127.31843,38.07095],[127.31844,38.07079],[127.31839,38.07073],[127.31839,38.07066],[127.31823,38.07057],[127.31821,38.07046],[127.31817,38.07042],[127.31803,38.07039],[127.31799,38.07031],[127.31792,38.07031],[127.31785,38.07026],[127.31788,38.06999],[127.31784,38.06997],[127.31782,38.06988],[127.31777,38.06988],[127.31764,38.06977],[127.31764,38.06971],[127.31757,38.06968],[127.31757,38.0696],[127.31753,38.06957],[127.31755,38.06942],[127.31751,38.0694],[127.31749,38.06933],[127.3174,38.06929],[127.3174,38.06924],[127.31747,38.06922],[127.31748,38.0689],[127.31759,38.06879],[127.3176,38.06863],[127.31753,38.06859],[127.31755,38.06849],[127.31749,38.06847],[127.31749,38.06834],[127.31765,38.06831],[127.31767,38.06824],[127.31772,38.06822],[127.31772,38.06807],[127.31768,38.06804],[127.31768,38.06798],[127.31773,38.06795],[127.31775,38.06771],[127.31764,38.0676],[127.31753,38.06758],[127.31735,38.06744],[127.31731,38.06733],[127.31722,38.06731],[127.3172,38.06718],[127.31729,38.06718],[127.31735,38.06724],[127.31735,38.06731],[127.31747,38.06733],[127.31751,38.06739],[127.31762,38.06742],[127.31767,38.0675],[127.31783,38.0675],[127.31782,38.06764],[127.31791,38.0677],[127.31791,38.06773],[127.31798,38.06774],[127.318,38.06777],[127.31816,38.06777],[127.31816,38.06797],[127.31829,38.06803],[127.31834,38.06815],[127.3184,38.06817],[127.31845,38.0683],[127.31849,38.06832],[127.31848,38.06863],[127.31853,38.06863],[127.31853,38.06868],[127.31857,38.06868],[127.31857,38.06877],[127.3185,38.06877],[127.31848,38.06882],[127.31848,38.06897],[127.31866,38.06913],[127.31881,38.06913],[127.3188,38.06968],[127.31885,38.06969],[127.31884,38.06984],[127.31896,38.06993],[127.31897,38.07022],[127.31913,38.07022],[127.31913,38.07033],[127.31924,38.07038],[127.31929,38.07049],[127.31947,38.0705],[127.31947,38.07055],[127.31956,38.07057],[127.3196,38.07064],[127.31969,38.07068],[127.31969,38.07073],[127.3198,38.07077],[127.31991,38.07093],[127.32,38.07101],[127.32014,38.07105],[127.32014,38.0711],[127.32023,38.07114],[127.32032,38.07127],[127.32041,38.07128],[127.32041,38.07132],[127.32047,38.07132],[127.32047,38.07138],[127.32056,38.07143],[127.32058,38.0717],[127.32067,38.07179],[127.32067,38.07185],[127.32062,38.07188],[127.32062,38.07194],[127.32046,38.07208],[127.32046,38.07215],[127.32055,38.07221],[127.32061,38.07221],[127.32061,38.07226],[127.32039,38.07226]]]}},{"type":"Feature","properties":{"valleyId":"bisun-sanjeong","layer":"shadow","date":"2026-08-01","timeLocal":"18:00"},"geometry":{"type":"Polygon","coordinates":[[[127.31799,38.06723],[127.31799,38.06714],[127.31809,38.06714],[127.31811,38.06721],[127.31799,38.06723]]]}},{"type":"Feature","properties":{"valleyId":"bisun-sanjeong","layer":"shadow","date":"2026-08-01","timeLocal":"18:00"},"geometry":{"type":"Polygon","coordinates":[[[127.3171,38.0672],[127.31706,38.06718],[127.31706,38.06709],[127.31715,38.06709],[127.31717,38.06713],[127.31717,38.0672],[127.3171,38.0672]]]}},{"type":"Feature","properties":{"valleyId":"bisun-sanjeong","layer":"shadow","date":"2026-08-01","timeLocal":"18:00"},"geometry":{"type":"Polygon","coordinates":[[[127.32668,38.06806],[127.32671,38.06793],[127.32669,38.06788],[127.32662,38.06784],[127.32663,38.06753],[127.32668,38.06737],[127.32675,38.0673],[127.32675,38.06725],[127.32695,38.06727],[127.327,38.06721],[127.32707,38.06722],[127.32706,38.06731],[127.32693,38.06734],[127.32693,38.06738],[127.32688,38.06738],[127.32688,38.06743],[127.32683,38.06745],[127.32683,38.06761],[127.32687,38.06763],[127.32687,38.06774],[127.32678,38.06777],[127.32678,38.06784],[127.32682,38.06784],[127.32685,38.06788],[127.32684,38.06797],[127.32675,38.06802],[127.32675,38.06806],[127.32668,38.06806]]]}},{"type":"Feature","properties":{"valleyId":"bisun-sanjeong","layer":"shadow","date":"2026-08-01","timeLocal":"18:00"},"geometry":{"type":"Polygon","coordinates":[[[127.32838,38.06749],[127.32836,38.06741],[127.32823,38.06736],[127.32818,38.06723],[127.32827,38.06723],[127.32836,38.06736],[127.32854,38.06744],[127.32854,38.06749],[127.32838,38.06749]]]}},{"type":"Feature","properties":{"valleyId":"bisun-sanjeong","layer":"shadow","date":"2026-08-01","timeLocal":"18:00"},"geometry":{"type":"Polygon","coordinates":[[[127.3146,38.06706],[127.3146,38.06698],[127.31471,38.06699],[127.31471,38.06706],[127.3146,38.06706]]]}},{"type":"Feature","properties":{"valleyId":"bisun-sanjeong","layer":"shadow","date":"2026-08-01","timeLocal":"18:00"},"geometry":{"type":"Polygon","coordinates":[[[127.3177,38.06712],[127.3177,38.06703],[127.31779,38.06701],[127.31781,38.0671],[127.3177,38.06712]]]}},{"type":"Feature","properties":{"valleyId":"bisun-sanjeong","layer":"shadow","date":"2026-08-01","timeLocal":"18:00"},"geometry":{"type":"Polygon","coordinates":[[[127.32711,38.06723],[127.32714,38.06713],[127.3273,38.06711],[127.32729,38.06718],[127.32723,38.06718],[127.32718,38.06724],[127.32711,38.06723]]]}},{"type":"Feature","properties":{"valleyId":"bisun-sanjeong","layer":"shadow","date":"2026-08-01","timeLocal":"18:00"},"geometry":{"type":"Polygon","coordinates":[[[127.32618,38.06726],[127.32606,38.06715],[127.32607,38.06709],[127.32623,38.0671],[127.32622,38.06713],[127.32634,38.06713],[127.32634,38.06719],[127.32629,38.06719],[127.32624,38.06726],[127.32618,38.06726]]]}},{"type":"Feature","properties":{"valleyId":"bisun-sanjeong","layer":"shadow","date":"2026-08-01","timeLocal":"18:00"},"geometry":{"type":"Polygon","coordinates":[[[127.30981,38.06701],[127.30982,38.06688],[127.30986,38.06688],[127.30986,38.06683],[127.31004,38.06683],[127.31004,38.06688],[127.30997,38.06692],[127.30997,38.06699],[127.30981,38.06701]]]}},{"type":"Feature","properties":{"valleyId":"bisun-sanjeong","layer":"shadow","date":"2026-08-01","timeLocal":"18:00"},"geometry":{"type":"Polygon","coordinates":[[[127.32755,38.06713],[127.32755,38.06708],[127.32759,38.06704],[127.32766,38.06704],[127.32766,38.0671],[127.32762,38.06713],[127.32755,38.06713]]]}},{"type":"Feature","properties":{"valleyId":"bisun-sanjeong","layer":"shadow","date":"2026-08-01","timeLocal":"18:00"},"geometry":{"type":"Polygon","coordinates":[[[127.31798,38.06694],[127.31798,38.06689],[127.31805,38.06689],[127.31804,38.06694],[127.31798,38.06694]]]}},{"type":"Feature","properties":{"valleyId":"bisun-sanjeong","layer":"shadow","date":"2026-08-01","timeLocal":"18:00"},"geometry":{"type":"Polygon","coordinates":[[[127.31627,38.06695],[127.31625,38.06685],[127.31631,38.06685],[127.31636,38.06688],[127.31636,38.06694],[127.31627,38.06695]]]}},{"type":"Feature","properties":{"valleyId":"bisun-sanjeong","layer":"shadow","date":"2026-08-01","timeLocal":"18:00"},"geometry":{"type":"Polygon","coordinates":[[[127.31476,38.0669],[127.31476,38.06681],[127.31488,38.06683],[127.31488,38.0669],[127.31476,38.0669]]]}},{"type":"Feature","properties":{"valleyId":"bisun-sanjeong","layer":"shadow","date":"2026-08-01","timeLocal":"18:00"},"geometry":{"type":"Polygon","coordinates":[[[127.31265,38.06678],[127.31265,38.06672],[127.31271,38.06672],[127.31271,38.06678],[127.31265,38.06678]]]}},{"type":"Feature","properties":{"valleyId":"bisun-sanjeong","layer":"shadow","date":"2026-08-01","timeLocal":"18:00"},"geometry":{"type":"Polygon","coordinates":[[[127.32575,38.06696],[127.32573,38.06689],[127.3258,38.06689],[127.32582,38.06696],[127.32575,38.06696]]]}},{"type":"Feature","properties":{"valleyId":"bisun-sanjeong","layer":"shadow","date":"2026-08-01","timeLocal":"18:00"},"geometry":{"type":"Polygon","coordinates":[[[127.31237,38.06677],[127.31237,38.06668],[127.31244,38.06668],[127.31244,38.06677],[127.31237,38.06677]]]}},{"type":"Feature","properties":{"valleyId":"bisun-sanjeong","layer":"shadow","date":"2026-08-01","timeLocal":"18:00"},"geometry":{"type":"Polygon","coordinates":[[[127.30961,38.06868],[127.30964,38.06853],[127.3098,38.06845],[127.30985,38.06836],[127.31006,38.06832],[127.31008,38.06818],[127.31006,38.06814],[127.30995,38.06814],[127.3099,38.0682],[127.30981,38.06819],[127.30972,38.06814],[127.30972,38.0681],[127.30958,38.0681],[127.30958,38.06814],[127.30938,38.06815],[127.30938,38.06808],[127.30931,38.06804],[127.30931,38.06797],[127.30943,38.06795],[127.30963,38.06801],[127.30963,38.06796],[127.30972,38.0679],[127.30979,38.06791],[127.30991,38.06778],[127.31005,38.06777],[127.31009,38.06773],[127.31009,38.06764],[127.30998,38.06758],[127.30998,38.06753],[127.31005,38.06751],[127.3101,38.06742],[127.31017,38.06742],[127.31017,38.0675],[127.31028,38.0675],[127.31028,38.06743],[127.31037,38.06741],[127.31038,38.06734],[127.31056,38.06736],[127.31058,38.06741],[127.31067,38.06741],[127.31067,38.06734],[127.3106,38.06734],[127.3106,38.06729],[127.31074,38.06727],[127.31074,38.0672],[127.31079,38.0672],[127.31086,38.06711],[127.31086,38.06702],[127.31082,38.06698],[127.31073,38.06698],[127.31073,38.06686],[127.31089,38.06686],[127.31091,38.06682],[127.31098,38.06682],[127.31098,38.06691],[127.31105,38.06695],[127.31104,38.06699],[127.3112,38.06701],[127.31121,38.06692],[127.31137,38.06692],[127.31139,38.06681],[127.31153,38.06683],[127.31155,38.06678],[127.31162,38.06678],[127.3116,38.06667],[127.31178,38.06667],[127.31182,38.06676],[127.31189,38.06678],[127.31198,38.06686],[127.31198,38.06689],[127.31207,38.06689],[127.31212,38.06682],[127.31221,38.06682],[127.31221,38.0669],[127.31225,38.0669],[127.31225,38.06699],[127.31191,38.06704],[127.31191,38.06693],[127.3118,38.06691],[127.31177,38.06705],[127.31161,38.06705],[127.31148,38.06708],[127.31149,38.06725],[127.31147,38.06728],[127.31133,38.0673],[127.31133,38.06741],[127.3109,38.06742],[127.3109,38.06747],[127.31103,38.06747],[127.31103,38.06753],[127.31094,38.06753],[127.31094,38.06762],[127.31089,38.06762],[127.31089,38.06765],[127.31073,38.06765],[127.3106,38.06767],[127.31059,38.0677],[127.31046,38.0677],[127.31048,38.06786],[127.31029,38.0679],[127.31029,38.06806],[127.31061,38.06806],[127.31058,38.06821],[127.31054,38.06821],[127.31044,38.06828],[127.3104,38.06838],[127.31028,38.06842],[127.31028,38.06847],[127.31017,38.06847],[127.31012,38.06852],[127.31003,38.06852],[127.30998,38.06859],[127.30991,38.06859],[127.30984,38.06865],[127.30961,38.06868]],[[127.30997,38.06793],[127.31009,38.06793],[127.31009,38.06786],[127.31,38.06785],[127.30997,38.06793]],[[127.31085,38.06733],[127.31097,38.06733],[127.31104,38.06726],[127.31104,38.06718],[127.31093,38.06718],[127.31093,38.06722],[127.31088,38.06722],[127.31086,38.06725],[127.31085,38.06733]]]}},{"type":"Feature","properties":{"valleyId":"bisun-sanjeong","layer":"shadow","date":"2026-08-01","timeLocal":"18:00"},"geometry":{"type":"Polygon","coordinates":[[[127.31581,38.06696],[127.31581,38.06689],[127.31577,38.06678],[127.31572,38.06678],[127.31572,38.06673],[127.31579,38.06673],[127.31579,38.06677],[127.31588,38.06679],[127.31588,38.06686],[127.31595,38.06688],[127.31595,38.06693],[127.3159,38.06697],[127.31581,38.06696]]]}},{"type":"Feature","properties":{"valleyId":"bisun-sanjeong","layer":"shadow","date":"2026-08-01","timeLocal":"18:00"},"geometry":{"type":"Polygon","coordinates":[[[127.32716,38.06691],[127.32717,38.06684],[127.32735,38.06684],[127.32735,38.06691],[127.32716,38.06691]]]}},{"type":"Feature","properties":{"valleyId":"bisun-sanjeong","layer":"shadow","date":"2026-08-01","timeLocal":"18:00"},"geometry":{"type":"Polygon","coordinates":[[[127.32289,38.06746],[127.32289,38.06743],[127.32282,38.06739],[127.32282,38.06734],[127.32301,38.0673],[127.32301,38.06712],[127.32283,38.06701],[127.32283,38.0669],[127.32286,38.06687],[127.32295,38.06687],[127.32293,38.06674],[127.32302,38.06673],[127.32308,38.06687],[127.32313,38.06687],[127.32312,38.06729],[127.32303,38.0673],[127.32303,38.06741],[127.32296,38.06746],[127.32289,38.06746]]]}},{"type":"Feature","properties":{"valleyId":"bisun-sanjeong","layer":"shadow","date":"2026-08-01","timeLocal":"18:00"},"geometry":{"type":"Polygon","coordinates":[[[127.31153,38.0666],[127.31149,38.06656],[127.31149,38.06649],[127.3116,38.06651],[127.3116,38.0666],[127.31153,38.0666]]]}},{"type":"Feature","properties":{"valleyId":"bisun-sanjeong","layer":"shadow","date":"2026-08-01","timeLocal":"18:00"},"geometry":{"type":"Polygon","coordinates":[[[127.31814,38.06678],[127.31819,38.06658],[127.31828,38.06657],[127.31828,38.06669],[127.31821,38.06678],[127.31814,38.06678]]]}},{"type":"Feature","properties":{"valleyId":"bisun-sanjeong","layer":"shadow","date":"2026-08-01","timeLocal":"18:00"},"geometry":{"type":"Polygon","coordinates":[[[127.32598,38.06702],[127.32598,38.06686],[127.32594,38.06682],[127.32592,38.06666],[127.32603,38.06668],[127.326,38.0668],[127.32607,38.06684],[127.32607,38.067],[127.32598,38.06702]]]}},{"type":"Feature","properties":{"valleyId":"bisun-sanjeong","layer":"shadow","date":"2026-08-01","timeLocal":"18:00"},"geometry":{"type":"Polygon","coordinates":[[[127.31655,38.06656],[127.31655,38.06651],[127.31662,38.06651],[127.31662,38.06656],[127.31655,38.06656]]]}},{"type":"Feature","properties":{"valleyId":"bisun-sanjeong","layer":"shadow","date":"2026-08-01","timeLocal":"18:00"},"geometry":{"type":"Polygon","coordinates":[[[127.31641,38.06649],[127.31639,38.06641],[127.31646,38.06642],[127.31648,38.06649],[127.31641,38.06649]]]}},{"type":"Feature","properties":{"valleyId":"bisun-sanjeong","layer":"shadow","date":"2026-08-01","timeLocal":"18:00"},"geometry":{"type":"Polygon","coordinates":[[[127.31689,38.06649],[127.31689,38.0664],[127.31696,38.0664],[127.31698,38.0665],[127.31689,38.06649]]]}},{"type":"Feature","properties":{"valleyId":"bisun-sanjeong","layer":"shadow","date":"2026-08-01","timeLocal":"18:00"},"geometry":{"type":"Polygon","coordinates":[[[127.32642,38.06672],[127.32649,38.06649],[127.3266,38.06649],[127.3266,38.06665],[127.32651,38.06669],[127.32651,38.06672],[127.32642,38.06672]]]}},{"type":"Feature","properties":{"valleyId":"bisun-sanjeong","layer":"shadow","date":"2026-08-01","timeLocal":"18:00"},"geometry":{"type":"Polygon","coordinates":[[[127.31523,38.0664],[127.31523,38.06629],[127.31553,38.06629],[127.31553,38.06637],[127.31541,38.06636],[127.31539,38.0664],[127.31523,38.0664]]]}},{"type":"Feature","properties":{"valleyId":"bisun-sanjeong","layer":"shadow","date":"2026-08-01","timeLocal":"18:00"},"geometry":{"type":"Polygon","coordinates":[[[127.31488,38.06663],[127.31489,38.06628],[127.31498,38.06629],[127.31505,38.06632],[127.315,38.06645],[127.31514,38.06647],[127.31516,38.06654],[127.31504,38.06659],[127.31495,38.06659],[127.31495,38.06663],[127.31488,38.06663]]]}},{"type":"Feature","properties":{"valleyId":"bisun-sanjeong","layer":"shadow","date":"2026-08-01","timeLocal":"18:00"},"geometry":{"type":"Polygon","coordinates":[[[127.3171,38.06632],[127.3171,38.06624],[127.31717,38.06625],[127.31717,38.06632],[127.3171,38.06632]]]}},{"type":"Feature","properties":{"valleyId":"bisun-sanjeong","layer":"shadow","date":"2026-08-01","timeLocal":"18:00"},"geometry":{"type":"Polygon","coordinates":[[[127.31731,38.06619],[127.31733,38.06609],[127.3174,38.06609],[127.31738,38.06619],[127.31731,38.06619]]]}},{"type":"Feature","properties":{"valleyId":"bisun-sanjeong","layer":"shadow","date":"2026-08-01","timeLocal":"18:00"},"geometry":{"type":"Polygon","coordinates":[[[127.31844,38.06641],[127.31845,38.06626],[127.31838,38.06619],[127.31838,38.0661],[127.3185,38.0661],[127.31865,38.06623],[127.31865,38.06634],[127.31861,38.06634],[127.31851,38.06641],[127.31844,38.06641]]]}},{"type":"Feature","properties":{"valleyId":"bisun-sanjeong","layer":"shadow","date":"2026-08-01","timeLocal":"18:00"},"geometry":{"type":"Polygon","coordinates":[[[127.31152,38.06602],[127.31152,38.06597],[127.31162,38.06595],[127.31161,38.066],[127.31152,38.06602]]]}},{"type":"Feature","properties":{"valleyId":"bisun-sanjeong","layer":"shadow","date":"2026-08-01","timeLocal":"18:00"},"geometry":{"type":"Polygon","coordinates":[[[127.32563,38.06619],[127.32563,38.06613],[127.3257,38.06613],[127.3257,38.06619],[127.32563,38.06619]]]}},{"type":"Feature","properties":{"valleyId":"bisun-sanjeong","layer":"shadow","date":"2026-08-01","timeLocal":"18:00"},"geometry":{"type":"Polygon","coordinates":[[[127.31453,38.06596],[127.31454,38.06587],[127.31469,38.06587],[127.31467,38.06596],[127.31453,38.06596]]]}},{"type":"Feature","properties":{"valleyId":"bisun-sanjeong","layer":"shadow","date":"2026-08-01","timeLocal":"18:00"},"geometry":{"type":"Polygon","coordinates":[[[127.31832,38.06606],[127.3183,38.0659],[127.31843,38.0659],[127.31845,38.06599],[127.31838,38.06603],[127.31838,38.06606],[127.31832,38.06606]]]}},{"type":"Feature","properties":{"valleyId":"bisun-sanjeong","layer":"shadow","date":"2026-08-01","timeLocal":"18:00"},"geometry":{"type":"Polygon","coordinates":[[[127.3257,38.06612],[127.3257,38.06599],[127.32577,38.06595],[127.32577,38.0659],[127.32584,38.0659],[127.32586,38.06606],[127.32582,38.06606],[127.32577,38.06612],[127.3257,38.06612]]]}},{"type":"Feature","properties":{"valleyId":"bisun-sanjeong","layer":"shadow","date":"2026-08-01","timeLocal":"18:00"},"geometry":{"type":"Polygon","coordinates":[[[127.32361,38.06764],[127.32362,38.06755],[127.32371,38.06746],[127.32371,38.06733],[127.32378,38.0673],[127.32378,38.06726],[127.32383,38.06726],[127.32383,38.06722],[127.32394,38.06719],[127.32399,38.06714],[127.3241,38.06712],[127.32422,38.06703],[127.32422,38.067],[127.32429,38.06698],[127.32436,38.06691],[127.32441,38.06691],[127.32441,38.06687],[127.32448,38.06685],[127.32457,38.06677],[127.32466,38.06675],[127.32468,38.06671],[127.32482,38.06672],[127.32482,38.06664],[127.32478,38.06664],[127.32478,38.06657],[127.32483,38.06652],[127.32483,38.06617],[127.32493,38.06609],[127.325,38.06587],[127.32511,38.06587],[127.32511,38.06584],[127.32534,38.06586],[127.32537,38.0658],[127.3255,38.06581],[127.3255,38.06593],[127.32541,38.06595],[127.32541,38.06602],[127.32545,38.06604],[127.32545,38.06615],[127.32552,38.06615],[127.32552,38.06624],[127.32549,38.06627],[127.32538,38.06631],[127.32537,38.06652],[127.3253,38.06652],[127.3253,38.06663],[127.32526,38.06663],[127.32525,38.06669],[127.32521,38.06668],[127.32523,38.06683],[127.32527,38.06683],[127.32527,38.06692],[127.3252,38.06696],[127.3252,38.06699],[127.32504,38.06701],[127.32504,38.06688],[127.32491,38.06681],[127.32484,38.06681],[127.32461,38.06691],[127.32454,38.06691],[127.32452,38.067],[127.32465,38.067],[127.32465,38.06706],[127.32495,38.06704],[127.32495,38.06711],[127.32499,38.06711],[127.32499,38.06717],[127.3249,38.06719],[127.3249,38.06722],[127.32483,38.06722],[127.32481,38.06713],[127.32467,38.06711],[127.32467,38.06733],[127.32444,38.06732],[127.32444,38.06736],[127.32433,38.06738],[127.32432,38.06759],[127.32398,38.06759],[127.32398,38.06748],[127.32389,38.06748],[127.32375,38.06749],[127.32373,38.06762],[127.32361,38.06764]]]}},{"type":"Feature","properties":{"valleyId":"bisun-sanjeong","layer":"shadow","date":"2026-08-01","timeLocal":"18:00"},"geometry":{"type":"Polygon","coordinates":[[[127.31743,38.06576],[127.31744,38.06565],[127.31757,38.06566],[127.31757,38.06575],[127.31743,38.06576]]]}},{"type":"Feature","properties":{"valleyId":"bisun-sanjeong","layer":"shadow","date":"2026-08-01","timeLocal":"18:00"},"geometry":{"type":"Polygon","coordinates":[[[127.31707,38.06567],[127.31707,38.0656],[127.31716,38.06558],[127.31714,38.06567],[127.31707,38.06567]]]}},{"type":"Feature","properties":{"valleyId":"bisun-sanjeong","layer":"shadow","date":"2026-08-01","timeLocal":"18:00"},"geometry":{"type":"Polygon","coordinates":[[[127.31527,38.0657],[127.31525,38.06553],[127.31539,38.06554],[127.31539,38.06559],[127.31543,38.06559],[127.31543,38.06566],[127.31538,38.0657],[127.31527,38.0657]]]}},{"type":"Feature","properties":{"valleyId":"bisun-sanjeong","layer":"shadow","date":"2026-08-01","timeLocal":"18:00"},"geometry":{"type":"Polygon","coordinates":[[[127.31764,38.0656],[127.31764,38.06551],[127.31771,38.06551],[127.31771,38.0656],[127.31764,38.0656]]]}},{"type":"Feature","properties":{"valleyId":"bisun-sanjeong","layer":"shadow","date":"2026-08-01","timeLocal":"18:00"},"geometry":{"type":"Polygon","coordinates":[[[127.31719,38.06556],[127.31721,38.06536],[127.31728,38.06536],[127.31733,38.0654],[127.31733,38.06547],[127.31728,38.06547],[127.31726,38.06556],[127.31719,38.06556]]]}},{"type":"Feature","properties":{"valleyId":"bisun-sanjeong","layer":"shadow","date":"2026-08-01","timeLocal":"18:00"},"geometry":{"type":"Polygon","coordinates":[[[127.31541,38.0655],[127.31544,38.06534],[127.31557,38.06538],[127.31555,38.06548],[127.31541,38.0655]]]}},{"type":"Feature","properties":{"valleyId":"bisun-sanjeong","layer":"shadow","date":"2026-08-01","timeLocal":"18:00"},"geometry":{"type":"Polygon","coordinates":[[[127.31548,38.06525],[127.31549,38.0651],[127.31556,38.0651],[127.31555,38.06525],[127.31548,38.06525]]]}},{"type":"Feature","properties":{"valleyId":"bisun-sanjeong","layer":"shadow","date":"2026-08-01","timeLocal":"18:00"},"geometry":{"type":"Polygon","coordinates":[[[127.31551,38.06505],[127.31551,38.06494],[127.31558,38.06494],[127.31558,38.06505],[127.31551,38.06505]]]}},{"type":"Feature","properties":{"valleyId":"bisun-sanjeong","layer":"shadow","date":"2026-08-01","timeLocal":"18:00"},"geometry":{"type":"Polygon","coordinates":[[[127.31554,38.06482],[127.31554,38.06471],[127.31561,38.06471],[127.31563,38.0648],[127.31554,38.06482]]]}},{"type":"Feature","properties":{"valleyId":"bisun-sanjeong","layer":"shadow","date":"2026-08-01","timeLocal":"18:00"},"geometry":{"type":"Polygon","coordinates":[[[127.31552,38.06458],[127.31553,38.06444],[127.31559,38.06444],[127.31559,38.06458],[127.31552,38.06458]]]}},{"type":"Feature","properties":{"valleyId":"bisun-sanjeong","layer":"shadow","date":"2026-08-01","timeLocal":"18:00"},"geometry":{"type":"Polygon","coordinates":[[[127.31548,38.06433],[127.31544,38.06408],[127.31545,38.06388],[127.31554,38.06388],[127.31551,38.06404],[127.31556,38.0641],[127.31555,38.06433],[127.31548,38.06433]]]}},{"type":"Feature","properties":{"valleyId":"bisun-sanjeong","layer":"shadow","date":"2026-08-01","timeLocal":"18:00"},"geometry":{"type":"Polygon","coordinates":[[[127.3127,38.06721],[127.31268,38.06705],[127.31278,38.06703],[127.3128,38.06707],[127.31287,38.06707],[127.31294,38.06701],[127.31298,38.06701],[127.31299,38.06678],[127.31306,38.06673],[127.31322,38.06669],[127.31336,38.06657],[127.31336,38.06653],[127.31352,38.06643],[127.31356,38.06643],[127.31361,38.06634],[127.31375,38.06629],[127.3138,38.06607],[127.31392,38.06596],[127.31396,38.06597],[127.31403,38.06591],[127.31406,38.06584],[127.31415,38.06575],[127.31413,38.06563],[127.31425,38.06543],[127.31425,38.06532],[127.31432,38.06529],[127.31432,38.06518],[127.31437,38.06514],[127.31437,38.06507],[127.31442,38.06502],[127.31443,38.06448],[127.31439,38.06442],[127.31439,38.06426],[127.31444,38.06417],[127.31442,38.06394],[127.31438,38.0639],[127.31428,38.0639],[127.31424,38.06384],[127.31404,38.06382],[127.31401,38.06373],[127.31383,38.06371],[127.31383,38.06362],[127.31402,38.06359],[127.31459,38.0636],[127.31513,38.06371],[127.31528,38.064],[127.31528,38.06411],[127.31537,38.0642],[127.31539,38.06436],[127.31536,38.0649],[127.31529,38.0649],[127.31529,38.06487],[127.31524,38.06487],[127.31524,38.06481],[127.31518,38.06481],[127.31517,38.06487],[127.31511,38.06486],[127.3151,38.06513],[127.31514,38.06517],[127.31521,38.06517],[127.31526,38.06514],[127.31526,38.06503],[127.31538,38.06503],[127.31537,38.0651],[127.3153,38.06517],[127.3153,38.06539],[127.31509,38.06542],[127.31511,38.06562],[127.315,38.06564],[127.31499,38.06571],[127.31515,38.06577],[127.31515,38.06582],[127.31488,38.06587],[127.31489,38.06544],[127.31484,38.06542],[127.31487,38.06526],[127.3148,38.06522],[127.3148,38.06517],[127.31471,38.06516],[127.31471,38.06524],[127.31464,38.06533],[127.31464,38.06545],[127.31457,38.06547],[127.31457,38.06552],[127.31461,38.06556],[127.31461,38.06579],[127.31454,38.06579],[127.31454,38.06585],[127.3144,38.06585],[127.3144,38.06588],[127.31428,38.0659],[127.31419,38.06606],[127.31412,38.06606],[127.31409,38.06624],[127.31396,38.06627],[127.31395,38.06633],[127.31391,38.06632],[127.31377,38.06643],[127.31366,38.06645],[127.31363,38.06648],[127.31356,38.06648],[127.31352,38.06652],[127.31347,38.06668],[127.31335,38.0667],[127.31335,38.06675],[127.31331,38.06675],[127.31331,38.06682],[127.31337,38.06682],[127.31339,38.06689],[127.31339,38.06695],[127.31332,38.067],[127.31321,38.067],[127.313,38.06705],[127.31302,38.06716],[127.31298,38.06718],[127.3127,38.06721]],[[127.31514,38.0653],[127.31521,38.0653],[127.31521,38.06523],[127.31514,38.06523],[127.31514,38.0653]],[[127.31476,38.06504],[127.31487,38.06504],[127.31488,38.0649],[127.31476,38.0649],[127.31476,38.06504]],[[127.3152,38.06472],[127.31527,38.06472],[127.31527,38.06467],[127.3152,38.06467],[127.3152,38.06472]],[[127.31507,38.06447],[127.31514,38.06447],[127.31514,38.06429],[127.31519,38.06425],[127.31519,38.0642],[127.31512,38.06416],[127.31512,38.06411],[127.31508,38.06407],[127.31501,38.06407],[127.31499,38.06414],[127.31505,38.06418],[127.315,38.06441],[127.31507,38.06447]],[[127.31457,38.06424],[127.31464,38.06424],[127.31467,38.06414],[127.31457,38.06415],[127.31457,38.06424]]]}}]}
