{"type":"FeatureCollection","metadata":{"description":"개방지(CHM ≤ 2 m)에 드리운 나무·지형 그림자, 2026-08-01 17:00 KST. canopy 위에 겹쳐 그린다","source":"위성 기반 추정 — Copernicus GLO-30 지형(30 m) + Meta/WRI 수관 높이(1 m CHM, 2018 촬영). 그늘 = 수관(CHM > 2 m) ∪ 나무·지형 그림자 ∪ 원거리 지형 마스크. 현장과 다를 수 있음.","datasetVersion":"2026-09-06.0","collectedAt":"2026-09-06","coordinateOrder":"[longitude, latitude]","crs":"EPSG:4326","representativeDate":"2026-08-01","hours":["10:00","11:00","12:00","13:00","14:00","15:00","16:00","17:00","18:00"],"chmAcquisition":["2018-03"],"assets":{"glo30":{"dataset":"Copernicus DEM GLO-30 (COG, s3://copernicus-dem-30m)","tiles":["Copernicus_DSM_COG_10_N38_00_E127_00_DEM"]},"chm":{"dataset":"Meta/WRI Global Canopy Height Map v1 (alsgedi_global_v6_float, 1 m, CC-BY 4.0)","quadkeys":["132110303"],"acquisition":["2018-03"]}},"method":{"gridResM":2,"canopyThresholdM":2,"bufferHalfM":25,"corridorHalfM":200,"simplifyTolM":2,"minAreaM2":25,"coordDecimals":5},"generator":"scripts/shade 0.1.0","builtAt":"2026-09-06T05:53:24Z","layer":"shadow","timeLocal":"17:00"},"features":[{"type":"Feature","properties":{"valleyId":"bisun-sanjeong","layer":"shadow","date":"2026-08-01","timeLocal":"17:00"},"geometry":{"type":"Polygon","coordinates":[[[127.3053,38.07595],[127.3053,38.0759],[127.30537,38.0759],[127.30537,38.07595],[127.3053,38.07595]]]}},{"type":"Feature","properties":{"valleyId":"bisun-sanjeong","layer":"shadow","date":"2026-08-01","timeLocal":"17:00"},"geometry":{"type":"Polygon","coordinates":[[[127.30532,38.07581],[127.30532,38.07575],[127.30539,38.07575],[127.30539,38.07581],[127.30532,38.07581]]]}},{"type":"Feature","properties":{"valleyId":"bisun-sanjeong","layer":"shadow","date":"2026-08-01","timeLocal":"17:00"},"geometry":{"type":"Polygon","coordinates":[[[127.30542,38.0757],[127.30542,38.07563],[127.30549,38.07563],[127.30549,38.0757],[127.30542,38.0757]]]}},{"type":"Feature","properties":{"valleyId":"bisun-sanjeong","layer":"shadow","date":"2026-08-01","timeLocal":"17:00"},"geometry":{"type":"Polygon","coordinates":[[[127.30742,38.07508],[127.30742,38.07501],[127.30749,38.07501],[127.30748,38.07508],[127.30742,38.07508]]]}},{"type":"Feature","properties":{"valleyId":"bisun-sanjeong","layer":"shadow","date":"2026-08-01","timeLocal":"17:00"},"geometry":{"type":"Polygon","coordinates":[[[127.3051,38.0755],[127.30509,38.07496],[127.30516,38.07496],[127.30521,38.07501],[127.30525,38.07501],[127.30525,38.07509],[127.3052,38.07509],[127.3052,38.07514],[127.30522,38.07523],[127.30527,38.07523],[127.30527,38.0753],[127.30524,38.07546],[127.3051,38.0755]]]}},{"type":"Feature","properties":{"valleyId":"bisun-sanjeong","layer":"shadow","date":"2026-08-01","timeLocal":"17:00"},"geometry":{"type":"Polygon","coordinates":[[[127.30368,38.07488],[127.30366,38.07481],[127.30375,38.07481],[127.30377,38.07488],[127.30368,38.07488]]]}},{"type":"Feature","properties":{"valleyId":"bisun-sanjeong","layer":"shadow","date":"2026-08-01","timeLocal":"17:00"},"geometry":{"type":"Polygon","coordinates":[[[127.30503,38.07487],[127.30503,38.07476],[127.3051,38.07476],[127.30509,38.07487],[127.30503,38.07487]]]}},{"type":"Feature","properties":{"valleyId":"bisun-sanjeong","layer":"shadow","date":"2026-08-01","timeLocal":"17:00"},"geometry":{"type":"Polygon","coordinates":[[[127.30359,38.07468],[127.3036,38.07463],[127.30366,38.07459],[127.30367,38.07456],[127.30373,38.07456],[127.30373,38.07467],[127.30359,38.07468]]]}},{"type":"Feature","properties":{"valleyId":"bisun-sanjeong","layer":"shadow","date":"2026-08-01","timeLocal":"17:00"},"geometry":{"type":"Polygon","coordinates":[[[127.30547,38.07518],[127.30545,38.07509],[127.30541,38.07509],[127.30543,38.07496],[127.30534,38.07493],[127.30535,38.07482],[127.30528,38.0748],[127.30528,38.07465],[127.30521,38.07463],[127.30522,38.07454],[127.30517,38.07454],[127.30517,38.07449],[127.30526,38.07449],[127.30528,38.07456],[127.30533,38.07456],[127.30535,38.07474],[127.30546,38.07484],[127.30546,38.07489],[127.3055,38.07493],[127.30554,38.07518],[127.30547,38.07518]]]}},{"type":"Feature","properties":{"valleyId":"bisun-sanjeong","layer":"shadow","date":"2026-08-01","timeLocal":"17:00"},"geometry":{"type":"Polygon","coordinates":[[[127.30516,38.07415],[127.30516,38.07409],[127.30523,38.07409],[127.30523,38.07415],[127.30516,38.07415]]]}},{"type":"Feature","properties":{"valleyId":"bisun-sanjeong","layer":"shadow","date":"2026-08-01","timeLocal":"17:00"},"geometry":{"type":"Polygon","coordinates":[[[127.30534,38.07401],[127.30534,38.07395],[127.30541,38.07395],[127.30541,38.07401],[127.30534,38.07401]]]}},{"type":"Feature","properties":{"valleyId":"bisun-sanjeong","layer":"shadow","date":"2026-08-01","timeLocal":"17:00"},"geometry":{"type":"Polygon","coordinates":[[[127.30384,38.07386],[127.30384,38.0738],[127.30391,38.07381],[127.30391,38.07386],[127.30384,38.07386]]]}},{"type":"Feature","properties":{"valleyId":"bisun-sanjeong","layer":"shadow","date":"2026-08-01","timeLocal":"17:00"},"geometry":{"type":"Polygon","coordinates":[[[127.30494,38.07465],[127.3049,38.07456],[127.30494,38.07375],[127.30499,38.07368],[127.30505,38.07368],[127.305,38.07398],[127.30501,38.07465],[127.30494,38.07465]]]}},{"type":"Feature","properties":{"valleyId":"bisun-sanjeong","layer":"shadow","date":"2026-08-01","timeLocal":"17:00"},"geometry":{"type":"Polygon","coordinates":[[[127.30555,38.07383],[127.30555,38.07376],[127.3056,38.0737],[127.30556,38.07341],[127.30561,38.0734],[127.30563,38.07327],[127.3057,38.07327],[127.30565,38.07351],[127.3057,38.07352],[127.30571,38.07369],[127.30567,38.0737],[127.30562,38.07383],[127.30555,38.07383]]]}},{"type":"Feature","properties":{"valleyId":"bisun-sanjeong","layer":"shadow","date":"2026-08-01","timeLocal":"17:00"},"geometry":{"type":"Polygon","coordinates":[[[127.30477,38.07331],[127.30477,38.0732],[127.30488,38.07322],[127.30488,38.07328],[127.30483,38.07331],[127.30477,38.07331]]]}},{"type":"Feature","properties":{"valleyId":"bisun-sanjeong","layer":"shadow","date":"2026-08-01","timeLocal":"17:00"},"geometry":{"type":"Polygon","coordinates":[[[127.30461,38.07318],[127.30461,38.07309],[127.30457,38.07304],[127.30457,38.07295],[127.30464,38.07295],[127.30468,38.0731],[127.30475,38.0731],[127.30475,38.07319],[127.30461,38.07318]]]}},{"type":"Feature","properties":{"valleyId":"bisun-sanjeong","layer":"shadow","date":"2026-08-01","timeLocal":"17:00"},"geometry":{"type":"Polygon","coordinates":[[[127.30324,38.07228],[127.30322,38.0721],[127.30329,38.0721],[127.30329,38.07217],[127.3034,38.07221],[127.3034,38.07227],[127.30324,38.07228]]]}},{"type":"Feature","properties":{"valleyId":"bisun-sanjeong","layer":"shadow","date":"2026-08-01","timeLocal":"17:00"},"geometry":{"type":"Polygon","coordinates":[[[127.30338,38.07207],[127.30338,38.07201],[127.30347,38.07201],[127.30347,38.07207],[127.30338,38.07207]]]}},{"type":"Feature","properties":{"valleyId":"bisun-sanjeong","layer":"shadow","date":"2026-08-01","timeLocal":"17:00"},"geometry":{"type":"Polygon","coordinates":[[[127.30222,38.07196],[127.30222,38.07189],[127.30231,38.07189],[127.30231,38.07196],[127.30222,38.07196]]]}},{"type":"Feature","properties":{"valleyId":"bisun-sanjeong","layer":"shadow","date":"2026-08-01","timeLocal":"17:00"},"geometry":{"type":"Polygon","coordinates":[[[127.30304,38.0721],[127.30304,38.07201],[127.30295,38.07201],[127.30295,38.07192],[127.30302,38.07192],[127.30307,38.0719],[127.30307,38.07185],[127.30314,38.07185],[127.30313,38.0719],[127.30309,38.0719],[127.30309,38.07201],[127.30315,38.07203],[127.30315,38.07208],[127.30304,38.0721]]]}},{"type":"Feature","properties":{"valleyId":"bisun-sanjeong","layer":"shadow","date":"2026-08-01","timeLocal":"17:00"},"geometry":{"type":"Polygon","coordinates":[[[127.30195,38.07169],[127.30195,38.07161],[127.30202,38.07161],[127.30202,38.07169],[127.30195,38.07169]]]}},{"type":"Feature","properties":{"valleyId":"bisun-sanjeong","layer":"shadow","date":"2026-08-01","timeLocal":"17:00"},"geometry":{"type":"Polygon","coordinates":[[[127.30318,38.07183],[127.30316,38.07167],[127.30321,38.07165],[127.30321,38.07156],[127.30328,38.07156],[127.3033,38.0718],[127.30325,38.07183],[127.30318,38.07183]]]}},{"type":"Feature","properties":{"valleyId":"bisun-sanjeong","layer":"shadow","date":"2026-08-01","timeLocal":"17:00"},"geometry":{"type":"Polygon","coordinates":[[[127.32276,38.07191],[127.32277,38.07182],[127.32283,38.07182],[127.32283,38.07191],[127.32276,38.07191]]]}},{"type":"Feature","properties":{"valleyId":"bisun-sanjeong","layer":"shadow","date":"2026-08-01","timeLocal":"17:00"},"geometry":{"type":"Polygon","coordinates":[[[127.30218,38.07158],[127.30218,38.07153],[127.30225,38.07153],[127.30225,38.07158],[127.30218,38.07158]]]}},{"type":"Feature","properties":{"valleyId":"bisun-sanjeong","layer":"shadow","date":"2026-08-01","timeLocal":"17:00"},"geometry":{"type":"Polygon","coordinates":[[[127.31982,38.07198],[127.31973,38.07185],[127.31973,38.07178],[127.31969,38.07178],[127.31964,38.07172],[127.31965,38.07167],[127.31971,38.07167],[127.31976,38.07178],[127.3198,38.07178],[127.31987,38.07187],[127.31989,38.07198],[127.31982,38.07198]]]}},{"type":"Feature","properties":{"valleyId":"bisun-sanjeong","layer":"shadow","date":"2026-08-01","timeLocal":"17:00"},"geometry":{"type":"Polygon","coordinates":[[[127.31949,38.07163],[127.31949,38.07156],[127.3196,38.07158],[127.3196,38.07163],[127.31949,38.07163]]]}},{"type":"Feature","properties":{"valleyId":"bisun-sanjeong","layer":"shadow","date":"2026-08-01","timeLocal":"17:00"},"geometry":{"type":"Polygon","coordinates":[[[127.32346,38.07153],[127.32346,38.07144],[127.32355,38.07144],[127.32355,38.07151],[127.32346,38.07153]]]}},{"type":"Feature","properties":{"valleyId":"bisun-sanjeong","layer":"shadow","date":"2026-08-01","timeLocal":"17:00"},"geometry":{"type":"Polygon","coordinates":[[[127.30518,38.07125],[127.30518,38.07114],[127.30525,38.07114],[127.30525,38.07125],[127.30518,38.07125]]]}},{"type":"Feature","properties":{"valleyId":"bisun-sanjeong","layer":"shadow","date":"2026-08-01","timeLocal":"17:00"},"geometry":{"type":"Polygon","coordinates":[[[127.32441,38.07152],[127.32444,38.07138],[127.32453,38.07138],[127.32455,38.07145],[127.32448,38.07147],[127.32448,38.07152],[127.32441,38.07152]]]}},{"type":"Feature","properties":{"valleyId":"bisun-sanjeong","layer":"shadow","date":"2026-08-01","timeLocal":"17:00"},"geometry":{"type":"Polygon","coordinates":[[[127.31933,38.07152],[127.31931,38.07145],[127.31922,38.07141],[127.3192,38.0713],[127.31929,38.0713],[127.3194,38.07138],[127.31942,38.07152],[127.31933,38.07152]]]}},{"type":"Feature","properties":{"valleyId":"bisun-sanjeong","layer":"shadow","date":"2026-08-01","timeLocal":"17:00"},"geometry":{"type":"Polygon","coordinates":[[[127.30466,38.071],[127.30466,38.07095],[127.30473,38.07095],[127.30473,38.07101],[127.30466,38.071]]]}},{"type":"Feature","properties":{"valleyId":"bisun-sanjeong","layer":"shadow","date":"2026-08-01","timeLocal":"17:00"},"geometry":{"type":"Polygon","coordinates":[[[127.31893,38.07121],[127.31888,38.07115],[127.31875,38.07113],[127.31861,38.07102],[127.31861,38.07097],[127.31868,38.07097],[127.3187,38.07101],[127.31895,38.0711],[127.319,38.07121],[127.31893,38.07121]]]}},{"type":"Feature","properties":{"valleyId":"bisun-sanjeong","layer":"shadow","date":"2026-08-01","timeLocal":"17:00"},"geometry":{"type":"Polygon","coordinates":[[[127.32401,38.0711],[127.32402,38.07105],[127.32408,38.07105],[127.32408,38.0711],[127.32401,38.0711]]]}},{"type":"Feature","properties":{"valleyId":"bisun-sanjeong","layer":"shadow","date":"2026-08-01","timeLocal":"17:00"},"geometry":{"type":"Polygon","coordinates":[[[127.32442,38.07111],[127.32443,38.07105],[127.32449,38.07105],[127.32449,38.07111],[127.32442,38.07111]]]}},{"type":"Feature","properties":{"valleyId":"bisun-sanjeong","layer":"shadow","date":"2026-08-01","timeLocal":"17:00"},"geometry":{"type":"Polygon","coordinates":[[[127.32376,38.07113],[127.32376,38.07108],[127.32372,38.07108],[127.32372,38.07101],[127.32379,38.07101],[127.32379,38.07106],[127.32383,38.07106],[127.32383,38.07113],[127.32376,38.07113]]]}},{"type":"Feature","properties":{"valleyId":"bisun-sanjeong","layer":"shadow","date":"2026-08-01","timeLocal":"17:00"},"geometry":{"type":"Polygon","coordinates":[[[127.31854,38.07097],[127.31843,38.07095],[127.31844,38.07079],[127.31839,38.07073],[127.31839,38.07064],[127.31823,38.07057],[127.31819,38.07041],[127.31831,38.07043],[127.3184,38.0705],[127.31842,38.07064],[127.31846,38.07064],[127.31855,38.07074],[127.31857,38.07081],[127.31862,38.07081],[127.31861,38.07097],[127.31854,38.07097]]]}},{"type":"Feature","properties":{"valleyId":"bisun-sanjeong","layer":"shadow","date":"2026-08-01","timeLocal":"17:00"},"geometry":{"type":"Polygon","coordinates":[[[127.30577,38.0703],[127.30575,38.07019],[127.30582,38.07019],[127.30584,38.0703],[127.30577,38.0703]]]}},{"type":"Feature","properties":{"valleyId":"bisun-sanjeong","layer":"shadow","date":"2026-08-01","timeLocal":"17:00"},"geometry":{"type":"Polygon","coordinates":[[[127.31803,38.07039],[127.31799,38.07035],[127.31799,38.07029],[127.31806,38.0703],[127.3181,38.07033],[127.3181,38.07039],[127.31803,38.07039]]]}},{"type":"Feature","properties":{"valleyId":"bisun-sanjeong","layer":"shadow","date":"2026-08-01","timeLocal":"17:00"},"geometry":{"type":"Polygon","coordinates":[[[127.32417,38.07027],[127.32417,38.0702],[127.32424,38.0702],[127.32424,38.07028],[127.32417,38.07027]]]}},{"type":"Feature","properties":{"valleyId":"bisun-sanjeong","layer":"shadow","date":"2026-08-01","timeLocal":"17:00"},"geometry":{"type":"Polygon","coordinates":[[[127.32531,38.0704],[127.32529,38.07018],[127.32536,38.07018],[127.32536,38.07026],[127.3254,38.07027],[127.3254,38.07038],[127.32531,38.0704]]]}},{"type":"Feature","properties":{"valleyId":"bisun-sanjeong","layer":"shadow","date":"2026-08-01","timeLocal":"17:00"},"geometry":{"type":"Polygon","coordinates":[[[127.3035,38.06998],[127.3035,38.06985],[127.30366,38.06987],[127.30363,38.06996],[127.3035,38.06998]]]}},{"type":"Feature","properties":{"valleyId":"bisun-sanjeong","layer":"shadow","date":"2026-08-01","timeLocal":"17:00"},"geometry":{"type":"Polygon","coordinates":[[[127.3179,38.07029],[127.31785,38.07026],[127.31786,38.07009],[127.31788,38.06997],[127.31795,38.06997],[127.31799,38.0702],[127.31797,38.07029],[127.3179,38.07029]]]}},{"type":"Feature","properties":{"valleyId":"bisun-sanjeong","layer":"shadow","date":"2026-08-01","timeLocal":"17:00"},"geometry":{"type":"Polygon","coordinates":[[[127.32506,38.07016],[127.32506,38.07007],[127.32513,38.07007],[127.32513,38.07016],[127.32506,38.07016]]]}},{"type":"Feature","properties":{"valleyId":"bisun-sanjeong","layer":"shadow","date":"2026-08-01","timeLocal":"17:00"},"geometry":{"type":"Polygon","coordinates":[[[127.32556,38.0701],[127.32557,38.06997],[127.32566,38.06997],[127.32566,38.0701],[127.32556,38.0701]]]}},{"type":"Feature","properties":{"valleyId":"bisun-sanjeong","layer":"shadow","date":"2026-08-01","timeLocal":"17:00"},"geometry":{"type":"Polygon","coordinates":[[[127.30378,38.06971],[127.30378,38.06966],[127.30385,38.06966],[127.30385,38.06971],[127.30378,38.06971]]]}},{"type":"Feature","properties":{"valleyId":"bisun-sanjeong","layer":"shadow","date":"2026-08-01","timeLocal":"17:00"},"geometry":{"type":"Polygon","coordinates":[[[127.3244,38.07019],[127.3244,38.07013],[127.32447,38.07008],[127.32443,38.06995],[127.32452,38.06994],[127.32452,38.07001],[127.32456,38.07001],[127.32458,38.0701],[127.32451,38.07014],[127.32451,38.07019],[127.3244,38.07019]]]}},{"type":"Feature","properties":{"valleyId":"bisun-sanjeong","layer":"shadow","date":"2026-08-01","timeLocal":"17:00"},"geometry":{"type":"Polygon","coordinates":[[[127.3265,38.07002],[127.3265,38.06995],[127.32659,38.06995],[127.32659,38.07],[127.3265,38.07002]]]}},{"type":"Feature","properties":{"valleyId":"bisun-sanjeong","layer":"shadow","date":"2026-08-01","timeLocal":"17:00"},"geometry":{"type":"Polygon","coordinates":[[[127.32533,38.07017],[127.32536,38.0699],[127.32543,38.0699],[127.32543,38.07015],[127.32533,38.07017]]]}},{"type":"Feature","properties":{"valleyId":"bisun-sanjeong","layer":"shadow","date":"2026-08-01","timeLocal":"17:00"},"geometry":{"type":"Polygon","coordinates":[[[127.32664,38.06986],[127.32664,38.06981],[127.32671,38.06981],[127.32671,38.06986],[127.32664,38.06986]]]}},{"type":"Feature","properties":{"valleyId":"bisun-sanjeong","layer":"shadow","date":"2026-08-01","timeLocal":"17:00"},"geometry":{"type":"Polygon","coordinates":[[[127.30154,38.07087],[127.30152,38.07062],[127.30155,38.07056],[127.30164,38.07051],[127.30166,38.07038],[127.30171,38.07038],[127.30178,38.07026],[127.30183,38.07026],[127.30192,38.07019],[127.30192,38.07015],[127.30199,38.0701],[127.30199,38.07003],[127.3022,38.06998],[127.30225,38.06978],[127.30236,38.06971],[127.30236,38.06967],[127.30246,38.0696],[127.30244,38.0694],[127.30262,38.06941],[127.30262,38.06948],[127.30253,38.0695],[127.30257,38.0696],[127.3025,38.06964],[127.30248,38.06973],[127.30243,38.06973],[127.30247,38.06986],[127.30234,38.06996],[127.30222,38.07],[127.30224,38.07014],[127.3021,38.07025],[127.30203,38.07026],[127.30203,38.07052],[127.30196,38.07051],[127.30196,38.07055],[127.30191,38.07055],[127.30191,38.07059],[127.30186,38.07059],[127.30186,38.07064],[127.3018,38.07064],[127.30177,38.07069],[127.30163,38.07071],[127.30161,38.07078],[127.30168,38.0708],[127.30168,38.07085],[127.30154,38.07087]]]}},{"type":"Feature","properties":{"valleyId":"bisun-sanjeong","layer":"shadow","date":"2026-08-01","timeLocal":"17:00"},"geometry":{"type":"Polygon","coordinates":[[[127.32241,38.06964],[127.32241,38.06953],[127.32261,38.06955],[127.32259,38.06962],[127.32241,38.06964]]]}},{"type":"Feature","properties":{"valleyId":"bisun-sanjeong","layer":"shadow","date":"2026-08-01","timeLocal":"17:00"},"geometry":{"type":"Polygon","coordinates":[[[127.32564,38.06959],[127.32567,38.06947],[127.32574,38.06947],[127.32574,38.06958],[127.32564,38.06959]]]}},{"type":"Feature","properties":{"valleyId":"bisun-sanjeong","layer":"shadow","date":"2026-08-01","timeLocal":"17:00"},"geometry":{"type":"Polygon","coordinates":[[[127.30434,38.06925],[127.30434,38.06916],[127.30441,38.06916],[127.30443,38.06923],[127.30434,38.06925]]]}},{"type":"Feature","properties":{"valleyId":"bisun-sanjeong","layer":"shadow","date":"2026-08-01","timeLocal":"17:00"},"geometry":{"type":"Polygon","coordinates":[[[127.31026,38.06932],[127.31026,38.06925],[127.31035,38.06925],[127.31035,38.06932],[127.31026,38.06932]]]}},{"type":"Feature","properties":{"valleyId":"bisun-sanjeong","layer":"shadow","date":"2026-08-01","timeLocal":"17:00"},"geometry":{"type":"Polygon","coordinates":[[[127.30264,38.06939],[127.30265,38.06933],[127.30274,38.06932],[127.30276,38.06912],[127.30283,38.06912],[127.30292,38.06921],[127.30292,38.06927],[127.30281,38.06928],[127.30274,38.06939],[127.30264,38.06939]]]}},{"type":"Feature","properties":{"valleyId":"bisun-sanjeong","layer":"shadow","date":"2026-08-01","timeLocal":"17:00"},"geometry":{"type":"Polygon","coordinates":[[[127.31035,38.06925],[127.31036,38.06919],[127.31042,38.06919],[127.31042,38.06925],[127.31035,38.06925]]]}},{"type":"Feature","properties":{"valleyId":"bisun-sanjeong","layer":"shadow","date":"2026-08-01","timeLocal":"17:00"},"geometry":{"type":"Polygon","coordinates":[[[127.32375,38.06949],[127.32373,38.06939],[127.3238,38.06939],[127.32385,38.0695],[127.32375,38.06949]]]}},{"type":"Feature","properties":{"valleyId":"bisun-sanjeong","layer":"shadow","date":"2026-08-01","timeLocal":"17:00"},"geometry":{"type":"Polygon","coordinates":[[[127.30479,38.0692],[127.30479,38.0691],[127.30489,38.0691],[127.30491,38.06919],[127.30479,38.0692]]]}},{"type":"Feature","properties":{"valleyId":"bisun-sanjeong","layer":"shadow","date":"2026-08-01","timeLocal":"17:00"},"geometry":{"type":"Polygon","coordinates":[[[127.3031,38.06923],[127.30311,38.06916],[127.30327,38.06916],[127.30325,38.06904],[127.30334,38.06904],[127.30338,38.06909],[127.30338,38.06917],[127.30331,38.06916],[127.30331,38.06922],[127.30326,38.06924],[127.3031,38.06923]]]}},{"type":"Feature","properties":{"valleyId":"bisun-sanjeong","layer":"shadow","date":"2026-08-01","timeLocal":"17:00"},"geometry":{"type":"Polygon","coordinates":[[[127.32289,38.06936],[127.32289,38.0693],[127.32296,38.0693],[127.32296,38.06936],[127.32289,38.06936]]]}},{"type":"Feature","properties":{"valleyId":"bisun-sanjeong","layer":"shadow","date":"2026-08-01","timeLocal":"17:00"},"geometry":{"type":"Polygon","coordinates":[[[127.31054,38.06916],[127.31054,38.06911],[127.31061,38.06911],[127.31061,38.06916],[127.31054,38.06916]]]}},{"type":"Feature","properties":{"valleyId":"bisun-sanjeong","layer":"shadow","date":"2026-08-01","timeLocal":"17:00"},"geometry":{"type":"Polygon","coordinates":[[[127.32636,38.06937],[127.32636,38.06924],[127.32645,38.06924],[127.32645,38.06937],[127.32636,38.06937]]]}},{"type":"Feature","properties":{"valleyId":"bisun-sanjeong","layer":"shadow","date":"2026-08-01","timeLocal":"17:00"},"geometry":{"type":"Polygon","coordinates":[[[127.32702,38.06931],[127.32702,38.06923],[127.32709,38.06923],[127.32709,38.06931],[127.32702,38.06931]]]}},{"type":"Feature","properties":{"valleyId":"bisun-sanjeong","layer":"shadow","date":"2026-08-01","timeLocal":"17:00"},"geometry":{"type":"Polygon","coordinates":[[[127.328,38.06932],[127.328,38.06925],[127.32809,38.06923],[127.32809,38.06932],[127.328,38.06932]]]}},{"type":"Feature","properties":{"valleyId":"bisun-sanjeong","layer":"shadow","date":"2026-08-01","timeLocal":"17:00"},"geometry":{"type":"Polygon","coordinates":[[[127.30366,38.06893],[127.30366,38.06888],[127.30373,38.06888],[127.30373,38.06894],[127.30366,38.06893]]]}},{"type":"Feature","properties":{"valleyId":"bisun-sanjeong","layer":"shadow","date":"2026-08-01","timeLocal":"17:00"},"geometry":{"type":"Polygon","coordinates":[[[127.3236,38.0691],[127.32361,38.06902],[127.32367,38.06902],[127.32369,38.0691],[127.3236,38.0691]]]}},{"type":"Feature","properties":{"valleyId":"bisun-sanjeong","layer":"shadow","date":"2026-08-01","timeLocal":"17:00"},"geometry":{"type":"Polygon","coordinates":[[[127.31002,38.06883],[127.31002,38.06877],[127.31009,38.06878],[127.31009,38.06883],[127.31002,38.06883]]]}},{"type":"Feature","properties":{"valleyId":"bisun-sanjeong","layer":"shadow","date":"2026-08-01","timeLocal":"17:00"},"geometry":{"type":"Polygon","coordinates":[[[127.31139,38.06878],[127.31139,38.06869],[127.31146,38.06869],[127.31146,38.06878],[127.31139,38.06878]]]}},{"type":"Feature","properties":{"valleyId":"bisun-sanjeong","layer":"shadow","date":"2026-08-01","timeLocal":"17:00"},"geometry":{"type":"Polygon","coordinates":[[[127.32158,38.0689],[127.32158,38.06883],[127.32165,38.06883],[127.32165,38.0689],[127.32158,38.0689]]]}},{"type":"Feature","properties":{"valleyId":"bisun-sanjeong","layer":"shadow","date":"2026-08-01","timeLocal":"17:00"},"geometry":{"type":"Polygon","coordinates":[[[127.30904,38.06867],[127.30905,38.06862],[127.30911,38.06862],[127.30911,38.06867],[127.30904,38.06867]]]}},{"type":"Feature","properties":{"valleyId":"bisun-sanjeong","layer":"shadow","date":"2026-08-01","timeLocal":"17:00"},"geometry":{"type":"Polygon","coordinates":[[[127.30891,38.06856],[127.30891,38.06851],[127.30898,38.06851],[127.30898,38.06856],[127.30891,38.06856]]]}},{"type":"Feature","properties":{"valleyId":"bisun-sanjeong","layer":"shadow","date":"2026-08-01","timeLocal":"17:00"},"geometry":{"type":"Polygon","coordinates":[[[127.30961,38.06868],[127.30964,38.06853],[127.3098,38.06845],[127.30985,38.06836],[127.31001,38.06834],[127.30998,38.06849],[127.30992,38.0685],[127.30987,38.06857],[127.30978,38.06859],[127.30973,38.06868],[127.30961,38.06868]]]}},{"type":"Feature","properties":{"valleyId":"bisun-sanjeong","layer":"shadow","date":"2026-08-01","timeLocal":"17:00"},"geometry":{"type":"Polygon","coordinates":[[[127.32307,38.06865],[127.32307,38.0686],[127.32316,38.06855],[127.32318,38.06848],[127.32328,38.06846],[127.32327,38.06855],[127.32323,38.06857],[127.32323,38.0686],[127.32316,38.06866],[127.32307,38.06865]]]}},{"type":"Feature","properties":{"valleyId":"bisun-sanjeong","layer":"shadow","date":"2026-08-01","timeLocal":"17:00"},"geometry":{"type":"Polygon","coordinates":[[[127.31006,38.06834],[127.31008,38.06814],[127.31024,38.06816],[127.31024,38.06827],[127.31015,38.06834],[127.31006,38.06834]]]}},{"type":"Feature","properties":{"valleyId":"bisun-sanjeong","layer":"shadow","date":"2026-08-01","timeLocal":"17:00"},"geometry":{"type":"Polygon","coordinates":[[[127.30981,38.06819],[127.30981,38.06814],[127.3099,38.06814],[127.3099,38.0682],[127.30981,38.06819]]]}},{"type":"Feature","properties":{"valleyId":"bisun-sanjeong","layer":"shadow","date":"2026-08-01","timeLocal":"17:00"},"geometry":{"type":"Polygon","coordinates":[[[127.32371,38.06841],[127.32371,38.0683],[127.32376,38.0683],[127.32376,38.06823],[127.32383,38.06823],[127.32383,38.06831],[127.32378,38.0683],[127.32378,38.06841],[127.32371,38.06841]]]}},{"type":"Feature","properties":{"valleyId":"bisun-sanjeong","layer":"shadow","date":"2026-08-01","timeLocal":"17:00"},"geometry":{"type":"Polygon","coordinates":[[[127.32339,38.06832],[127.32339,38.06826],[127.32344,38.06823],[127.32351,38.06823],[127.32351,38.06828],[127.32346,38.06832],[127.32339,38.06832]]]}},{"type":"Feature","properties":{"valleyId":"bisun-sanjeong","layer":"shadow","date":"2026-08-01","timeLocal":"17:00"},"geometry":{"type":"Polygon","coordinates":[[[127.30938,38.06815],[127.30938,38.06808],[127.30931,38.06804],[127.30934,38.06795],[127.3094,38.06795],[127.3094,38.06803],[127.30945,38.06806],[127.30954,38.06806],[127.30954,38.06814],[127.30938,38.06815]]]}},{"type":"Feature","properties":{"valleyId":"bisun-sanjeong","layer":"shadow","date":"2026-08-01","timeLocal":"17:00"},"geometry":{"type":"Polygon","coordinates":[[[127.30963,38.06801],[127.30963,38.06796],[127.30968,38.06792],[127.30977,38.06792],[127.30977,38.068],[127.30963,38.06801]]]}},{"type":"Feature","properties":{"valleyId":"bisun-sanjeong","layer":"shadow","date":"2026-08-01","timeLocal":"17:00"},"geometry":{"type":"Polygon","coordinates":[[[127.3236,38.06816],[127.3236,38.0681],[127.32367,38.0681],[127.32367,38.06816],[127.3236,38.06816]]]}},{"type":"Feature","properties":{"valleyId":"bisun-sanjeong","layer":"shadow","date":"2026-08-01","timeLocal":"17:00"},"geometry":{"type":"Polygon","coordinates":[[[127.31773,38.06984],[127.31764,38.06977],[127.31764,38.06971],[127.31757,38.06968],[127.31757,38.0696],[127.31753,38.06957],[127.31755,38.06942],[127.31751,38.0694],[127.31749,38.06933],[127.3174,38.06929],[127.3174,38.06924],[127.31747,38.06922],[127.31748,38.0689],[127.31759,38.06879],[127.3176,38.06863],[127.31753,38.06859],[127.31755,38.06849],[127.31749,38.06847],[127.31749,38.06834],[127.31765,38.06831],[127.31767,38.06824],[127.31772,38.06822],[127.31772,38.06804],[127.31768,38.06804],[127.31768,38.06798],[127.31775,38.06798],[127.31775,38.06804],[127.31781,38.06804],[127.3178,38.06869],[127.31784,38.0688],[127.31779,38.06894],[127.31778,38.06941],[127.31785,38.06948],[127.31785,38.06959],[127.3178,38.06964],[127.3178,38.06984],[127.31773,38.06984]]]}},{"type":"Feature","properties":{"valleyId":"bisun-sanjeong","layer":"shadow","date":"2026-08-01","timeLocal":"17:00"},"geometry":{"type":"Polygon","coordinates":[[[127.31009,38.06793],[127.31009,38.06786],[127.31023,38.06784],[127.3102,38.06793],[127.31009,38.06793]]]}},{"type":"Feature","properties":{"valleyId":"bisun-sanjeong","layer":"shadow","date":"2026-08-01","timeLocal":"17:00"},"geometry":{"type":"Polygon","coordinates":[[[127.3257,38.06812],[127.3257,38.06804],[127.32579,38.06804],[127.32579,38.06812],[127.3257,38.06812]]]}},{"type":"Feature","properties":{"valleyId":"bisun-sanjeong","layer":"shadow","date":"2026-08-01","timeLocal":"17:00"},"geometry":{"type":"Polygon","coordinates":[[[127.32547,38.06826],[127.32545,38.068],[127.32552,38.068],[127.32557,38.06806],[127.32554,38.0682],[127.32558,38.0682],[127.32558,38.06826],[127.32547,38.06826]]]}},{"type":"Feature","properties":{"valleyId":"bisun-sanjeong","layer":"shadow","date":"2026-08-01","timeLocal":"17:00"},"geometry":{"type":"Polygon","coordinates":[[[127.31773,38.06793],[127.31773,38.0678],[127.3178,38.0678],[127.31779,38.06793],[127.31773,38.06793]]]}},{"type":"Feature","properties":{"valleyId":"bisun-sanjeong","layer":"shadow","date":"2026-08-01","timeLocal":"17:00"},"geometry":{"type":"Polygon","coordinates":[[[127.32267,38.06813],[127.3226,38.06805],[127.32263,38.06789],[127.32267,38.06786],[127.32274,38.06786],[127.32274,38.068],[127.32278,38.06806],[127.32278,38.06813],[127.32267,38.06813]]]}},{"type":"Feature","properties":{"valleyId":"bisun-sanjeong","layer":"shadow","date":"2026-08-01","timeLocal":"17:00"},"geometry":{"type":"Polygon","coordinates":[[[127.32671,38.06802],[127.32669,38.06788],[127.32675,38.06788],[127.32677,38.06802],[127.32671,38.06802]]]}},{"type":"Feature","properties":{"valleyId":"bisun-sanjeong","layer":"shadow","date":"2026-08-01","timeLocal":"17:00"},"geometry":{"type":"Polygon","coordinates":[[[127.32598,38.06807],[127.32598,38.06801],[127.32584,38.06788],[127.3258,38.06788],[127.3258,38.06783],[127.32594,38.06783],[127.32593,38.06788],[127.32602,38.06792],[127.32604,38.06807],[127.32598,38.06807]]]}},{"type":"Feature","properties":{"valleyId":"bisun-sanjeong","layer":"shadow","date":"2026-08-01","timeLocal":"17:00"},"geometry":{"type":"Polygon","coordinates":[[[127.30957,38.06769],[127.30957,38.06752],[127.30964,38.06753],[127.30964,38.06769],[127.30957,38.06769]]]}},{"type":"Feature","properties":{"valleyId":"bisun-sanjeong","layer":"shadow","date":"2026-08-01","timeLocal":"17:00"},"geometry":{"type":"Polygon","coordinates":[[[127.30979,38.06794],[127.30979,38.06789],[127.30991,38.06778],[127.31007,38.06777],[127.31009,38.06773],[127.31009,38.06764],[127.30998,38.06758],[127.30998,38.06753],[127.3101,38.06751],[127.3101,38.06759],[127.31032,38.06766],[127.31032,38.06773],[127.31021,38.06773],[127.31021,38.06779],[127.31009,38.06778],[127.31009,38.06782],[127.30998,38.06784],[127.30997,38.06789],[127.30993,38.06793],[127.30979,38.06794]]]}},{"type":"Feature","properties":{"valleyId":"bisun-sanjeong","layer":"shadow","date":"2026-08-01","timeLocal":"17:00"},"geometry":{"type":"Polygon","coordinates":[[[127.31461,38.06765],[127.31461,38.06758],[127.31468,38.06758],[127.31468,38.06765],[127.31461,38.06765]]]}},{"type":"Feature","properties":{"valleyId":"bisun-sanjeong","layer":"shadow","date":"2026-08-01","timeLocal":"17:00"},"geometry":{"type":"Polygon","coordinates":[[[127.32701,38.06781],[127.32701,38.06776],[127.32708,38.06776],[127.32708,38.06781],[127.32701,38.06781]]]}},{"type":"Feature","properties":{"valleyId":"bisun-sanjeong","layer":"shadow","date":"2026-08-01","timeLocal":"17:00"},"geometry":{"type":"Polygon","coordinates":[[[127.32397,38.06784],[127.32396,38.06768],[127.32402,38.06768],[127.32407,38.06782],[127.32397,38.06784]]]}},{"type":"Feature","properties":{"valleyId":"bisun-sanjeong","layer":"shadow","date":"2026-08-01","timeLocal":"17:00"},"geometry":{"type":"Polygon","coordinates":[[[127.31008,38.0675],[127.31008,38.06744],[127.31017,38.06742],[127.31017,38.06748],[127.31008,38.0675]]]}},{"type":"Feature","properties":{"valleyId":"bisun-sanjeong","layer":"shadow","date":"2026-08-01","timeLocal":"17:00"},"geometry":{"type":"Polygon","coordinates":[[[127.32662,38.06784],[127.32662,38.06766],[127.32665,38.06761],[127.32672,38.06761],[127.32673,38.06779],[127.32669,38.06781],[127.32669,38.06784],[127.32662,38.06784]]]}},{"type":"Feature","properties":{"valleyId":"bisun-sanjeong","layer":"shadow","date":"2026-08-01","timeLocal":"17:00"},"geometry":{"type":"Polygon","coordinates":[[[127.32295,38.06786],[127.32295,38.06766],[127.32302,38.06766],[127.323,38.06755],[127.32314,38.06754],[127.32311,38.06774],[127.32306,38.06775],[127.32304,38.06784],[127.32295,38.06786]]]}},{"type":"Feature","properties":{"valleyId":"bisun-sanjeong","layer":"shadow","date":"2026-08-01","timeLocal":"17:00"},"geometry":{"type":"Polygon","coordinates":[[[127.32361,38.06762],[127.32362,38.06755],[127.32368,38.06755],[127.32368,38.06762],[127.32361,38.06762]]]}},{"type":"Feature","properties":{"valleyId":"bisun-sanjeong","layer":"shadow","date":"2026-08-01","timeLocal":"17:00"},"geometry":{"type":"Polygon","coordinates":[[[127.31028,38.06752],[127.31028,38.06743],[127.31037,38.06741],[127.31038,38.06734],[127.31056,38.06736],[127.31055,38.06748],[127.31028,38.06752]]]}},{"type":"Feature","properties":{"valleyId":"bisun-sanjeong","layer":"shadow","date":"2026-08-01","timeLocal":"17:00"},"geometry":{"type":"Polygon","coordinates":[[[127.31748,38.06755],[127.31735,38.06744],[127.31733,38.06735],[127.3174,38.06735],[127.31744,38.06742],[127.31755,38.06749],[127.31755,38.06755],[127.31748,38.06755]]]}},{"type":"Feature","properties":{"valleyId":"bisun-sanjeong","layer":"shadow","date":"2026-08-01","timeLocal":"17:00"},"geometry":{"type":"Polygon","coordinates":[[[127.31208,38.06747],[127.31208,38.06742],[127.31213,38.0674],[127.31213,38.06725],[127.31227,38.06727],[127.31231,38.06731],[127.31231,38.0674],[127.31217,38.06747],[127.31208,38.06747]]]}},{"type":"Feature","properties":{"valleyId":"bisun-sanjeong","layer":"shadow","date":"2026-08-01","timeLocal":"17:00"},"geometry":{"type":"Polygon","coordinates":[[[127.32838,38.06749],[127.32838,38.06743],[127.32845,38.06743],[127.32845,38.06749],[127.32838,38.06749]]]}},{"type":"Feature","properties":{"valleyId":"bisun-sanjeong","layer":"shadow","date":"2026-08-01","timeLocal":"17:00"},"geometry":{"type":"Polygon","coordinates":[[[127.32599,38.06749],[127.32599,38.06738],[127.32606,38.06738],[127.32606,38.06749],[127.32599,38.06749]]]}},{"type":"Feature","properties":{"valleyId":"bisun-sanjeong","layer":"shadow","date":"2026-08-01","timeLocal":"17:00"},"geometry":{"type":"Polygon","coordinates":[[[127.31722,38.06731],[127.31722,38.06726],[127.31728,38.06726],[127.31728,38.06731],[127.31722,38.06731]]]}},{"type":"Feature","properties":{"valleyId":"bisun-sanjeong","layer":"shadow","date":"2026-08-01","timeLocal":"17:00"},"geometry":{"type":"Polygon","coordinates":[[[127.32289,38.06746],[127.32289,38.06743],[127.32282,38.06739],[127.32282,38.06734],[127.32298,38.06736],[127.32298,38.06745],[127.32289,38.06746]]]}},{"type":"Feature","properties":{"valleyId":"bisun-sanjeong","layer":"shadow","date":"2026-08-01","timeLocal":"17:00"},"geometry":{"type":"Polygon","coordinates":[[[127.32722,38.06747],[127.32722,38.06738],[127.32729,38.06738],[127.32729,38.06747],[127.32722,38.06747]]]}},{"type":"Feature","properties":{"valleyId":"bisun-sanjeong","layer":"shadow","date":"2026-08-01","timeLocal":"17:00"},"geometry":{"type":"Polygon","coordinates":[[[127.31254,38.06724],[127.31254,38.06717],[127.31261,38.06717],[127.31263,38.06724],[127.31254,38.06724]]]}},{"type":"Feature","properties":{"valleyId":"bisun-sanjeong","layer":"shadow","date":"2026-08-01","timeLocal":"17:00"},"geometry":{"type":"Polygon","coordinates":[[[127.31015,38.06739],[127.31015,38.06733],[127.3101,38.06732],[127.31011,38.0671],[127.3102,38.0671],[127.31017,38.06724],[127.31026,38.06726],[127.31026,38.06735],[127.31021,38.06739],[127.31015,38.06739]]]}},{"type":"Feature","properties":{"valleyId":"bisun-sanjeong","layer":"shadow","date":"2026-08-01","timeLocal":"17:00"},"geometry":{"type":"Polygon","coordinates":[[[127.32662,38.06759],[127.32668,38.06737],[127.32675,38.0673],[127.32675,38.06725],[127.32688,38.06727],[127.32688,38.06734],[127.32681,38.06741],[127.32677,38.06741],[127.32669,38.06759],[127.32662,38.06759]]]}},{"type":"Feature","properties":{"valleyId":"bisun-sanjeong","layer":"shadow","date":"2026-08-01","timeLocal":"17:00"},"geometry":{"type":"Polygon","coordinates":[[[127.31138,38.0671],[127.31139,38.06703],[127.31145,38.06703],[127.31145,38.0671],[127.31138,38.0671]]]}},{"type":"Feature","properties":{"valleyId":"bisun-sanjeong","layer":"shadow","date":"2026-08-01","timeLocal":"17:00"},"geometry":{"type":"Polygon","coordinates":[[[127.3127,38.06721],[127.31268,38.06705],[127.31278,38.06703],[127.3128,38.06707],[127.31284,38.06707],[127.31286,38.06719],[127.3127,38.06721]]]}},{"type":"Feature","properties":{"valleyId":"bisun-sanjeong","layer":"shadow","date":"2026-08-01","timeLocal":"17:00"},"geometry":{"type":"Polygon","coordinates":[[[127.3146,38.06706],[127.3146,38.067],[127.31467,38.067],[127.31467,38.06706],[127.3146,38.06706]]]}},{"type":"Feature","properties":{"valleyId":"bisun-sanjeong","layer":"shadow","date":"2026-08-01","timeLocal":"17:00"},"geometry":{"type":"Polygon","coordinates":[[[127.32483,38.0672],[127.32483,38.06715],[127.3249,38.06715],[127.3249,38.0672],[127.32483,38.0672]]]}},{"type":"Feature","properties":{"valleyId":"bisun-sanjeong","layer":"shadow","date":"2026-08-01","timeLocal":"17:00"},"geometry":{"type":"Polygon","coordinates":[[[127.32618,38.06726],[127.32611,38.0672],[127.32611,38.06713],[127.32618,38.06713],[127.32625,38.0672],[127.32624,38.06726],[127.32618,38.06726]]]}},{"type":"Feature","properties":{"valleyId":"bisun-sanjeong","layer":"shadow","date":"2026-08-01","timeLocal":"17:00"},"geometry":{"type":"Polygon","coordinates":[[[127.31191,38.06704],[127.31191,38.06691],[127.312,38.06691],[127.31207,38.06695],[127.31207,38.06702],[127.31191,38.06704]]]}},{"type":"Feature","properties":{"valleyId":"bisun-sanjeong","layer":"shadow","date":"2026-08-01","timeLocal":"17:00"},"geometry":{"type":"Polygon","coordinates":[[[127.32714,38.0672],[127.32714,38.06713],[127.32723,38.06713],[127.32723,38.06718],[127.32714,38.0672]]]}},{"type":"Feature","properties":{"valleyId":"bisun-sanjeong","layer":"shadow","date":"2026-08-01","timeLocal":"17:00"},"geometry":{"type":"Polygon","coordinates":[[[127.31067,38.06741],[127.31067,38.06734],[127.3106,38.06734],[127.3106,38.06729],[127.31074,38.06727],[127.31074,38.0672],[127.31079,38.0672],[127.31086,38.06711],[127.31086,38.06702],[127.31082,38.06698],[127.31073,38.06698],[127.31073,38.06686],[127.31089,38.06686],[127.31091,38.06682],[127.31098,38.06682],[127.31098,38.06691],[127.31102,38.06699],[127.31109,38.06702],[127.3112,38.06701],[127.31121,38.06692],[127.31139,38.06694],[127.31139,38.06701],[127.31129,38.06701],[127.31129,38.06708],[127.31118,38.06715],[127.31118,38.0672],[127.31124,38.06722],[127.31122,38.06731],[127.31101,38.06733],[127.31104,38.06718],[127.31093,38.06718],[127.31086,38.0672],[127.31081,38.06729],[127.31081,38.06734],[127.31088,38.06734],[127.31088,38.0674],[127.31067,38.06741]]]}},{"type":"Feature","properties":{"valleyId":"bisun-sanjeong","layer":"shadow","date":"2026-08-01","timeLocal":"17:00"},"geometry":{"type":"Polygon","coordinates":[[[127.30988,38.0669],[127.30986,38.06683],[127.31,38.06681],[127.31,38.06686],[127.30995,38.0669],[127.30988,38.0669]]]}},{"type":"Feature","properties":{"valleyId":"bisun-sanjeong","layer":"shadow","date":"2026-08-01","timeLocal":"17:00"},"geometry":{"type":"Polygon","coordinates":[[[127.31581,38.06696],[127.31581,38.06689],[127.31588,38.06689],[127.31588,38.06697],[127.31581,38.06696]]]}},{"type":"Feature","properties":{"valleyId":"bisun-sanjeong","layer":"shadow","date":"2026-08-01","timeLocal":"17:00"},"geometry":{"type":"Polygon","coordinates":[[[127.31212,38.06688],[127.31212,38.06682],[127.31219,38.06682],[127.31219,38.06688],[127.31212,38.06688]]]}},{"type":"Feature","properties":{"valleyId":"bisun-sanjeong","layer":"shadow","date":"2026-08-01","timeLocal":"17:00"},"geometry":{"type":"Polygon","coordinates":[[[127.31265,38.06678],[127.31265,38.06672],[127.31271,38.06672],[127.31271,38.06678],[127.31265,38.06678]]]}},{"type":"Feature","properties":{"valleyId":"bisun-sanjeong","layer":"shadow","date":"2026-08-01","timeLocal":"17:00"},"geometry":{"type":"Polygon","coordinates":[[[127.31298,38.06705],[127.31301,38.06689],[127.31296,38.06687],[127.31296,38.06682],[127.31306,38.06673],[127.31319,38.06671],[127.31319,38.06678],[127.3131,38.06682],[127.3131,38.06687],[127.31319,38.06693],[127.31319,38.06698],[127.31309,38.06705],[127.31298,38.06705]]]}},{"type":"Feature","properties":{"valleyId":"bisun-sanjeong","layer":"shadow","date":"2026-08-01","timeLocal":"17:00"},"geometry":{"type":"Polygon","coordinates":[[[127.32504,38.06701],[127.32505,38.06686],[127.32514,38.06686],[127.32516,38.06697],[127.32511,38.06701],[127.32504,38.06701]]]}},{"type":"Feature","properties":{"valleyId":"bisun-sanjeong","layer":"shadow","date":"2026-08-01","timeLocal":"17:00"},"geometry":{"type":"Polygon","coordinates":[[[127.31237,38.06677],[127.31237,38.06668],[127.31244,38.06668],[127.31244,38.06677],[127.31237,38.06677]]]}},{"type":"Feature","properties":{"valleyId":"bisun-sanjeong","layer":"shadow","date":"2026-08-01","timeLocal":"17:00"},"geometry":{"type":"Polygon","coordinates":[[[127.31152,38.06694],[127.31153,38.0669],[127.31139,38.0669],[127.31139,38.06683],[127.31155,38.06683],[127.31155,38.06678],[127.31162,38.06678],[127.3116,38.06667],[127.31178,38.06667],[127.31183,38.06673],[127.31182,38.0668],[127.31171,38.06683],[127.31157,38.06683],[127.31159,38.06694],[127.31152,38.06694]]]}},{"type":"Feature","properties":{"valleyId":"bisun-sanjeong","layer":"shadow","date":"2026-08-01","timeLocal":"17:00"},"geometry":{"type":"Polygon","coordinates":[[[127.32716,38.06691],[127.32717,38.06684],[127.32728,38.06686],[127.32728,38.06691],[127.32716,38.06691]]]}},{"type":"Feature","properties":{"valleyId":"bisun-sanjeong","layer":"shadow","date":"2026-08-01","timeLocal":"17:00"},"geometry":{"type":"Polygon","coordinates":[[[127.32301,38.0673],[127.32301,38.06712],[127.32283,38.06701],[127.32286,38.06687],[127.32295,38.06687],[127.32293,38.06674],[127.323,38.06674],[127.32304,38.06685],[127.32308,38.06687],[127.32306,38.067],[127.3231,38.06703],[127.3231,38.06729],[127.32301,38.0673]]]}},{"type":"Feature","properties":{"valleyId":"bisun-sanjeong","layer":"shadow","date":"2026-08-01","timeLocal":"17:00"},"geometry":{"type":"Polygon","coordinates":[[[127.31153,38.0666],[127.31149,38.06656],[127.31149,38.06649],[127.3116,38.06651],[127.3116,38.0666],[127.31153,38.0666]]]}},{"type":"Feature","properties":{"valleyId":"bisun-sanjeong","layer":"shadow","date":"2026-08-01","timeLocal":"17:00"},"geometry":{"type":"Polygon","coordinates":[[[127.31343,38.06653],[127.31343,38.06648],[127.3135,38.06648],[127.31349,38.06654],[127.31343,38.06653]]]}},{"type":"Feature","properties":{"valleyId":"bisun-sanjeong","layer":"shadow","date":"2026-08-01","timeLocal":"17:00"},"geometry":{"type":"Polygon","coordinates":[[[127.31488,38.06659],[127.31489,38.06647],[127.315,38.06647],[127.31502,38.06658],[127.31488,38.06659]]]}},{"type":"Feature","properties":{"valleyId":"bisun-sanjeong","layer":"shadow","date":"2026-08-01","timeLocal":"17:00"},"geometry":{"type":"Polygon","coordinates":[[[127.32644,38.06667],[127.32647,38.06656],[127.32653,38.06656],[127.32651,38.06667],[127.32644,38.06667]]]}},{"type":"Feature","properties":{"valleyId":"bisun-sanjeong","layer":"shadow","date":"2026-08-01","timeLocal":"17:00"},"geometry":{"type":"Polygon","coordinates":[[[127.31491,38.06639],[127.31491,38.06634],[127.31498,38.06634],[127.31498,38.06639],[127.31491,38.06639]]]}},{"type":"Feature","properties":{"valleyId":"bisun-sanjeong","layer":"shadow","date":"2026-08-01","timeLocal":"17:00"},"geometry":{"type":"Polygon","coordinates":[[[127.31523,38.06642],[127.31523,38.06631],[127.31539,38.06635],[127.31539,38.0664],[127.31523,38.06642]]]}},{"type":"Feature","properties":{"valleyId":"bisun-sanjeong","layer":"shadow","date":"2026-08-01","timeLocal":"17:00"},"geometry":{"type":"Polygon","coordinates":[[[127.31844,38.06639],[127.31843,38.06621],[127.31849,38.06621],[127.31854,38.06627],[127.31854,38.06637],[127.31844,38.06639]]]}},{"type":"Feature","properties":{"valleyId":"bisun-sanjeong","layer":"shadow","date":"2026-08-01","timeLocal":"17:00"},"geometry":{"type":"Polygon","coordinates":[[[127.31152,38.06602],[127.31152,38.06597],[127.31162,38.06595],[127.31161,38.066],[127.31152,38.06602]]]}},{"type":"Feature","properties":{"valleyId":"bisun-sanjeong","layer":"shadow","date":"2026-08-01","timeLocal":"17:00"},"geometry":{"type":"Polygon","coordinates":[[[127.31359,38.06643],[127.31361,38.06634],[127.31375,38.0663],[127.3138,38.06607],[127.31392,38.06596],[127.31399,38.06597],[127.31396,38.06606],[127.31385,38.06613],[127.31382,38.06631],[127.31377,38.0663],[127.31377,38.06636],[127.3137,38.06641],[127.31359,38.06643]]]}},{"type":"Feature","properties":{"valleyId":"bisun-sanjeong","layer":"shadow","date":"2026-08-01","timeLocal":"17:00"},"geometry":{"type":"Polygon","coordinates":[[[127.31832,38.06603],[127.31832,38.06597],[127.31839,38.06597],[127.31838,38.06603],[127.31832,38.06603]]]}},{"type":"Feature","properties":{"valleyId":"bisun-sanjeong","layer":"shadow","date":"2026-08-01","timeLocal":"17:00"},"geometry":{"type":"Polygon","coordinates":[[[127.31453,38.06596],[127.31453,38.0659],[127.31463,38.0659],[127.31462,38.06596],[127.31453,38.06596]]]}},{"type":"Feature","properties":{"valleyId":"bisun-sanjeong","layer":"shadow","date":"2026-08-01","timeLocal":"17:00"},"geometry":{"type":"Polygon","coordinates":[[[127.3257,38.06606],[127.3257,38.06599],[127.3258,38.06597],[127.32579,38.06604],[127.3257,38.06606]]]}},{"type":"Feature","properties":{"valleyId":"bisun-sanjeong","layer":"shadow","date":"2026-08-01","timeLocal":"17:00"},"geometry":{"type":"Polygon","coordinates":[[[127.32369,38.06751],[127.32371,38.06733],[127.32378,38.0673],[127.32378,38.06726],[127.32383,38.06726],[127.32383,38.06722],[127.32394,38.06719],[127.32399,38.06714],[127.3241,38.06712],[127.32422,38.06703],[127.32422,38.067],[127.32429,38.06698],[127.32436,38.06691],[127.32441,38.06691],[127.32441,38.06687],[127.32448,38.06685],[127.32457,38.06677],[127.32466,38.06675],[127.32468,38.06671],[127.32482,38.06672],[127.32482,38.06664],[127.32478,38.06664],[127.32478,38.06657],[127.32483,38.06652],[127.32483,38.06617],[127.32493,38.06609],[127.32493,38.06601],[127.32497,38.066],[127.325,38.06591],[127.32507,38.06591],[127.32506,38.06611],[127.32495,38.06616],[127.32495,38.06623],[127.3249,38.06625],[127.3249,38.06632],[127.32492,38.06636],[127.32497,38.06636],[127.32492,38.06646],[127.32501,38.06648],[127.32501,38.06657],[127.32494,38.06657],[127.32493,38.06672],[127.32487,38.06675],[127.32486,38.06681],[127.3245,38.06689],[127.32449,38.06705],[127.3244,38.06707],[127.3244,38.06716],[127.32428,38.06721],[127.32401,38.06726],[127.32401,38.0673],[127.32392,38.06732],[127.32392,38.06739],[127.32396,38.06739],[127.32396,38.06744],[127.32369,38.06751]],[[127.32487,38.06657],[127.32494,38.06657],[127.32494,38.06652],[127.32487,38.06652],[127.32487,38.06657]]]}},{"type":"Feature","properties":{"valleyId":"bisun-sanjeong","layer":"shadow","date":"2026-08-01","timeLocal":"17:00"},"geometry":{"type":"Polygon","coordinates":[[[127.32577,38.06595],[127.32577,38.0659],[127.32584,38.0659],[127.32584,38.06595],[127.32577,38.06595]]]}},{"type":"Feature","properties":{"valleyId":"bisun-sanjeong","layer":"shadow","date":"2026-08-01","timeLocal":"17:00"},"geometry":{"type":"Polygon","coordinates":[[[127.31488,38.06585],[127.31488,38.06571],[127.31499,38.06573],[127.31499,38.06584],[127.31488,38.06585]]]}},{"type":"Feature","properties":{"valleyId":"bisun-sanjeong","layer":"shadow","date":"2026-08-01","timeLocal":"17:00"},"geometry":{"type":"Polygon","coordinates":[[[127.31743,38.06576],[127.31744,38.06567],[127.3175,38.06567],[127.3175,38.06576],[127.31743,38.06576]]]}},{"type":"Feature","properties":{"valleyId":"bisun-sanjeong","layer":"shadow","date":"2026-08-01","timeLocal":"17:00"},"geometry":{"type":"Polygon","coordinates":[[[127.31527,38.06571],[127.31527,38.06562],[127.31534,38.06562],[127.31534,38.06571],[127.31527,38.06571]]]}},{"type":"Feature","properties":{"valleyId":"bisun-sanjeong","layer":"shadow","date":"2026-08-01","timeLocal":"17:00"},"geometry":{"type":"Polygon","coordinates":[[[127.31541,38.0655],[127.31544,38.06539],[127.3155,38.06539],[127.3155,38.06548],[127.31541,38.0655]]]}},{"type":"Feature","properties":{"valleyId":"bisun-sanjeong","layer":"shadow","date":"2026-08-01","timeLocal":"17:00"},"geometry":{"type":"Polygon","coordinates":[[[127.31721,38.06549],[127.31721,38.0654],[127.31728,38.0654],[127.31728,38.06549],[127.31721,38.06549]]]}},{"type":"Feature","properties":{"valleyId":"bisun-sanjeong","layer":"shadow","date":"2026-08-01","timeLocal":"17:00"},"geometry":{"type":"Polygon","coordinates":[[[127.31521,38.06532],[127.31519,38.06517],[127.31526,38.06517],[127.31528,38.06532],[127.31521,38.06532]]]}},{"type":"Feature","properties":{"valleyId":"bisun-sanjeong","layer":"shadow","date":"2026-08-01","timeLocal":"17:00"},"geometry":{"type":"Polygon","coordinates":[[[127.31526,38.06514],[127.31526,38.06503],[127.31533,38.06503],[127.31533,38.06514],[127.31526,38.06514]]]}},{"type":"Feature","properties":{"valleyId":"bisun-sanjeong","layer":"shadow","date":"2026-08-01","timeLocal":"17:00"},"geometry":{"type":"Polygon","coordinates":[[[127.31488,38.06565],[127.31489,38.06544],[127.31484,38.06542],[127.31487,38.06526],[127.31482,38.06524],[127.31482,38.06518],[127.31487,38.06513],[127.31488,38.06486],[127.31497,38.06486],[127.31501,38.06488],[127.31501,38.06502],[127.31494,38.06504],[127.31494,38.06511],[127.31499,38.06513],[127.31498,38.0652],[127.31505,38.06526],[127.31502,38.06542],[127.31507,38.06542],[127.31507,38.06549],[127.31504,38.06562],[127.31497,38.06566],[127.31488,38.06565]]]}},{"type":"Feature","properties":{"valleyId":"bisun-sanjeong","layer":"shadow","date":"2026-08-01","timeLocal":"17:00"},"geometry":{"type":"Polygon","coordinates":[[[127.31524,38.06487],[127.31524,38.06481],[127.31531,38.06481],[127.31531,38.06487],[127.31524,38.06487]]]}},{"type":"Feature","properties":{"valleyId":"bisun-sanjeong","layer":"shadow","date":"2026-08-01","timeLocal":"17:00"},"geometry":{"type":"Polygon","coordinates":[[[127.31514,38.06445],[127.31514,38.06434],[127.31521,38.06434],[127.31521,38.06445],[127.31514,38.06445]]]}},{"type":"Feature","properties":{"valleyId":"bisun-sanjeong","layer":"shadow","date":"2026-08-01","timeLocal":"17:00"},"geometry":{"type":"Polygon","coordinates":[[[127.3148,38.06432],[127.3148,38.06425],[127.31487,38.06425],[127.31487,38.06432],[127.3148,38.06432]]]}},{"type":"Feature","properties":{"valleyId":"bisun-sanjeong","layer":"shadow","date":"2026-08-01","timeLocal":"17:00"},"geometry":{"type":"Polygon","coordinates":[[[127.31403,38.06593],[127.31403,38.06588],[127.31415,38.06575],[127.31413,38.06563],[127.31425,38.06543],[127.31425,38.06532],[127.31432,38.06529],[127.31432,38.06518],[127.31437,38.06514],[127.31437,38.06507],[127.31442,38.06502],[127.31443,38.06448],[127.31439,38.06442],[127.31444,38.06399],[127.31438,38.0639],[127.31428,38.0639],[127.31429,38.06384],[127.3144,38.06384],[127.31447,38.06388],[127.31456,38.06388],[127.31456,38.06392],[127.31465,38.06396],[127.31462,38.06412],[127.31455,38.06417],[127.31457,38.06426],[127.31464,38.06426],[127.31469,38.06412],[127.31478,38.06414],[127.31478,38.06423],[127.31471,38.06423],[127.31471,38.06426],[127.31466,38.06426],[127.31466,38.06432],[127.31475,38.06435],[127.31475,38.06446],[127.31479,38.0645],[127.31479,38.06455],[127.3147,38.06457],[127.31472,38.06497],[127.31462,38.06498],[127.31462,38.06506],[127.31451,38.06514],[127.3145,38.06527],[127.31446,38.06532],[127.31439,38.06534],[127.31439,38.06543],[127.31434,38.06543],[127.31432,38.06552],[127.31422,38.06563],[127.31424,38.06575],[127.3142,38.06577],[127.31419,38.06586],[127.3141,38.06593],[127.31403,38.06593]]]}},{"type":"Feature","properties":{"valleyId":"bisun-sanjeong","layer":"shadow","date":"2026-08-01","timeLocal":"17:00"},"geometry":{"type":"Polygon","coordinates":[[[127.31404,38.06382],[127.31401,38.06371],[127.31422,38.06377],[127.31422,38.06382],[127.31404,38.06382]]]}},{"type":"Feature","properties":{"valleyId":"bisun-sanjeong","layer":"shadow","date":"2026-08-01","timeLocal":"17:00"},"geometry":{"type":"Polygon","coordinates":[[[127.31383,38.06371],[127.31383,38.06364],[127.31393,38.06364],[127.31392,38.06371],[127.31383,38.06371]]]}}]}
