{"type":"FeatureCollection","metadata":{"description":"개방지(CHM ≤ 2 m)에 드리운 나무·지형 그림자, 2026-08-01 16:00 KST. canopy 위에 겹쳐 그린다","source":"위성 기반 추정 — Copernicus GLO-30 지형(30 m) + Meta/WRI 수관 높이(1 m CHM, 2018 촬영). 그늘 = 수관(CHM > 2 m) ∪ 나무·지형 그림자 ∪ 원거리 지형 마스크. 현장과 다를 수 있음.","datasetVersion":"2026-09-06.0","collectedAt":"2026-09-06","coordinateOrder":"[longitude, latitude]","crs":"EPSG:4326","representativeDate":"2026-08-01","hours":["10:00","11:00","12:00","13:00","14:00","15:00","16:00","17:00","18:00"],"chmAcquisition":["2018-03"],"assets":{"glo30":{"dataset":"Copernicus DEM GLO-30 (COG, s3://copernicus-dem-30m)","tiles":["Copernicus_DSM_COG_10_N38_00_E127_00_DEM"]},"chm":{"dataset":"Meta/WRI Global Canopy Height Map v1 (alsgedi_global_v6_float, 1 m, CC-BY 4.0)","quadkeys":["132110303"],"acquisition":["2018-03"]}},"method":{"gridResM":2,"canopyThresholdM":2,"bufferHalfM":25,"corridorHalfM":200,"simplifyTolM":2,"minAreaM2":25,"coordDecimals":5},"generator":"scripts/shade 0.1.0","builtAt":"2026-09-06T05:53:24Z","layer":"shadow","timeLocal":"16:00"},"features":[{"type":"Feature","properties":{"valleyId":"bisun-sanjeong","layer":"shadow","date":"2026-08-01","timeLocal":"16:00"},"geometry":{"type":"Polygon","coordinates":[[[127.30509,38.0751],[127.30509,38.07503],[127.30516,38.07503],[127.30516,38.0751],[127.30509,38.0751]]]}},{"type":"Feature","properties":{"valleyId":"bisun-sanjeong","layer":"shadow","date":"2026-08-01","timeLocal":"16:00"},"geometry":{"type":"Polygon","coordinates":[[[127.30368,38.07488],[127.30366,38.07481],[127.30375,38.07481],[127.30377,38.07488],[127.30368,38.07488]]]}},{"type":"Feature","properties":{"valleyId":"bisun-sanjeong","layer":"shadow","date":"2026-08-01","timeLocal":"16:00"},"geometry":{"type":"Polygon","coordinates":[[[127.30343,38.07475],[127.30343,38.0747],[127.3035,38.0747],[127.3035,38.07475],[127.30343,38.07475]]]}},{"type":"Feature","properties":{"valleyId":"bisun-sanjeong","layer":"shadow","date":"2026-08-01","timeLocal":"16:00"},"geometry":{"type":"Polygon","coordinates":[[[127.30359,38.07468],[127.3036,38.07463],[127.30366,38.07459],[127.30367,38.07456],[127.30373,38.07456],[127.30371,38.07469],[127.30359,38.07468]]]}},{"type":"Feature","properties":{"valleyId":"bisun-sanjeong","layer":"shadow","date":"2026-08-01","timeLocal":"16:00"},"geometry":{"type":"Polygon","coordinates":[[[127.3056,38.07369],[127.3056,38.07363],[127.30567,38.07363],[127.30567,38.07369],[127.3056,38.07369]]]}},{"type":"Feature","properties":{"valleyId":"bisun-sanjeong","layer":"shadow","date":"2026-08-01","timeLocal":"16:00"},"geometry":{"type":"Polygon","coordinates":[[[127.30324,38.0723],[127.30324,38.07221],[127.30335,38.07221],[127.30335,38.07226],[127.30331,38.0723],[127.30324,38.0723]]]}},{"type":"Feature","properties":{"valleyId":"bisun-sanjeong","layer":"shadow","date":"2026-08-01","timeLocal":"16:00"},"geometry":{"type":"Polygon","coordinates":[[[127.30304,38.0721],[127.30304,38.07204],[127.30311,38.07205],[127.30311,38.0721],[127.30304,38.0721]]]}},{"type":"Feature","properties":{"valleyId":"bisun-sanjeong","layer":"shadow","date":"2026-08-01","timeLocal":"16:00"},"geometry":{"type":"Polygon","coordinates":[[[127.30295,38.07201],[127.30295,38.07192],[127.30302,38.07192],[127.30302,38.07201],[127.30295,38.07201]]]}},{"type":"Feature","properties":{"valleyId":"bisun-sanjeong","layer":"shadow","date":"2026-08-01","timeLocal":"16:00"},"geometry":{"type":"Polygon","coordinates":[[[127.30318,38.07183],[127.30318,38.07174],[127.30325,38.07174],[127.30325,38.07183],[127.30318,38.07183]]]}},{"type":"Feature","properties":{"valleyId":"bisun-sanjeong","layer":"shadow","date":"2026-08-01","timeLocal":"16:00"},"geometry":{"type":"Polygon","coordinates":[[[127.30316,38.07172],[127.30316,38.07167],[127.30323,38.07167],[127.30323,38.07172],[127.30316,38.07172]]]}},{"type":"Feature","properties":{"valleyId":"bisun-sanjeong","layer":"shadow","date":"2026-08-01","timeLocal":"16:00"},"geometry":{"type":"Polygon","coordinates":[[[127.31924,38.07143],[127.31922,38.07136],[127.31929,38.07136],[127.31931,38.07143],[127.31924,38.07143]]]}},{"type":"Feature","properties":{"valleyId":"bisun-sanjeong","layer":"shadow","date":"2026-08-01","timeLocal":"16:00"},"geometry":{"type":"Polygon","coordinates":[[[127.32444,38.07145],[127.32444,38.07138],[127.32451,38.07138],[127.32451,38.07145],[127.32444,38.07145]]]}},{"type":"Feature","properties":{"valleyId":"bisun-sanjeong","layer":"shadow","date":"2026-08-01","timeLocal":"16:00"},"geometry":{"type":"Polygon","coordinates":[[[127.32442,38.07111],[127.32443,38.07105],[127.32449,38.07105],[127.32449,38.07111],[127.32442,38.07111]]]}},{"type":"Feature","properties":{"valleyId":"bisun-sanjeong","layer":"shadow","date":"2026-08-01","timeLocal":"16:00"},"geometry":{"type":"Polygon","coordinates":[[[127.31843,38.07095],[127.31843,38.07082],[127.3185,38.07082],[127.3185,38.07095],[127.31843,38.07095]]]}},{"type":"Feature","properties":{"valleyId":"bisun-sanjeong","layer":"shadow","date":"2026-08-01","timeLocal":"16:00"},"geometry":{"type":"Polygon","coordinates":[[[127.30152,38.07069],[127.30155,38.07056],[127.30164,38.07051],[127.30166,38.07038],[127.30171,38.07038],[127.30171,38.07035],[127.30178,38.07035],[127.30173,38.07058],[127.30166,38.07058],[127.30159,38.07069],[127.30152,38.07069]]]}},{"type":"Feature","properties":{"valleyId":"bisun-sanjeong","layer":"shadow","date":"2026-08-01","timeLocal":"16:00"},"geometry":{"type":"Polygon","coordinates":[[[127.31823,38.07057],[127.31821,38.07048],[127.31828,38.07048],[127.3183,38.07057],[127.31823,38.07057]]]}},{"type":"Feature","properties":{"valleyId":"bisun-sanjeong","layer":"shadow","date":"2026-08-01","timeLocal":"16:00"},"geometry":{"type":"Polygon","coordinates":[[[127.30185,38.07028],[127.30185,38.07022],[127.30199,38.0701],[127.30199,38.07003],[127.30208,38.07003],[127.30208,38.07016],[127.30199,38.07019],[127.30199,38.07023],[127.30192,38.07028],[127.30185,38.07028]]]}},{"type":"Feature","properties":{"valleyId":"bisun-sanjeong","layer":"shadow","date":"2026-08-01","timeLocal":"16:00"},"geometry":{"type":"Polygon","coordinates":[[[127.3035,38.06998],[127.3035,38.06989],[127.30357,38.06989],[127.30359,38.06996],[127.3035,38.06998]]]}},{"type":"Feature","properties":{"valleyId":"bisun-sanjeong","layer":"shadow","date":"2026-08-01","timeLocal":"16:00"},"geometry":{"type":"Polygon","coordinates":[[[127.31786,38.07018],[127.31786,38.07009],[127.31793,38.0701],[127.31792,38.07019],[127.31786,38.07018]]]}},{"type":"Feature","properties":{"valleyId":"bisun-sanjeong","layer":"shadow","date":"2026-08-01","timeLocal":"16:00"},"geometry":{"type":"Polygon","coordinates":[[[127.3022,38.06998],[127.30222,38.06982],[127.30229,38.06982],[127.30227,38.06998],[127.3022,38.06998]]]}},{"type":"Feature","properties":{"valleyId":"bisun-sanjeong","layer":"shadow","date":"2026-08-01","timeLocal":"16:00"},"geometry":{"type":"Polygon","coordinates":[[[127.32447,38.07012],[127.32447,38.07006],[127.32454,38.07006],[127.32454,38.07012],[127.32447,38.07012]]]}},{"type":"Feature","properties":{"valleyId":"bisun-sanjeong","layer":"shadow","date":"2026-08-01","timeLocal":"16:00"},"geometry":{"type":"Polygon","coordinates":[[[127.32556,38.07008],[127.32557,38.06999],[127.32564,38.06999],[127.32563,38.07008],[127.32556,38.07008]]]}},{"type":"Feature","properties":{"valleyId":"bisun-sanjeong","layer":"shadow","date":"2026-08-01","timeLocal":"16:00"},"geometry":{"type":"Polygon","coordinates":[[[127.30244,38.06949],[127.30244,38.06942],[127.30251,38.06942],[127.30251,38.0695],[127.30244,38.06949]]]}},{"type":"Feature","properties":{"valleyId":"bisun-sanjeong","layer":"shadow","date":"2026-08-01","timeLocal":"16:00"},"geometry":{"type":"Polygon","coordinates":[[[127.32241,38.06964],[127.32241,38.06955],[127.32252,38.06957],[127.32252,38.06964],[127.32241,38.06964]]]}},{"type":"Feature","properties":{"valleyId":"bisun-sanjeong","layer":"shadow","date":"2026-08-01","timeLocal":"16:00"},"geometry":{"type":"Polygon","coordinates":[[[127.30479,38.06917],[127.30479,38.0691],[127.30486,38.0691],[127.30486,38.06917],[127.30479,38.06917]]]}},{"type":"Feature","properties":{"valleyId":"bisun-sanjeong","layer":"shadow","date":"2026-08-01","timeLocal":"16:00"},"geometry":{"type":"Polygon","coordinates":[[[127.30327,38.06916],[127.30325,38.06904],[127.30331,38.06904],[127.30338,38.06909],[127.30338,38.06915],[127.30327,38.06916]]]}},{"type":"Feature","properties":{"valleyId":"bisun-sanjeong","layer":"shadow","date":"2026-08-01","timeLocal":"16:00"},"geometry":{"type":"Polygon","coordinates":[[[127.32289,38.06936],[127.32289,38.0693],[127.32296,38.0693],[127.32296,38.06936],[127.32289,38.06936]]]}},{"type":"Feature","properties":{"valleyId":"bisun-sanjeong","layer":"shadow","date":"2026-08-01","timeLocal":"16:00"},"geometry":{"type":"Polygon","coordinates":[[[127.328,38.06932],[127.328,38.06925],[127.32807,38.06925],[127.32807,38.06932],[127.328,38.06932]]]}},{"type":"Feature","properties":{"valleyId":"bisun-sanjeong","layer":"shadow","date":"2026-08-01","timeLocal":"16:00"},"geometry":{"type":"Polygon","coordinates":[[[127.3236,38.06911],[127.3236,38.06904],[127.32367,38.06904],[127.32367,38.06911],[127.3236,38.06911]]]}},{"type":"Feature","properties":{"valleyId":"bisun-sanjeong","layer":"shadow","date":"2026-08-01","timeLocal":"16:00"},"geometry":{"type":"Polygon","coordinates":[[[127.31759,38.06969],[127.31757,38.0696],[127.31753,38.06957],[127.31755,38.06942],[127.31751,38.0694],[127.31749,38.06933],[127.3174,38.06929],[127.3174,38.06924],[127.31747,38.06922],[127.31745,38.06901],[127.3175,38.06886],[127.31757,38.06886],[127.31752,38.06906],[127.31758,38.06912],[127.31758,38.06919],[127.31753,38.06931],[127.31769,38.06944],[127.31769,38.06952],[127.31764,38.06953],[127.31766,38.0697],[127.31759,38.06969]]]}},{"type":"Feature","properties":{"valleyId":"bisun-sanjeong","layer":"shadow","date":"2026-08-01","timeLocal":"16:00"},"geometry":{"type":"Polygon","coordinates":[[[127.31757,38.06886],[127.31759,38.06867],[127.31766,38.06867],[127.31766,38.06885],[127.31757,38.06886]]]}},{"type":"Feature","properties":{"valleyId":"bisun-sanjeong","layer":"shadow","date":"2026-08-01","timeLocal":"16:00"},"geometry":{"type":"Polygon","coordinates":[[[127.30961,38.06868],[127.30964,38.06853],[127.30971,38.06852],[127.30971,38.06848],[127.30978,38.06848],[127.30975,38.06861],[127.30971,38.06861],[127.30968,38.06868],[127.30961,38.06868]]]}},{"type":"Feature","properties":{"valleyId":"bisun-sanjeong","layer":"shadow","date":"2026-08-01","timeLocal":"16:00"},"geometry":{"type":"Polygon","coordinates":[[[127.31008,38.06831],[127.31008,38.06818],[127.31015,38.06818],[127.31015,38.06831],[127.31008,38.06831]]]}},{"type":"Feature","properties":{"valleyId":"bisun-sanjeong","layer":"shadow","date":"2026-08-01","timeLocal":"16:00"},"geometry":{"type":"Polygon","coordinates":[[[127.30938,38.06813],[127.30938,38.06808],[127.30945,38.06808],[127.30944,38.06814],[127.30938,38.06813]]]}},{"type":"Feature","properties":{"valleyId":"bisun-sanjeong","layer":"shadow","date":"2026-08-01","timeLocal":"16:00"},"geometry":{"type":"Polygon","coordinates":[[[127.32547,38.06827],[127.32547,38.0682],[127.32554,38.0682],[127.32554,38.06828],[127.32547,38.06827]]]}},{"type":"Feature","properties":{"valleyId":"bisun-sanjeong","layer":"shadow","date":"2026-08-01","timeLocal":"16:00"},"geometry":{"type":"Polygon","coordinates":[[[127.30963,38.06801],[127.30963,38.06796],[127.3097,38.06796],[127.3097,38.06801],[127.30963,38.06801]]]}},{"type":"Feature","properties":{"valleyId":"bisun-sanjeong","layer":"shadow","date":"2026-08-01","timeLocal":"16:00"},"geometry":{"type":"Polygon","coordinates":[[[127.32545,38.06818],[127.32547,38.06806],[127.32554,38.06806],[127.32552,38.06819],[127.32545,38.06818]]]}},{"type":"Feature","properties":{"valleyId":"bisun-sanjeong","layer":"shadow","date":"2026-08-01","timeLocal":"16:00"},"geometry":{"type":"Polygon","coordinates":[[[127.30981,38.06792],[127.30984,38.06783],[127.30993,38.06782],[127.30993,38.06789],[127.30988,38.06793],[127.30981,38.06792]]]}},{"type":"Feature","properties":{"valleyId":"bisun-sanjeong","layer":"shadow","date":"2026-08-01","timeLocal":"16:00"},"geometry":{"type":"Polygon","coordinates":[[[127.3226,38.06805],[127.3226,38.068],[127.32267,38.068],[127.32267,38.06805],[127.3226,38.06805]]]}},{"type":"Feature","properties":{"valleyId":"bisun-sanjeong","layer":"shadow","date":"2026-08-01","timeLocal":"16:00"},"geometry":{"type":"Polygon","coordinates":[[[127.3257,38.0681],[127.3257,38.06804],[127.32577,38.06804],[127.32577,38.0681],[127.3257,38.0681]]]}},{"type":"Feature","properties":{"valleyId":"bisun-sanjeong","layer":"shadow","date":"2026-08-01","timeLocal":"16:00"},"geometry":{"type":"Polygon","coordinates":[[[127.31009,38.06775],[127.31009,38.06766],[127.31021,38.06768],[127.31018,38.06775],[127.31009,38.06775]]]}},{"type":"Feature","properties":{"valleyId":"bisun-sanjeong","layer":"shadow","date":"2026-08-01","timeLocal":"16:00"},"geometry":{"type":"Polygon","coordinates":[[[127.3258,38.06788],[127.3258,38.06783],[127.32589,38.06783],[127.32589,38.06788],[127.3258,38.06788]]]}},{"type":"Feature","properties":{"valleyId":"bisun-sanjeong","layer":"shadow","date":"2026-08-01","timeLocal":"16:00"},"geometry":{"type":"Polygon","coordinates":[[[127.30957,38.06769],[127.30957,38.06752],[127.30964,38.06753],[127.30964,38.06769],[127.30957,38.06769]]]}},{"type":"Feature","properties":{"valleyId":"bisun-sanjeong","layer":"shadow","date":"2026-08-01","timeLocal":"16:00"},"geometry":{"type":"Polygon","coordinates":[[[127.32662,38.0678],[127.32662,38.06766],[127.32669,38.06766],[127.32669,38.06781],[127.32662,38.0678]]]}},{"type":"Feature","properties":{"valleyId":"bisun-sanjeong","layer":"shadow","date":"2026-08-01","timeLocal":"16:00"},"geometry":{"type":"Polygon","coordinates":[[[127.31028,38.06752],[127.31028,38.06743],[127.31037,38.06743],[127.31037,38.0675],[127.31028,38.06752]]]}},{"type":"Feature","properties":{"valleyId":"bisun-sanjeong","layer":"shadow","date":"2026-08-01","timeLocal":"16:00"},"geometry":{"type":"Polygon","coordinates":[[[127.31037,38.06743],[127.31037,38.06736],[127.31049,38.06738],[127.31049,38.06743],[127.31037,38.06743]]]}},{"type":"Feature","properties":{"valleyId":"bisun-sanjeong","layer":"shadow","date":"2026-08-01","timeLocal":"16:00"},"geometry":{"type":"Polygon","coordinates":[[[127.3106,38.06734],[127.3106,38.06729],[127.3107,38.06727],[127.31069,38.06734],[127.3106,38.06734]]]}},{"type":"Feature","properties":{"valleyId":"bisun-sanjeong","layer":"shadow","date":"2026-08-01","timeLocal":"16:00"},"geometry":{"type":"Polygon","coordinates":[[[127.31208,38.06747],[127.31208,38.06742],[127.31213,38.0674],[127.31213,38.06727],[127.3122,38.06727],[127.31222,38.06742],[127.31215,38.06747],[127.31208,38.06747]]]}},{"type":"Feature","properties":{"valleyId":"bisun-sanjeong","layer":"shadow","date":"2026-08-01","timeLocal":"16:00"},"geometry":{"type":"Polygon","coordinates":[[[127.31101,38.06733],[127.31104,38.0672],[127.31111,38.0672],[127.31111,38.06731],[127.31101,38.06733]]]}},{"type":"Feature","properties":{"valleyId":"bisun-sanjeong","layer":"shadow","date":"2026-08-01","timeLocal":"16:00"},"geometry":{"type":"Polygon","coordinates":[[[127.32371,38.06749],[127.32371,38.06733],[127.32378,38.06733],[127.3238,38.06746],[127.32378,38.06749],[127.32371,38.06749]]]}},{"type":"Feature","properties":{"valleyId":"bisun-sanjeong","layer":"shadow","date":"2026-08-01","timeLocal":"16:00"},"geometry":{"type":"Polygon","coordinates":[[[127.31011,38.06717],[127.31011,38.0671],[127.3102,38.0671],[127.3102,38.06715],[127.31011,38.06717]]]}},{"type":"Feature","properties":{"valleyId":"bisun-sanjeong","layer":"shadow","date":"2026-08-01","timeLocal":"16:00"},"geometry":{"type":"Polygon","coordinates":[[[127.32667,38.06743],[127.32675,38.06727],[127.32681,38.06727],[127.32679,38.06739],[127.32674,38.06743],[127.32667,38.06743]]]}},{"type":"Feature","properties":{"valleyId":"bisun-sanjeong","layer":"shadow","date":"2026-08-01","timeLocal":"16:00"},"geometry":{"type":"Polygon","coordinates":[[[127.31081,38.0672],[127.31081,38.06715],[127.31086,38.06711],[127.31086,38.067],[127.31093,38.067],[127.31095,38.06704],[127.31107,38.06708],[127.31104,38.06717],[127.31081,38.0672]]]}},{"type":"Feature","properties":{"valleyId":"bisun-sanjeong","layer":"shadow","date":"2026-08-01","timeLocal":"16:00"},"geometry":{"type":"Polygon","coordinates":[[[127.3127,38.06721],[127.31268,38.06705],[127.31278,38.06703],[127.31279,38.06721],[127.3127,38.06721]]]}},{"type":"Feature","properties":{"valleyId":"bisun-sanjeong","layer":"shadow","date":"2026-08-01","timeLocal":"16:00"},"geometry":{"type":"Polygon","coordinates":[[[127.31191,38.06704],[127.31191,38.06693],[127.31198,38.06693],[127.312,38.06702],[127.31191,38.06704]]]}},{"type":"Feature","properties":{"valleyId":"bisun-sanjeong","layer":"shadow","date":"2026-08-01","timeLocal":"16:00"},"geometry":{"type":"Polygon","coordinates":[[[127.31293,38.06707],[127.31294,38.06701],[127.31298,38.06701],[127.31301,38.06698],[127.31301,38.06691],[127.31308,38.06691],[127.31312,38.06694],[127.31312,38.067],[127.31305,38.06707],[127.31293,38.06707]]]}},{"type":"Feature","properties":{"valleyId":"bisun-sanjeong","layer":"shadow","date":"2026-08-01","timeLocal":"16:00"},"geometry":{"type":"Polygon","coordinates":[[[127.31073,38.06691],[127.31073,38.06686],[127.3108,38.06686],[127.3108,38.06691],[127.31073,38.06691]]]}},{"type":"Feature","properties":{"valleyId":"bisun-sanjeong","layer":"shadow","date":"2026-08-01","timeLocal":"16:00"},"geometry":{"type":"Polygon","coordinates":[[[127.31139,38.0669],[127.31139,38.06683],[127.31146,38.06683],[127.31146,38.0669],[127.31139,38.0669]]]}},{"type":"Feature","properties":{"valleyId":"bisun-sanjeong","layer":"shadow","date":"2026-08-01","timeLocal":"16:00"},"geometry":{"type":"Polygon","coordinates":[[[127.32383,38.06728],[127.32383,38.06722],[127.32394,38.06719],[127.32399,38.06714],[127.3241,38.06712],[127.32424,38.06698],[127.32436,38.06696],[127.32436,38.06705],[127.32431,38.06707],[127.32431,38.0671],[127.32417,38.06714],[127.32417,38.06721],[127.32397,38.06724],[127.32394,38.06728],[127.32383,38.06728]]]}},{"type":"Feature","properties":{"valleyId":"bisun-sanjeong","layer":"shadow","date":"2026-08-01","timeLocal":"16:00"},"geometry":{"type":"Polygon","coordinates":[[[127.32504,38.06699],[127.32504,38.06692],[127.32511,38.06692],[127.32511,38.06699],[127.32504,38.06699]]]}},{"type":"Feature","properties":{"valleyId":"bisun-sanjeong","layer":"shadow","date":"2026-08-01","timeLocal":"16:00"},"geometry":{"type":"Polygon","coordinates":[[[127.31265,38.06678],[127.31265,38.06672],[127.31271,38.06672],[127.31271,38.06678],[127.31265,38.06678]]]}},{"type":"Feature","properties":{"valleyId":"bisun-sanjeong","layer":"shadow","date":"2026-08-01","timeLocal":"16:00"},"geometry":{"type":"Polygon","coordinates":[[[127.31296,38.06687],[127.31296,38.06682],[127.31303,38.06674],[127.3131,38.06675],[127.3131,38.06671],[127.31319,38.06671],[127.31319,38.06677],[127.3131,38.06676],[127.31303,38.06687],[127.31296,38.06687]]]}},{"type":"Feature","properties":{"valleyId":"bisun-sanjeong","layer":"shadow","date":"2026-08-01","timeLocal":"16:00"},"geometry":{"type":"Polygon","coordinates":[[[127.31237,38.06675],[127.31237,38.06668],[127.31244,38.06668],[127.31244,38.06675],[127.31237,38.06675]]]}},{"type":"Feature","properties":{"valleyId":"bisun-sanjeong","layer":"shadow","date":"2026-08-01","timeLocal":"16:00"},"geometry":{"type":"Polygon","coordinates":[[[127.31155,38.06683],[127.31155,38.06678],[127.31162,38.06678],[127.3116,38.06667],[127.31171,38.06669],[127.31171,38.06682],[127.31155,38.06683]]]}},{"type":"Feature","properties":{"valleyId":"bisun-sanjeong","layer":"shadow","date":"2026-08-01","timeLocal":"16:00"},"geometry":{"type":"Polygon","coordinates":[[[127.32452,38.06686],[127.32452,38.0668],[127.32457,38.06677],[127.32471,38.06675],[127.3247,38.0668],[127.32464,38.0668],[127.32459,38.06686],[127.32452,38.06686]]]}},{"type":"Feature","properties":{"valleyId":"bisun-sanjeong","layer":"shadow","date":"2026-08-01","timeLocal":"16:00"},"geometry":{"type":"Polygon","coordinates":[[[127.31149,38.06656],[127.31149,38.06649],[127.31158,38.06649],[127.31158,38.06656],[127.31149,38.06656]]]}},{"type":"Feature","properties":{"valleyId":"bisun-sanjeong","layer":"shadow","date":"2026-08-01","timeLocal":"16:00"},"geometry":{"type":"Polygon","coordinates":[[[127.31488,38.06661],[127.31489,38.06652],[127.31495,38.06652],[127.31495,38.06661],[127.31488,38.06661]]]}},{"type":"Feature","properties":{"valleyId":"bisun-sanjeong","layer":"shadow","date":"2026-08-01","timeLocal":"16:00"},"geometry":{"type":"Polygon","coordinates":[[[127.31523,38.06642],[127.31523,38.06634],[127.3153,38.06634],[127.31532,38.06642],[127.31523,38.06642]]]}},{"type":"Feature","properties":{"valleyId":"bisun-sanjeong","layer":"shadow","date":"2026-08-01","timeLocal":"16:00"},"geometry":{"type":"Polygon","coordinates":[[[127.31152,38.06602],[127.31152,38.06597],[127.31162,38.06595],[127.31161,38.066],[127.31152,38.06602]]]}},{"type":"Feature","properties":{"valleyId":"bisun-sanjeong","layer":"shadow","date":"2026-08-01","timeLocal":"16:00"},"geometry":{"type":"Polygon","coordinates":[[[127.31488,38.06587],[127.31488,38.06578],[127.31495,38.06578],[127.31495,38.06587],[127.31488,38.06587]]]}},{"type":"Feature","properties":{"valleyId":"bisun-sanjeong","layer":"shadow","date":"2026-08-01","timeLocal":"16:00"},"geometry":{"type":"Polygon","coordinates":[[[127.31488,38.06565],[127.31489,38.06546],[127.31498,38.06546],[127.31497,38.06564],[127.31488,38.06565]]]}},{"type":"Feature","properties":{"valleyId":"bisun-sanjeong","layer":"shadow","date":"2026-08-01","timeLocal":"16:00"},"geometry":{"type":"Polygon","coordinates":[[[127.31484,38.06542],[127.31487,38.06528],[127.31494,38.06528],[127.31493,38.06538],[127.31491,38.06542],[127.31484,38.06542]]]}},{"type":"Feature","properties":{"valleyId":"bisun-sanjeong","layer":"shadow","date":"2026-08-01","timeLocal":"16:00"},"geometry":{"type":"Polygon","coordinates":[[[127.31487,38.06506],[127.31487,38.06499],[127.31494,38.06499],[127.31494,38.06506],[127.31487,38.06506]]]}},{"type":"Feature","properties":{"valleyId":"bisun-sanjeong","layer":"shadow","date":"2026-08-01","timeLocal":"16:00"},"geometry":{"type":"Polygon","coordinates":[[[127.31432,38.0653],[127.31432,38.06518],[127.31437,38.06514],[127.31437,38.06507],[127.31442,38.06502],[127.31443,38.06448],[127.31439,38.06442],[127.31439,38.06428],[127.31446,38.06428],[127.31452,38.06439],[127.31452,38.0645],[127.31457,38.06453],[127.31456,38.06498],[127.31449,38.06504],[127.31446,38.06513],[127.31441,38.06516],[127.31439,38.0653],[127.31432,38.0653]]]}},{"type":"Feature","properties":{"valleyId":"bisun-sanjeong","layer":"shadow","date":"2026-08-01","timeLocal":"16:00"},"geometry":{"type":"Polygon","coordinates":[[[127.31444,38.06412],[127.31444,38.06397],[127.31451,38.06397],[127.31451,38.06412],[127.31444,38.06412]]]}}]}
