{"type":"FeatureCollection","features":[{"type":"Feature","properties":{"valleyId":"baegun","layer":"cast","date":"2026-08-01","timeLocal":"10:00"},"geometry":{"type":"Polygon","coordinates":[[[127.39314,38.09501],[127.39314,38.09498],[127.39323,38.09498],[127.39323,38.09501],[127.39314,38.09501]]]}},{"type":"Feature","properties":{"valleyId":"baegun","layer":"cast","date":"2026-08-01","timeLocal":"10:00"},"geometry":{"type":"Polygon","coordinates":[[[127.3939,38.09502],[127.3939,38.09499],[127.3941,38.09499],[127.3941,38.09502],[127.3939,38.09502]]]}},{"type":"Feature","properties":{"valleyId":"baegun","layer":"cast","date":"2026-08-01","timeLocal":"10:00"},"geometry":{"type":"Polygon","coordinates":[[[127.42258,38.09541],[127.42258,38.09537],[127.42267,38.09538],[127.42267,38.09541],[127.42258,38.09541]]]}},{"type":"Feature","properties":{"valleyId":"baegun","layer":"cast","date":"2026-08-01","timeLocal":"10:00"},"geometry":{"type":"Polygon","coordinates":[[[127.4014,38.09379],[127.4014,38.09372],[127.4015,38.09372],[127.40149,38.09379],[127.4014,38.09379]]]}},{"type":"Feature","properties":{"valleyId":"baegun","layer":"cast","date":"2026-08-01","timeLocal":"10:00"},"geometry":{"type":"Polygon","coordinates":[[[127.39933,38.09355],[127.39933,38.09347],[127.39943,38.09348],[127.39942,38.09355],[127.39933,38.09355]]]}},{"type":"Feature","properties":{"valleyId":"baegun","layer":"cast","date":"2026-08-01","timeLocal":"10:00"},"geometry":{"type":"Polygon","coordinates":[[[127.39537,38.09328],[127.39537,38.09322],[127.39546,38.09322],[127.39546,38.09328],[127.39537,38.09328]]]}},{"type":"Feature","properties":{"valleyId":"baegun","layer":"cast","date":"2026-08-01","timeLocal":"10:00"},"geometry":{"type":"Polygon","coordinates":[[[127.3959,38.09321],[127.39583,38.09319],[127.39583,38.09314],[127.39597,38.09314],[127.39596,38.09321],[127.3959,38.09321]]]}},{"type":"Feature","properties":{"valleyId":"baegun","layer":"cast","date":"2026-08-01","timeLocal":"10:00"},"geometry":{"type":"Polygon","coordinates":[[[127.43946,38.09293],[127.43935,38.09291],[127.43935,38.09288],[127.43928,38.09288],[127.43928,38.09282],[127.43956,38.09286],[127.43955,38.09293],[127.43946,38.09293]]]}},{"type":"Feature","properties":{"valleyId":"baegun","layer":"cast","date":"2026-08-01","timeLocal":"10:00"},"geometry":{"type":"Polygon","coordinates":[[[127.43894,38.09273],[127.43894,38.09267],[127.43901,38.09267],[127.43901,38.09273],[127.43894,38.09273]]]}},{"type":"Feature","properties":{"valleyId":"baegun","layer":"cast","date":"2026-08-01","timeLocal":"10:00"},"geometry":{"type":"Polygon","coordinates":[[[127.39428,38.09207],[127.39428,38.092],[127.39435,38.092],[127.39437,38.09207],[127.39428,38.09207]]]}},{"type":"Feature","properties":{"valleyId":"baegun","layer":"cast","date":"2026-08-01","timeLocal":"10:00"},"geometry":{"type":"Polygon","coordinates":[[[127.43489,38.09156],[127.43489,38.09152],[127.43482,38.09152],[127.43482,38.09146],[127.43505,38.09147],[127.43505,38.09152],[127.43498,38.09152],[127.43498,38.09156],[127.43489,38.09156]]]}},{"type":"Feature","properties":{"valleyId":"baegun","layer":"cast","date":"2026-08-01","timeLocal":"10:00"},"geometry":{"type":"Polygon","coordinates":[[[127.43872,38.09152],[127.43872,38.09146],[127.43881,38.09146],[127.43881,38.09152],[127.43872,38.09152]]]}},{"type":"Feature","properties":{"valleyId":"baegun","layer":"cast","date":"2026-08-01","timeLocal":"10:00"},"geometry":{"type":"Polygon","coordinates":[[[127.43521,38.09143],[127.43521,38.09138],[127.4353,38.09138],[127.4353,38.09144],[127.43521,38.09143]]]}},{"type":"Feature","properties":{"valleyId":"baegun","layer":"cast","date":"2026-08-01","timeLocal":"10:00"},"geometry":{"type":"Polygon","coordinates":[[[127.43475,38.09125],[127.43476,38.09116],[127.43483,38.09116],[127.43485,38.09125],[127.43475,38.09125]]]}},{"type":"Feature","properties":{"valleyId":"baegun","layer":"cast","date":"2026-08-01","timeLocal":"10:00"},"geometry":{"type":"Polygon","coordinates":[[[127.41233,38.09051],[127.41233,38.09044],[127.41242,38.09044],[127.41242,38.09052],[127.41233,38.09051]]]}},{"type":"Feature","properties":{"valleyId":"baegun","layer":"cast","date":"2026-08-01","timeLocal":"10:00"},"geometry":{"type":"Polygon","coordinates":[[[127.41092,38.09028],[127.41092,38.09022],[127.41099,38.09023],[127.41099,38.09028],[127.41092,38.09028]]]}},{"type":"Feature","properties":{"valleyId":"baegun","layer":"cast","date":"2026-08-01","timeLocal":"10:00"},"geometry":{"type":"Polygon","coordinates":[[[127.4124,38.09023],[127.41241,38.09015],[127.4125,38.09016],[127.4125,38.09023],[127.4124,38.09023]]]}},{"type":"Feature","properties":{"valleyId":"baegun","layer":"cast","date":"2026-08-01","timeLocal":"10:00"},"geometry":{"type":"Polygon","coordinates":[[[127.434,38.09012],[127.434,38.09007],[127.4341,38.09007],[127.43409,38.09012],[127.434,38.09012]]]}},{"type":"Feature","properties":{"valleyId":"baegun","layer":"cast","date":"2026-08-01","timeLocal":"10:00"},"geometry":{"type":"Polygon","coordinates":[[[127.4338,38.09012],[127.4338,38.09003],[127.43396,38.09005],[127.43396,38.0901],[127.4338,38.09012]]]}},{"type":"Feature","properties":{"valleyId":"baegun","layer":"cast","date":"2026-08-01","timeLocal":"10:00"},"geometry":{"type":"Polygon","coordinates":[[[127.39243,38.08898],[127.39244,38.08878],[127.3925,38.08878],[127.3925,38.08898],[127.39243,38.08898]]]}},{"type":"Feature","properties":{"valleyId":"baegun","layer":"cast","date":"2026-08-01","timeLocal":"10:00"},"geometry":{"type":"Polygon","coordinates":[[[127.43761,38.08889],[127.43761,38.08883],[127.4377,38.08884],[127.4377,38.08889],[127.43761,38.08889]]]}},{"type":"Feature","properties":{"valleyId":"baegun","layer":"cast","date":"2026-08-01","timeLocal":"10:00"},"geometry":{"type":"Polygon","coordinates":[[[127.41168,38.088],[127.41168,38.08787],[127.41184,38.08788],[127.41184,38.088],[127.41168,38.088]]]}},{"type":"Feature","properties":{"valleyId":"baegun","layer":"cast","date":"2026-08-01","timeLocal":"10:00"},"geometry":{"type":"Polygon","coordinates":[[[127.41154,38.08789],[127.41154,38.08784],[127.41164,38.08784],[127.41163,38.08789],[127.41154,38.08789]]]}},{"type":"Feature","properties":{"valleyId":"baegun","layer":"cast","date":"2026-08-01","timeLocal":"10:00"},"geometry":{"type":"Polygon","coordinates":[[[127.44002,38.0882],[127.44002,38.08815],[127.44011,38.08815],[127.44011,38.0882],[127.44002,38.0882]]]}},{"type":"Feature","properties":{"valleyId":"baegun","layer":"cast","date":"2026-08-01","timeLocal":"10:00"},"geometry":{"type":"Polygon","coordinates":[[[127.4397,38.08814],[127.4397,38.08811],[127.43957,38.0881],[127.43957,38.08805],[127.43979,38.08805],[127.43986,38.08809],[127.44,38.08809],[127.44,38.08815],[127.4397,38.08814]]]}},{"type":"Feature","properties":{"valleyId":"baegun","layer":"cast","date":"2026-08-01","timeLocal":"10:00"},"geometry":{"type":"Polygon","coordinates":[[[127.40245,38.08755],[127.40245,38.0875],[127.40252,38.0875],[127.40252,38.08755],[127.40245,38.08755]]]}},{"type":"Feature","properties":{"valleyId":"baegun","layer":"cast","date":"2026-08-01","timeLocal":"10:00"},"geometry":{"type":"Polygon","coordinates":[[[127.43335,38.08762],[127.43335,38.08753],[127.43349,38.08754],[127.43349,38.08763],[127.43335,38.08762]]]}},{"type":"Feature","properties":{"valleyId":"baegun","layer":"cast","date":"2026-08-01","timeLocal":"10:00"},"geometry":{"type":"Polygon","coordinates":[[[127.43374,38.08756],[127.43374,38.0875],[127.43383,38.0875],[127.43383,38.08756],[127.43374,38.08756]]]}},{"type":"Feature","properties":{"valleyId":"baegun","layer":"cast","date":"2026-08-01","timeLocal":"10:00"},"geometry":{"type":"Polygon","coordinates":[[[127.43375,38.08725],[127.43354,38.08719],[127.43354,38.08714],[127.43377,38.08716],[127.43377,38.0872],[127.43384,38.0872],[127.43384,38.08725],[127.43375,38.08725]]]}},{"type":"Feature","properties":{"valleyId":"baegun","layer":"cast","date":"2026-08-01","timeLocal":"10:00"},"geometry":{"type":"Polygon","coordinates":[[[127.42835,38.08588],[127.42835,38.08583],[127.42842,38.08583],[127.42842,38.08588],[127.42835,38.08588]]]}},{"type":"Feature","properties":{"valleyId":"baegun","layer":"cast","date":"2026-08-01","timeLocal":"10:00"},"geometry":{"type":"Polygon","coordinates":[[[127.42821,38.0857],[127.42822,38.08564],[127.42828,38.08565],[127.42828,38.0857],[127.42821,38.0857]]]}},{"type":"Feature","properties":{"valleyId":"baegun","layer":"cast","date":"2026-08-01","timeLocal":"10:00"},"geometry":{"type":"Polygon","coordinates":[[[127.39644,38.083],[127.39644,38.08293],[127.39651,38.08293],[127.39651,38.083],[127.39644,38.083]]]}},{"type":"Feature","properties":{"valleyId":"baegun","layer":"cast","date":"2026-08-01","timeLocal":"10:00"},"geometry":{"type":"Polygon","coordinates":[[[127.39635,38.08289],[127.39635,38.08284],[127.39642,38.08284],[127.39642,38.08289],[127.39635,38.08289]]]}},{"type":"Feature","properties":{"valleyId":"baegun","layer":"cast","date":"2026-08-01","timeLocal":"10:00"},"geometry":{"type":"Polygon","coordinates":[[[127.43981,38.08315],[127.43981,38.0831],[127.43988,38.0831],[127.43988,38.08315],[127.43981,38.08315]]]}},{"type":"Feature","properties":{"valleyId":"baegun","layer":"cast","date":"2026-08-01","timeLocal":"10:00"},"geometry":{"type":"Polygon","coordinates":[[[127.39633,38.08258],[127.39634,38.08247],[127.3964,38.08248],[127.3964,38.08258],[127.39633,38.08258]]]}},{"type":"Feature","properties":{"valleyId":"baegun","layer":"cast","date":"2026-08-01","timeLocal":"10:00"},"geometry":{"type":"Polygon","coordinates":[[[127.39625,38.08244],[127.39627,38.08233],[127.39623,38.08227],[127.39623,38.0822],[127.39639,38.0822],[127.39639,38.08228],[127.39634,38.08228],[127.39634,38.08244],[127.39625,38.08244]]]}},{"type":"Feature","properties":{"valleyId":"baegun","layer":"cast","date":"2026-08-01","timeLocal":"10:00"},"geometry":{"type":"Polygon","coordinates":[[[127.39252,38.08188],[127.39252,38.08181],[127.39257,38.08181],[127.39256,38.08188],[127.39252,38.08188]]]}},{"type":"Feature","properties":{"valleyId":"baegun","layer":"cast","date":"2026-08-01","timeLocal":"10:00"},"geometry":{"type":"Polygon","coordinates":[[[127.43998,38.08249],[127.43998,38.08234],[127.44005,38.08234],[127.44005,38.08249],[127.43998,38.08249]]]}},{"type":"Feature","properties":{"valleyId":"baegun","layer":"cast","date":"2026-08-01","timeLocal":"10:00"},"geometry":{"type":"Polygon","coordinates":[[[127.3974,38.08096],[127.3974,38.0809],[127.39747,38.0809],[127.39746,38.08096],[127.3974,38.08096]]]}},{"type":"Feature","properties":{"valleyId":"baegun","layer":"cast","date":"2026-08-01","timeLocal":"10:00"},"geometry":{"type":"Polygon","coordinates":[[[127.42282,38.08089],[127.42282,38.08085],[127.42269,38.08081],[127.42269,38.08074],[127.42276,38.08074],[127.42278,38.0808],[127.42291,38.08083],[127.42291,38.08089],[127.42282,38.08089]]]}},{"type":"Feature","properties":{"valleyId":"baegun","layer":"cast","date":"2026-08-01","timeLocal":"10:00"},"geometry":{"type":"Polygon","coordinates":[[[127.42258,38.08061],[127.42251,38.08059],[127.42251,38.08056],[127.4223,38.08056],[127.42231,38.0805],[127.42253,38.0805],[127.42272,38.08054],[127.42271,38.08061],[127.42258,38.08061]]]}},{"type":"Feature","properties":{"valleyId":"baegun","layer":"cast","date":"2026-08-01","timeLocal":"10:00"},"geometry":{"type":"Polygon","coordinates":[[[127.42199,38.08055],[127.42199,38.08048],[127.42206,38.08048],[127.42206,38.08044],[127.42219,38.08046],[127.42219,38.08055],[127.42199,38.08055]]]}},{"type":"Feature","properties":{"valleyId":"baegun","layer":"cast","date":"2026-08-01","timeLocal":"10:00"},"geometry":{"type":"Polygon","coordinates":[[[127.43467,38.08029],[127.43467,38.08023],[127.43476,38.08024],[127.43476,38.08029],[127.43467,38.08029]]]}},{"type":"Feature","properties":{"valleyId":"baegun","layer":"cast","date":"2026-08-01","timeLocal":"10:00"},"geometry":{"type":"Polygon","coordinates":[[[127.43481,38.08027],[127.43481,38.08022],[127.4349,38.08022],[127.4349,38.08027],[127.43481,38.08027]]]}},{"type":"Feature","properties":{"valleyId":"baegun","layer":"cast","date":"2026-08-01","timeLocal":"10:00"},"geometry":{"type":"Polygon","coordinates":[[[127.42018,38.07946],[127.42019,38.07939],[127.42025,38.07939],[127.42025,38.07946],[127.42018,38.07946]]]}},{"type":"Feature","properties":{"valleyId":"baegun","layer":"cast","date":"2026-08-01","timeLocal":"10:00"},"geometry":{"type":"Polygon","coordinates":[[[127.43409,38.0796],[127.43409,38.07954],[127.43418,38.07954],[127.43418,38.0796],[127.43409,38.0796]]]}},{"type":"Feature","properties":{"valleyId":"baegun","layer":"cast","date":"2026-08-01","timeLocal":"10:00"},"geometry":{"type":"Polygon","coordinates":[[[127.43475,38.07962],[127.43468,38.0796],[127.43469,38.07953],[127.43478,38.07953],[127.43478,38.07957],[127.43491,38.07957],[127.43491,38.07962],[127.43475,38.07962]]]}},{"type":"Feature","properties":{"valleyId":"baegun","layer":"cast","date":"2026-08-01","timeLocal":"10:00"},"geometry":{"type":"Polygon","coordinates":[[[127.42021,38.07923],[127.42022,38.0791],[127.42028,38.0791],[127.42028,38.07923],[127.42021,38.07923]]]}},{"type":"Feature","properties":{"valleyId":"baegun","layer":"cast","date":"2026-08-01","timeLocal":"10:00"},"geometry":{"type":"Polygon","coordinates":[[[127.43294,38.07918],[127.43294,38.07909],[127.43301,38.07909],[127.43301,38.07918],[127.43294,38.07918]]]}},{"type":"Feature","properties":{"valleyId":"baegun","layer":"cast","date":"2026-08-01","timeLocal":"10:00"},"geometry":{"type":"Polygon","coordinates":[[[127.39939,38.07821],[127.39939,38.07815],[127.39949,38.07816],[127.39948,38.07821],[127.39939,38.07821]]]}},{"type":"Feature","properties":{"valleyId":"baegun","layer":"cast","date":"2026-08-01","timeLocal":"10:00"},"geometry":{"type":"Polygon","coordinates":[[[127.43433,38.07808],[127.43433,38.07805],[127.43419,38.07803],[127.43419,38.07797],[127.43442,38.078],[127.43442,38.07809],[127.43433,38.07808]]]}},{"type":"Feature","properties":{"valleyId":"baegun","layer":"cast","date":"2026-08-01","timeLocal":"10:00"},"geometry":{"type":"Polygon","coordinates":[[[127.43374,38.07799],[127.43374,38.07793],[127.43397,38.07794],[127.43397,38.07799],[127.43374,38.07799]]]}},{"type":"Feature","properties":{"valleyId":"baegun","layer":"cast","date":"2026-08-01","timeLocal":"10:00"},"geometry":{"type":"Polygon","coordinates":[[[127.43406,38.07797],[127.43406,38.07792],[127.43415,38.07792],[127.43415,38.07797],[127.43406,38.07797]]]}},{"type":"Feature","properties":{"valleyId":"baegun","layer":"cast","date":"2026-08-01","timeLocal":"10:00"},"geometry":{"type":"Polygon","coordinates":[[[127.39395,38.07684],[127.39391,38.07676],[127.39391,38.07667],[127.39393,38.0766],[127.394,38.0766],[127.39402,38.07684],[127.39395,38.07684]]]}},{"type":"Feature","properties":{"valleyId":"baegun","layer":"cast","date":"2026-08-01","timeLocal":"10:00"},"geometry":{"type":"Polygon","coordinates":[[[127.42266,38.0769],[127.42266,38.07685],[127.42273,38.07685],[127.42273,38.0769],[127.42266,38.0769]]]}},{"type":"Feature","properties":{"valleyId":"baegun","layer":"cast","date":"2026-08-01","timeLocal":"10:00"},"geometry":{"type":"Polygon","coordinates":[[[127.39385,38.07646],[127.39385,38.0764],[127.39392,38.0764],[127.39391,38.07646],[127.39385,38.07646]]]}},{"type":"Feature","properties":{"valleyId":"baegun","layer":"cast","date":"2026-08-01","timeLocal":"10:00"},"geometry":{"type":"Polygon","coordinates":[[[127.43377,38.07671],[127.43377,38.07665],[127.43386,38.07665],[127.43386,38.07671],[127.43377,38.07671]]]}},{"type":"Feature","properties":{"valleyId":"baegun","layer":"cast","date":"2026-08-01","timeLocal":"10:00"},"geometry":{"type":"Polygon","coordinates":[[[127.4352,38.07658],[127.43521,38.07651],[127.43537,38.07651],[127.43536,38.07658],[127.4352,38.07658]]]}},{"type":"Feature","properties":{"valleyId":"baegun","layer":"cast","date":"2026-08-01","timeLocal":"10:00"},"geometry":{"type":"Polygon","coordinates":[[[127.43566,38.07657],[127.43552,38.07655],[127.43553,38.07648],[127.43569,38.07646],[127.43568,38.07652],[127.43575,38.07652],[127.43575,38.07657],[127.43566,38.07657]]]}},{"type":"Feature","properties":{"valleyId":"baegun","layer":"cast","date":"2026-08-01","timeLocal":"10:00"},"geometry":{"type":"Polygon","coordinates":[[[127.43507,38.07653],[127.43507,38.07647],[127.435,38.07647],[127.435,38.07638],[127.43509,38.07638],[127.43509,38.07647],[127.43514,38.07647],[127.43514,38.07653],[127.43507,38.07653]]]}},{"type":"Feature","properties":{"valleyId":"baegun","layer":"cast","date":"2026-08-01","timeLocal":"10:00"},"geometry":{"type":"Polygon","coordinates":[[[127.43398,38.07635],[127.43384,38.07633],[127.43384,38.07624],[127.43407,38.07626],[127.43407,38.07635],[127.43398,38.07635]]]}},{"type":"Feature","properties":{"valleyId":"baegun","layer":"cast","date":"2026-08-01","timeLocal":"10:00"},"geometry":{"type":"Polygon","coordinates":[[[127.41864,38.07584],[127.4186,38.0758],[127.4186,38.07573],[127.41867,38.07573],[127.41867,38.07577],[127.41871,38.07578],[127.41871,38.07584],[127.41864,38.07584]]]}},{"type":"Feature","properties":{"valleyId":"baegun","layer":"cast","date":"2026-08-01","timeLocal":"10:00"},"geometry":{"type":"Polygon","coordinates":[[[127.431,38.07597],[127.431,38.0759],[127.43107,38.0759],[127.43107,38.07597],[127.431,38.07597]]]}},{"type":"Feature","properties":{"valleyId":"baegun","layer":"cast","date":"2026-08-01","timeLocal":"10:00"},"geometry":{"type":"Polygon","coordinates":[[[127.43522,38.07588],[127.43515,38.07586],[127.43515,38.07581],[127.43531,38.07583],[127.43531,38.07588],[127.43522,38.07588]]]}},{"type":"Feature","properties":{"valleyId":"baegun","layer":"cast","date":"2026-08-01","timeLocal":"10:00"},"geometry":{"type":"Polygon","coordinates":[[[127.43276,38.07583],[127.43276,38.07574],[127.43283,38.07574],[127.43283,38.07583],[127.43276,38.07583]]]}},{"type":"Feature","properties":{"valleyId":"baegun","layer":"cast","date":"2026-08-01","timeLocal":"10:00"},"geometry":{"type":"Polygon","coordinates":[[[127.4349,38.07584],[127.4349,38.07577],[127.43499,38.07577],[127.43499,38.07584],[127.4349,38.07584]]]}},{"type":"Feature","properties":{"valleyId":"baegun","layer":"cast","date":"2026-08-01","timeLocal":"10:00"},"geometry":{"type":"Polygon","coordinates":[[[127.41851,38.07548],[127.41852,38.07539],[127.41861,38.07537],[127.41858,38.07548],[127.41851,38.07548]]]}},{"type":"Feature","properties":{"valleyId":"baegun","layer":"cast","date":"2026-08-01","timeLocal":"10:00"},"geometry":{"type":"Polygon","coordinates":[[[127.43491,38.07557],[127.43491,38.0755],[127.435,38.0755],[127.435,38.07557],[127.43491,38.07557]]]}},{"type":"Feature","properties":{"valleyId":"baegun","layer":"cast","date":"2026-08-01","timeLocal":"10:00"},"geometry":{"type":"Polygon","coordinates":[[[127.43276,38.07554],[127.43276,38.0755],[127.4327,38.0755],[127.4327,38.07545],[127.4329,38.07549],[127.4329,38.07554],[127.43276,38.07554]]]}},{"type":"Feature","properties":{"valleyId":"baegun","layer":"cast","date":"2026-08-01","timeLocal":"10:00"},"geometry":{"type":"Polygon","coordinates":[[[127.43204,38.07537],[127.43204,38.07531],[127.43213,38.07532],[127.43213,38.07537],[127.43204,38.07537]]]}},{"type":"Feature","properties":{"valleyId":"baegun","layer":"cast","date":"2026-08-01","timeLocal":"10:00"},"geometry":{"type":"Polygon","coordinates":[[[127.43464,38.07533],[127.43464,38.07526],[127.43473,38.07526],[127.43473,38.07533],[127.43464,38.07533]]]}},{"type":"Feature","properties":{"valleyId":"baegun","layer":"cast","date":"2026-08-01","timeLocal":"10:00"},"geometry":{"type":"Polygon","coordinates":[[[127.43231,38.07528],[127.43232,38.07516],[127.43225,38.07515],[127.43225,38.07508],[127.43234,38.07508],[127.43234,38.07512],[127.43239,38.07512],[127.43238,38.07528],[127.43231,38.07528]]]}},{"type":"Feature","properties":{"valleyId":"baegun","layer":"cast","date":"2026-08-01","timeLocal":"10:00"},"geometry":{"type":"Polygon","coordinates":[[[127.43111,38.07512],[127.43111,38.07507],[127.43118,38.07507],[127.43118,38.07512],[127.43111,38.07512]]]}},{"type":"Feature","properties":{"valleyId":"baegun","layer":"cast","date":"2026-08-01","timeLocal":"10:00"},"geometry":{"type":"Polygon","coordinates":[[[127.43075,38.07476],[127.43075,38.0747],[127.43084,38.0747],[127.43084,38.07476],[127.43075,38.07476]]]}},{"type":"Feature","properties":{"valleyId":"baegun","layer":"cast","date":"2026-08-01","timeLocal":"10:00"},"geometry":{"type":"Polygon","coordinates":[[[127.43251,38.07455],[127.43251,38.07446],[127.43258,38.07446],[127.4326,38.07455],[127.43251,38.07455]]]}},{"type":"Feature","properties":{"valleyId":"baegun","layer":"cast","date":"2026-08-01","timeLocal":"10:00"},"geometry":{"type":"Polygon","coordinates":[[[127.43243,38.07395],[127.43243,38.0739],[127.4325,38.0739],[127.4325,38.07395],[127.43243,38.07395]]]}},{"type":"Feature","properties":{"valleyId":"baegun","layer":"cast","date":"2026-08-01","timeLocal":"10:00"},"geometry":{"type":"Polygon","coordinates":[[[127.413,38.07326],[127.413,38.0732],[127.41307,38.0732],[127.41307,38.07326],[127.413,38.07326]]]}},{"type":"Feature","properties":{"valleyId":"baegun","layer":"cast","date":"2026-08-01","timeLocal":"10:00"},"geometry":{"type":"Polygon","coordinates":[[[127.4371,38.07302],[127.43711,38.07297],[127.4372,38.07297],[127.4372,38.07302],[127.4371,38.07302]]]}},{"type":"Feature","properties":{"valleyId":"baegun","layer":"cast","date":"2026-08-01","timeLocal":"10:00"},"geometry":{"type":"Polygon","coordinates":[[[127.41201,38.07268],[127.41201,38.07256],[127.41208,38.07256],[127.41212,38.07269],[127.41201,38.07268]]]}},{"type":"Feature","properties":{"valleyId":"baegun","layer":"cast","date":"2026-08-01","timeLocal":"10:00"},"geometry":{"type":"Polygon","coordinates":[[[127.4369,38.07286],[127.4369,38.0728],[127.437,38.0728],[127.43699,38.07286],[127.4369,38.07286]]]}},{"type":"Feature","properties":{"valleyId":"baegun","layer":"cast","date":"2026-08-01","timeLocal":"10:00"},"geometry":{"type":"Polygon","coordinates":[[[127.39275,38.07118],[127.39275,38.07109],[127.3928,38.07109],[127.39282,38.07118],[127.39275,38.07118]]]}},{"type":"Feature","properties":{"valleyId":"baegun","layer":"cast","date":"2026-08-01","timeLocal":"10:00"},"geometry":{"type":"Polygon","coordinates":[[[127.39281,38.07071],[127.39281,38.07067],[127.39276,38.07067],[127.39277,38.07053],[127.39281,38.07053],[127.39283,38.07062],[127.3929,38.07066],[127.3929,38.07071],[127.39281,38.07071]]]}},{"type":"Feature","properties":{"valleyId":"baegun","layer":"cast","date":"2026-08-01","timeLocal":"10:00"},"geometry":{"type":"Polygon","coordinates":[[[127.43132,38.07062],[127.43132,38.07055],[127.43139,38.07055],[127.43139,38.07062],[127.43132,38.07062]]]}},{"type":"Feature","properties":{"valleyId":"baegun","layer":"cast","date":"2026-08-01","timeLocal":"10:00"},"geometry":{"type":"Polygon","coordinates":[[[127.40062,38.07013],[127.40062,38.07008],[127.40069,38.07008],[127.40069,38.07013],[127.40062,38.07013]]]}},{"type":"Feature","properties":{"valleyId":"baegun","layer":"cast","date":"2026-08-01","timeLocal":"10:00"},"geometry":{"type":"Polygon","coordinates":[[[127.39953,38.0697],[127.39954,38.06963],[127.3996,38.06963],[127.3996,38.0697],[127.39953,38.0697]]]}},{"type":"Feature","properties":{"valleyId":"baegun","layer":"cast","date":"2026-08-01","timeLocal":"10:00"},"geometry":{"type":"Polygon","coordinates":[[[127.39902,38.06941],[127.39902,38.06935],[127.39911,38.06935],[127.39911,38.06941],[127.39902,38.06941]]]}},{"type":"Feature","properties":{"valleyId":"baegun","layer":"cast","date":"2026-08-01","timeLocal":"10:00"},"geometry":{"type":"Polygon","coordinates":[[[127.4061,38.06956],[127.40608,38.0694],[127.40615,38.0694],[127.40617,38.06956],[127.4061,38.06956]]]}},{"type":"Feature","properties":{"valleyId":"baegun","layer":"cast","date":"2026-08-01","timeLocal":"10:00"},"geometry":{"type":"Polygon","coordinates":[[[127.43971,38.06945],[127.43971,38.06936],[127.4398,38.06936],[127.4398,38.06945],[127.43971,38.06945]]]}},{"type":"Feature","properties":{"valleyId":"baegun","layer":"cast","date":"2026-08-01","timeLocal":"10:00"},"geometry":{"type":"Polygon","coordinates":[[[127.43992,38.0694],[127.43992,38.06935],[127.43999,38.06935],[127.43999,38.0694],[127.43992,38.0694]]]}},{"type":"Feature","properties":{"valleyId":"baegun","layer":"cast","date":"2026-08-01","timeLocal":"10:00"},"geometry":{"type":"Polygon","coordinates":[[[127.39408,38.06866],[127.39407,38.06842],[127.39414,38.06842],[127.39415,38.06866],[127.39408,38.06866]]]}},{"type":"Feature","properties":{"valleyId":"baegun","layer":"cast","date":"2026-08-01","timeLocal":"10:00"},"geometry":{"type":"Polygon","coordinates":[[[127.4312,38.06867],[127.43113,38.06863],[127.43113,38.06856],[127.43129,38.06858],[127.43129,38.06867],[127.4312,38.06867]]]}},{"type":"Feature","properties":{"valleyId":"baegun","layer":"cast","date":"2026-08-01","timeLocal":"10:00"},"geometry":{"type":"Polygon","coordinates":[[[127.3951,38.06721],[127.39508,38.06714],[127.39514,38.06714],[127.39516,38.06721],[127.3951,38.06721]]]}},{"type":"Feature","properties":{"valleyId":"baegun","layer":"cast","date":"2026-08-01","timeLocal":"10:00"},"geometry":{"type":"Polygon","coordinates":[[[127.43474,38.06527],[127.43474,38.06522],[127.43481,38.06522],[127.43481,38.06528],[127.43474,38.06527]]]}},{"type":"Feature","properties":{"valleyId":"baegun","layer":"cast","date":"2026-08-01","timeLocal":"10:00"},"geometry":{"type":"Polygon","coordinates":[[[127.39924,38.06453],[127.39919,38.06451],[127.39919,38.0644],[127.39926,38.0644],[127.39926,38.06444],[127.39933,38.06446],[127.39933,38.06453],[127.39924,38.06453]]]}},{"type":"Feature","properties":{"valleyId":"baegun","layer":"cast","date":"2026-08-01","timeLocal":"10:00"},"geometry":{"type":"Polygon","coordinates":[[[127.43181,38.06457],[127.43181,38.0645],[127.43191,38.0645],[127.4319,38.06457],[127.43181,38.06457]]]}},{"type":"Feature","properties":{"valleyId":"baegun","layer":"cast","date":"2026-08-01","timeLocal":"10:00"},"geometry":{"type":"Polygon","coordinates":[[[127.39574,38.06394],[127.39574,38.06388],[127.39583,38.06389],[127.39583,38.06394],[127.39574,38.06394]]]}},{"type":"Feature","properties":{"valleyId":"baegun","layer":"cast","date":"2026-08-01","timeLocal":"10:00"},"geometry":{"type":"Polygon","coordinates":[[[127.42955,38.064],[127.42948,38.06394],[127.42948,38.06385],[127.42957,38.06385],[127.42957,38.06393],[127.42961,38.06394],[127.42961,38.064],[127.42955,38.064]]]}},{"type":"Feature","properties":{"valleyId":"baegun","layer":"cast","date":"2026-08-01","timeLocal":"10:00"},"geometry":{"type":"Polygon","coordinates":[[[127.42944,38.0638],[127.42944,38.06376],[127.42937,38.06376],[127.42937,38.06371],[127.4293,38.06371],[127.4293,38.06365],[127.42923,38.06365],[127.42924,38.06336],[127.42933,38.06336],[127.42933,38.06342],[127.4294,38.06342],[127.4294,38.06347],[127.42947,38.06347],[127.42946,38.06351],[127.42992,38.06352],[127.42992,38.06357],[127.42985,38.06357],[127.42985,38.06377],[127.42976,38.06377],[127.42976,38.06371],[127.42955,38.06369],[127.42955,38.0638],[127.42944,38.0638]]]}},{"type":"Feature","properties":{"valleyId":"baegun","layer":"cast","date":"2026-08-01","timeLocal":"10:00"},"geometry":{"type":"Polygon","coordinates":[[[127.42976,38.06346],[127.42967,38.06344],[127.42967,38.06328],[127.42974,38.06328],[127.42979,38.06341],[127.42985,38.06341],[127.42985,38.06346],[127.42976,38.06346]]]}},{"type":"Feature","properties":{"valleyId":"baegun","layer":"cast","date":"2026-08-01","timeLocal":"10:00"},"geometry":{"type":"Polygon","coordinates":[[[127.43008,38.06334],[127.43008,38.06328],[127.43018,38.06329],[127.43017,38.06334],[127.43008,38.06334]]]}},{"type":"Feature","properties":{"valleyId":"baegun","layer":"cast","date":"2026-08-01","timeLocal":"10:00"},"geometry":{"type":"Polygon","coordinates":[[[127.41127,38.06134],[127.41128,38.06127],[127.41137,38.06127],[127.41136,38.06134],[127.41127,38.06134]]]}},{"type":"Feature","properties":{"valleyId":"baegun","layer":"cast","date":"2026-08-01","timeLocal":"10:00"},"geometry":{"type":"Polygon","coordinates":[[[127.41109,38.06126],[127.41109,38.06123],[127.41103,38.06123],[127.41103,38.06115],[127.41112,38.06115],[127.41112,38.06121],[127.41116,38.06121],[127.41116,38.06126],[127.41109,38.06126]]]}},{"type":"Feature","properties":{"valleyId":"baegun","layer":"cast","date":"2026-08-01","timeLocal":"10:00"},"geometry":{"type":"Polygon","coordinates":[[[127.42994,38.06135],[127.42995,38.06108],[127.43011,38.06109],[127.43013,38.06103],[127.43029,38.06103],[127.43029,38.06107],[127.43036,38.06107],[127.43038,38.06131],[127.43029,38.0613],[127.43029,38.06136],[127.42994,38.06135]]]}},{"type":"Feature","properties":{"valleyId":"baegun","layer":"cast","date":"2026-08-01","timeLocal":"10:00"},"geometry":{"type":"Polygon","coordinates":[[[127.42975,38.06099],[127.42975,38.06094],[127.42984,38.06094],[127.42984,38.06099],[127.42975,38.06099]]]}},{"type":"Feature","properties":{"valleyId":"baegun","layer":"cast","date":"2026-08-01","timeLocal":"10:00"},"geometry":{"type":"Polygon","coordinates":[[[127.44021,38.06109],[127.44009,38.06106],[127.4401,38.06098],[127.44037,38.06102],[127.44037,38.0611],[127.44021,38.06109]]]}},{"type":"Feature","properties":{"valleyId":"baegun","layer":"cast","date":"2026-08-01","timeLocal":"10:00"},"geometry":{"type":"Polygon","coordinates":[[[127.42562,38.06083],[127.4256,38.06076],[127.42567,38.06076],[127.42569,38.06083],[127.42562,38.06083]]]}},{"type":"Feature","properties":{"valleyId":"baegun","layer":"cast","date":"2026-08-01","timeLocal":"10:00"},"geometry":{"type":"Polygon","coordinates":[[[127.42975,38.06086],[127.42975,38.06081],[127.42984,38.06081],[127.42984,38.06087],[127.42975,38.06086]]]}},{"type":"Feature","properties":{"valleyId":"baegun","layer":"cast","date":"2026-08-01","timeLocal":"10:00"},"geometry":{"type":"Polygon","coordinates":[[[127.41676,38.06065],[127.41676,38.0606],[127.41685,38.0606],[127.41685,38.06066],[127.41676,38.06065]]]}},{"type":"Feature","properties":{"valleyId":"baegun","layer":"cast","date":"2026-08-01","timeLocal":"10:00"},"geometry":{"type":"Polygon","coordinates":[[[127.43035,38.0606],[127.43035,38.06055],[127.43042,38.06055],[127.43042,38.0606],[127.43035,38.0606]]]}},{"type":"Feature","properties":{"valleyId":"baegun","layer":"cast","date":"2026-08-01","timeLocal":"10:00"},"geometry":{"type":"Polygon","coordinates":[[[127.42235,38.06051],[127.42235,38.06042],[127.42258,38.06044],[127.42258,38.0605],[127.42235,38.06051]]]}},{"type":"Feature","properties":{"valleyId":"baegun","layer":"cast","date":"2026-08-01","timeLocal":"10:00"},"geometry":{"type":"Polygon","coordinates":[[[127.43035,38.06049],[127.43035,38.06044],[127.43042,38.06044],[127.43042,38.06049],[127.43035,38.06049]]]}},{"type":"Feature","properties":{"valleyId":"baegun","layer":"cast","date":"2026-08-01","timeLocal":"10:00"},"geometry":{"type":"Polygon","coordinates":[[[127.41189,38.06023],[127.41187,38.06016],[127.41196,38.06016],[127.41196,38.06023],[127.41189,38.06023]]]}},{"type":"Feature","properties":{"valleyId":"baegun","layer":"cast","date":"2026-08-01","timeLocal":"10:00"},"geometry":{"type":"Polygon","coordinates":[[[127.42973,38.06059],[127.42971,38.06049],[127.42964,38.06048],[127.42962,38.06034],[127.42972,38.06029],[127.42978,38.06029],[127.42978,38.06034],[127.42971,38.06036],[127.42971,38.06043],[127.42973,38.06049],[127.42978,38.06049],[127.4298,38.06052],[127.4298,38.06059],[127.42973,38.06059]]]}},{"type":"Feature","properties":{"valleyId":"baegun","layer":"cast","date":"2026-08-01","timeLocal":"10:00"},"geometry":{"type":"Polygon","coordinates":[[[127.41215,38.06003],[127.41215,38.05998],[127.41224,38.05998],[127.41224,38.06003],[127.41215,38.06003]]]}},{"type":"Feature","properties":{"valleyId":"baegun","layer":"cast","date":"2026-08-01","timeLocal":"10:00"},"geometry":{"type":"Polygon","coordinates":[[[127.42977,38.05998],[127.42977,38.05993],[127.42984,38.05993],[127.42984,38.05998],[127.42977,38.05998]]]}},{"type":"Feature","properties":{"valleyId":"baegun","layer":"cast","date":"2026-08-01","timeLocal":"10:00"},"geometry":{"type":"Polygon","coordinates":[[[127.42833,38.05994],[127.42833,38.05987],[127.42843,38.05987],[127.42842,38.05995],[127.42833,38.05994]]]}},{"type":"Feature","properties":{"valleyId":"baegun","layer":"cast","date":"2026-08-01","timeLocal":"10:00"},"geometry":{"type":"Polygon","coordinates":[[[127.42822,38.05989],[127.42815,38.05987],[127.42815,38.05983],[127.42831,38.05984],[127.42831,38.05989],[127.42822,38.05989]]]}}]}