{
 "type": "FeatureCollection",
 "features": [
  {
   "type": "Feature",
   "properties": {
    "id": "baegun-upper",
    "order": 1,
    "label": "상류(광덕고개 쪽)",
    "osmWay": 531287119,
    "nodeRange": [
     10,
     35
    ],
    "lengthM": 1199
   },
   "geometry": {
    "type": "LineString",
    "coordinates": [
     [
      127.429705,
      38.0866233
     ],
     [
      127.4293965,
      38.086408
     ],
     [
      127.4290586,
      38.0863277
     ],
     [
      127.4284345,
      38.0859781
     ],
     [
      127.4277461,
      38.0856968
     ],
     [
      127.4272453,
      38.0853458
     ],
     [
      127.4269869,
      38.0848848
     ],
     [
      127.4268064,
      38.0844028
     ],
     [
      127.4266649,
      38.0841661
     ],
     [
      127.4261977,
      38.0838694
     ],
     [
      127.4256827,
      38.0836354
     ],
     [
      127.4250156,
      38.0834557
     ],
     [
      127.4244352,
      38.0833582
     ],
     [
      127.4242281,
      38.0832899
     ],
     [
      127.4241467,
      38.0831033
     ],
     [
      127.4238813,
      38.0829375
     ],
     [
      127.4235309,
      38.082776
     ],
     [
      127.4230425,
      38.0826186
     ],
     [
      127.4228162,
      38.0825017
     ],
     [
      127.4228526,
      38.0822585
     ],
     [
      127.4229455,
      38.0819575
     ],
     [
      127.4227566,
      38.0815839
     ],
     [
      127.4224504,
      38.081383
     ],
     [
      127.4220523,
      38.081136
     ],
     [
      127.4209168,
      38.0804129
     ],
     [
      127.420113,
      38.0799288
     ]
    ]
   }
  },
  {
   "type": "Feature",
   "properties": {
    "id": "baegun-middle",
    "order": 2,
    "label": "중류(흥룡사 입구)",
    "osmWay": 531287119,
    "nodeRange": [
     35,
     55
    ],
    "lengthM": 1274
   },
   "geometry": {
    "type": "LineString",
    "coordinates": [
     [
      127.420113,
      38.0799288
     ],
     [
      127.4198144,
      38.0795211
     ],
     [
      127.4198323,
      38.0789767
     ],
     [
      127.419692,
      38.0784846
     ],
     [
      127.4193755,
      38.0779965
     ],
     [
      127.4189188,
      38.0773738
     ],
     [
      127.4185233,
      38.0771388
     ],
     [
      127.4177526,
      38.0766788
     ],
     [
      127.4173137,
      38.0761605
     ],
     [
      127.4171504,
      38.0758291
     ],
     [
      127.4170228,
      38.0755017
     ],
     [
      127.4167243,
      38.0752586
     ],
     [
      127.4158286,
      38.0747685
     ],
     [
      127.4151779,
      38.0743707
     ],
     [
      127.4145272,
      38.0739991
     ],
     [
      127.4138637,
      38.0737721
     ],
     [
      127.4133126,
      38.0734688
     ],
     [
      127.4124909,
      38.0730429
     ],
     [
      127.4120035,
      38.0730228
     ],
     [
      127.411659,
      38.073067
     ],
     [
      127.4101568,
      38.0731538
     ]
    ]
   }
  },
  {
   "type": "Feature",
   "properties": {
    "id": "baegun-lower",
    "order": 3,
    "label": "하류(도평리)",
    "osmWay": 531287119,
    "nodeRange": [
     55,
     78
    ],
    "lengthM": 1621
   },
   "geometry": {
    "type": "LineString",
    "coordinates": [
     [
      127.4101568,
      38.0731538
     ],
     [
      127.4090346,
      38.0731302
     ],
     [
      127.4088585,
      38.073103
     ],
     [
      127.4080993,
      38.0729859
     ],
     [
      127.4074746,
      38.0726502
     ],
     [
      127.4071902,
      38.0722938
     ],
     [
      127.406573,
      38.0711629
     ],
     [
      127.4060567,
      38.070194
     ],
     [
      127.4056826,
      38.0695961
     ],
     [
      127.405432,
      38.06939
     ],
     [
      127.4050915,
      38.0692928
     ],
     [
      127.4047661,
      38.0693134
     ],
     [
      127.4042685,
      38.0694842
     ],
     [
      127.4039056,
      38.0695844
     ],
     [
      127.4034455,
      38.0695726
     ],
     [
      127.4026562,
      38.0694931
     ],
     [
      127.4019416,
      38.0696462
     ],
     [
      127.4010363,
      38.0701616
     ],
     [
      127.4003218,
      38.0703648
     ],
     [
      127.3988628,
      38.0698995
     ],
     [
      127.398253,
      38.0698376
     ],
     [
      127.3972916,
      38.0694342
     ],
     [
      127.3966893,
      38.0688923
     ],
     [
      127.3959523,
      38.0680028
     ]
    ]
   }
  }
 ]
}