{"type": "FeatureCollection", "features": [{"type": "Feature", "properties": {"date": "2026-07-25", "timeLocal": "17:00", "sunAzimuth": 271.73, "sunElevation": 30.78, "source": "Copernicus GLO-30, terrain-only horizon angle"}, "geometry": {"type": "Polygon", "coordinates": [[[127.4140045071594, 38.09533109822796], [127.41401034953915, 38.095060819462006], [127.41469436321715, 38.09507005156254], [127.41468852335454, 38.095340330417606], [127.4140045071594, 38.09533109822796]]]}}, {"type": "Feature", "properties": {"date": "2026-07-25", "timeLocal": "17:00", "sunAzimuth": 271.73, "sunElevation": 30.78, "source": "Copernicus GLO-30, terrain-only horizon angle"}, "geometry": {"type": "Polygon", "coordinates": [[[127.42426478285003, 38.095469163204264], [127.42427058747194, 38.09519888310545], [127.42495460582496, 38.09520805551083], [127.42494880372027, 38.095478335698196], [127.42426478285003, 38.095469163204264]]]}}, {"type": "Feature", "properties": {"date": "2026-07-25", "timeLocal": "17:00", "sunAzimuth": 271.73, "sunElevation": 30.78, "source": "Copernicus GLO-30, terrain-only horizon angle"}, "geometry": {"type": "Polygon", "coordinates": [[[127.43144701745965, 38.09556527589934], [127.43146435180016, 38.094754432779716], [127.43180636004806, 38.09475899849806], [127.43180058327047, 38.09502927959522], [127.43214259285428, 38.095033844362696], [127.43213104158444, 38.09557440660554], [127.43144701745965, 38.09556527589934]]]}}, {"type": "Feature", "properties": {"date": "2026-07-25", "timeLocal": "17:00", "sunAzimuth": 271.73, "sunElevation": 30.78, "source": "Copernicus GLO-30, terrain-only horizon angle"}, "geometry": {"type": "Polygon", "coordinates": [[[127.41538421447505, 38.09480900072603], [127.41539588877534, 38.094268442771565], [127.41573789211218, 38.09427305520605], [127.41574372788664, 38.09400277616446], [127.41642773227755, 38.09401199795977], [127.41641606568466, 38.09455255620779], [127.4160740609331, 38.09454794571855], [127.416068226261, 38.094818224778216], [127.41538421447505, 38.09480900072603]]]}}, {"type": "Feature", "properties": {"date": "2026-07-25", "timeLocal": "17:00", "sunAzimuth": 271.73, "sunElevation": 30.78, "source": "Copernicus GLO-30, terrain-only horizon angle"}, "geometry": {"type": "Polygon", "coordinates": [[[127.42497781346727, 38.09412693462924], [127.42498361518372, 38.0938566543758], [127.4253256181839, 38.093861238864804], [127.42531981772595, 38.09413151916249], [127.42497781346727, 38.09412693462924]]]}}, {"type": "Feature", "properties": {"date": "2026-07-25", "timeLocal": "17:00", "sunAzimuth": 271.73, "sunElevation": 30.78, "source": "Copernicus GLO-30, terrain-only horizon angle"}, "geometry": {"type": "Polygon", "coordinates": [[[127.42837470224629, 38.09525385784185], [127.4283804916873, 38.0949835771991], [127.42803848295485, 38.09497900148738], [127.42804427357697, 38.094708720875595], [127.42838628105085, 38.09471329654315], [127.42839207033691, 38.09444301587398], [127.42873407662968, 38.09444759050244], [127.42873986457971, 38.0941773097759], [127.43010788549098, 38.09419559816413], [127.43011366832937, 38.093925317247816], [127.43045567249216, 38.0939298868135], [127.43046145399464, 38.09365960583986], [127.43080345697628, 38.09366417436655], [127.43079189641105, 38.09420473638882], [127.43044989091233, 38.09420016777393], [127.43044410925512, 38.09447044872114], [127.43010210257522, 38.09446587906722], [127.43009631958202, 38.094736159957115], [127.42975431172093, 38.09473158926416], [127.42974852739178, 38.095001870096716], [127.42940651834951, 38.0949972983647], [127.42940073268431, 38.09526757913992], [127.42837470224629, 38.09525385784185]]]}}, {"type": "Feature", "properties": {"date": "2026-07-25", "timeLocal": "17:00", "sunAzimuth": 271.73, "sunElevation": 30.78, "source": "Copernicus GLO-30, terrain-only horizon angle"}, "geometry": {"type": "Polygon", "coordinates": [[[127.42635742425486, 38.09360470591888], [127.42636322078205, 38.09333442546204], [127.42670522157562, 38.09333900588307], [127.42669942630693, 38.093609286384115], [127.42635742425486, 38.09360470591888]]]}}, {"type": "Feature", "properties": {"date": "2026-07-25", "timeLocal": "17:00", "sunAzimuth": 271.73, "sunElevation": 30.78, "source": "Copernicus GLO-30, terrain-only horizon angle"}, "geometry": {"type": "Polygon", "coordinates": [[[127.43385841115827, 38.09478637191466], [127.43389302489258, 38.09316468346876], [127.43457702744455, 38.09317379945348], [127.43454242881288, 38.09479548842744], [127.43385841115827, 38.09478637191466]]]}}, {"type": "Feature", "properties": {"date": "2026-07-25", "timeLocal": "17:00", "sunAzimuth": 271.73, "sunElevation": 30.78, "source": "Copernicus GLO-30, terrain-only horizon angle"}, "geometry": {"type": "Polygon", "coordinates": [[[127.42704722244672, 38.09334358530922], [127.42706460401202, 38.09253274359413], [127.42809059576429, 38.09254647550569], [127.42809638568903, 38.092276194774996], [127.4287803780611, 38.092285344320175], [127.428768803168, 38.092825905945006], [127.42842680442632, 38.09282133158152], [127.4284210156051, 38.09309161232996], [127.42773701583722, 38.09308246053006], [127.42773122442154, 38.09335274117694], [127.42704722244672, 38.09334358530922]]]}}, {"type": "Feature", "properties": {"date": "2026-07-25", "timeLocal": "17:00", "sunAzimuth": 271.73, "sunElevation": 30.78, "source": "Copernicus GLO-30, terrain-only horizon angle"}, "geometry": {"type": "Polygon", "coordinates": [[[127.43151635064618, 38.09232190270753], [127.4315279050948, 38.091781340323976], [127.43186989949916, 38.09178590555749], [127.43185834756741, 38.09232646802919], [127.43151635064618, 38.09232190270753]]]}}, {"type": "Feature", "properties": {"date": "2026-07-25", "timeLocal": "17:00", "sunAzimuth": 271.73, "sunElevation": 30.78, "source": "Copernicus GLO-30, terrain-only horizon angle"}, "geometry": {"type": "Polygon", "coordinates": [[[127.42741818599096, 38.09199676059498], [127.42742977048654, 38.09145619924426], [127.4281137549983, 38.091465352503654], [127.42810796530601, 38.09173563327398], [127.42776597175302, 38.091731057097505], [127.42776018072485, 38.092001337810444], [127.42741818599096, 38.09199676059498]]]}}, {"type": "Feature", "properties": {"date": "2026-07-25", "timeLocal": "17:00", "sunAzimuth": 271.73, "sunElevation": 30.78, "source": "Copernicus GLO-30, terrain-only horizon angle"}, "geometry": {"type": "Polygon", "coordinates": [[[127.42981793423293, 38.09175849923417], [127.42982371763324, 38.09148821824309], [127.43016571039249, 38.09149278840656], [127.43015992825056, 38.091763069441754], [127.42981793423293, 38.09175849923417]]]}}, {"type": "Feature", "properties": {"date": "2026-07-25", "timeLocal": "17:00", "sunAzimuth": 271.73, "sunElevation": 30.78, "source": "Copernicus GLO-30, terrain-only horizon angle"}, "geometry": {"type": "Polygon", "coordinates": [[[127.43257120830741, 38.09098418896907], [127.43257698140877, 38.09071390758567], [127.43291897101146, 38.09071846965854], [127.43291319916848, 38.09098875108599], [127.43257120830741, 38.09098418896907]]]}}, {"type": "Feature", "properties": {"date": "2026-07-25", "timeLocal": "17:00", "sunAzimuth": 271.73, "sunElevation": 30.78, "source": "Copernicus GLO-30, terrain-only horizon angle"}, "geometry": {"type": "Polygon", "coordinates": [[[127.3956425625945, 38.090215348573494], [127.39564847151227, 38.08994507199008], [127.3959904514156, 38.08994974145032], [127.39598454375604, 38.090220018078824], [127.3956425625945, 38.090215348573494]]]}}, {"type": "Feature", "properties": {"date": "2026-07-25", "timeLocal": "17:00", "sunAzimuth": 271.73, "sunElevation": 30.78, "source": "Copernicus GLO-30, terrain-only horizon angle"}, "geometry": {"type": "Polygon", "coordinates": [[[127.42984106736982, 38.09067737519058], [127.42984685046054, 38.090407094146656], [127.43018883818638, 38.090411664133654], [127.43018305635398, 38.0906819452217], [127.42984106736982, 38.09067737519058]]]}}, {"type": "Feature", "properties": {"date": "2026-07-25", "timeLocal": "17:00", "sunAzimuth": 271.73, "sunElevation": 30.78, "source": "Copernicus GLO-30, terrain-only horizon angle"}, "geometry": {"type": "Polygon", "coordinates": [[[127.41508307619272, 38.09291243444731], [127.41511226491562, 38.09156103922181], [127.4147702743194, 38.09155642524301], [127.41477611308797, 38.0912861462028], [127.41546009184182, 38.09129537307652], [127.41547760012881, 38.090484535609264], [127.41513561448775, 38.09047992280338], [127.41512393985792, 38.09102048103905], [127.41478195177838, 38.091015867149345], [127.41479362892483, 38.09047530900276], [127.41445164344003, 38.09047069420739], [127.41446916234847, 38.089659857022006], [127.41515312584662, 38.08966908535072], [127.41515896281004, 38.08939880617339], [127.41550094341807, 38.08940341880114], [127.4154951077129, 38.089673698023], [127.4161790716797, 38.089682920383396], [127.41612656946837, 38.092115433586514], [127.4157845761211, 38.09211082250304], [127.41577290558745, 38.092651380758134], [127.41543090980144, 38.0926467685908], [127.41542507315903, 38.09291704765399], [127.41508307619272, 38.09291243444731]]]}}, {"type": "Feature", "properties": {"date": "2026-07-25", "timeLocal": "17:00", "sunAzimuth": 271.73, "sunElevation": 30.78, "source": "Copernicus GLO-30, terrain-only horizon angle"}, "geometry": {"type": "Polygon", "coordinates": [[[127.39600226649756, 38.0894091881536], [127.3960140812633, 38.088868634803916], [127.39635605621298, 38.08887330308919], [127.39634424396354, 38.08941385652901], [127.39600226649756, 38.0894091881536]]]}}, {"type": "Feature", "properties": {"date": "2026-07-25", "timeLocal": "17:00", "sunAzimuth": 271.73, "sunElevation": 30.78, "source": "Copernicus GLO-30, terrain-only horizon angle"}, "geometry": {"type": "Polygon", "coordinates": [[[127.41412718071659, 38.08965524136558], [127.41413886211457, 38.08911468326498], [127.41448084123002, 38.08911929883229], [127.41446916234847, 38.089659857022006], [127.41412718071659, 38.08965524136558]]]}}, {"type": "Feature", "properties": {"date": "2026-07-25", "timeLocal": "17:00", "sunAzimuth": 271.73, "sunElevation": 30.78, "source": "Copernicus GLO-30, terrain-only horizon angle"}, "geometry": {"type": "Polygon", "coordinates": [[[127.41674057381513, 38.095368003108476], [127.41675807051429, 38.094557165702135], [127.41710007542194, 38.09456177420158], [127.41709424452552, 38.09483205339474], [127.41812026349233, 38.09484587305712], [127.41811443629356, 38.09511615237048], [127.41879845184522, 38.0951253605931], [127.4188042765268, 38.09485508119085], [127.41846226997059, 38.094850477621435], [127.4184680958328, 38.09458019825041], [127.4181260906131, 38.094575593730546], [127.41814357150753, 38.09376475567149], [127.41780157014136, 38.0937601502901], [127.41780739820872, 38.093489870955096], [127.41712339822739, 38.093480657296695], [127.41711756764307, 38.09375093654275], [127.41677556651096, 38.09374632817677], [127.41679306180522, 38.0929354905324], [127.41713505916194, 38.09294009876491], [127.41714088951217, 38.09266981947919], [127.41748288568846, 38.092674426672396], [127.41747705659665, 38.09294470600259], [127.41781905410942, 38.09294931224542], [127.41781322619806, 38.093219591606875], [127.4184972239744, 38.09322880119694], [127.41850304936885, 38.09295852174658], [127.41816105170014, 38.092953917493425], [127.418172704772, 38.09241335864195], [127.41783070969814, 38.09240875348287], [127.41784819249628, 38.09159791523987], [127.418190183795, 38.091602520265575], [127.41819600998005, 38.09133224078034], [127.41922198056884, 38.0913460497554], [127.41923362515506, 38.090805490478644], [127.4195756129905, 38.09081009139191], [127.41959307551058, 38.08999925224438], [127.42096101253166, 38.090017645417106], [127.42095519680265, 38.09028792532374], [127.42129718251081, 38.090292521174455], [127.42130881137447, 38.089751961259225], [127.42062484506907, 38.08974276874055], [127.42063647865443, 38.089202208949935], [127.42097845925176, 38.08920680561786], [127.42099009000933, 38.08866624568563], [127.42167404640462, 38.08867543585992], [127.42166823358113, 38.08894571592138], [127.42235219280396, 38.088954902205586], [127.42236381334037, 38.08841434189208], [127.42407370017594, 38.088437289752186], [127.42406789623755, 38.088707570137096], [127.42372591745684, 38.088702982510156], [127.42372011218255, 38.08897326283756], [127.42337813222134, 38.08896867417163], [127.42337232561115, 38.08923895444152], [127.4230303444694, 38.08923436473657], [127.42301292039784, 38.09004520533401], [127.42267093555905, 38.09004061450138], [127.42266512612146, 38.090310894629766], [127.42232314010215, 38.090306302758066], [127.42230570754792, 38.091117142930955], [127.4219637178314, 38.09111254993148], [127.4219346557271, 38.092463949733556], [127.42159265979645, 38.092459355517526], [127.42158103189331, 38.09299991525714], [127.42123903352358, 38.09299531995755], [127.42122158730992, 38.09380615933473], [127.42087958524255, 38.0938015629072], [127.42086795152724, 38.09434212233713], [127.42052594702066, 38.09433752482596], [127.42052012878769, 38.09460780447672], [127.42017812310044, 38.094603205926255], [127.42017230353105, 38.09487348551939], [127.41914628316098, 38.09485968376534], [127.41914045973796, 38.09512996321203], [127.41948246770866, 38.095134564836044], [127.41947664546628, 38.09540484431393], [127.41674057381513, 38.095368003108476]], [[127.41917539910716, 38.09350828633361], [127.41951739952661, 38.0935128876911], [127.4195232212236, 38.093242608120676], [127.41918122206259, 38.09323800680762], [127.41917539910716, 38.09350828633361]], [[127.42163916829682, 38.0902971160304], [127.42232314010215, 38.090306302758066], [127.42234057195651, 38.08949546246624], [127.42165660770077, 38.089486276004656], [127.42163916829682, 38.0902971160304]], [[127.42234057195651, 38.08949546246624], [127.42268255420103, 38.08950005420494], [127.42268836340537, 38.08922977403691], [127.42234638241911, 38.089225182342524], [127.42234057195651, 38.08949546246624]]]}}, {"type": "Feature", "properties": {"date": "2026-07-25", "timeLocal": "17:00", "sunAzimuth": 271.73, "sunElevation": 30.78, "source": "Copernicus GLO-30, terrain-only horizon angle"}, "geometry": {"type": "Polygon", "coordinates": [[[127.4161790716797, 38.089682920383396], [127.41619073797905, 38.08914236174837], [127.41584875847305, 38.08913775115455], [127.41585459276382, 38.08886747186172], [127.41619657101164, 38.08887208241101], [127.4162082368426, 38.08833152369665], [127.41655021265213, 38.08833613316226], [127.4165618756546, 38.087795574306], [127.41724582247517, 38.087804790075246], [127.41721667696534, 38.089156187561606], [127.41687469722521, 38.0891515799519], [127.41686886663099, 38.08942185936502], [127.41652688571068, 38.08941725071612], [127.4165210537802, 38.089687530071515], [127.4161790716797, 38.089682920383396]]]}}, {"type": "Feature", "properties": {"date": "2026-07-25", "timeLocal": "17:00", "sunAzimuth": 271.73, "sunElevation": 30.78, "source": "Copernicus GLO-30, terrain-only horizon angle"}, "geometry": {"type": "Polygon", "coordinates": [[[127.42580098143009, 38.08764937084713], [127.42580677876718, 38.08737909018805], [127.42614875172285, 38.08738367162562], [127.42614295564388, 38.087653952328935], [127.42580098143009, 38.08764937084713]]]}}, {"type": "Feature", "properties": {"date": "2026-07-25", "timeLocal": "17:00", "sunAzimuth": 271.73, "sunElevation": 30.78, "source": "Copernicus GLO-30, terrain-only horizon angle"}, "geometry": {"type": "Polygon", "coordinates": [[[127.41346659023625, 38.08856489117109], [127.41347827604153, 38.088024333143], [127.41382024996798, 38.088028950521384], [127.41383193294429, 38.087488392351226], [127.41417390443269, 38.08749300864581], [127.41417974454546, 38.087222729496354], [127.41452171485392, 38.08722734475174], [127.4145275536305, 38.08695706554447], [127.414869522759, 38.08696167976069], [127.41484617221629, 38.08804279668859], [127.41450419805537, 38.088038182294184], [127.41449835896624, 38.08830846144854], [127.41415638362534, 38.08830384601492], [127.4141505431999, 38.0885741251115], [127.41346659023625, 38.08856489117109]]]}}, {"type": "Feature", "properties": {"date": "2026-07-25", "timeLocal": "17:00", "sunAzimuth": 271.73, "sunElevation": 30.78, "source": "Copernicus GLO-30, terrain-only horizon angle"}, "geometry": {"type": "Polygon", "coordinates": [[[127.41246404777263, 38.087469917226485], [127.41246989417586, 38.08719963829994], [127.41212792433659, 38.08719501707679], [127.41213961942447, 38.086654459273255], [127.41282355414901, 38.08666370054651], [127.41280601894823, 38.08747453749963], [127.41246404777263, 38.087469917226485]]]}}, {"type": "Feature", "properties": {"date": "2026-07-25", "timeLocal": "17:00", "sunAzimuth": 271.73, "sunElevation": 30.78, "source": "Copernicus GLO-30, terrain-only horizon angle"}, "geometry": {"type": "Polygon", "coordinates": [[[127.4241027187029, 38.08708588762939], [127.42410852217527, 38.08681560716519], [127.42445049222668, 38.08682019348747], [127.42444469001238, 38.08709047399595], [127.4241027187029, 38.08708588762939]]]}}, {"type": "Feature", "properties": {"date": "2026-07-25", "timeLocal": "17:00", "sunAzimuth": 271.73, "sunElevation": 30.78, "source": "Copernicus GLO-30, terrain-only horizon angle"}, "geometry": {"type": "Polygon", "coordinates": [[[127.41827756838461, 38.08754832659887], [127.41828339340026, 38.08727804691534], [127.41794142223323, 38.08727344260091], [127.41794724842899, 38.087003162948584], [127.417605278598, 38.086998557683984], [127.41761693327176, 38.086457998428635], [127.41898480299896, 38.08647641316368], [127.41899062518671, 38.086206133338386], [127.4193325915553, 38.0862107344912], [127.41932094961795, 38.08675129421743], [127.41897898073327, 38.086746692975765], [127.41896733596818, 38.08728725256026], [127.41862536464525, 38.08728265023512], [127.41861954088769, 38.087552929963095], [127.41827756838461, 38.08754832659887]]]}}, {"type": "Feature", "properties": {"date": "2026-07-25", "timeLocal": "17:00", "sunAzimuth": 271.73, "sunElevation": 30.78, "source": "Copernicus GLO-30, terrain-only horizon angle"}, "geometry": {"type": "Polygon", "coordinates": [[[127.42581257602669, 38.08710880951576], [127.42582996733974, 38.08629796741962], [127.42617193526308, 38.08630254868027], [127.42615454772425, 38.0871133909091], [127.42581257602669, 38.08710880951576]]]}}, {"type": "Feature", "properties": {"date": "2026-07-25", "timeLocal": "17:00", "sunAzimuth": 271.73, "sunElevation": 30.78, "source": "Copernicus GLO-30, terrain-only horizon angle"}, "geometry": {"type": "Polygon", "coordinates": [[[127.4350458390369, 38.087232158014004], [127.43506312844447, 38.08642131234526], [127.43540509845604, 38.08642586675106], [127.4353878128228, 38.087236712551714], [127.4350458390369, 38.087232158014004]]]}}, {"type": "Feature", "properties": {"date": "2026-07-25", "timeLocal": "17:00", "sunAzimuth": 271.73, "sunElevation": 30.78, "source": "Copernicus GLO-30, terrain-only horizon angle"}, "geometry": {"type": "Polygon", "coordinates": [[[127.41317136528109, 38.0863980406358], [127.41317720885533, 38.08612776156716], [127.41351917389709, 38.0861323796281], [127.41351333158086, 38.08640265874133], [127.41317136528109, 38.0863980406358]]]}}, {"type": "Feature", "properties": {"date": "2026-07-25", "timeLocal": "17:00", "sunAzimuth": 271.73, "sunElevation": 30.78, "source": "Copernicus GLO-30, terrain-only horizon angle"}, "geometry": {"type": "Polygon", "coordinates": [[[127.394369252453, 38.08587223656791], [127.39437516513749, 38.08560195995301], [127.39471712459532, 38.085606632670185], [127.39471121316878, 38.0858769093302], [127.394369252453, 38.08587223656791]]]}}, {"type": "Feature", "properties": {"date": "2026-07-25", "timeLocal": "17:00", "sunAzimuth": 271.73, "sunElevation": 30.78, "source": "Copernicus GLO-30, terrain-only horizon angle"}, "geometry": {"type": "Polygon", "coordinates": [[[127.43541086017957, 38.08615558479108], [127.435416621826, 38.085885302817914], [127.43575858939855, 38.08588985614115], [127.43575282901018, 38.086160138158284], [127.43541086017957, 38.08615558479108]]]}}, {"type": "Feature", "properties": {"date": "2026-07-25", "timeLocal": "17:00", "sunAzimuth": 271.73, "sunElevation": 30.78, "source": "Copernicus GLO-30, terrain-only horizon angle"}, "geometry": {"type": "Polygon", "coordinates": [[[127.43575858939855, 38.08588985614115], [127.43576434970983, 38.085619574110815], [127.43610631610142, 38.085624126395494], [127.43610055704818, 38.08589440846977], [127.43575858939855, 38.08588985614115]]]}}, {"type": "Feature", "properties": {"date": "2026-07-25", "timeLocal": "17:00", "sunAzimuth": 271.73, "sunElevation": 30.78, "source": "Copernicus GLO-30, terrain-only horizon angle"}, "geometry": {"type": "Polygon", "coordinates": [[[127.41934423318106, 38.08567017471209], [127.41935587449522, 38.08512961488012], [127.4200397974021, 38.085138813846676], [127.4200339792999, 38.0854090938581], [127.41969201654956, 38.08540449482769], [127.41968619711152, 38.085674774781474], [127.41934423318106, 38.08567017471209]]]}}, {"type": "Feature", "properties": {"date": "2026-07-25", "timeLocal": "17:00", "sunAzimuth": 271.73, "sunElevation": 30.78, "source": "Copernicus GLO-30, terrain-only horizon angle"}, "geometry": {"type": "Polygon", "coordinates": [[[127.42653128633067, 38.08549628646589], [127.42654866869948, 38.084685443866555], [127.4268906292299, 38.084690022872714], [127.426873250635, 38.08550086560468], [127.42653128633067, 38.08549628646589]]]}}, {"type": "Feature", "properties": {"date": "2026-07-25", "timeLocal": "17:00", "sunAzimuth": 271.73, "sunElevation": 30.78, "source": "Copernicus GLO-30, terrain-only horizon angle"}, "geometry": {"type": "Polygon", "coordinates": [[[127.3947466805415, 38.08425524917152], [127.39475259149343, 38.08398497243205], [127.39509454348307, 38.08398964388407], [127.39508863378899, 38.08425992066864], [127.3947466805415, 38.08425524917152]]]}}, {"type": "Feature", "properties": {"date": "2026-07-25", "timeLocal": "17:00", "sunAzimuth": 271.73, "sunElevation": 30.78, "source": "Copernicus GLO-30, terrain-only horizon angle"}, "geometry": {"type": "Polygon", "coordinates": [[[127.41287615552766, 38.08423118897294], [127.41289368791276, 38.083420351543715], [127.41323564029706, 38.0834249701533], [127.41321811168558, 38.08423580771631], [127.41287615552766, 38.08423118897294]]]}}, {"type": "Feature", "properties": {"date": "2026-07-25", "timeLocal": "17:00", "sunAzimuth": 271.73, "sunElevation": 30.78, "source": "Copernicus GLO-30, terrain-only horizon angle"}, "geometry": {"type": "Polygon", "coordinates": [[[127.39441063958287, 38.08398029998554], [127.39441655171353, 38.08371002327795], [127.39407460113993, 38.08370534988209], [127.39409234083054, 38.0828945198152], [127.39477623451013, 38.082903865341784], [127.39475259149343, 38.08398497243205], [127.39441063958287, 38.08398029998554]]]}}, {"type": "Feature", "properties": {"date": "2026-07-25", "timeLocal": "17:00", "sunAzimuth": 271.73, "sunElevation": 30.78, "source": "Copernicus GLO-30, terrain-only horizon angle"}, "geometry": {"type": "Polygon", "coordinates": [[[127.394452022836, 38.08208836275429], [127.39445793441287, 38.081818085954005], [127.3947998762613, 38.081822758039635], [127.39479396594216, 38.082093034885034], [127.394452022836, 38.08208836275429]]]}}, {"type": "Feature", "properties": {"date": "2026-07-25", "timeLocal": "17:00", "sunAzimuth": 271.73, "sunElevation": 30.78, "source": "Copernicus GLO-30, terrain-only horizon angle"}, "geometry": {"type": "Polygon", "coordinates": [[[127.41531069644404, 38.08237154292124], [127.41532236607544, 38.081830983839275], [127.4156643114599, 38.08183559522026], [127.41567597826355, 38.0812950359964], [127.41601792121061, 38.08129964629389], [127.41600042466129, 38.08211048524343], [127.41565847794101, 38.08210587481238], [127.41565264434404, 38.082376154391255], [127.41531069644404, 38.08237154292124]]]}}, {"type": "Feature", "properties": {"date": "2026-07-25", "timeLocal": "17:00", "sunAzimuth": 271.73, "sunElevation": 30.78, "source": "Copernicus GLO-30, terrain-only horizon angle"}, "geometry": {"type": "Polygon", "coordinates": [[[127.43754322468511, 38.08239893755839], [127.43756048351447, 38.081588090253916], [127.43790243142253, 38.08159263690704], [127.4378909281289, 38.08213320187768], [127.43823287862955, 38.08213774762412], [127.43822712812508, 38.08240803013353], [127.43754322468511, 38.08239893755839]]]}}, {"type": "Feature", "properties": {"date": "2026-07-25", "timeLocal": "17:00", "sunAzimuth": 271.73, "sunElevation": 30.78, "source": "Copernicus GLO-30, terrain-only horizon angle"}, "geometry": {"type": "Polygon", "coordinates": [[[127.41465014989079, 38.08128119913734], [127.41465598694863, 38.08101091963915], [127.41499792840374, 38.081015532875384], [127.41499209260361, 38.081285812418095], [127.41465014989079, 38.08128119913734]]]}}, {"type": "Feature", "properties": {"date": "2026-07-25", "timeLocal": "17:00", "sunAzimuth": 271.73, "sunElevation": 30.78, "source": "Copernicus GLO-30, terrain-only horizon angle"}, "geometry": {"type": "Polygon", "coordinates": [[[127.41397210427273, 38.08100169018345], [127.41397794376783, 38.08073141076116], [127.41466182392834, 38.08074064012775], [127.41465598694863, 38.08101091963915], [127.41397210427273, 38.08100169018345]]]}}, {"type": "Feature", "properties": {"date": "2026-07-25", "timeLocal": "17:00", "sunAzimuth": 271.73, "sunElevation": 30.78, "source": "Copernicus GLO-30, terrain-only horizon angle"}, "geometry": {"type": "Polygon", "coordinates": [[[127.41568181154825, 38.08102475636461], [127.4156876447549, 38.08075447671962], [127.41602958518658, 38.08075908692811], [127.41602375323762, 38.08102936661761], [127.41568181154825, 38.08102475636461]]]}}, {"type": "Feature", "properties": {"date": "2026-07-25", "timeLocal": "17:00", "sunAzimuth": 271.73, "sunElevation": 30.78, "source": "Copernicus GLO-30, terrain-only horizon angle"}, "geometry": {"type": "Polygon", "coordinates": [[[127.41534570440132, 38.08074986551673], [127.41535153878756, 38.080479585903035], [127.41569347788351, 38.0804841970614], [127.4156876447549, 38.08075447671962], [127.41534570440132, 38.08074986551673]]]}}, {"type": "Feature", "properties": {"date": "2026-07-25", "timeLocal": "17:00", "sunAzimuth": 271.73, "sunElevation": 30.78, "source": "Copernicus GLO-30, terrain-only horizon angle"}, "geometry": {"type": "Polygon", "coordinates": [[[127.4372185356834, 38.08158354260633], [127.43724730514803, 38.080232130387714], [127.43758924669038, 38.08023667781577], [127.43756048351447, 38.081588090253916], [127.4372185356834, 38.08158354260633]]]}}, {"type": "Feature", "properties": {"date": "2026-07-25", "timeLocal": "17:00", "sunAzimuth": 271.73, "sunElevation": 30.78, "source": "Copernicus GLO-30, terrain-only horizon angle"}, "geometry": {"type": "Polygon", "coordinates": [[[127.41536904147794, 38.07966874698261], [127.41537487555192, 38.079398467316025], [127.41571680961731, 38.07940307829631], [127.41571097680095, 38.07967335800742], [127.41536904147794, 38.07966874698261]]]}}, {"type": "Feature", "properties": {"date": "2026-07-25", "timeLocal": "17:00", "sunAzimuth": 271.73, "sunElevation": 30.78, "source": "Copernicus GLO-30, terrain-only horizon angle"}, "geometry": {"type": "Polygon", "coordinates": [[[127.41913033432134, 38.07971941356538], [127.41913615456158, 38.079449133409604], [127.41947808948466, 38.07945373345195], [127.41948972721633, 38.0789131730119], [127.41983165970208, 38.07891777197108], [127.41981420676062, 38.07972861274454], [127.41913033432134, 38.07971941356538]]]}}, {"type": "Feature", "properties": {"date": "2026-07-25", "timeLocal": "17:00", "sunAzimuth": 271.73, "sunElevation": 30.78, "source": "Copernicus GLO-30, terrain-only horizon angle"}, "geometry": {"type": "Polygon", "coordinates": [[[127.43759499909463, 38.079966395288544], [127.43760075142188, 38.079696112748096], [127.4369168734449, 38.07968701707323], [127.43693989204523, 38.078605887130756], [127.43728182596467, 38.07861043528973], [127.43727607268771, 38.07888071783906], [127.43761800794178, 38.078885265047575], [127.43760650367214, 38.07942583019446], [127.43794844151846, 38.079430376496404], [127.43793693945625, 38.079970941678276], [127.43759499909463, 38.079966395288544]]]}}, {"type": "Feature", "properties": {"date": "2026-07-25", "timeLocal": "17:00", "sunAzimuth": 271.73, "sunElevation": 30.78, "source": "Copernicus GLO-30, terrain-only horizon angle"}, "geometry": {"type": "Polygon", "coordinates": [[[127.41709620199721, 38.07888095245606], [127.41710785702318, 38.078340392585346], [127.4174497864484, 38.07834499841597], [127.41743813393757, 38.07888555837563], [127.41709620199721, 38.07888095245606]]]}}, {"type": "Feature", "properties": {"date": "2026-07-25", "timeLocal": "17:00", "sunAzimuth": 271.73, "sunElevation": 30.78, "source": "Copernicus GLO-30, terrain-only horizon angle"}, "geometry": {"type": "Polygon", "coordinates": [[[127.39313158184727, 38.07990745095829], [127.39313749782157, 38.07963717423257], [127.39279556642987, 38.07963249753616], [127.39282515140144, 38.07828111393472], [127.39316707650559, 38.078285790405374], [127.39317890742505, 38.07774523678181], [127.393862752841, 38.077754586559706], [127.39384501388783, 38.07856541724605], [127.3935030873679, 38.07856074271882], [127.39347351457575, 38.079912126705516], [127.39313158184727, 38.07990745095829]]]}}, {"type": "Feature", "properties": {"date": "2026-07-25", "timeLocal": "17:00", "sunAzimuth": 271.73, "sunElevation": 30.78, "source": "Copernicus GLO-30, terrain-only horizon angle"}, "geometry": {"type": "Polygon", "coordinates": [[[127.42463032236247, 38.0784414911703], [127.42463612209261, 38.07817121023896], [127.42497805197164, 38.078175794150155], [127.42497225349906, 38.07844607512574], [127.42463032236247, 38.0784414911703]]]}}, {"type": "Feature", "properties": {"date": "2026-07-25", "timeLocal": "17:00", "sunAzimuth": 271.73, "sunElevation": 30.78, "source": "Copernicus GLO-30, terrain-only horizon angle"}, "geometry": {"type": "Polygon", "coordinates": [[[127.40376091731842, 38.078700546016535], [127.40379029951201, 38.077349154949744], [127.40413222211107, 38.07735379942374], [127.40412634708709, 38.0776240777084], [127.40446827102218, 38.07762872123297], [127.4044565232533, 38.07816927785228], [127.40411459680323, 38.07816463423804], [127.40410284620489, 38.07870519071474], [127.40376091731842, 38.078700546016535]]]}}, {"type": "Feature", "properties": {"date": "2026-07-25", "timeLocal": "17:00", "sunAzimuth": 271.73, "sunElevation": 30.78, "source": "Copernicus GLO-30, terrain-only horizon angle"}, "geometry": {"type": "Polygon", "coordinates": [[[127.41608206921545, 38.07832656912757], [127.41610539342162, 38.077245449761335], [127.41644731758285, 38.07725005839691], [127.41642399840669, 38.078331177941145], [127.41608206921545, 38.07832656912757]]]}}, {"type": "Feature", "properties": {"date": "2026-07-25", "timeLocal": "17:00", "sunAzimuth": 271.73, "sunElevation": 30.78, "source": "Copernicus GLO-30, terrain-only horizon angle"}, "geometry": {"type": "Polygon", "coordinates": [[[127.41645314718185, 38.07697977847781], [127.4164706355108, 38.076168938641175], [127.41715447400782, 38.07617815257364], [127.41714282022954, 38.07671871265589], [127.41680089842718, 38.07671410609782], [127.41679507016363, 38.076984386074635], [127.41645314718185, 38.07697977847781]]]}}, {"type": "Feature", "properties": {"date": "2026-07-25", "timeLocal": "17:00", "sunAzimuth": 271.73, "sunElevation": 30.78, "source": "Copernicus GLO-30, terrain-only horizon angle"}, "geometry": {"type": "Polygon", "coordinates": [[[127.40488653152475, 38.07411974386494], [127.40489240301233, 38.0738494653186], [127.40455049660142, 38.07384482341583], [127.4045798591467, 38.07249343070977], [127.40526365947525, 38.07250271307303], [127.40525778963767, 38.072772991730325], [127.40559969117692, 38.07277763146561], [127.40558208496442, 38.07358846749255], [127.4052401796536, 38.073583827622855], [127.40522843927147, 38.0741243848184], [127.40488653152475, 38.07411974386494]]]}}, {"type": "Feature", "properties": {"date": "2026-07-25", "timeLocal": "17:00", "sunAzimuth": 271.73, "sunElevation": 30.78, "source": "Copernicus GLO-30, terrain-only horizon angle"}, "geometry": {"type": "Polygon", "coordinates": [[[127.43466736904584, 38.07289809297306], [127.43467313068713, 38.072627810484825], [127.43501503640422, 38.07263236463679], [127.43500927602014, 38.07290264716899], [127.43466736904584, 38.07289809297306]]]}}, {"type": "Feature", "properties": {"date": "2026-07-25", "timeLocal": "17:00", "sunAzimuth": 271.73, "sunElevation": 30.78, "source": "Copernicus GLO-30, terrain-only horizon angle"}, "geometry": {"type": "Polygon", "coordinates": [[[127.43536270124815, 38.07236663520523], [127.43536846022086, 38.07209635260266], [127.43571036357767, 38.072100904678415], [127.43570460586216, 38.07237118732494], [127.43536270124815, 38.07236663520523]]]}}, {"type": "Feature", "properties": {"date": "2026-07-25", "timeLocal": "17:00", "sunAzimuth": 271.73, "sunElevation": 30.78, "source": "Copernicus GLO-30, terrain-only horizon angle"}, "geometry": {"type": "Polygon", "coordinates": [[[127.43436003838309, 38.07127184291945], [127.43436580081894, 38.07100156039598], [127.43470769891587, 38.071006115278166], [127.43470193773716, 38.07127639784562], [127.43436003838309, 38.07127184291945]]]}}, {"type": "Feature", "properties": {"date": "2026-07-25", "timeLocal": "17:00", "sunAzimuth": 271.73, "sunElevation": 30.78, "source": "Copernicus GLO-30, terrain-only horizon angle"}, "geometry": {"type": "Polygon", "coordinates": [[[127.4059415927947, 38.072782270206815], [127.40595332736275, 38.0722417126998], [127.40561142825926, 38.07223707404819], [127.40561729668264, 38.07196679531961], [127.40527539891477, 38.07196215571872], [127.40528126851673, 38.071691877021735], [127.40562316502746, 38.07169651657782], [127.40565837344752, 38.07007484384923], [127.40600026249453, 38.070079482142525], [127.40599439587781, 38.07034976100849], [127.40633628626036, 38.070354398352556], [127.40631282403669, 38.071435513863214], [127.40597092862598, 38.07143087634004], [127.40596506161674, 38.071701155139856], [127.40630695828455, 38.07170579270781], [127.406283494491, 38.07278690795389], [127.4059415927947, 38.072782270206815]]]}}, {"type": "Feature", "properties": {"date": "2026-07-25", "timeLocal": "17:00", "sunAzimuth": 271.73, "sunElevation": 30.78, "source": "Copernicus GLO-30, terrain-only horizon angle"}, "geometry": {"type": "Polygon", "coordinates": [[[127.43506111670185, 38.07047010390385], [127.43506687639221, 38.07019982125282], [127.43540877087206, 38.07020437401496], [127.43540301243877, 38.070474656709955], [127.43506111670185, 38.07047010390385]]]}}, {"type": "Feature", "properties": {"date": "2026-07-25", "timeLocal": "17:00", "sunAzimuth": 271.73, "sunElevation": 30.78, "source": "Copernicus GLO-30, terrain-only horizon angle"}, "geometry": {"type": "Polygon", "coordinates": [[[127.39574362530881, 38.0699399009534], [127.39576133781358, 38.06912906831944], [127.39644510387714, 38.069138401293536], [127.39643330064736, 38.06967895657631], [127.39609141506222, 38.06967429049614], [127.3960855120719, 38.06994456807262], [127.39574362530881, 38.0699399009534]]]}}, {"type": "Feature", "properties": {"date": "2026-07-25", "timeLocal": "17:00", "sunAzimuth": 271.73, "sunElevation": 30.78, "source": "Copernicus GLO-30, terrain-only horizon angle"}, "geometry": {"type": "Polygon", "coordinates": [[[127.41934563134684, 38.06971903899828], [127.41935144870602, 38.06944875835344], [127.41969333710905, 38.069453356752675], [127.41968752100686, 38.069723637441925], [127.41934563134684, 38.06971903899828]]]}}, {"type": "Feature", "properties": {"date": "2026-07-25", "timeLocal": "17:00", "sunAzimuth": 271.73, "sunElevation": 30.78, "source": "Copernicus GLO-30, terrain-only horizon angle"}, "geometry": {"type": "Polygon", "coordinates": [[[127.4337223573471, 38.069100470231305], [127.43372812168008, 38.0688301876902], [127.43407000956637, 38.06883474420857], [127.4340642464904, 38.06910502679367], [127.4337223573471, 38.069100470231305]]]}}, {"type": "Feature", "properties": {"date": "2026-07-25", "timeLocal": "17:00", "sunAzimuth": 271.73, "sunElevation": 30.78, "source": "Copernicus GLO-30, terrain-only horizon angle"}, "geometry": {"type": "Polygon", "coordinates": [[[127.4012432428799, 38.06866306419312], [127.40124912662209, 38.06839278587564], [127.40090724621746, 38.068388133935834], [127.4009131311378, 38.068117855650044], [127.40159688951205, 38.06812715844589], [127.40158512462014, 38.068667715183885], [127.4012432428799, 38.06866306419312]]]}}, {"type": "Feature", "properties": {"date": "2026-07-25", "timeLocal": "17:00", "sunAzimuth": 271.73, "sunElevation": 30.78, "source": "Copernicus GLO-30, terrain-only horizon angle"}, "geometry": {"type": "Polygon", "coordinates": [[[127.41216596649494, 38.06962224206524], [127.41217765392848, 38.06908168263167], [127.41183576849889, 38.06907706240908], [127.4118474581335, 38.068536503011856], [127.41150557529596, 38.06853188188452], [127.41151142125287, 38.06826160221069], [127.41219518449229, 38.068270843382166], [127.41218934104921, 38.06854112314524], [127.41253122404315, 38.068545742284634], [127.41250785451665, 38.06962686138307], [127.41216596649494, 38.06962224206524]]]}}, {"type": "Feature", "properties": {"date": "2026-07-25", "timeLocal": "17:00", "sunAzimuth": 271.73, "sunElevation": 30.78, "source": "Copernicus GLO-30, terrain-only horizon angle"}, "geometry": {"type": "Polygon", "coordinates": [[[127.43271976233278, 38.06800566486468], [127.43272553012801, 38.06773538240281], [127.43306741275504, 38.06773994172709], [127.43306164621676, 38.068010224232985], [127.43271976233278, 38.06800566486468]]]}}, {"type": "Feature", "properties": {"date": "2026-07-25", "timeLocal": "17:00", "sunAzimuth": 271.73, "sunElevation": 30.78, "source": "Copernicus GLO-30, terrain-only horizon angle"}, "geometry": {"type": "Polygon", "coordinates": [[[127.40127854415215, 38.06704139408976], [127.401284427422, 38.06677111569288], [127.40162630036438, 38.0667757663693], [127.40162041835134, 38.067046044811086], [127.40127854415215, 38.06704139408976]]]}}, {"type": "Feature", "properties": {"date": "2026-07-25", "timeLocal": "17:00", "sunAzimuth": 271.73, "sunElevation": 30.78, "source": "Copernicus GLO-30, terrain-only horizon angle"}, "geometry": {"type": "Polygon", "coordinates": [[[127.42929514729917, 38.068230298520966], [127.42931248839227, 38.06741945245775], [127.42897060787205, 38.06741488224401], [127.42898217072778, 38.06687431822408], [127.42966592681812, 38.066883457481104], [127.42966014794266, 38.06715373958592], [127.43000202736067, 38.06715830776763], [127.429984694041, 38.06796915413519], [127.42964281085229, 38.06796458582113], [127.42963703166748, 38.068234867873116], [127.42929514729917, 38.068230298520966]]]}}, {"type": "Feature", "properties": {"date": "2026-07-25", "timeLocal": "17:00", "sunAzimuth": 271.73, "sunElevation": 30.78, "source": "Copernicus GLO-30, terrain-only horizon angle"}, "geometry": {"type": "Polygon", "coordinates": [[[127.41561983617436, 38.068046709380354], [127.41564315857791, 38.06696558836063], [127.4159850348116, 38.06697019729333], [127.41599669303163, 38.06642963661515], [127.41633856682971, 38.06643424446494], [127.41631525510493, 38.06751536594644], [127.41597337627954, 38.06751075791865], [127.41596171743548, 38.06805131849109], [127.41561983617436, 38.068046709380354]]]}}, {"type": "Feature", "properties": {"date": "2026-07-25", "timeLocal": "17:00", "sunAzimuth": 271.73, "sunElevation": 30.78, "source": "Copernicus GLO-30, terrain-only horizon angle"}, "geometry": {"type": "Polygon", "coordinates": [[[127.40298791593499, 38.06706463775744], [127.40299379292087, 38.06679435913612], [127.40265191966375, 38.06678971243523], [127.40266367591315, 38.06624915524263], [127.40300554665673, 38.066253801853776], [127.4030114234067, 38.06598352319275], [127.4033532929722, 38.06598816876516], [127.40334741747897, 38.06625844747104], [127.40368928837985, 38.066263092094445], [127.40367166519874, 38.06707392826724], [127.40298791593499, 38.06706463775744]]]}}, {"type": "Feature", "properties": {"date": "2026-07-25", "timeLocal": "17:00", "sunAzimuth": 271.73, "sunElevation": 30.78, "source": "Copernicus GLO-30, terrain-only horizon angle"}, "geometry": {"type": "Polygon", "coordinates": [[[127.42933560876688, 38.06633832418853], [127.42935872790397, 38.06525719570801], [127.42970059844701, 38.06526176457483], [127.42967748433703, 38.06634289323183], [127.42933560876688, 38.06633832418853]]]}}, {"type": "Feature", "properties": {"date": "2026-07-25", "timeLocal": "17:00", "sunAzimuth": 271.73, "sunElevation": 30.78, "source": "Copernicus GLO-30, terrain-only horizon angle"}, "geometry": {"type": "Polygon", "coordinates": [[[127.4337972876595, 38.0655867961671], [127.43380881424297, 38.065046230728406], [127.43346694402993, 38.06504167383211], [127.43347270846273, 38.06477139113697], [127.43313083958354, 38.06476683329082], [127.43314237073115, 38.064226267948946], [127.43280050444255, 38.06422170919697], [127.43280627115733, 38.06395142655024], [127.43383186648448, 38.063965099692574], [127.43382610353977, 38.064235382471345], [127.43416797005976, 38.06423993824178], [127.43416220829467, 38.06451022105133], [127.43450407614847, 38.064514775871906], [127.43448679416075, 38.0653256243533], [127.43414492253672, 38.065321069400774], [127.4341391604632, 38.06559135215752], [127.4337972876595, 38.0655867961671]]]}}, {"type": "Feature", "properties": {"date": "2026-07-25", "timeLocal": "17:00", "sunAzimuth": 271.73, "sunElevation": 30.78, "source": "Copernicus GLO-30, terrain-only horizon angle"}, "geometry": {"type": "Polygon", "coordinates": [[[127.41946777954402, 38.064043142681115], [127.41947941091557, 38.063502580823126], [127.42016313250008, 38.06351177467426], [127.42015150615505, 38.064052336709814], [127.41946777954402, 38.064043142681115]]]}}, {"type": "Feature", "properties": {"date": "2026-07-25", "timeLocal": "17:00", "sunAzimuth": 271.73, "sunElevation": 30.78, "source": "Copernicus GLO-30, terrain-only horizon angle"}, "geometry": {"type": "Polygon", "coordinates": [[[127.39760048530198, 38.06320627872232], [127.39760638129172, 38.062936000634735], [127.39794823577415, 38.06294066161366], [127.39794234104092, 38.063210939746256], [127.39760048530198, 38.06320627872232]]]}}, {"type": "Feature", "properties": {"date": "2026-07-25", "timeLocal": "17:00", "sunAzimuth": 271.73, "sunElevation": 30.78, "source": "Copernicus GLO-30, terrain-only horizon angle"}, "geometry": {"type": "Polygon", "coordinates": [[[127.41880150772462, 38.06322310213682], [127.41880732572903, 38.06295282126358], [127.41914918381353, 38.06295742058481], [127.41914336706571, 38.06322770150245], [127.41880150772462, 38.06322310213682]]]}}, {"type": "Feature", "properties": {"date": "2026-07-25", "timeLocal": "17:00", "sunAzimuth": 271.73, "sunElevation": 30.78, "source": "Copernicus GLO-30, terrain-only horizon angle"}, "geometry": {"type": "Polygon", "coordinates": [[[127.41367946381335, 38.06288371219268], [127.41369113728534, 38.06234315174131], [127.41403299168718, 38.062347765879956], [127.41402132072831, 38.06288832642045], [127.41367946381335, 38.06288371219268]]]}}, {"type": "Feature", "properties": {"date": "2026-07-25", "timeLocal": "17:00", "sunAzimuth": 271.73, "sunElevation": 30.78, "source": "Copernicus GLO-30, terrain-only horizon angle"}, "geometry": {"type": "Polygon", "coordinates": [[[127.43315966687393, 38.06341541983709], [127.43316543210058, 38.06314513710673], [127.43248170965383, 38.06313601896117], [127.43248747731658, 38.062865736305675], [127.43180375769178, 38.06285661427298], [127.43180952779055, 38.06258633169236], [127.43283510357367, 38.062600013118576], [127.43282933724473, 38.06287029583132], [127.43351305733253, 38.062879411901235], [127.43350152946968, 38.06341997746318], [127.43315966687393, 38.06341541983709]]]}}, {"type": "Feature", "properties": {"date": "2026-07-25", "timeLocal": "17:00", "sunAzimuth": 271.73, "sunElevation": 30.78, "source": "Copernicus GLO-30, terrain-only horizon angle"}, "geometry": {"type": "Polygon", "coordinates": [[[127.43215715507267, 38.06232061052367], [127.43216292376044, 38.06205032787258], [127.43250477984166, 38.062054888259915], [127.43249901241047, 38.062325170955035], [127.43215715507267, 38.06232061052367]]]}}, {"type": "Feature", "properties": {"date": "2026-07-25", "timeLocal": "17:00", "sunAzimuth": 271.73, "sunElevation": 30.78, "source": "Copernicus GLO-30, terrain-only horizon angle"}, "geometry": {"type": "Polygon", "coordinates": [[[127.40823319085676, 38.06172863129822], [127.40823904742308, 38.06145835174047], [127.4089227462629, 38.06146761055546], [127.40891689220953, 38.06173789020264], [127.40823319085676, 38.06172863129822]]]}}, {"type": "Feature", "properties": {"date": "2026-07-25", "timeLocal": "17:00", "sunAzimuth": 271.73, "sunElevation": 30.78, "source": "Copernicus GLO-30, terrain-only horizon angle"}, "geometry": {"type": "Polygon", "coordinates": [[[127.42361654686071, 38.061935995218235], [127.42362234688468, 38.06166571365804], [127.42396419977455, 38.061670298844945], [127.4239584010071, 38.06194058044943], [127.42361654686071, 38.061935995218235]]]}}, {"type": "Feature", "properties": {"date": "2026-07-25", "timeLocal": "17:00", "sunAzimuth": 271.73, "sunElevation": 30.78, "source": "Copernicus GLO-30, terrain-only horizon angle"}, "geometry": {"type": "Polygon", "coordinates": [[[127.41814689108514, 38.06186249637019], [127.41815271121331, 38.061592215519745], [127.41781085964513, 38.06158761343941], [127.4178166809519, 38.06131733262018], [127.41850038165319, 38.06132653569825], [127.41848874398774, 38.06186709750123], [127.41814689108514, 38.06186249637019]]]}}, {"type": "Feature", "properties": {"date": "2026-07-25", "timeLocal": "17:00", "sunAzimuth": 271.73, "sunElevation": 30.78, "source": "Copernicus GLO-30, terrain-only horizon angle"}, "geometry": {"type": "Polygon", "coordinates": [[[127.40859260718847, 38.060922422400196], [127.40859846226326, 38.06065214275806], [127.40825661665185, 38.06064751298783], [127.40827418517533, 38.05983667411617], [127.40895786893822, 38.05984593239472], [127.40895201535481, 38.06011621212124], [127.40963570194373, 38.06012546651457], [127.40962399956754, 38.06066602610669], [127.40894030795303, 38.06065677153461], [127.40893445413465, 38.060927051221455], [127.40859260718847, 38.060922422400196]]]}}]}