{"type": "FeatureCollection", "features": [{"type": "Feature", "properties": {"date": "2026-08-15", "timeLocal": "18:00", "sunAzimuth": 275.93, "sunElevation": 15.42, "source": "Copernicus GLO-30, terrain-only horizon angle"}, "geometry": {"type": "Polygon", "coordinates": [[[127.39211615478168, 38.09503356692395], [127.39212207770811, 38.09476329103029], [127.39280608131143, 38.09477265047625], [127.39280016090201, 38.095042926460266], [127.39211615478168, 38.09503356692395]]]}}, {"type": "Feature", "properties": {"date": "2026-08-15", "timeLocal": "18:00", "sunAzimuth": 275.93, "sunElevation": 15.42, "source": "Copernicus GLO-30, terrain-only horizon angle"}, "geometry": {"type": "Polygon", "coordinates": [[[127.39864371999089, 38.09377093796141], [127.3986496186108, 38.09350066114474], [127.39899161558327, 38.09350532223763], [127.39898571822178, 38.093775599099295], [127.39864371999089, 38.09377093796141]]]}}, {"type": "Feature", "properties": {"date": "2026-08-15", "timeLocal": "18:00", "sunAzimuth": 275.93, "sunElevation": 15.42, "source": "Copernicus GLO-30, terrain-only horizon angle"}, "geometry": {"type": "Polygon", "coordinates": [[[127.39830762171727, 38.093495999057026], [127.39831352151668, 38.093225722272116], [127.39865551715177, 38.09323038431483], [127.3986496186108, 38.09350066114474], [127.39830762171727, 38.093495999057026]]]}}, {"type": "Feature", "properties": {"date": "2026-08-15", "timeLocal": "18:00", "sunAzimuth": 275.93, "sunElevation": 15.42, "source": "Copernicus GLO-30, terrain-only horizon angle"}, "geometry": {"type": "Polygon", "coordinates": [[[127.39215169115137, 38.0934119113633], [127.39216353597386, 38.09287135940378], [127.39250552892685, 38.09287603930794], [127.39249368662115, 38.093416591357816], [127.39215169115137, 38.0934119113633]]]}}, {"type": "Feature", "properties": {"date": "2026-08-15", "timeLocal": "18:00", "sunAzimuth": 275.93, "sunElevation": 15.42, "source": "Copernicus GLO-30, terrain-only horizon angle"}, "geometry": {"type": "Polygon", "coordinates": [[[127.4390173016653, 38.093503238453685], [127.43902305155027, 38.093232956353894], [127.43936505394367, 38.09323749992055], [127.43935930531724, 38.093507782064194], [127.4390173016653, 38.093503238453685]]]}}, {"type": "Feature", "properties": {"date": "2026-08-15", "timeLocal": "18:00", "sunAzimuth": 275.93, "sunElevation": 15.42, "source": "Copernicus GLO-30, terrain-only horizon angle"}, "geometry": {"type": "Polygon", "coordinates": [[[127.39695144452004, 38.092936787535095], [127.3969573491951, 38.09266651090382], [127.39661535647173, 38.09266184397713], [127.39662716810152, 38.092121290764986], [127.39696915830815, 38.09212595760156], [127.39696325379116, 38.09239623425931], [127.39730524533516, 38.092400900146146], [127.39729343858083, 38.09294145351201], [127.39695144452004, 38.092936787535095]]]}}, {"type": "Feature", "properties": {"date": "2026-08-15", "timeLocal": "18:00", "sunAzimuth": 275.93, "sunElevation": 15.42, "source": "Copernicus GLO-30, terrain-only horizon angle"}, "geometry": {"type": "Polygon", "coordinates": [[[127.40992970319017, 38.09392423023292], [127.40994727422708, 38.093113395303604], [127.40960527725437, 38.09310876613498], [127.40962285136108, 38.09229793122068], [127.40996484455853, 38.09230256025523], [127.40997655772097, 38.09176200349019], [127.41031854848003, 38.09176663144057], [127.4103126931964, 38.092036909874395], [127.41065468529222, 38.092041536874675], [127.41064297700659, 38.092582093791975], [127.41030098239398, 38.09257746670235], [127.41029512687525, 38.092847745096485], [127.41063712274627, 38.09285237223077], [127.41063126840758, 38.09312265065636], [127.41097326561537, 38.09312727684049], [127.41095570590467, 38.093938112171834], [127.40992970319017, 38.09392423023292]]]}}, {"type": "Feature", "properties": {"date": "2026-08-15", "timeLocal": "18:00", "sunAzimuth": 275.93, "sunElevation": 15.42, "source": "Copernicus GLO-30, terrain-only horizon angle"}, "geometry": {"type": "Polygon", "coordinates": [[[127.40963456704024, 38.091757374545], [127.40964042476223, 38.09148709618731], [127.4099824141846, 38.0914917250878], [127.40997655772097, 38.09176200349019], [127.40963456704024, 38.091757374545]]]}}, {"type": "Feature", "properties": {"date": "2026-08-15", "timeLocal": "18:00", "sunAzimuth": 275.93, "sunElevation": 15.42, "source": "Copernicus GLO-30, terrain-only horizon angle"}, "geometry": {"type": "Polygon", "coordinates": [[[127.40418036015161, 38.090872343168215], [127.4041979927738, 38.090061510085285], [127.40453997464854, 38.09006615467788], [127.40453409844471, 38.090336432430256], [127.4048760816563, 38.09034107607295], [127.40486433152925, 38.09088163162768], [127.40418036015161, 38.090872343168215]]]}}, {"type": "Feature", "properties": {"date": "2026-08-15", "timeLocal": "18:00", "sunAzimuth": 275.93, "sunElevation": 15.42, "source": "Copernicus GLO-30, terrain-only horizon angle"}, "geometry": {"type": "Polygon", "coordinates": [[[127.40045976176913, 38.08892924492875], [127.4004656526776, 38.0886589676489], [127.4008076273953, 38.08866362295859], [127.40080173774497, 38.08893390028338], [127.40045976176913, 38.08892924492875]]]}}, {"type": "Feature", "properties": {"date": "2026-08-15", "timeLocal": "18:00", "sunAzimuth": 275.93, "sunElevation": 15.42, "source": "Copernicus GLO-30, terrain-only horizon angle"}, "geometry": {"type": "Polygon", "coordinates": [[[127.42392277253141, 38.09546457546488], [127.42392857841196, 38.09519429541037], [127.42427058747194, 38.09519888310545], [127.42428219648274, 38.094658322868185], [127.42462420310322, 38.09466290947978], [127.4246416122612, 38.09385206889191], [127.42498361518372, 38.0938566543758], [127.42498941682253, 38.09358637410915], [127.4253314185642, 38.09359095855388], [127.42533721886689, 38.09332067822977], [127.42602122006606, 38.09332984404614], [127.42602701777416, 38.093059563620315], [127.42671101676672, 38.09306872536879], [127.4267341967557, 38.09198760317956], [127.42707619133456, 38.09199218238468], [127.42708777834694, 38.091451621122374], [127.42742977048654, 38.09145619924426], [127.4274413546721, 38.090915637840695], [127.42709936504923, 38.0909110598072], [127.42710515828406, 38.0906407791298], [127.4274471466486, 38.090645357119115], [127.42745873036908, 38.09010479563628], [127.42711674452114, 38.09010021773536], [127.42711095144136, 38.090370498439185], [127.42676896441266, 38.09036591949932], [127.42676316999702, 38.09063620014573], [127.42642118178756, 38.090631620166874], [127.42640379430037, 38.091442461894175], [127.42606180239339, 38.09143788078788], [127.42605600515081, 38.091708161292985], [127.42571401206307, 38.09170357914766], [127.42572560898738, 38.091163018212704], [127.42606759955838, 38.09116760026955], [127.42609078744259, 38.09008647806412], [127.42643277305788, 38.0900910589493], [127.42644436401797, 38.08955049767885], [127.42678634719428, 38.08955507748084], [127.42679793532767, 38.089014516069106], [127.42782387777231, 38.08902824924147], [127.42782966794803, 38.08875796838321], [127.42817164765971, 38.08876254407374], [127.42817743649974, 38.08849226315808], [127.42886139363907, 38.08850141146669], [127.42884403443585, 38.08931225443898], [127.42918601689635, 38.089316827233674], [127.42918023159865, 38.08958710824218], [127.42883824787991, 38.08958253540332], [127.4288266745357, 38.090123097292384], [127.429168660771, 38.090127670219516], [127.42915130394886, 38.09093851308647], [127.42949329403658, 38.090943085151274], [127.42948750953269, 38.09121336612464], [127.42982950095616, 38.09121793723879], [127.4298641992684, 38.08959625093565], [127.43020618321935, 38.089600820790274], [127.43020040161906, 38.089871101917936], [127.43054238690569, 38.08987567082195], [127.43053082598959, 38.09041623312587], [127.43087281387018, 38.09042080112333], [127.43086703455441, 38.090691082299585], [127.43052504541552, 38.09068651425803], [127.43051926476409, 38.09095679537697], [127.43086125516133, 38.090961363462625], [127.43084391651799, 38.091772206872506], [127.43118591076772, 38.09177677409565], [127.43118013232365, 38.09204705524995], [127.43152212790913, 38.092051621522366], [127.43154523618786, 38.090970496649575], [127.43257120830741, 38.09098418896907], [127.43260584575663, 38.08936250047053], [127.43294782906783, 38.089367062323184], [127.43294205761103, 38.089637343816676], [127.43328404225774, 38.089641904718626], [127.433278271982, 38.08991218624294], [127.43362025796421, 38.08991674619417], [127.43357987268018, 38.091808716802745], [127.4339218675481, 38.091813276067334], [127.4339160991714, 38.09208355757403], [127.43425809537491, 38.0920881158878], [127.4342465609068, 38.09262867894958], [127.43458855970444, 38.09263323635651], [127.43457702744455, 38.09317379945348], [127.4349190288363, 38.09317835595353], [127.43488443775594, 38.09480004519144], [127.43522644677617, 38.09480460096051], [127.43522068258466, 38.095074882497904], [127.43556269294065, 38.09507943731601], [127.43555692993063, 38.095349718884194], [127.43589894162237, 38.09535427275132], [127.4358931797939, 38.09562455435025], [127.43452512845519, 38.09560633273613], [127.43453089531826, 38.09533605131312], [127.43418888393514, 38.09533149346618], [127.43419465197965, 38.09506121207395], [127.43385264193235, 38.09505665327609], [127.43387571837285, 38.093975527751134], [127.43353371343707, 38.09397096813441], [127.43357410304506, 38.092078998265436], [127.43323210699594, 38.09207443796199], [127.43322633602514, 38.09234471936743], [127.4328843387948, 38.09234015802514], [127.43287279410463, 38.092880720708344], [127.43253079443464, 38.092876158283104], [127.43251924691845, 38.09341672082539], [127.43286124910544, 38.09342128333872], [127.43281506601843, 38.09558353333192], [127.43076299364417, 38.095556141213336], [127.43076877435226, 38.095285860274856], [127.4311107849627, 38.09529042807124], [127.43111656433483, 38.095020147075445], [127.43009053651147, 38.0950064408338], [127.4300847533635, 38.095276721697275], [127.42940073268431, 38.09526757913992], [127.4293949469417, 38.09553785990192], [127.42802690147812, 38.09551956267131], [127.42803848295485, 38.09497900148738], [127.42769647429988, 38.09497442478073], [127.4277080579838, 38.094433863632325], [127.42702404594074, 38.09442470741102], [127.4270182516204, 38.09469498790345], [127.42633423737038, 38.094685827614114], [127.42632844045532, 38.09495610800488], [127.42667044880014, 38.09496068869123], [127.4266646530661, 38.09523096911301], [127.4273486725056, 38.095240127589356], [127.42734287921122, 38.09551040808635], [127.42392277253141, 38.09546457546488]], [[127.42496040785203, 38.094937775310264], [127.42564442399843, 38.09494694364741], [127.42565022343067, 38.09467666334511], [127.4249662098014, 38.094667495096466], [127.42496040785203, 38.094937775310264]], [[127.42780071629451, 38.090109372542436], [127.42848468837785, 38.090118523370485], [127.42849047634697, 38.08984824247672], [127.42780650678021, 38.08983909173701], [127.42780071629451, 38.090109372542436]]]}}, {"type": "Feature", "properties": {"date": "2026-08-15", "timeLocal": "18:00", "sunAzimuth": 275.93, "sunElevation": 15.42, "source": "Copernicus GLO-30, terrain-only horizon angle"}, "geometry": {"type": "Polygon", "coordinates": [[[127.42852520253506, 38.088226556836695], [127.428530989962, 38.08795627585045], [127.42921494222348, 38.08796542199305], [127.4292091573129, 38.088235703067596], [127.42852520253506, 38.088226556836695]]]}}, {"type": "Feature", "properties": {"date": "2026-08-15", "timeLocal": "18:00", "sunAzimuth": 275.93, "sunElevation": 15.42, "source": "Copernicus GLO-30, terrain-only horizon angle"}, "geometry": {"type": "Polygon", "coordinates": [[[127.4312321355364, 38.08961452438573], [127.43124369095534, 38.08907396182616], [127.43090170928882, 38.089069395043936], [127.43090748814052, 38.08879911378843], [127.43056550780958, 38.08879454605558], [127.43057706779742, 38.088253983593134], [127.43023509006021, 38.08824941495379], [127.43024087119629, 38.08797913374686], [127.43092482423167, 38.087988269942656], [127.43091904561196, 38.088258551237786], [127.43126102350385, 38.088263117887756], [127.431255246065, 38.088533399213766], [127.43159722529239, 38.08853796491311], [127.43159144903444, 38.08880824627001], [127.43193342959734, 38.08881281101872], [127.43192765452032, 38.08908309240646], [127.43261161839443, 38.08909221900787], [127.43260584575663, 38.08936250047053], [127.43192187936602, 38.089353373781], [127.43191610413442, 38.08962365514233], [127.4312321355364, 38.08961452438573]]]}}, {"type": "Feature", "properties": {"date": "2026-08-15", "timeLocal": "18:00", "sunAzimuth": 275.93, "sunElevation": 15.42, "source": "Copernicus GLO-30, terrain-only horizon angle"}, "geometry": {"type": "Polygon", "coordinates": [[[127.39943972899759, 38.08864499575188], [127.39944562360165, 38.08837471859368], [127.3991036504575, 38.08837005935034], [127.39913902397362, 38.086748396393], [127.39879705845678, 38.086743736424964], [127.39880885151365, 38.08620318208993], [127.3991508145145, 38.08620784196798], [127.3991449192835, 38.08647811918713], [127.39948688362124, 38.086482778115595], [127.39948098956935, 38.08675305536646], [127.39982295524398, 38.086757713345314], [127.39981116941965, 38.08729826789728], [127.40015313768917, 38.08730292497149], [127.40013546213548, 38.088113756835035], [127.4004774342581, 38.08811841304948], [127.4004656526776, 38.0886589676489], [127.39943972899759, 38.08864499575188]]]}}, {"type": "Feature", "properties": {"date": "2026-08-15", "timeLocal": "18:00", "sunAzimuth": 275.93, "sunElevation": 15.42, "source": "Copernicus GLO-30, terrain-only horizon angle"}, "geometry": {"type": "Polygon", "coordinates": [[[127.42887875214537, 38.08769056837547], [127.42889032409572, 38.087150006248635], [127.42854835177809, 38.087145432812456], [127.42855413889525, 38.08687515177338], [127.42821216791317, 38.08687057738672], [127.42822374443128, 38.08633001535725], [127.42788177604282, 38.0863254400643], [127.42789335476719, 38.08578487807031], [127.42823532063953, 38.08578945327492], [127.42822953257415, 38.08605973432269], [127.428571499782, 38.08606430857686], [127.42855992593495, 38.086604870721075], [127.42890189573635, 38.08660944406894], [127.42889610995475, 38.0868797251654], [127.42958005230604, 38.086888868965524], [127.42957426896321, 38.08715915013703], [127.42991624151307, 38.087163720589245], [127.42991045935096, 38.08743400179169], [127.429568485543, 38.08742943129535], [127.42956270204537, 38.08769971244044], [127.42887875214537, 38.08769056837547]]]}}, {"type": "Feature", "properties": {"date": "2026-08-15", "timeLocal": "18:00", "sunAzimuth": 275.93, "sunElevation": 15.42, "source": "Copernicus GLO-30, terrain-only horizon angle"}, "geometry": {"type": "Polygon", "coordinates": [[[127.43816961884785, 38.08511085450157], [127.43818687243915, 38.08430000732977], [127.43852883307986, 38.08430455243278], [127.43851158326254, 38.085115399736225], [127.43816961884785, 38.08511085450157]]]}}, {"type": "Feature", "properties": {"date": "2026-08-15", "timeLocal": "18:00", "sunAzimuth": 275.93, "sunElevation": 15.42, "source": "Copernicus GLO-30, terrain-only horizon angle"}, "geometry": {"type": "Polygon", "coordinates": [[[127.41009952700053, 38.086086154262304], [127.41010538181857, 38.085815875582135], [127.40976341881755, 38.08581124762003], [127.4097751307345, 38.08527069030936], [127.41011709121958, 38.085275318182106], [127.4101580716552, 38.08338336686534], [127.4108419752499, 38.08339261900187], [127.41078345575357, 38.086095407292156], [127.41009952700053, 38.086086154262304]]]}}, {"type": "Feature", "properties": {"date": "2026-08-15", "timeLocal": "18:00", "sunAzimuth": 275.93, "sunElevation": 15.42, "source": "Copernicus GLO-30, terrain-only horizon angle"}, "geometry": {"type": "Polygon", "coordinates": [[[127.40839556759737, 38.08579272582586], [127.40843073259813, 38.08417105480802], [127.40877268773802, 38.08417568648011], [127.40879026540605, 38.08336485065844], [127.4091322168508, 38.08336948120189], [127.40914393238849, 38.08282892383189], [127.40948588139597, 38.08283355329146], [127.40942731315053, 38.085536340059306], [127.40908535156424, 38.08553171015274], [127.40907949305064, 38.08580198871208], [127.40839556759737, 38.08579272582586]]]}}, {"type": "Feature", "properties": {"date": "2026-08-15", "timeLocal": "18:00", "sunAzimuth": 275.93, "sunElevation": 15.42, "source": "Copernicus GLO-30, terrain-only horizon angle"}, "geometry": {"type": "Polygon", "coordinates": [[[127.4346923361545, 38.08776816610682], [127.43472115851002, 38.08641675694483], [127.43506312844447, 38.08642131234526], [127.43507465433055, 38.08588074850006], [127.435416621826, 38.085885302817914], [127.43543390630266, 38.08507445681918], [127.4350919425813, 38.08506990263323], [127.43510923013795, 38.08425905664757], [127.4354511900854, 38.08426361070161], [127.43547999484804, 38.08291220024157], [127.43582194858305, 38.08291675308126], [127.43581618904258, 38.083187035243625], [127.43615814411254, 38.08319158713275], [127.43614086880243, 38.0840024336725], [127.43579890995875, 38.08399788165152], [127.43577587010114, 38.08507901001053], [127.43611783397671, 38.0850835622073], [127.43611207507759, 38.085353844308], [127.43645404028823, 38.08535839555412], [127.43643100895333, 38.08643952400063], [127.43608903871049, 38.08643497257874], [127.43608327942604, 38.08670525461342], [127.43574130800218, 38.08670070215294], [127.43572978668581, 38.08724126609477], [127.4353878128228, 38.087236712551714], [127.43538205079084, 38.08750699445887], [127.43504007574681, 38.087502439877184], [127.43503431237957, 38.087772721727156], [127.4346923361545, 38.08776816610682]]]}}, {"type": "Feature", "properties": {"date": "2026-08-15", "timeLocal": "18:00", "sunAzimuth": 275.93, "sunElevation": 15.42, "source": "Copernicus GLO-30, terrain-only horizon angle"}, "geometry": {"type": "Polygon", "coordinates": [[[127.41016977964603, 38.08284280922721], [127.41019319468762, 38.081761693792224], [127.41053513889909, 38.08176632008973], [127.41051172888858, 38.08284743570338], [127.41016977964603, 38.08284280922721]]]}}, {"type": "Feature", "properties": {"date": "2026-08-15", "timeLocal": "18:00", "sunAzimuth": 275.93, "sunElevation": 15.42, "source": "Copernicus GLO-30, terrain-only horizon angle"}, "geometry": {"type": "Polygon", "coordinates": [[[127.4252388138577, 38.08196431014237], [127.42525041022739, 38.08142374843302], [127.42559235535339, 38.08142833088646], [127.4255807614992, 38.081968892684294], [127.4252388138577, 38.08196431014237]]]}}, {"type": "Feature", "properties": {"date": "2026-08-15", "timeLocal": "18:00", "sunAzimuth": 275.93, "sunElevation": 15.42, "source": "Copernicus GLO-30, terrain-only horizon angle"}, "geometry": {"type": "Polygon", "coordinates": [[[127.42559815216411, 38.08115804996772], [127.42560974555283, 38.0806174880906], [127.42595168698323, 38.0806220694169], [127.42594009610991, 38.081162631382476], [127.42559815216411, 38.08115804996772]]]}}, {"type": "Feature", "properties": {"date": "2026-08-15", "timeLocal": "18:00", "sunAzimuth": 275.93, "sunElevation": 15.42, "source": "Copernicus GLO-30, terrain-only horizon angle"}, "geometry": {"type": "Polygon", "coordinates": [[[127.44001155687452, 38.078917067664854], [127.44002304322977, 38.07837650185104], [127.44036497658392, 38.078381041016925], [127.44035349274391, 38.0789216069184], [127.44001155687452, 38.078917067664854]]]}}, {"type": "Feature", "properties": {"date": "2026-08-15", "timeLocal": "18:00", "sunAzimuth": 275.93, "sunElevation": 15.42, "source": "Copernicus GLO-30, terrain-only horizon angle"}, "geometry": {"type": "Polygon", "coordinates": [[[127.42462452255471, 38.07871177208841], [127.42464192174515, 38.07790092929442], [127.42498385036663, 38.077905513161355], [127.42499544692386, 38.07736495114411], [127.42533737310794, 38.07736953392822], [127.42531418471324, 38.078450658086844], [127.42497225349906, 38.07844607512574], [127.42496645494889, 38.07871635608811], [127.42462452255471, 38.07871177208841]]]}}, {"type": "Feature", "properties": {"date": "2026-08-15", "timeLocal": "18:00", "sunAzimuth": 275.93, "sunElevation": 15.42, "source": "Copernicus GLO-30, terrain-only horizon angle"}, "geometry": {"type": "Polygon", "coordinates": [[[127.43864956241224, 38.07862861798203], [127.43867255462906, 38.07754748695044], [127.43901448390304, 38.07755202996215], [127.4390202305074, 38.07728174712738], [127.4393621586007, 38.07728628910092], [127.43934492232952, 38.07809713769717], [127.43900299046356, 38.07809259559208], [127.43899149671648, 38.0786331611692], [127.43864956241224, 38.07862861798203]]]}}, {"type": "Feature", "properties": {"date": "2026-08-15", "timeLocal": "18:00", "sunAzimuth": 275.93, "sunElevation": 15.42, "source": "Copernicus GLO-30, terrain-only horizon angle"}, "geometry": {"type": "Polygon", "coordinates": [[[127.43786792061793, 38.083214331660564], [127.43787942452735, 38.08267376679552], [127.43753747158802, 38.08266921996681], [127.43754897770522, 38.08212865513676], [127.43720702735853, 38.082124107401356], [127.43722428973031, 38.08131326018901], [127.43688234323403, 38.08130871159087], [127.43690536368267, 38.080227581965254], [127.43656342229431, 38.080223032548375], [127.4365922024106, 38.07887162043891], [127.43693413751068, 38.078876169636175], [127.43695715518692, 38.077795039535275], [127.43661522511718, 38.07779049051371], [127.43662673600832, 38.077249925471904], [127.436968663563, 38.07725447440562], [127.43696290941344, 38.07752475697704], [127.43730483830262, 38.077529304960365], [127.43728757916465, 38.078340152727186], [127.43762951190351, 38.0783446998479], [127.43761800794178, 38.078885265047575], [127.43795994327282, 38.07888981126173], [127.4379541924341, 38.07916009388567], [127.43829612909973, 38.07916463914934], [127.43829037944172, 38.07943492180395], [127.43897425551904, 38.07944400943588], [127.43895701362945, 38.08025485758378], [127.43861507177927, 38.080250314133416], [127.43860932307119, 38.08052059677912], [127.43826738004023, 38.080516052290434], [127.43823862905704, 38.08186746510151], [127.43858057837681, 38.08187200980957], [127.43856333063695, 38.08268285746944], [127.4382213775437, 38.08267831262974], [127.43820987615, 38.08321887758255], [127.43786792061793, 38.083214331660564]]]}}, {"type": "Feature", "properties": {"date": "2026-08-15", "timeLocal": "18:00", "sunAzimuth": 275.93, "sunElevation": 15.42, "source": "Copernicus GLO-30, terrain-only horizon angle"}, "geometry": {"type": "Polygon", "coordinates": [[[127.42533737310794, 38.07736953392822], [127.42534317001265, 38.07709925285555], [127.42568509501683, 38.077103834601125], [127.42567929936958, 38.077374115718044], [127.42533737310794, 38.07736953392822]]]}}, {"type": "Feature", "properties": {"date": "2026-08-15", "timeLocal": "18:00", "sunAzimuth": 275.93, "sunElevation": 15.42, "source": "Copernicus GLO-30, terrain-only horizon angle"}, "geometry": {"type": "Polygon", "coordinates": [[[127.39594318792531, 38.09211195410751], [127.39594909613832, 38.091841677571715], [127.39560710742715, 38.091837007795895], [127.3956425625945, 38.090215348573494], [127.39530058151203, 38.090210678073454], [127.39530649168806, 38.089940401535124], [127.39564847151227, 38.08994507199008], [127.39568392335845, 38.08832341221149], [127.39534195108314, 38.08831874202707], [127.39535377024883, 38.08777818875178], [127.39501180056878, 38.087773517662924], [127.39502953249828, 38.08696268778595], [127.3946875666715, 38.086958015837794], [127.39469939007836, 38.08641746261047], [127.39435742684664, 38.08641278975797], [127.39439290271623, 38.08479113002887], [127.39473485840034, 38.084795802610714], [127.39474076951048, 38.08452552589773], [127.39439881508423, 38.084520853361], [127.39441063958287, 38.08398029998554], [127.39406868775146, 38.08397562654454], [127.39407460113993, 38.08370534988209], [127.39373265064548, 38.08370067549173], [127.3937622226897, 38.082349292206366], [127.39410416689532, 38.08235396637107], [127.39411599264356, 38.08181341287397], [127.39377405095338, 38.08180873879953], [127.39379179275534, 38.08099790858993], [127.3934498549173, 38.0809932336565], [127.3934616849048, 38.080452680207486], [127.39311974966117, 38.08044800436998], [127.39312566579382, 38.080177727670744], [127.39278373188695, 38.08017305088402], [127.39280148358255, 38.07936222084236], [127.39245955352754, 38.07935754319678], [127.39247730828303, 38.078546713171406], [127.3928192345655, 38.0785513906815], [127.39283698483584, 38.07774056040145], [127.39249506232578, 38.07773588302685], [127.3925305682731, 38.07611422238014], [127.39287248323885, 38.07611889948379], [127.39286656703626, 38.076389176336505], [127.3935503997199, 38.076398527651484], [127.39354448595289, 38.076668804581246], [127.39388640367079, 38.076673478792536], [127.39388049108203, 38.076943755754186], [127.39422241013644, 38.0769484290164], [127.39421058723636, 38.077488982990225], [127.39455250888467, 38.077493655348405], [127.39452886716508, 38.078574763317626], [127.39418694048689, 38.07857009077898], [127.39417511663751, 38.0791106445939], [127.39383318752343, 38.079105970970716], [127.39382727422252, 38.07937624781319], [127.39416920459415, 38.0793809214815], [127.39414555562954, 38.080462028899476], [127.3944874911106, 38.08046670175391], [127.39448157992926, 38.080736978620415], [127.39482351674701, 38.08074165052562], [127.39481760674421, 38.08101192742399], [127.39515954489872, 38.08101659837992], [127.39514772717119, 38.08155715222713], [127.39548966792009, 38.08156182227884], [127.39547194450888, 38.08237265308561], [127.39581388910996, 38.08237732227817], [127.39580207562268, 38.08291787617331], [127.39546012850609, 38.08291320689058], [127.3954364955518, 38.08399431434161], [127.3957784476996, 38.08399898380467], [127.39576072592725, 38.08480981438917], [127.39541877000586, 38.08480514479086], [127.39540695257989, 38.085345698357486], [127.39506499422178, 38.085341027674474], [127.39505908413228, 38.08561130439283], [127.3954010437483, 38.08561597512093], [127.39538922584791, 38.08615652860809], [127.3957311880589, 38.08616119843182], [127.39572528024807, 38.08643147520063], [127.39606724379611, 38.08643614407486], [127.39604952366328, 38.08724697443704], [127.3963914910644, 38.0872516424519], [127.39636196221913, 38.0886030263494], [127.39670393598972, 38.088607693594966], [127.3966803165235, 38.08968880065486], [127.3963383377203, 38.08968413322906], [127.3963088053183, 38.091035516530695], [127.39665079041266, 38.09104018418179], [127.39664488495345, 38.09131046084745], [127.39630289860077, 38.09130579315129], [127.39629108492858, 38.091846346352774], [127.39663307379786, 38.09185101413905], [127.39662716810152, 38.092121290764986], [127.39594318792531, 38.09211195410751]]]}}, {"type": "Feature", "properties": {"date": "2026-08-15", "timeLocal": "18:00", "sunAzimuth": 275.93, "sunElevation": 15.42, "source": "Copernicus GLO-30, terrain-only horizon angle"}, "geometry": {"type": "Polygon", "coordinates": [[[127.42568509501683, 38.077103834601125], [127.42570248149322, 38.076292991171066], [127.42604440280256, 38.07629757178967], [127.42602702009854, 38.0771084153524], [127.42568509501683, 38.077103834601125]]]}}, {"type": "Feature", "properties": {"date": "2026-08-15", "timeLocal": "18:00", "sunAzimuth": 275.93, "sunElevation": 15.42, "source": "Copernicus GLO-30, terrain-only horizon angle"}, "geometry": {"type": "Polygon", "coordinates": [[[127.39938655907582, 38.075396742347735], [127.39939834299177, 38.074856186810756], [127.40008216358925, 38.07486549980588], [127.40007627418525, 38.0751357776709], [127.39973436258983, 38.07513112162548], [127.39972847184973, 38.075401399432316], [127.39938655907582, 38.075396742347735]]]}}, {"type": "Feature", "properties": {"date": "2026-08-15", "timeLocal": "18:00", "sunAzimuth": 275.93, "sunElevation": 15.42, "source": "Copernicus GLO-30, terrain-only horizon angle"}, "geometry": {"type": "Polygon", "coordinates": [[[127.42742945573252, 38.075505040109384], [127.42744682195264, 38.074694195778406], [127.4277887361052, 38.074698771160634], [127.42778294869997, 38.07496905266167], [127.42812486418731, 38.07497362709386], [127.42811907796201, 38.07524390862587], [127.42777716121728, 38.07523933414952], [127.42777137365717, 38.07550961562415], [127.42742945573252, 38.075505040109384]]]}}, {"type": "Feature", "properties": {"date": "2026-08-15", "timeLocal": "18:00", "sunAzimuth": 275.93, "sunElevation": 15.42, "source": "Copernicus GLO-30, terrain-only horizon angle"}, "geometry": {"type": "Polygon", "coordinates": [[[127.4136624991791, 38.095326480640765], [127.41366834281742, 38.09505620191938], [127.41401034953915, 38.095060819462006], [127.41401619184072, 38.09479054068283], [127.41435819738206, 38.09479515718596], [127.41436403834692, 38.094524878349], [127.41470604270788, 38.09452949381269], [127.4147352400671, 38.09317809920666], [127.41507723821377, 38.09318271345273], [127.41510642732729, 38.091831318293366], [127.41476443547272, 38.09182670427002], [127.4147702743194, 38.09155642524301], [127.41442828380134, 38.09155181026942], [127.41443412382824, 38.09128153127376], [127.41477611308797, 38.0912861462028], [127.41478195177838, 38.091015867149345], [127.41443996377699, 38.09101125226486], [127.41445164344003, 38.09047069420739], [127.41410965803338, 38.090466078417286], [127.41412718071659, 38.08965524136558], [127.41378519916286, 38.08965062471443], [127.4137968830773, 38.089110066702986], [127.4134549041182, 38.08910544914628], [127.41346659023625, 38.08856489117109], [127.41312461387172, 38.08856027270887], [127.41314214623677, 38.08774943578066], [127.41245820129113, 38.087740196139805], [127.41246404777263, 38.087469917226485], [127.41212207667527, 38.0874652959587], [127.41213377191966, 38.08692473818162], [127.41179180341669, 38.086920116008464], [127.41179765217954, 38.086649837144726], [127.41145568501292, 38.08664521402157], [127.41147323460595, 38.08583437748485], [127.41181519799852, 38.085839000474095], [127.41183859132809, 38.08475788472809], [127.41218054976713, 38.08476250654426], [127.41219224344653, 38.08422194850265], [127.41253419944799, 38.084226569235064], [127.41257511605647, 38.08233461536056], [127.41360095811564, 38.08234847065423], [127.41359511689386, 38.08261874995261], [127.4146209634299, 38.08263259642986], [127.41462680087831, 38.0823623169978], [127.4142848532126, 38.08235770254441], [127.41429069184068, 38.08208742314367], [127.41292290699047, 38.082068955563805], [127.41292875057141, 38.08179867632816], [127.41327069540894, 38.081803294670195], [127.41328822190943, 38.08099245675012], [127.41363016305199, 38.080997073964], [127.41363600380477, 38.08072679458627], [127.41397794376783, 38.08073141076116], [127.41398378318479, 38.08046113132565], [127.4143257219683, 38.08046574646158], [127.4143432359774, 38.079654907942015], [127.41468517106615, 38.079659521949914], [127.41470851695426, 38.078578403560506], [127.41436658689582, 38.0785737897308], [127.41437826188631, 38.07803323054586], [127.41403633442104, 38.07802861581096], [127.41404801161407, 38.07748805666223], [127.41370608674193, 38.07748344102215], [127.41374696325833, 38.075591483897064], [127.41408887932859, 38.07559609922519], [127.41411223058957, 38.074514980398824], [127.41342840858582, 38.0745057491049], [127.41343424872032, 38.07423546945438], [127.41309233909293, 38.074230852360735], [127.41309818040655, 38.07396057274158], [127.41275627211462, 38.073955954698356], [127.41276211460732, 38.07368567511057], [127.4137878359459, 38.07369952612403], [127.41378199722493, 38.07396980584556], [127.41446581435585, 38.07397903497291], [127.41445997807129, 38.07424931477032], [127.41514379802915, 38.07425854001011], [127.41513796418106, 38.07452881988338], [127.41547987553436, 38.07453343105654], [127.41547404286548, 38.07480371096112], [127.41615786832088, 38.07481293041392], [127.41615203808861, 38.0750832103943], [127.41649395219066, 38.07508781867391], [127.41648812313768, 38.075358098685555], [127.41717195409048, 38.075367312351126], [127.41716612747422, 38.075637592438525], [127.41750804432493, 38.07564219782445], [127.4175022188881, 38.075912477943085], [127.41784413707413, 38.075917082379256], [127.41783248848141, 38.076457642665794], [127.41817440926019, 38.07646224619663], [127.41816858610434, 38.07673252636451], [127.41885243041052, 38.0767417305323], [127.41884660969166, 38.07701201077584], [127.41918853321906, 38.07701661141275], [127.41918271367975, 38.077286891687486], [127.41986656348307, 38.0772960900673], [127.41986074638086, 38.07756637041764], [127.42054459901053, 38.077575564909104], [127.42053878434547, 38.077845845334984], [127.42088071203455, 38.07785044113364], [127.42086908498607, 38.07839100203454], [127.421211015268, 38.078395596927614], [127.4211935778845, 38.07920643831294], [127.42085164382986, 38.079201843286775], [127.42084582995551, 38.07947212367774], [127.42118776526776, 38.07947671874829], [127.42114707477259, 38.08136868142558], [127.42148901896635, 38.08137327581227], [127.42147739492599, 38.08191383654697], [127.42181934171305, 38.08191843002791], [127.42181353083397, 38.08218871041981], [127.4224974271569, 38.082197894487], [127.42249161871564, 38.08246817495434], [127.4228335682515, 38.08247276554058], [127.42280453116851, 38.08382416790063], [127.42348844305187, 38.083833346532764], [127.42350005308673, 38.08329278545114], [127.42315809962196, 38.08328819672095], [127.42316971186175, 38.082747635675084], [127.42351166281082, 38.08275222431667], [127.4235058579876, 38.08302250489052], [127.42418976263451, 38.0830316792788], [127.42418396024932, 38.08330195992801], [127.42486786772248, 38.08331113042685], [127.42486206777538, 38.083581411151386], [127.42452011274212, 38.08357682635496], [127.4245143114595, 38.08384710702201], [127.42417235524597, 38.083842521186774], [127.42416655262784, 38.084112801796344], [127.42348263791791, 38.08410362705374], [127.42347683270629, 38.08437390756151], [127.42279291579129, 38.08436472875214], [127.42278130010318, 38.0849052895508], [127.42312326103772, 38.084909879541385], [127.42308841965603, 38.086531561886055], [127.42274645117347, 38.08652697162958], [127.42273483424172, 38.087067532216764], [127.42239286332071, 38.08706294087701], [127.42238124356183, 38.0876035013227], [127.42203927020235, 38.087598908899636], [127.42203345894818, 38.0878691890583], [127.42134950994627, 38.08786000113951], [127.42135532371675, 38.08758972106954], [127.42101335059063, 38.08758512566252], [127.42101916554141, 38.087314845623695], [127.4213611374094, 38.08731944098635], [127.42136695102427, 38.087049160889954], [127.42068300988228, 38.087039969258726], [127.42067719375122, 38.087310249266395], [127.42033522203889, 38.087305651914455], [127.42032358702703, 38.087846211801356], [127.41998161287628, 38.08784161336598], [127.41998743167927, 38.08757133347353], [127.41964545886454, 38.0875667340879], [127.41963381866444, 38.088107293770776], [127.41929184341133, 38.08810269330165], [127.4192860219363, 38.08837297307885], [127.41962799844758, 38.08837757359236], [127.41960471680115, 38.08945869274658], [127.41926273525706, 38.089454092055384], [127.4192569133925, 38.089724371766465], [127.42028286203309, 38.08973817098912], [127.42029449813494, 38.08919761128728], [127.42063647865443, 38.089202208949935], [127.42064811192843, 38.08866164910645], [127.42099009000933, 38.08866624568563], [127.42099590527138, 38.08839596569968], [127.42202183620644, 38.088409749336], [127.42202764761619, 38.08813946920377], [127.42373752777232, 38.088162421815696], [127.42374913777705, 38.08762186106837], [127.42340716410669, 38.08761727262394], [127.42341297025064, 38.08734699227476], [127.4237549426629, 38.08735158067489], [127.42377235685433, 38.08654073941515], [127.42343038821633, 38.08653615114792], [127.42344780548275, 38.08572530990212], [127.42378977034663, 38.08572989803646], [127.42380137895314, 38.08518933705128], [127.42414334137871, 38.085193924102455], [127.42414914430748, 38.08492364354576], [127.42449110555272, 38.084928229558095], [127.42447370030742, 38.08573907132139], [127.42481566540427, 38.08574365647197], [127.42480986475859, 38.086013937077574], [127.4251518311911, 38.08601852127781], [127.4251460317258, 38.08628880191447], [127.42582996733974, 38.08629796741962], [127.42584156116055, 38.08575740595611], [127.42618352656781, 38.0857619871283], [127.4262067082466, 38.084680863865835], [127.42586474787127, 38.08467628287056], [127.42587054435504, 38.08440600206613], [127.42552858531523, 38.084401420120535], [127.42554018056585, 38.08386085856053], [127.42656605037047, 38.083874601148295], [127.42656025655766, 38.084144882067605], [127.42690221457221, 38.08414946098534], [127.42689642193982, 38.08441974193563], [127.42723838128978, 38.084424319903036], [127.42722679830834, 38.08496488185238], [127.42756876025176, 38.08496945891361], [127.42755138897229, 38.08578030187111], [127.42686745761502, 38.0857711464889], [127.42685587134241, 38.086311708217735], [127.42719783949838, 38.08631628649454], [127.42719204750385, 38.086586567383335], [127.42753401699541, 38.086591144709715], [127.42751085327461, 38.08767226830954], [127.42716887875065, 38.087667690806384], [127.42715729390896, 38.088208252438655], [127.42749927094926, 38.088212830030194], [127.42749347967032, 38.088483110870676], [127.42715150137184, 38.08847853323495], [127.4271457087572, 38.08874881401806], [127.42646174987641, 38.08873965567408], [127.42645595466783, 38.08900993635555], [127.42577199358084, 38.089000773944306], [127.42576619577824, 38.08927105452412], [127.42542421409289, 38.08926647178218], [127.42541841495444, 38.08953675230452], [127.42576039789805, 38.0895413350907], [127.42574880190485, 38.09008189618422], [127.42540681644473, 38.09007731330956], [127.4253720190529, 38.09169899600752], [127.42503002612037, 38.091694411872574], [127.42501842385202, 38.092234972577685], [127.42467642848031, 38.09223038735939], [127.42467062597126, 38.09250066764785], [127.42432862941877, 38.09249608139048], [127.42432282557363, 38.092766361621436], [127.42398082784037, 38.09276177432495], [127.42399824291809, 38.09195093372526], [127.42365624903778, 38.09194634556681], [127.42363883018479, 38.092757186033616], [127.42329683260695, 38.09275259674743], [127.42329102490875, 38.09302287683229], [127.42294902615016, 38.09301828650696], [127.42293159881375, 38.0938291265493], [127.42258959635744, 38.09382453509614], [127.42258378583129, 38.09409481503948], [127.4218997786349, 38.094085629059855], [127.42188815231516, 38.09462618872956], [127.42154614631656, 38.09462159415871], [127.42152870247769, 38.095432433431036], [127.4136624991791, 38.095326480640765]], [[127.41574956358299, 38.093732497109634], [127.4164335654569, 38.09374171881592], [127.4164452315814, 38.09320116048856], [127.41678723011853, 38.09320576976042], [127.41679889341391, 38.09266521129117], [127.41714088951217, 38.09266981947919], [127.41714671978438, 38.092399540180246], [127.41748871470224, 38.09240414732896], [127.41748288568846, 38.092674426672396], [127.41782488194276, 38.092679032870755], [127.4178365373755, 38.09213847408176], [127.41749454363804, 38.09213386797233], [127.4175003724958, 38.09186358860247], [127.41784236497489, 38.091868194667434], [127.41785401993971, 38.0913276357991], [127.41819600998005, 38.09133224078034], [127.41820183608714, 38.09106196128189], [127.41854382494711, 38.09106656522391], [127.41856129902564, 38.09025572651587], [127.41821931394058, 38.09025112270719], [127.41823096545309, 38.0897105635913], [127.41788898296252, 38.089705958876785], [127.41788315598701, 38.08997623839689], [127.41754117231615, 38.08997163264319], [127.41752368714687, 38.090782470990774], [127.41718169977916, 38.090777864108915], [127.41717586997507, 38.09104814348719], [127.41683388142708, 38.091043535566094], [127.41682221906818, 38.09158409419401], [127.41648022808154, 38.09157948518914], [127.41646273018273, 38.09239032289836], [127.41612073549898, 38.09238571276518], [127.41611490145152, 38.092655991930634], [127.41577290558745, 38.092651380758134], [127.4157612347414, 38.09319193896034], [127.41541923643851, 38.093187326703955], [127.41541339963989, 38.09345760574069], [127.41575539920123, 38.0934622180416], [127.41574956358299, 38.093732497109634]], [[127.41587792914619, 38.08778635455813], [127.4165618756546, 38.087795574306], [127.41656770703878, 38.087525294858025], [127.41690967915194, 38.08752990319549], [127.41691550919998, 38.08725962368981], [127.41725748013306, 38.087264230988154], [127.41731576374255, 38.0845614347594], [127.41765772217354, 38.08456604061839], [127.41766354884761, 38.08429576087833], [127.41834746342768, 38.0843049695238], [127.41835328750795, 38.08403468968161], [127.41937915618887, 38.08404849505752], [127.4193733358823, 38.084318775033], [127.4214250828941, 38.08434635919894], [127.42143089565323, 38.084076078957146], [127.42108893888125, 38.084071484126866], [127.42109475282051, 38.08380120391622], [127.4204108420258, 38.083792011360806], [127.42040502557079, 38.08406229148271], [127.4200630690323, 38.08405769366884], [127.42006888674518, 38.083787413591324], [127.41972693154246, 38.08378281482733], [127.41973275043539, 38.08351253478101], [127.41870688906802, 38.083498732655194], [127.41871271165665, 38.0832284527289], [127.4183707592812, 38.083223850075726], [127.41837658304975, 38.082953570180656], [127.41871853416735, 38.08295817278939], [127.41872435660014, 38.082687892836674], [127.41804045695848, 38.08267868671359], [127.4180288069837, 38.08321924642805], [127.41768685476411, 38.08321464178589], [127.41769268104832, 38.08294436197972], [127.41735073016459, 38.082939756387546], [127.41736238501468, 38.08239919682448], [127.41770433338283, 38.08240380232773], [127.41771015943313, 38.08213352248192], [127.41736821232277, 38.08212891702313], [127.41737403955288, 38.08185863720855], [127.41703209377826, 38.081854030799775], [127.4170262652904, 38.082124310569874], [127.416684318336, 38.08211970312219], [127.41666099857332, 38.08320082189244], [127.41631904666575, 38.08319621327231], [127.41629572062328, 38.08427733165304], [127.41595376376226, 38.084272721860394], [127.41594793079864, 38.08454300137803], [127.41628988891758, 38.08454761121517], [127.41625489704434, 38.086169288310295], [127.41591293137759, 38.086164678206096], [127.4159012642794, 38.086705237043], [127.41624323246224, 38.086709847236214], [127.41622573500366, 38.087520685525924], [127.4158837630466, 38.08751607519918], [127.41587792914619, 38.08778635455813]], [[127.41215716146938, 38.08584362246876], [127.41284108864582, 38.08585286347436], [127.4128644668799, 38.08477174719299], [127.41320642555362, 38.08477636602554], [127.4132122686587, 38.084506086877546], [127.41252835390532, 38.08449684830709], [127.41252250828441, 38.08476712736589], [127.41218054976713, 38.08476250654426], [127.41215716146938, 38.08584362246876]], [[127.41355422615267, 38.08451070467097], [127.41389618372484, 38.084515321469866], [127.41390202423592, 38.08424504221948], [127.41356006792165, 38.08424042546516], [127.41355422615267, 38.08451070467097]], [[127.42212061959604, 38.08381498529043], [127.42246257534342, 38.08381957709279], [127.42248581019665, 38.08273845540847], [127.42214385948073, 38.08273386378343], [127.42212061959604, 38.08381498529043]], [[127.4211121941714, 38.082990363204964], [127.42145414591188, 38.0829949578578], [127.42147158278912, 38.0821841168945], [127.42112963482207, 38.082179522374744], [127.4211121941714, 38.082990363204964]], [[127.41771015943313, 38.08213352248192], [127.41839405388775, 38.08214273041613], [127.41840570072344, 38.081602170507026], [127.41806375597267, 38.08159756712603], [127.41805793133604, 38.081867847042744], [127.4177159854055, 38.081863242622866], [127.41771015943313, 38.08213352248192]], [[127.41874182343099, 38.08187705289917], [127.4194257158376, 38.08188625477782], [127.41943735497097, 38.08134569457571], [127.41909541124421, 38.08134109422245], [127.41908959045873, 38.0816113742857], [127.41874764555212, 38.081606772893586], [127.41874182343099, 38.08187705289917]], [[127.41539821106711, 38.078317348517466], [127.41574014010224, 38.07832195931967], [127.4157634693384, 38.07724084013149], [127.41542154533325, 38.07723622950735], [127.41539821106711, 38.078317348517466]], [[127.41576930145231, 38.07697056030138], [127.41611122427807, 38.076975169886744], [127.4161170550565, 38.0767048899989], [127.41577513348818, 38.07670028045806], [127.41576930145231, 38.07697056030138]], [[127.41612288575692, 38.07643461009786], [127.41646480614584, 38.07643921859994], [127.4164706355108, 38.076168938641175], [127.4161287163793, 38.07616433018358], [127.41612288575692, 38.07643461009786]]]}}, {"type": "Feature", "properties": {"date": "2026-08-15", "timeLocal": "18:00", "sunAzimuth": 275.93, "sunElevation": 15.42, "source": "Copernicus GLO-30, terrain-only horizon angle"}, "geometry": {"type": "Polygon", "coordinates": [[[127.41136524885961, 38.07501859008899], [127.4113710966943, 38.074748310732566], [127.4110291850216, 38.07474368758465], [127.41105842930747, 38.07339229082729], [127.41174224015853, 38.07340153568261], [127.41171885494435, 38.074482653471996], [127.41206076551624, 38.07448727458692], [127.41204907495435, 38.07502783349153], [127.41136524885961, 38.07501859008899]]]}}, {"type": "Feature", "properties": {"date": "2026-08-15", "timeLocal": "18:00", "sunAzimuth": 275.93, "sunElevation": 15.42, "source": "Copernicus GLO-30, terrain-only horizon angle"}, "geometry": {"type": "Polygon", "coordinates": [[[127.4366555118884, 38.075898512636336], [127.43666126683338, 38.075628230029615], [127.43631934690052, 38.075623680365176], [127.43633661504553, 38.074812832597594], [127.43599469896188, 38.07480828207072], [127.43598894173319, 38.07507856462917], [127.4356470244692, 38.075074013064125], [127.43565854136425, 38.07453344802191], [127.43600045611349, 38.07453799949906], [127.43601197018565, 38.073997434316134], [127.4363538824973, 38.0740019847112], [127.43635963816052, 38.073731702055994], [127.43670154929191, 38.07373625141294], [127.436695794886, 38.07400653411207], [127.43703770735168, 38.07401108251875], [127.43702620082351, 38.074551647965244], [127.43736811588084, 38.07455619546554], [127.43734510693012, 38.07563732637575], [127.43700318684326, 38.075632778699806], [127.4369974331557, 38.07590306135046], [127.4366555118884, 38.075898512636336]]]}}, {"type": "Feature", "properties": {"date": "2026-08-15", "timeLocal": "18:00", "sunAzimuth": 275.93, "sunElevation": 15.42, "source": "Copernicus GLO-30, terrain-only horizon angle"}, "geometry": {"type": "Polygon", "coordinates": [[[127.40104903521092, 38.07758224124513], [127.40105492155192, 38.0773119633644], [127.4007129996612, 38.07730730994207], [127.40076598450193, 38.074874808824326], [127.40110789507645, 38.07487946184229], [127.40112555150026, 38.07406862776336], [127.4007836446975, 38.07406397488017], [127.40080130418413, 38.07325314081689], [127.40114320721526, 38.073257793565304], [127.40113143681734, 38.07379834971057], [127.40147334244163, 38.0738030015547], [127.40146745838176, 38.07407327965241], [127.40180936534202, 38.07407793054731], [127.40179171646177, 38.07488876489573], [127.4021336272725, 38.07489341493119], [127.4021218634733, 38.07543397118708], [127.40246377687735, 38.07543862031815], [127.402452015278, 38.07597917661089], [127.40279393127544, 38.075983824837515], [127.402782171876, 38.07652438116709], [127.40244025336385, 38.07651973285069], [127.40242849113488, 38.07706028903756], [127.40208657018661, 38.07705563963715], [127.40208068769665, 38.07732591766586], [127.40173876556966, 38.0773212672263], [127.40173288174354, 38.07759154519685], [127.40104903521092, 38.07758224124513]]]}}, {"type": "Feature", "properties": {"date": "2026-08-15", "timeLocal": "18:00", "sunAzimuth": 275.93, "sunElevation": 15.42, "source": "Copernicus GLO-30, terrain-only horizon angle"}, "geometry": {"type": "Polygon", "coordinates": [[[127.41585094285304, 38.07318664129175], [127.41586260466175, 38.072646081221684], [127.4162045073705, 38.07265069009496], [127.41619284807618, 38.07319125025403], [127.41585094285304, 38.07318664129175]]]}}, {"type": "Feature", "properties": {"date": "2026-08-15", "timeLocal": "18:00", "sunAzimuth": 275.93, "sunElevation": 15.42, "source": "Copernicus GLO-30, terrain-only horizon angle"}, "geometry": {"type": "Polygon", "coordinates": [[[127.39360953303775, 38.07369575762547], [127.39361544593432, 38.07342548055005], [127.3932735433828, 38.0734208058862], [127.39330311296452, 38.07206942053608], [127.39364500923038, 38.07207409497425], [127.3936390967294, 38.0723443721159], [127.39398099433147, 38.07234904560514], [127.39395143692553, 38.073700431340356], [127.39360953303775, 38.07369575762547]]]}}, {"type": "Feature", "properties": {"date": "2026-08-15", "timeLocal": "18:00", "sunAzimuth": 275.93, "sunElevation": 15.42, "source": "Copernicus GLO-30, terrain-only horizon angle"}, "geometry": {"type": "Polygon", "coordinates": [[[127.39942780140191, 38.07350479773665], [127.39945136671093, 38.07242368623912], [127.39979326565543, 38.072428342829085], [127.3997991555285, 38.07215806487665], [127.4001410532947, 38.07216272042758], [127.40014694183184, 38.07189244241695], [127.40048883841975, 38.07189709692888], [127.4004711763433, 38.072707931055874], [127.40012927598403, 38.07270327640912], [127.40011749835816, 38.07324383233773], [127.39977559556338, 38.07323917660698], [127.39976970537506, 38.07350945450647], [127.39942780140191, 38.07350479773665]]]}}, {"type": "Feature", "properties": {"date": "2026-08-15", "timeLocal": "18:00", "sunAzimuth": 275.93, "sunElevation": 15.42, "source": "Copernicus GLO-30, terrain-only horizon angle"}, "geometry": {"type": "Polygon", "coordinates": [[[127.41689414003778, 38.07238962467083], [127.41689996697563, 38.072119344469264], [127.4165580666252, 38.07211473767319], [127.4165638947422, 38.0718444575029], [127.41724769300673, 38.07185367001201], [127.41723604172333, 38.07239423051728], [127.41689414003778, 38.07238962467083]]]}}, {"type": "Feature", "properties": {"date": "2026-08-15", "timeLocal": "18:00", "sunAzimuth": 275.93, "sunElevation": 15.42, "source": "Copernicus GLO-30, terrain-only horizon angle"}, "geometry": {"type": "Polygon", "coordinates": [[[127.39261932067025, 38.07206006867755], [127.39263706901201, 38.071249237579465], [127.3929789613484, 38.0712539138703], [127.39297304657069, 38.07152419096139], [127.39331494024327, 38.071528866303346], [127.39330311296452, 38.07206942053608], [127.39261932067025, 38.07206006867755]]]}}, {"type": "Feature", "properties": {"date": "2026-08-15", "timeLocal": "18:00", "sunAzimuth": 275.93, "sunElevation": 15.42, "source": "Copernicus GLO-30, terrain-only horizon angle"}, "geometry": {"type": "Polygon", "coordinates": [[[127.4086885230158, 38.072278786125544], [127.40871195098258, 38.07119766952088], [127.40905384576367, 38.071202299046874], [127.40905970130234, 38.070932019817946], [127.40940159490472, 38.07093664830521], [127.40937817730818, 38.072017765320375], [127.40903627867745, 38.072013136654334], [127.40903042282532, 38.07228341583036], [127.4086885230158, 38.072278786125544]]]}}, {"type": "Feature", "properties": {"date": "2026-08-15", "timeLocal": "18:00", "sunAzimuth": 275.93, "sunElevation": 15.42, "source": "Copernicus GLO-30, terrain-only horizon angle"}, "geometry": {"type": "Polygon", "coordinates": [[[127.40705118140679, 38.08469307487548], [127.40706877841356, 38.08388223980425], [127.40672682492385, 38.08387760320437], [127.40672095807555, 38.08414788152991], [127.40637900340653, 38.084143243890765], [127.40638487151266, 38.08387296561], [127.40604291818002, 38.08386832702113], [127.40604878746548, 38.08359804877191], [127.4057068354692, 38.08359340923334], [127.40571857632017, 38.083052852784796], [127.40640247535998, 38.083062130688305], [127.40640834315204, 38.08279185235462], [127.40675029153192, 38.08279648976989], [127.40676789066369, 38.081985654555105], [127.40642594605706, 38.08198101727415], [127.40642007850057, 38.08225129564753], [127.40607813271473, 38.08224665732737], [127.40607226382195, 38.08251693564274], [127.40573031685688, 38.082512296283326], [127.40575379698768, 38.08143118312162], [127.40541185513212, 38.08142654294697], [127.40543533903676, 38.08034542975276], [127.4050934022904, 38.080340788762946], [127.40510514628659, 38.079800232176076], [127.40476321213403, 38.07979559028152], [127.40478083131167, 38.07898475543641], [127.40512276169149, 38.07898939719651], [127.4051345049019, 38.078448840477314], [127.40479257703713, 38.07844419880684], [127.40478670421369, 38.07871447712825], [127.40444477517, 38.07870983441865], [127.40443890101044, 38.07898011268199], [127.40341311057844, 38.07896617845281], [127.40343074413897, 38.07815534402669], [127.40377267043179, 38.07815998962951], [127.40380205183901, 38.0768085984304], [127.40414397192319, 38.076813242814715], [127.40416747060407, 38.07573212943785], [127.40382555554937, 38.07572748523292], [127.40387255919602, 38.0735652582028], [127.40421446419255, 38.07356990204901], [127.40423795910029, 38.072488788037], [127.4045798591467, 38.07249343070977], [127.40460334776843, 38.071412316306755], [127.40494524286501, 38.07141695780616], [127.40495111356694, 38.07114667912751], [127.40529300748499, 38.07115131958804], [127.40531648447903, 38.070070204561915], [127.40497459558905, 38.070065564280604], [127.40498046589822, 38.069795285535804], [127.4060061290327, 38.069809203263326], [127.40600026249453, 38.070079482142525], [127.40668404082405, 38.07008875574709], [127.40667817672134, 38.0703590347026], [127.40702006726083, 38.07036367005863], [127.4070142043367, 38.070633949045664], [127.40735609621164, 38.07063858345243], [127.40733851073968, 38.07144942046842], [127.40768040646425, 38.071454054015376], [127.4076628240576, 38.072264891046544], [127.40800472363195, 38.07226952373363], [127.40799886393, 38.07253980276229], [127.4083407648399, 38.07254443450002], [127.40833490631672, 38.07281471356018], [127.40867680856216, 38.07281934434851], [127.40865923629384, 38.07363018158376], [127.40831733027682, 38.073625550661276], [127.40831147144003, 38.073895829668515], [127.40796956424418, 38.073891197707184], [127.40796370407176, 38.07416147665648], [127.40762179569707, 38.07415684365625], [127.40760421093746, 38.07496768029056], [127.4072622988694, 38.07496304616194], [127.40725057278948, 38.075503603762506], [127.4075924873722, 38.075508237980614], [127.40756317708626, 38.07685963197422], [127.4079050980343, 38.07686426542182], [127.40789337588569, 38.07740482301614], [127.40823529942705, 38.07740945555893], [127.40819427823874, 38.07930140703546], [127.4071684814422, 38.07928750548475], [127.40717434561992, 38.079017226876296], [127.40683241476889, 38.07901259108214], [127.40683828012568, 38.07874231250523], [127.4075221393911, 38.07875158300969], [127.40753386483914, 38.07821102563714], [127.40787579207448, 38.07821565930841], [127.40788165342332, 38.077945380557544], [127.40719780154603, 38.077936112310184], [127.40720366533141, 38.07766583363558], [127.40754558997332, 38.07767046821166], [127.40755731479375, 38.07712991073326], [127.4072153926667, 38.07712527624668], [127.40722711968816, 38.07658471880487], [127.40688520015443, 38.076580083413546], [127.40691452262175, 38.07522868980128], [127.4065726094533, 38.07522405363954], [127.40656087818712, 38.07576461103461], [127.4062189625825, 38.07575997378913], [127.40620722848765, 38.076300531041724], [127.40586531044679, 38.076295892712466], [127.40585944202421, 38.07656617127412], [127.40551752280449, 38.07656153190584], [127.40551165304596, 38.07683181040949], [127.40585357352307, 38.076836449822565], [127.40584183628523, 38.07737700687974], [127.40618375935574, 38.07738164538815], [127.40616615668239, 38.07819248100905], [127.40582422983947, 38.07818784236628], [127.40580662268685, 38.07899867773374], [127.40614855330234, 38.07900331651086], [127.40613094921558, 38.07981415189361], [127.40647288368234, 38.07981878981075], [127.40646701675398, 38.08008906828998], [127.40886056902188, 38.0801215061812], [127.40887228519362, 38.07958094858312], [127.40921421903039, 38.079585578500705], [127.40923178892736, 38.078774741870276], [127.40888985886329, 38.078770112086794], [127.40890157425113, 38.07822955435644], [127.40924350180013, 38.078234184050515], [127.40926692660526, 38.07715306825226], [127.40960884920274, 38.07715769677326], [127.40962055862028, 38.0766171387054], [127.41098823973401, 38.07663564248945], [127.41100578818406, 38.075824804752465], [127.41134770488608, 38.07582942807894], [127.4113535529555, 38.07555914876218], [127.41169546847843, 38.07556377104981], [127.41170131521228, 38.07529349167519], [127.41204322955608, 38.075298112923974], [127.41204907495435, 38.07502783349153], [127.41273290136198, 38.07503707291729], [127.41272121551653, 38.0755776319474], [127.41237929975894, 38.07557301264241], [127.41236761108601, 38.07611357153043], [127.41202569289189, 38.076108951142], [127.41201984718072, 38.07637923052155], [127.41167792780745, 38.07637460909429], [127.41166623363557, 38.07691516772448], [127.41132431182571, 38.0769105452137], [127.41131261482596, 38.07745110370174], [127.41097069057948, 38.077446480107405], [127.41095314072038, 38.07825731760633], [127.41061121277968, 38.07825269288379], [127.4105936584434, 38.07906353012971], [127.41025172680838, 38.07905890427885], [127.4102341679946, 38.07986974127176], [127.40989223266516, 38.07986511429255], [127.40988637831296, 38.08013539321906], [127.40954444180423, 38.08013076520081], [127.40953858611604, 38.08040104406939], [127.40919664842805, 38.08039641501208], [127.40919079140384, 38.08066669382276], [127.40816497503724, 38.0806528005504], [127.40815911416165, 38.080923079213704], [127.40781717427197, 38.0809184460894], [127.40780544977011, 38.08145900328686], [127.40746350744348, 38.08145436907867], [127.4074517801124, 38.081994926133724], [127.4071098353488, 38.08199029084163], [127.40708050935893, 38.083341683023946], [127.40776441154243, 38.083350953061185], [127.40777027438175, 38.08308067456168], [127.40811222433338, 38.08308530804385], [127.40813566987501, 38.082004193734605], [127.40847761487396, 38.08200882604339], [127.4084893346587, 38.08146826871996], [127.40917321986096, 38.08147753017539], [127.40917907712031, 38.081207251404415], [127.40986296012069, 38.0812165087928], [127.40987466937351, 38.08067595103239], [127.41021660847586, 38.08068057814561], [127.4102224617271, 38.08041029920088], [127.41056439965014, 38.08041492527506], [127.41055269558467, 38.08095548324061], [127.41021075514631, 38.0809508570771], [127.41019904825218, 38.08149141490041], [127.40985710537674, 38.081486787653155], [127.40985125055447, 38.08175706650029], [127.40950930649969, 38.08175243821393], [127.40950345034129, 38.082022717003156], [127.40916150510712, 38.08201808767767], [127.40915564761264, 38.082288366408974], [127.40881370119911, 38.08228373604435], [127.40880784236843, 38.08255401471772], [127.40846589477555, 38.08254938331393], [127.40844831403976, 38.08336021912051], [127.40810636275187, 38.08335558658809], [127.40807705366771, 38.084706979110834], [127.40705118140679, 38.08469307487548]], [[127.40514624779802, 38.077908283705185], [127.40548817322635, 38.077912924291745], [127.40551165304596, 38.07683181040949], [127.40516973264741, 38.076827170002154], [127.40514624779802, 38.077908283705185]]]}}, {"type": "Feature", "properties": {"date": "2026-08-15", "timeLocal": "18:00", "sunAzimuth": 275.93, "sunElevation": 15.42, "source": "Copernicus GLO-30, terrain-only horizon angle"}, "geometry": {"type": "Polygon", "coordinates": [[[127.41114030289904, 38.06960837814776], [127.41114615042582, 38.069338098571464], [127.41148803695593, 38.06934272082666], [127.41148219068613, 38.06961300044759], [127.41114030289904, 38.06960837814776]]]}}, {"type": "Feature", "properties": {"date": "2026-08-15", "timeLocal": "18:00", "sunAzimuth": 275.93, "sunElevation": 15.42, "source": "Copernicus GLO-30, terrain-only horizon angle"}, "geometry": {"type": "Polygon", "coordinates": [[[127.39701677458727, 38.07428300505171], [127.39703447579828, 38.07347217251261], [127.39635066919332, 38.07346284207299], [127.39636247463454, 38.07292228716091], [127.39670437538322, 38.072926952787675], [127.3967279802894, 38.071845842624434], [127.39638608456917, 38.07184117717786], [127.39640379119083, 38.071030344551566], [127.39606189932076, 38.07102567824612], [127.39605599593547, 38.0712959557564], [127.39571410288737, 38.071291288411864], [127.39570819816605, 38.071561565863824], [127.3953663039399, 38.07155689748017], [127.39537220991828, 38.07128662007327], [127.3950303170282, 38.071281950740655], [127.39504213126193, 38.07074139597732], [127.39470024096495, 38.07073672574086], [127.39471205739649, 38.07019617101475], [127.39505394517947, 38.070200841161025], [127.39506575878083, 38.069660286291764], [127.39540764412895, 38.069664955353865], [127.39544307549478, 38.06804329015782], [127.39612683134533, 38.06805262475926], [127.39612092882892, 38.06832290241517], [127.39646280812956, 38.06832756827007], [127.39645690679104, 38.0685978459578], [127.3967987874275, 38.068602510863805], [127.39679288726693, 38.06887278858335], [127.39713476923922, 38.068877452540455], [127.39712887025658, 38.06914773029178], [127.3974707535647, 38.06915239329996], [127.39746485576008, 38.069422671083075], [127.39814862512695, 38.06943199420758], [127.39814272975728, 38.06970227206748], [127.39848461581599, 38.06970693218377], [127.39847872162437, 38.069977210075436], [127.3981368343087, 38.06997254991415], [127.39813093878125, 38.070242827747585], [127.3984728273539, 38.07024748795387], [127.3984610385763, 38.070788043671], [127.39880292974185, 38.07079270297327], [127.39879114316281, 38.071333258727435], [127.3984492494832, 38.07132859933519], [127.39843156525197, 38.07213943273221], [127.39808966787999, 38.072134772210916], [127.39807787548385, 38.07267532765274], [127.39773597567654, 38.072670666047365], [127.39770058905133, 38.074292331785045], [127.39701677458727, 38.07428300505171]], [[127.39706397623755, 38.07212078468266], [127.39740587337276, 38.07212544818614], [127.39743536555304, 38.07077405980009], [127.3970934747031, 38.07076939652174], [127.39708757516787, 38.071039674180405], [127.39674568313986, 38.071035009862996], [127.3967279802894, 38.071845842624434], [127.39706987608858, 38.07185050707695], [127.39706397623755, 38.07212078468266]]]}}, {"type": "Feature", "properties": {"date": "2026-08-15", "timeLocal": "18:00", "sunAzimuth": 275.93, "sunElevation": 15.42, "source": "Copernicus GLO-30, terrain-only horizon angle"}, "geometry": {"type": "Polygon", "coordinates": [[[127.39269622500571, 38.068546466391766], [127.39270805525456, 38.068005911995314], [127.39304993250772, 38.068010587744325], [127.39303810477257, 38.06855114223109], [127.39269622500571, 38.068546466391766]]]}}, {"type": "Feature", "properties": {"date": "2026-08-15", "timeLocal": "18:00", "sunAzimuth": 275.93, "sunElevation": 15.42, "source": "Copernicus GLO-30, terrain-only horizon angle"}, "geometry": {"type": "Polygon", "coordinates": [[[127.4265427031825, 38.06900455280499], [127.42656007513872, 38.06819370792063], [127.42690195888777, 38.068198285224575], [127.42688459070239, 38.06900913024155], [127.4265427031825, 38.06900455280499]]]}}, {"type": "Feature", "properties": {"date": "2026-08-15", "timeLocal": "18:00", "sunAzimuth": 275.93, "sunElevation": 15.42, "source": "Copernicus GLO-30, terrain-only horizon angle"}, "geometry": {"type": "Polygon", "coordinates": [[[127.4121542787486, 38.07016280144591], [127.41217181025081, 38.06935196235507], [127.41182992356427, 38.069347342087845], [127.41183576849889, 38.06907706240908], [127.41149388314751, 38.0690724411925], [127.41151726713152, 38.06799132252363], [127.4122010278572, 38.06800056360587], [127.41221271435238, 38.06746000401363], [127.41255459231878, 38.06746462297463], [127.41254875036714, 38.067734902821975], [127.41289062966857, 38.06773952083364], [127.41287894804452, 38.06828008057783], [127.41322082993786, 38.06828469768472], [127.4132149902655, 38.06855497758156], [127.41389875680045, 38.068564208902636], [127.41389291956378, 38.06883448887539], [127.41355103500034, 38.068829873667276], [127.41353935777877, 38.069370433483996], [127.41319747077955, 38.06936581719276], [127.41319163079461, 38.0696360970367], [127.41284974261654, 38.069631479706885], [127.41284390129645, 38.06990175949303], [127.41250201193958, 38.06989714112461], [127.41249616928432, 38.07016742085293], [127.4121542787486, 38.07016280144591]]]}}, {"type": "Feature", "properties": {"date": "2026-08-15", "timeLocal": "18:00", "sunAzimuth": 275.93, "sunElevation": 15.42, "source": "Copernicus GLO-30, terrain-only horizon angle"}, "geometry": {"type": "Polygon", "coordinates": [[[127.41932817880216, 38.070529880853506], [127.41937471736439, 38.06836763564191], [127.41903283406704, 38.068363036426305], [127.41904447044297, 38.067822475080064], [127.41938635122652, 38.067827074206846], [127.41939216804082, 38.06755679346949], [127.41973404764532, 38.067561391557916], [127.4197282320879, 38.06783167233967], [127.42007011302712, 38.067836269478555], [127.4200352255899, 38.06945795415791], [127.42037711414856, 38.06946255056914], [127.42037130056033, 38.06973283134717], [127.42071319045378, 38.06973742680876], [127.42069575299351, 38.07054826919665], [127.41932817880216, 38.070529880853506]]]}}, {"type": "Feature", "properties": {"date": "2026-08-15", "timeLocal": "18:00", "sunAzimuth": 275.93, "sunElevation": 15.42, "source": "Copernicus GLO-30, terrain-only horizon angle"}, "geometry": {"type": "Polygon", "coordinates": [[[127.43580247654798, 38.06777638053847], [127.43580823295383, 38.06750609766752], [127.43615011501784, 38.067510648002134], [127.4361443598689, 38.067780930917024], [127.43580247654798, 38.06777638053847]]]}}, {"type": "Feature", "properties": {"date": "2026-08-15", "timeLocal": "18:00", "sunAzimuth": 275.93, "sunElevation": 15.42, "source": "Copernicus GLO-30, terrain-only horizon angle"}, "geometry": {"type": "Polygon", "coordinates": [[[127.43430240978327, 38.07397466742793], [127.43433122504716, 38.07262325533873], [127.43467313068713, 38.072627810484825], [127.43467889225134, 38.072357527983385], [127.4350207967112, 38.07236208209138], [127.43503231709393, 38.07182151696096], [127.43469041514845, 38.071816962940915], [127.43468465373844, 38.07208724546875], [127.43434275061287, 38.07208269041063], [127.43433698786856, 38.07235297288128], [127.43399508356292, 38.07234841678503], [127.43398931948428, 38.07261869919849], [127.43364741399856, 38.07261414206411], [127.43367047487905, 38.07153301250707], [127.43401237533601, 38.07153756946543], [127.43401813910612, 38.07126728699917], [127.43367623990628, 38.0712627300848], [127.43368776972933, 38.07072216520065], [127.43402966641494, 38.070726722027025], [127.43403542995365, 38.07045643952114], [127.43437732545928, 38.07046099530944], [127.43439461184151, 38.0696501475806], [127.43405272010708, 38.069645591924264], [127.4340469567997, 38.069915874469764], [127.43336317104811, 38.06990676008699], [127.43337470261383, 38.069366195158814], [127.43303281236783, 38.069361636564395], [127.43305011290869, 38.06855078920516], [127.43270822651081, 38.068546229748804], [127.4327139944604, 38.068275947313346], [127.43237210939668, 38.06827138690702], [127.43239518545079, 38.0671902572093], [127.43273706548688, 38.067194817439464], [127.43273129784602, 38.06746509992775], [127.43341506066349, 38.06747421749429], [127.43340929545926, 38.06774450005741], [127.43375117824064, 38.067749057393755], [127.43373965011463, 38.068289622568386], [127.43408153548698, 38.06829417899875], [127.43407577256522, 38.068564461610265], [127.43441765927169, 38.06856901709064], [127.43441189752978, 38.06883929973293], [127.43475378557032, 38.06884385426329], [127.4347480250083, 38.069114136936356], [127.43508991438291, 38.069118690516675], [127.43507839554171, 38.06965925591115], [127.4357621795502, 38.06966836026556], [127.43575066542893, 38.07020892578305], [127.43609256006286, 38.07021347655708], [127.43607529207445, 38.07102432486612], [127.43573339366922, 38.07101977396027], [127.43571612121612, 38.07183062201867], [127.4360580233928, 38.07183517305637], [127.43604651055323, 38.07237573845052], [127.43638841532132, 38.07238028858197], [127.43637114925589, 38.073191136705994], [127.4360292407161, 38.07318658644274], [127.43601772710619, 38.07372715170488], [127.43533390522859, 38.07371804802006], [127.43533966458665, 38.073447765483515], [127.43499775502073, 38.073443212193794], [127.43498623371299, 38.07398377716579], [127.43430240978327, 38.07397466742793]]]}}, {"type": "Feature", "properties": {"date": "2026-08-15", "timeLocal": "18:00", "sunAzimuth": 275.93, "sunElevation": 15.42, "source": "Copernicus GLO-30, terrain-only horizon angle"}, "geometry": {"type": "Polygon", "coordinates": [[[127.41461169609065, 38.06722203574022], [127.414617530345, 38.066951755599035], [127.41427565442349, 38.06694714269068], [127.41428148985658, 38.06667686258081], [127.41496523926405, 38.06668608731453], [127.41495357334708, 38.067226647699194], [127.41461169609065, 38.06722203574022]]]}}, {"type": "Feature", "properties": {"date": "2026-08-15", "timeLocal": "18:00", "sunAzimuth": 275.93, "sunElevation": 15.42, "source": "Copernicus GLO-30, terrain-only horizon angle"}, "geometry": {"type": "Polygon", "coordinates": [[[127.43547210855253, 38.06723126349872], [127.43547786606119, 38.06696098064531], [127.4358197455344, 38.066965531886], [127.43581398928262, 38.06723581478335], [127.43547210855253, 38.06723126349872]]]}}, {"type": "Feature", "properties": {"date": "2026-08-15", "timeLocal": "18:00", "sunAzimuth": 275.93, "sunElevation": 15.42, "source": "Copernicus GLO-30, terrain-only horizon angle"}, "geometry": {"type": "Polygon", "coordinates": [[[127.39412875170066, 38.06559211196357], [127.39413466096735, 38.065321834445776], [127.39447652596942, 38.06532650576804], [127.39447061795941, 38.06559678333094], [127.39412875170066, 38.06559211196357]]]}}, {"type": "Feature", "properties": {"date": "2026-08-15", "timeLocal": "18:00", "sunAzimuth": 275.93, "sunElevation": 15.42, "source": "Copernicus GLO-30, terrain-only horizon angle"}, "geometry": {"type": "Polygon", "coordinates": [[[127.4292893667801, 38.06850058051563], [127.4293009277409, 38.0679600165131], [127.42895904470686, 38.067955446211116], [127.42897638933857, 38.067144600240646], [127.4286345101526, 38.06714002907711], [127.4286460753673, 38.06659946511904], [127.42898795203958, 38.06660403619431], [127.42901107651325, 38.065522907943134], [127.4293529482357, 38.06552747784796], [127.4293645074949, 38.06498691355486], [127.42970637678117, 38.064991482377565], [127.42970059844701, 38.06526176457483], [127.43004246906736, 38.06526633244778], [127.43003091468056, 38.065806896890905], [127.43037278789177, 38.06581146385818], [127.43036123570937, 38.066352028336695], [127.43104498739085, 38.0663611594659], [127.43103921369737, 38.06663144177353], [127.43138109091085, 38.06663600589133], [127.43137531839693, 38.06690628822982], [127.43103343992661, 38.06690172406794], [127.43102189215335, 38.06744228861716], [127.43068001124652, 38.067437723373175], [127.43067423598708, 38.067708005583874], [127.43033235390068, 38.06770343930186], [127.4303208006361, 38.06824400359548], [127.42997891611313, 38.06823943623129], [127.42997313810797, 38.06850971831419], [127.4292893667801, 38.06850058051563]]]}}, {"type": "Feature", "properties": {"date": "2026-08-15", "timeLocal": "18:00", "sunAzimuth": 275.93, "sunElevation": 15.42, "source": "Copernicus GLO-30, terrain-only horizon angle"}, "geometry": {"type": "Polygon", "coordinates": [[[127.39652181717152, 38.0656247906647], [127.39654541857747, 38.06454367925187], [127.39688728036263, 38.06454834348226], [127.39686368398333, 38.06562945507524], [127.39652181717152, 38.0656247906647]]]}}, {"type": "Feature", "properties": {"date": "2026-08-15", "timeLocal": "18:00", "sunAzimuth": 275.93, "sunElevation": 15.42, "source": "Copernicus GLO-30, terrain-only horizon angle"}, "geometry": {"type": "Polygon", "coordinates": [[[127.41561400537839, 38.06831698960224], [127.41565481931156, 38.06642502777145], [127.41531294566948, 38.06642041793385], [127.41531877717607, 38.066150137663946], [127.41497690486882, 38.06614552687698], [127.41498273755414, 38.065875246638385], [127.41566647973313, 38.06588446712938], [127.41566064956135, 38.06615474745702], [127.41600252202466, 38.06615935625622], [127.41602000853572, 38.06534851510013], [127.41567813984268, 38.06534390643445], [127.4156839697804, 38.06507362606715], [127.41602583721674, 38.06507823468833], [127.4160374943448, 38.06453767382505], [127.41637935934575, 38.0645422813634], [127.4163735320774, 38.06481256184613], [127.41705726482657, 38.064821774030314], [127.41705143999364, 38.06509205458879], [127.41739330774186, 38.06509665923459], [127.41737583654562, 38.06590750096409], [127.4170339650272, 38.065902896184895], [127.4170223146598, 38.066443457182885], [127.41770606280171, 38.066452665925226], [127.41769441714978, 38.06699322704818], [127.41735254052624, 38.06698862308504], [127.41734671632656, 38.06725890358224], [127.41666296079961, 38.067249692585264], [127.41665130713899, 38.067790253362105], [127.41630942697876, 38.06778564628377], [127.4163035987746, 38.06805592660787], [127.41596171743548, 38.06805131849109], [127.41595588789642, 38.06832159875747], [127.41561400537839, 38.06831698960224]]]}}, {"type": "Feature", "properties": {"date": "2026-08-15", "timeLocal": "18:00", "sunAzimuth": 275.93, "sunElevation": 15.42, "source": "Copernicus GLO-30, terrain-only horizon angle"}, "geometry": {"type": "Polygon", "coordinates": [[[127.43105076100709, 38.06609087714508], [127.43106230800775, 38.065550312463806], [127.43072043589875, 38.06554574752841], [127.43073775959058, 38.0647349005397], [127.43142149634534, 38.06474402915217], [127.4313926357069, 38.066095441174745], [127.43105076100709, 38.06609087714508]]]}}, {"type": "Feature", "properties": {"date": "2026-08-15", "timeLocal": "18:00", "sunAzimuth": 275.93, "sunElevation": 15.42, "source": "Copernicus GLO-30, terrain-only horizon angle"}, "geometry": {"type": "Polygon", "coordinates": [[[127.43962061965043, 38.06512354590241], [127.43962636146173, 38.06485326241667], [127.43996823180362, 38.06485780137934], [127.43996249124905, 38.065128084908906], [127.43962061965043, 38.06512354590241]]]}}, {"type": "Feature", "properties": {"date": "2026-08-15", "timeLocal": "18:00", "sunAzimuth": 275.93, "sunElevation": 15.42, "source": "Copernicus GLO-30, terrain-only horizon angle"}, "geometry": {"type": "Polygon", "coordinates": [[[127.40538690792181, 38.066826858213396], [127.40539277603162, 38.066556579265026], [127.40505090348111, 38.06655193956616], [127.40506851110965, 38.06574110277608], [127.40472664240792, 38.06573646221777], [127.40476186308454, 38.06411478854924], [127.40544558548642, 38.064124068134326], [127.40540451201565, 38.066016021328586], [127.40574638213114, 38.066020659943966], [127.40573464866063, 38.066561217970005], [127.40607652136815, 38.066565855681084], [127.4060706557719, 38.06683613471903], [127.40538690792181, 38.066826858213396]]]}}, {"type": "Feature", "properties": {"date": "2026-08-15", "timeLocal": "18:00", "sunAzimuth": 275.93, "sunElevation": 15.42, "source": "Copernicus GLO-30, terrain-only horizon angle"}, "geometry": {"type": "Polygon", "coordinates": [[[127.43619615343687, 38.06534838420771], [127.43621341657341, 38.064537535066975], [127.43689715328249, 38.064546631788005], [127.43688564962876, 38.065087198070714], [127.43654377872225, 38.06508265011929], [127.43653802552315, 38.065352933196934], [127.43619615343687, 38.06534838420771]]]}}, {"type": "Feature", "properties": {"date": "2026-08-15", "timeLocal": "18:00", "sunAzimuth": 275.93, "sunElevation": 15.42, "source": "Copernicus GLO-30, terrain-only horizon angle"}, "geometry": {"type": "Polygon", "coordinates": [[[127.41908519530637, 38.06593050995187], [127.41909101283258, 38.065660229166404], [127.41874914218143, 38.065655629401014], [127.41876077951382, 38.06511506787927], [127.41841891145398, 38.065110467208875], [127.41843055098833, 38.064569905723104], [127.41808868551979, 38.064565304147735], [127.41809450642683, 38.06429502342946], [127.41877823492845, 38.064304225497516], [127.41877241653476, 38.06457450630465], [127.41911428215906, 38.06457910589237], [127.41910264765151, 38.06511966755583], [127.41944451586704, 38.06512426623851], [127.41943869975323, 38.065394547094826], [127.41978056930331, 38.06539914482806], [127.41976893935572, 38.065939706589816], [127.41908519530637, 38.06593050995187]]]}}, {"type": "Feature", "properties": {"date": "2026-08-15", "timeLocal": "18:00", "sunAzimuth": 275.93, "sunElevation": 15.42, "source": "Copernicus GLO-30, terrain-only horizon angle"}, "geometry": {"type": "Polygon", "coordinates": [[[127.39379870648861, 38.065046884643785], [127.3938105271399, 38.06450632963223], [127.39346866606593, 38.0645016564577], [127.3934864002195, 38.063690823976444], [127.3938282575237, 38.06369549701558], [127.39382234747488, 38.063965774567706], [127.39416420611472, 38.063970446658196], [127.39414057015496, 38.06505155691475], [127.39379870648861, 38.065046884643785]]]}}, {"type": "Feature", "properties": {"date": "2026-08-15", "timeLocal": "18:00", "sunAzimuth": 275.93, "sunElevation": 15.42, "source": "Copernicus GLO-30, terrain-only horizon angle"}, "geometry": {"type": "Polygon", "coordinates": [[[127.40087782043449, 38.069739525166256], [127.40088370574858, 38.069469246946646], [127.40054182039506, 38.069464593833175], [127.40054770688735, 38.06919431564525], [127.40123147515926, 38.069203620788365], [127.4012432428799, 38.06866306419312], [127.40090136121836, 38.068658412208386], [127.40093078542635, 38.06730702071327], [127.4012726608036, 38.06731167247341], [127.40127854415215, 38.06704139408976], [127.40093667003171, 38.06703674237454], [127.40094255455831, 38.066766464022585], [127.4006006817734, 38.06676181135841], [127.40060656747802, 38.06649153303814], [127.40094843900619, 38.06649618565739], [127.4009602076657, 38.06595562888729], [127.40130207675912, 38.065960280422836], [127.40130795971405, 38.06569000197304], [127.4006242241194, 38.06568069799793], [127.40063010950901, 38.065410419624726], [127.40097197601027, 38.06541507206427], [127.40097786006444, 38.06514479363291], [127.40063599481988, 38.065140141238295], [127.40064776520533, 38.06459958442571], [127.40030590255282, 38.06459493112713], [127.40032356131024, 38.0637840959438], [127.40100727915431, 38.06379340127758], [127.40098374403989, 38.064874515188315], [127.4016674722519, 38.06488381690627], [127.4016733536353, 38.06461353835861], [127.4020152166027, 38.064618187681965], [127.40200933647596, 38.06488846627452], [127.40269306516012, 38.06489776202957], [127.40268718746805, 38.065168040698644], [127.40337091898016, 38.06517733256815], [127.40336504372279, 38.065447611313715], [127.40370691085347, 38.06545225580256], [127.4037010367742, 38.065722534579756], [127.4040429052402, 38.065727178119616], [127.4040311593593, 38.066267735723976], [127.40437303041735, 38.06627237835965], [127.40435541477693, 38.06708321480146], [127.4046972896839, 38.06708785657772], [127.40469141890341, 38.06735813541001], [127.40503329514574, 38.06736277623719], [127.40502155586279, 38.06790333395171], [127.40467967710677, 38.06789869303492], [127.4046679349959, 38.0684392506069], [127.4043260538047, 38.06843460860652], [127.40433779842934, 38.067894051124185], [127.40399591983045, 38.06788940821953], [127.40400766665445, 38.06734885077394], [127.40298203887048, 38.06733491636553], [127.40298791593499, 38.06706463775744], [127.40264604142106, 38.06705999101168], [127.40262252766374, 38.06814110518517], [127.40296440720499, 38.068145752110404], [127.4029585298259, 38.068416030665574], [127.40330041070267, 38.06842067664172], [127.4032945345018, 38.06869095522851], [127.40295265236813, 38.068686309207486], [127.40294677483173, 38.0689565877362], [127.40226300828655, 38.06894729262254], [127.40225124795005, 38.06948784946072], [127.4019093622816, 38.06948320032318], [127.40190348073838, 38.06975347867753], [127.40087782043449, 38.069739525166256]], [[127.4023041669858, 38.067055343272045], [127.40264604142106, 38.06705999101168], [127.40265779782777, 38.06651943384555], [127.40231592590607, 38.06651478619567], [127.40232180524818, 38.06624450763763], [127.40163806415434, 38.06623520944602], [127.40163218229871, 38.06650548791427], [127.40197405406305, 38.06651013755191], [127.40196817338548, 38.06678041605182], [127.40231004648527, 38.06678506474048], [127.4023041669858, 38.067055343272045]]]}}, {"type": "Feature", "properties": {"date": "2026-08-15", "timeLocal": "18:00", "sunAzimuth": 275.93, "sunElevation": 15.42, "source": "Copernicus GLO-30, terrain-only horizon angle"}, "geometry": {"type": "Polygon", "coordinates": [[[127.41672705035838, 38.06427660736749], [127.41673287621413, 38.06400632681383], [127.4170747388577, 38.06401093227557], [127.4170689142586, 38.06428121287371], [127.41672705035838, 38.06427660736749]]]}}, {"type": "Feature", "properties": {"date": "2026-08-15", "timeLocal": "18:00", "sunAzimuth": 275.93, "sunElevation": 15.42, "source": "Copernicus GLO-30, terrain-only horizon angle"}, "geometry": {"type": "Polygon", "coordinates": [[[127.43996823180362, 38.06485780137934], [127.43997971268229, 38.06431723428058], [127.4403215805875, 38.06432177216174], [127.44032731965491, 38.06405148854874], [127.4406691863802, 38.064056025392226], [127.44065771068206, 38.06459659269263], [127.44031584144331, 38.06459205576153], [127.44031010222231, 38.06486233934812], [127.43996823180362, 38.06485780137934]]]}}, {"type": "Feature", "properties": {"date": "2026-08-15", "timeLocal": "18:00", "sunAzimuth": 275.93, "sunElevation": 15.42, "source": "Copernicus GLO-30, terrain-only horizon angle"}, "geometry": {"type": "Polygon", "coordinates": [[[127.40779760447211, 38.06604847076516], [127.40780932254786, 38.06550791214913], [127.40746745447505, 38.0655032795864], [127.40748503477079, 38.064692441697346], [127.40714317054648, 38.06468780827499], [127.40715489286484, 38.06414724970564], [127.40681303123222, 38.06414261537897], [127.40683061789137, 38.06333177755997], [127.40717247575417, 38.063336411752395], [127.4071666148695, 38.06360669108337], [127.40750847406728, 38.06361132432676], [127.40749089471254, 38.06442216237454], [127.40783275775863, 38.06442679475834], [127.40782104031004, 38.06496735348019], [127.40816290594785, 38.06497198495963], [127.40813947513676, 38.066053102423496], [127.40779760447211, 38.06604847076516]]]}}, {"type": "Feature", "properties": {"date": "2026-08-15", "timeLocal": "18:00", "sunAzimuth": 275.93, "sunElevation": 15.42, "source": "Copernicus GLO-30, terrain-only horizon angle"}, "geometry": {"type": "Polygon", "coordinates": [[[127.40819219269812, 38.063620587832176], [127.40820390684961, 38.06308002888862], [127.40854576376942, 38.063084659061225], [127.40853405213112, 38.063625218094224], [127.40819219269812, 38.063620587832176]]]}}, {"type": "Feature", "properties": {"date": "2026-08-15", "timeLocal": "18:00", "sunAzimuth": 275.93, "sunElevation": 15.42, "source": "Copernicus GLO-30, terrain-only horizon angle"}, "geometry": {"type": "Polygon", "coordinates": [[[127.44033305864552, 38.06378120492256], [127.4403387975593, 38.063510921283175], [127.44068066177125, 38.063515458039035], [127.4406749241141, 38.063785741722235], [127.44033305864552, 38.06378120492256]]]}}, {"type": "Feature", "properties": {"date": "2026-08-15", "timeLocal": "18:00", "sunAzimuth": 275.93, "sunElevation": 15.42, "source": "Copernicus GLO-30, terrain-only horizon angle"}, "geometry": {"type": "Polygon", "coordinates": [[[127.40648876010702, 38.06332714237379], [127.40650048666735, 38.06278658385118], [127.40684234193859, 38.06279121894784], [127.40683061789137, 38.06333177755997], [127.40648876010702, 38.06332714237379]]]}}, {"type": "Feature", "properties": {"date": "2026-08-15", "timeLocal": "18:00", "sunAzimuth": 275.93, "sunElevation": 15.42, "source": "Copernicus GLO-30, terrain-only horizon angle"}, "geometry": {"type": "Polygon", "coordinates": [[[127.40786205000815, 38.06307539772223], [127.40786790822285, 38.06280511827533], [127.40820976380778, 38.06280974939699], [127.40820390684961, 38.06308002888862], [127.40786205000815, 38.06307539772223]]]}}, {"type": "Feature", "properties": {"date": "2026-08-15", "timeLocal": "18:00", "sunAzimuth": 275.93, "sunElevation": 15.42, "source": "Copernicus GLO-30, terrain-only horizon angle"}, "geometry": {"type": "Polygon", "coordinates": [[[127.39689317926013, 38.06427806555092], [127.3969049768183, 38.06373750964853], [127.39724683491256, 38.063742172750025], [127.39727042405558, 38.06266106060627], [127.39761227720258, 38.06266572253392], [127.39762996446181, 38.06185488815207], [127.39831366345356, 38.06186420875615], [127.39829009033546, 38.06294532159885], [127.39794823577415, 38.06294066161366], [127.39793055133785, 38.06375149597171], [127.39758869308575, 38.06374683485775], [127.39757690055399, 38.064287390940244], [127.39689317926013, 38.06427806555092]]]}}, {"type": "Feature", "properties": {"date": "2026-08-15", "timeLocal": "18:00", "sunAzimuth": 275.93, "sunElevation": 15.42, "source": "Copernicus GLO-30, terrain-only horizon angle"}, "geometry": {"type": "Polygon", "coordinates": [[[127.4030349296202, 38.06490240841636], [127.40304668225517, 38.06436185094878], [127.40270482030837, 38.06435720465171], [127.40272245244087, 38.063546368485675], [127.40306431061782, 38.063551014648134], [127.40307018658146, 38.06328073585481], [127.40272832966107, 38.06327608973721], [127.40273420680265, 38.0630058109755], [127.40205049571092, 38.06299651584877], [127.40202697662019, 38.064077630457156], [127.40168511616604, 38.064072981223596], [127.40167923494, 38.064343259797724], [127.40133737330794, 38.064338609525464], [127.40134913819448, 38.06379805245381], [127.40100727915431, 38.06379340127758], [127.40101904623916, 38.06325284424281], [127.4006771897909, 38.06324819216266], [127.40068895907389, 38.06270763516479], [127.40034710521745, 38.06270298218076], [127.40036476232088, 38.061892146719494], [127.40139031281792, 38.06190610228614], [127.4014020762877, 38.061365544976276], [127.40242761995437, 38.061379491330165], [127.40240998593987, 38.06219032767913], [127.40275183775549, 38.062194974610996], [127.40274008386557, 38.06273553220056], [127.40308193827285, 38.062740178228424], [127.40307606246647, 38.06301045704823], [127.40341791820893, 38.06301510212722], [127.40339441922345, 38.064096217453525], [127.40373628007085, 38.064100861718146], [127.40373040638457, 38.06437114056149], [127.40338854428056, 38.06436649625203], [127.40337679415892, 38.06490705380934], [127.4030349296202, 38.06490240841636]]]}}, {"type": "Feature", "properties": {"date": "2026-08-15", "timeLocal": "18:00", "sunAzimuth": 275.93, "sunElevation": 15.42, "source": "Copernicus GLO-30, terrain-only horizon angle"}, "geometry": {"type": "Polygon", "coordinates": [[[127.39798949669817, 38.06104871431495], [127.39801307263386, 38.05996760128163], [127.39869675419368, 38.05997691926842], [127.39868497140901, 38.060517475991524], [127.39902681481989, 38.060522133584406], [127.3990150342327, 38.06106269034452], [127.39798949669817, 38.06104871431495]]]}}, {"type": "Feature", "properties": {"date": "2026-08-15", "timeLocal": "18:00", "sunAzimuth": 275.93, "sunElevation": 15.42, "source": "Copernicus GLO-30, terrain-only horizon angle"}, "geometry": {"type": "Polygon", "coordinates": [[[127.43834507421036, 38.06078084538857], [127.43835081981842, 38.06051056186707], [127.43869266974706, 38.06051510410336], [127.4386869253955, 38.060785387668716], [127.43834507421036, 38.06078084538857]]]}}, {"type": "Feature", "properties": {"date": "2026-08-15", "timeLocal": "18:00", "sunAzimuth": 275.93, "sunElevation": 15.42, "source": "Copernicus GLO-30, terrain-only horizon angle"}, "geometry": {"type": "Polygon", "coordinates": [[[127.41978056930331, 38.06539914482806], [127.41979219893967, 38.06485858301343], [127.41945033190302, 38.064853985368984], [127.41945614786118, 38.064583704486246], [127.41979801364113, 38.0645883020863], [127.41980382826478, 38.06431802114594], [127.41946196374153, 38.064313423590285], [127.41946777954402, 38.064043142681115], [127.41912591635524, 38.06403854417606], [127.41913755024007, 38.06349798240686], [127.41845382912254, 38.06348878259296], [127.41845964846141, 38.063218501777385], [127.41811778927604, 38.06321390042418], [127.41812360979365, 38.06294361963982], [127.41778175194275, 38.06293901733726], [127.41778757363903, 38.06266873658413], [127.41744571712263, 38.06266413333227], [127.41747483071808, 38.06131272959057], [127.4178166809519, 38.06131733262018], [127.41782250218078, 38.06104705178773], [127.41816435123602, 38.06105165377918], [127.41817599094723, 38.060511091985774], [127.41851783756745, 38.060515692894654], [127.41852365604981, 38.0602454119337], [127.41920734701097, 38.06025461068158], [127.41921316290265, 38.05998432961856], [127.4198968516623, 38.05999352430293], [127.41989103828344, 38.06026380545474], [127.42057472986704, 38.06027299625318], [127.42056310790167, 38.060813558694655], [127.42022125955809, 38.06080896370353], [127.42020963476871, 38.0613495260034], [127.42055148562524, 38.06135412108327], [127.42052242857332, 38.06270552682354], [127.42018057143419, 38.062700931521796], [127.4201689455559, 38.06324149363665], [127.42051080520822, 38.063246089027146], [127.42047593324638, 38.064867775320785], [127.42013406605412, 38.06486317966403], [127.42012243893122, 38.06540374156744], [127.41978056930331, 38.06539914482806]]]}}, {"type": "Feature", "properties": {"date": "2026-08-15", "timeLocal": "18:00", "sunAzimuth": 275.93, "sunElevation": 15.42, "source": "Copernicus GLO-30, terrain-only horizon angle"}, "geometry": {"type": "Polygon", "coordinates": [[[127.42325728848469, 38.062742253461785], [127.4233211008623, 38.05976915649602], [127.42468847739615, 38.05978749401658], [127.42465370196388, 38.06140918453134], [127.42431185017536, 38.06140460137617], [127.4242944576426, 38.06221544632242], [127.42395260216207, 38.06221086204071], [127.42394680323943, 38.06248114361877], [127.42360494657996, 38.06247655829902], [127.42359914632314, 38.06274683981958], [127.42325728848469, 38.062742253461785]]]}}, {"type": "Feature", "properties": {"date": "2026-08-15", "timeLocal": "18:00", "sunAzimuth": 275.93, "sunElevation": 15.42, "source": "Copernicus GLO-30, terrain-only horizon angle"}, "geometry": {"type": "Polygon", "coordinates": [[[127.40922947784414, 38.063093916425174], [127.40924118414281, 38.062553357160496], [127.4088993295794, 38.06254872906478], [127.40890518386777, 38.06227844945729], [127.4085633306392, 38.06227382041254], [127.40856918610577, 38.062003540836535], [127.40822733421204, 38.06199891084275], [127.40823319085676, 38.06172863129822], [127.40789134029792, 38.06172400035544], [127.40789719812071, 38.0614537208424], [127.40755534889671, 38.06144908895065], [127.40753191210923, 38.06253020674451], [127.40719005793767, 38.0625255736801], [127.40719591850866, 38.0622552942962], [127.40685406567206, 38.062250660282785], [127.40688337363305, 38.06089926338867], [127.40722522018734, 38.06090389717834], [127.40723108028781, 38.0606336177151], [127.40791477111877, 38.06064288222392], [127.40793234341145, 38.05983204348642], [127.40827418517533, 38.05983667411617], [127.40828004119312, 38.05956639446582], [127.41033108588334, 38.05959415710959], [127.4103252374037, 38.05986443702804], [127.41066707971578, 38.05986906070225], [127.41064369004026, 38.06095018042238], [127.41030184270258, 38.06094555656957], [127.41027844674923, 38.062026675899524], [127.40993659446393, 38.062022050874376], [127.40991319223211, 38.06310316981406], [127.40922947784414, 38.063093916425174]]]}}, {"type": "Feature", "properties": {"date": "2026-08-15", "timeLocal": "18:00", "sunAzimuth": 275.93, "sunElevation": 15.42, "source": "Copernicus GLO-30, terrain-only horizon angle"}, "geometry": {"type": "Polygon", "coordinates": [[[127.4139979778735, 38.06396944734279], [127.41400964945709, 38.06342888690807], [127.41366779002898, 38.06342427259119], [127.4136853005884, 38.06261343197361], [127.4133434450081, 38.06260881679665], [127.41334928296158, 38.062338536608905], [127.41300742871594, 38.062333920482764], [127.41302494587718, 38.061523079973966], [127.4133667963533, 38.06152769596638], [127.4133784715572, 38.06098713547192], [127.41303662359401, 38.06098251956866], [127.41304830099831, 38.060441959110456], [127.41339014644865, 38.06044657492457], [127.41340765819999, 38.05963573400439], [127.41477502570557, 38.05965418678947], [127.41472253357436, 38.06208671079686], [127.41438068027288, 38.06208209869024], [127.41433983989293, 38.06397406075498], [127.4139979778735, 38.06396944734279]], [[127.41336095863419, 38.06179797619377], [127.41370281044489, 38.06180259123704], [127.41370864690751, 38.061532310965084], [127.4133667963533, 38.06152769596638], [127.41336095863419, 38.06179797619377]]]}}, {"type": "Feature", "properties": {"date": "2026-08-15", "timeLocal": "18:00", "sunAzimuth": 275.93, "sunElevation": 15.42, "source": "Copernicus GLO-30, terrain-only horizon angle"}, "geometry": {"type": "Polygon", "coordinates": [[[127.3942528296974, 38.05991628130945], [127.39425873730377, 38.05964600351361], [127.39460057591948, 38.05965067388868], [127.39460648219054, 38.0593803960345], [127.39494831962897, 38.05938506537087], [127.3949365095205, 38.05992562115616], [127.3942528296974, 38.05991628130945]]]}}, {"type": "Feature", "properties": {"date": "2026-08-15", "timeLocal": "18:00", "sunAzimuth": 275.93, "sunElevation": 15.42, "source": "Copernicus GLO-30, terrain-only horizon angle"}, "geometry": {"type": "Polygon", "coordinates": [[[127.43344965026871, 38.06585252183833], [127.43346694402993, 38.06504167383211], [127.433125073894, 38.06503711594195], [127.43313660519591, 38.06449655062649], [127.4324528701825, 38.06448743204065], [127.4324644062026, 38.06394686684847], [127.43178067652467, 38.06393774446343], [127.43178644693228, 38.06366746193563], [127.4314445834658, 38.063662899296425], [127.43145035505285, 38.06339261679947], [127.43179221726267, 38.06339717939462], [127.43180375769178, 38.06285661427298], [127.4314618979952, 38.06285205176596], [127.43147921182955, 38.062041204116646], [127.43182106775639, 38.062045766491494], [127.4318268376235, 38.06177548387127], [127.43148498295322, 38.06177092154047], [127.43151960807351, 38.0601492258061], [127.4311777610194, 38.060144662745955], [127.43118353285894, 38.0598743801214], [127.4349438408778, 38.05992451864556], [127.43493808285906, 38.06019480175431], [127.43425438728501, 38.06018569451425], [127.43424862667628, 38.060455977521826], [127.43390677774843, 38.06045142236726], [127.43390101580616, 38.060721705317654], [127.43424286599048, 38.06072626051622], [127.43423710522758, 38.06099654349739], [127.4345789567455, 38.0610010977462], [127.43456167776387, 38.06181194674247], [127.4349035331284, 38.06181650012947], [127.43488625722283, 38.062627349138836], [127.43454439808858, 38.06262279561992], [127.43453287791965, 38.06316336147221], [127.43419101634922, 38.06315880687154], [127.43417949335868, 38.06369937258307], [127.43452135744242, 38.0637039272717], [127.43451559708818, 38.06397421015164], [127.43485746250566, 38.06397876389042], [127.43487473956715, 38.06316791507907], [127.43521660129173, 38.06317246769212], [127.43523963126844, 38.06209133558299], [127.43592334489588, 38.06210043747609], [127.43590032497198, 38.0631815699368], [127.43555846309334, 38.06317701931137], [127.43554695015601, 38.06371758537464], [127.43520508584109, 38.06371303366749], [127.43518205401527, 38.06479416545977], [127.43484018475057, 38.06478961258295], [127.43482290630187, 38.06560046115665], [127.43448103334399, 38.06559590715403], [127.43447527245016, 38.065866189941545], [127.43344965026871, 38.06585252183833]]]}}]}