{"type": "FeatureCollection", "features": [{"type": "Feature", "properties": {"date": "2026-08-15", "timeLocal": "16:00", "sunAzimuth": 256.37, "sunElevation": 38.86, "source": "Copernicus GLO-30, terrain-only horizon angle"}, "geometry": {"type": "Polygon", "coordinates": [[[127.41846226997059, 38.094850477621435], [127.4184680958328, 38.09458019825041], [127.41881010113046, 38.09458480177538], [127.41881592565618, 38.09431452234669], [127.41915792977325, 38.09431912483232], [127.41914628316098, 38.09485968376534], [127.41846226997059, 38.094850477621435]]]}}, {"type": "Feature", "properties": {"date": "2026-08-15", "timeLocal": "16:00", "sunAzimuth": 256.37, "sunElevation": 38.86, "source": "Copernicus GLO-30, terrain-only horizon angle"}, "geometry": {"type": "Polygon", "coordinates": [[[127.429070296231, 38.09472244489349], [127.4290760829999, 38.094452164136], [127.42941808944758, 38.09445673677466], [127.42941230393727, 38.09472701757628], [127.429070296231, 38.09472244489349]]]}}, {"type": "Feature", "properties": {"date": "2026-08-15", "timeLocal": "16:00", "sunAzimuth": 256.37, "sunElevation": 38.86, "source": "Copernicus GLO-30, terrain-only horizon angle"}, "geometry": {"type": "Polygon", "coordinates": [[[127.41573789211218, 38.09427305520605], [127.41574372788664, 38.09400277616446], [127.41608573004305, 38.09400738755955], [127.4160798955271, 38.09427766664566], [127.41573789211218, 38.09427305520605]]]}}, {"type": "Feature", "properties": {"date": "2026-08-15", "timeLocal": "16:00", "sunAzimuth": 256.37, "sunElevation": 38.86, "source": "Copernicus GLO-30, terrain-only horizon angle"}, "geometry": {"type": "Polygon", "coordinates": [[[127.41813191765588, 38.094305314390745], [127.4181377446207, 38.09403503503772], [127.41847974732333, 38.09403963946869], [127.41848557295167, 38.09376936005799], [127.41882757447375, 38.093773963449635], [127.41881592565618, 38.09431452234669], [127.41813191765588, 38.094305314390745]]]}}, {"type": "Feature", "properties": {"date": "2026-08-15", "timeLocal": "16:00", "sunAzimuth": 256.37, "sunElevation": 38.86, "source": "Copernicus GLO-30, terrain-only horizon angle"}, "geometry": {"type": "Polygon", "coordinates": [[[127.41814357150753, 38.09376475567149], [127.41814939831639, 38.093494476292015], [127.418491398502, 38.093499080634075], [127.41848557295167, 38.09376936005799], [127.41814357150753, 38.09376475567149]]]}}, {"type": "Feature", "properties": {"date": "2026-08-15", "timeLocal": "16:00", "sunAzimuth": 256.37, "sunElevation": 38.86, "source": "Copernicus GLO-30, terrain-only horizon angle"}, "geometry": {"type": "Polygon", "coordinates": [[[127.41712339822739, 38.093480657296695], [127.41713505916194, 38.09294009876491], [127.41747705659665, 38.09294470600259], [127.41746539817905, 38.093485264623325], [127.41712339822739, 38.093480657296695]]]}}, {"type": "Feature", "properties": {"date": "2026-08-15", "timeLocal": "16:00", "sunAzimuth": 256.37, "sunElevation": 38.86, "source": "Copernicus GLO-30, terrain-only horizon angle"}, "geometry": {"type": "Polygon", "coordinates": [[[127.41984775891333, 38.094058047243735], [127.41986522046248, 38.093247208438875], [127.4195232212236, 38.093242608120676], [127.41952904284264, 38.09297232853702], [127.41918704494012, 38.09296772726838], [127.41918122206259, 38.09323800680762], [127.4184972239744, 38.09322880119694], [127.41850887468533, 38.092688242283], [127.41816687827504, 38.09268363807429], [127.418190183795, 38.091602520265575], [127.41853217517165, 38.091607124296495], [127.41853800009838, 38.091336844766815], [127.41887999029464, 38.0913414477585], [127.4188625190558, 38.0921522864412], [127.41920451310511, 38.09215688857138], [127.41919869046137, 38.09242716815027], [127.4198826813106, 38.092436369515035], [127.41987686110579, 38.092706649169536], [127.42021885790568, 38.09271124840409], [127.42020140059928, 38.09352208742147], [127.42054340125242, 38.093526685794366], [127.42053176517578, 38.09406724516197], [127.41984775891333, 38.094058047243735]]]}}, {"type": "Feature", "properties": {"date": "2026-08-15", "timeLocal": "16:00", "sunAzimuth": 256.37, "sunElevation": 38.86, "source": "Copernicus GLO-30, terrain-only horizon angle"}, "geometry": {"type": "Polygon", "coordinates": [[[127.41955814976934, 38.09162093042049], [127.41958725474845, 38.09026953197344], [127.42027122561984, 38.09027873063809], [127.42026540729638, 38.090549010442736], [127.41992342056346, 38.0905444115634], [127.41991178116636, 38.09108497104424], [127.42025377041591, 38.0910895700124], [127.42024213322398, 38.091630129529165], [127.41955814976934, 38.09162093042049]]]}}, {"type": "Feature", "properties": {"date": "2026-08-15", "timeLocal": "16:00", "sunAzimuth": 256.37, "sunElevation": 38.86, "source": "Copernicus GLO-30, terrain-only horizon angle"}, "geometry": {"type": "Polygon", "coordinates": [[[127.42132043992689, 38.08921140129111], [127.42132625408638, 38.08894112128721], [127.42166823358113, 38.08894571592138], [127.42166242067985, 38.089215995969624], [127.42132043992689, 38.08921140129111]]]}}, {"type": "Feature", "properties": {"date": "2026-08-15", "timeLocal": "16:00", "sunAzimuth": 256.37, "sunElevation": 38.86, "source": "Copernicus GLO-30, terrain-only horizon angle"}, "geometry": {"type": "Polygon", "coordinates": [[[127.42268836340537, 38.08922977403691], [127.4226999815809, 38.088689213661176], [127.4230419601285, 38.0886938042722], [127.4230303444694, 38.08923436473657], [127.42268836340537, 38.08922977403691]]]}}, {"type": "Feature", "properties": {"date": "2026-08-15", "timeLocal": "16:00", "sunAzimuth": 256.37, "sunElevation": 38.86, "source": "Copernicus GLO-30, terrain-only horizon angle"}, "geometry": {"type": "Polygon", "coordinates": [[[127.41619657101164, 38.08887208241101], [127.41620240396615, 38.08860180306045], [127.41654438103382, 38.088606412570556], [127.41653854933747, 38.08887669196563], [127.41619657101164, 38.08887208241101]]]}}, {"type": "Feature", "properties": {"date": "2026-08-15", "timeLocal": "16:00", "sunAzimuth": 256.37, "sunElevation": 38.86, "source": "Copernicus GLO-30, terrain-only horizon angle"}, "geometry": {"type": "Polygon", "coordinates": [[[127.4118416133553, 38.06880678271708], [127.4118474581335, 38.068536503011856], [127.41218934104921, 38.06854112314524], [127.41218349752795, 38.068811402895065], [127.4118416133553, 38.06880678271708]]]}}, {"type": "Feature", "properties": {"date": "2026-08-15", "timeLocal": "16:00", "sunAzimuth": 256.37, "sunElevation": 38.86, "source": "Copernicus GLO-30, terrain-only horizon angle"}, "geometry": {"type": "Polygon", "coordinates": [[[127.4293009277409, 38.0679600165131], [127.42931826860195, 38.06714917041025], [127.42966014794266, 38.06715373958592], [127.42964281085229, 38.06796458582113], [127.4293009277409, 38.0679600165131]]]}}, {"type": "Feature", "properties": {"date": "2026-08-15", "timeLocal": "16:00", "sunAzimuth": 256.37, "sunElevation": 38.86, "source": "Copernicus GLO-30, terrain-only horizon angle"}, "geometry": {"type": "Polygon", "coordinates": [[[127.41563149753217, 38.06750614889694], [127.41564315857791, 38.06696558836063], [127.4159850348116, 38.06697019729333], [127.41597337627954, 38.06751075791865], [127.41563149753217, 38.06750614889694]]]}}, {"type": "Feature", "properties": {"date": "2026-08-15", "timeLocal": "16:00", "sunAzimuth": 256.37, "sunElevation": 38.86, "source": "Copernicus GLO-30, terrain-only horizon angle"}, "geometry": {"type": "Polygon", "coordinates": [[[127.4159850348116, 38.06697019729333], [127.41599086396062, 38.06669991696086], [127.4163327390155, 38.066704524855155], [127.41632691112329, 38.066974805232135], [127.4159850348116, 38.06697019729333]]]}}, {"type": "Feature", "properties": {"date": "2026-08-15", "timeLocal": "16:00", "sunAzimuth": 256.37, "sunElevation": 38.86, "source": "Copernicus GLO-30, terrain-only horizon angle"}, "geometry": {"type": "Polygon", "coordinates": [[[127.40299379292087, 38.06679435913612], [127.40300554665673, 38.066253801853776], [127.40334741747897, 38.06625844747104], [127.40333566625667, 38.0667990048431], [127.40299379292087, 38.06679435913612]]]}}, {"type": "Feature", "properties": {"date": "2026-08-15", "timeLocal": "16:00", "sunAzimuth": 256.37, "sunElevation": 38.86, "source": "Copernicus GLO-30, terrain-only horizon angle"}, "geometry": {"type": "Polygon", "coordinates": [[[127.42934138866717, 38.06606804208821], [127.4293529482357, 38.06552747784796], [127.4296948200355, 38.065532046758904], [127.42968326298053, 38.066072611087385], [127.42934138866717, 38.06606804208821]]]}}, {"type": "Feature", "properties": {"date": "2026-08-15", "timeLocal": "16:00", "sunAzimuth": 256.37, "sunElevation": 38.86, "source": "Copernicus GLO-30, terrain-only horizon angle"}, "geometry": {"type": "Polygon", "coordinates": [[[127.4338030509898, 38.065316513454356], [127.43380881424297, 38.065046230728406], [127.43415068453314, 38.06505078663083], [127.43414492253672, 38.065321069400774], [127.4338030509898, 38.065316513454356]]]}}, {"type": "Feature", "properties": {"date": "2026-08-15", "timeLocal": "16:00", "sunAzimuth": 256.37, "sunElevation": 38.86, "source": "Copernicus GLO-30, terrain-only horizon angle"}, "geometry": {"type": "Polygon", "coordinates": [[[127.40825661665185, 38.06064751298783], [127.4082683290792, 38.06010695375328], [127.40895201535481, 38.06011621212124], [127.40894030795303, 38.06065677153461], [127.40825661665185, 38.06064751298783]]]}}]}