{"type":"FeatureCollection","metadata":{"description":"개방지(CHM ≤ 2 m)에 드리운 나무·지형 그림자, 2026-08-01 17:00 KST. canopy 위에 겹쳐 그린다","source":"위성 기반 추정 — Copernicus GLO-30 지형(30 m) + Meta/WRI 수관 높이(1 m CHM, 2019 촬영). 그늘 = 수관(CHM > 2 m) ∪ 나무·지형 그림자 ∪ 원거리 지형 마스크. 현장과 다를 수 있음.","datasetVersion":"2026-09-06.0","collectedAt":"2026-09-06","coordinateOrder":"[longitude, latitude]","crs":"EPSG:4326","representativeDate":"2026-08-01","hours":["10:00","11:00","12:00","13:00","14:00","15:00","16:00","17:00","18:00"],"chmAcquisition":["2019-03"],"assets":{"glo30":{"dataset":"Copernicus DEM GLO-30 (COG, s3://copernicus-dem-30m)","tiles":["Copernicus_DSM_COG_10_N37_00_E127_00_DEM"]},"chm":{"dataset":"Meta/WRI Global Canopy Height Map v1 (alsgedi_global_v6_float, 1 m, CC-BY 4.0)","quadkeys":["132110303"],"acquisition":["2019-03"]}},"method":{"gridResM":2,"canopyThresholdM":2,"bufferHalfM":25,"corridorHalfM":200,"simplifyTolM":2,"minAreaM2":25,"coordDecimals":5},"generator":"scripts/shade 0.1.0","builtAt":"2026-09-06T06:00:46Z","layer":"shadow","timeLocal":"17:00"},"features":[{"type":"Feature","properties":{"valleyId":"hyeondeungsa","layer":"shadow","date":"2026-08-01","timeLocal":"17:00"},"geometry":{"type":"Polygon","coordinates":[[[127.33274,37.86918],[127.33274,37.8691],[127.33279,37.86907],[127.33283,37.86907],[127.33285,37.86903],[127.33297,37.86904],[127.33294,37.86911],[127.33285,37.86912],[127.33283,37.86918],[127.33274,37.86918]]]}},{"type":"Feature","properties":{"valleyId":"hyeondeungsa","layer":"shadow","date":"2026-08-01","timeLocal":"17:00"},"geometry":{"type":"Polygon","coordinates":[[[127.33578,37.8685],[127.33576,37.86843],[127.3358,37.86832],[127.33592,37.8683],[127.33592,37.86839],[127.33584,37.8685],[127.33578,37.8685]]]}},{"type":"Feature","properties":{"valleyId":"hyeondeungsa","layer":"shadow","date":"2026-08-01","timeLocal":"17:00"},"geometry":{"type":"Polygon","coordinates":[[[127.34253,37.86731],[127.34254,37.86721],[127.34265,37.86719],[127.34262,37.8673],[127.34253,37.86731]]]}},{"type":"Feature","properties":{"valleyId":"hyeondeungsa","layer":"shadow","date":"2026-08-01","timeLocal":"17:00"},"geometry":{"type":"Polygon","coordinates":[[[127.34267,37.86719],[127.34267,37.86714],[127.34274,37.86714],[127.34274,37.86719],[127.34267,37.86719]]]}},{"type":"Feature","properties":{"valleyId":"hyeondeungsa","layer":"shadow","date":"2026-08-01","timeLocal":"17:00"},"geometry":{"type":"Polygon","coordinates":[[[127.34333,37.86722],[127.34336,37.86713],[127.34349,37.86713],[127.34349,37.86722],[127.34333,37.86722]]]}},{"type":"Feature","properties":{"valleyId":"hyeondeungsa","layer":"shadow","date":"2026-08-01","timeLocal":"17:00"},"geometry":{"type":"Polygon","coordinates":[[[127.34392,37.86712],[127.34393,37.86706],[127.34399,37.86706],[127.34399,37.86712],[127.34392,37.86712]]]}},{"type":"Feature","properties":{"valleyId":"hyeondeungsa","layer":"shadow","date":"2026-08-01","timeLocal":"17:00"},"geometry":{"type":"Polygon","coordinates":[[[127.34397,37.86705],[127.34397,37.86697],[127.34406,37.86696],[127.34406,37.86705],[127.34397,37.86705]]]}},{"type":"Feature","properties":{"valleyId":"hyeondeungsa","layer":"shadow","date":"2026-08-01","timeLocal":"17:00"},"geometry":{"type":"Polygon","coordinates":[[[127.3468,37.86687],[127.3468,37.86682],[127.34686,37.86682],[127.34686,37.86687],[127.3468,37.86687]]]}},{"type":"Feature","properties":{"valleyId":"hyeondeungsa","layer":"shadow","date":"2026-08-01","timeLocal":"17:00"},"geometry":{"type":"Polygon","coordinates":[[[127.34666,37.86676],[127.34666,37.8666],[127.3468,37.86656],[127.3468,37.86667],[127.34673,37.86671],[127.34673,37.86676],[127.34666,37.86676]]]}},{"type":"Feature","properties":{"valleyId":"hyeondeungsa","layer":"shadow","date":"2026-08-01","timeLocal":"17:00"},"geometry":{"type":"Polygon","coordinates":[[[127.33759,37.86652],[127.3376,37.86643],[127.33769,37.86643],[127.33766,37.86652],[127.33759,37.86652]]]}},{"type":"Feature","properties":{"valleyId":"hyeondeungsa","layer":"shadow","date":"2026-08-01","timeLocal":"17:00"},"geometry":{"type":"Polygon","coordinates":[[[127.34612,37.86666],[127.34612,37.86654],[127.34628,37.86652],[127.34628,37.86648],[127.34647,37.86638],[127.34665,37.86638],[127.34665,37.86645],[127.34655,37.86647],[127.34653,37.86654],[127.34646,37.86654],[127.34646,37.8665],[127.34637,37.8665],[127.34635,37.86654],[127.34628,37.86654],[127.3463,37.86665],[127.34612,37.86666]]]}},{"type":"Feature","properties":{"valleyId":"hyeondeungsa","layer":"shadow","date":"2026-08-01","timeLocal":"17:00"},"geometry":{"type":"Polygon","coordinates":[[[127.34305,37.86642],[127.34303,37.86629],[127.3431,37.86629],[127.34312,37.86642],[127.34305,37.86642]]]}},{"type":"Feature","properties":{"valleyId":"hyeondeungsa","layer":"shadow","date":"2026-08-01","timeLocal":"17:00"},"geometry":{"type":"Polygon","coordinates":[[[127.34928,37.86638],[127.34926,37.86626],[127.34933,37.86626],[127.34935,37.86638],[127.34928,37.86638]]]}},{"type":"Feature","properties":{"valleyId":"hyeondeungsa","layer":"shadow","date":"2026-08-01","timeLocal":"17:00"},"geometry":{"type":"Polygon","coordinates":[[[127.34692,37.86651],[127.34692,37.86638],[127.34676,37.86636],[127.34676,37.86631],[127.34695,37.86626],[127.34697,37.86619],[127.34704,37.86613],[127.34713,37.86614],[127.34715,37.86617],[127.34729,37.86616],[127.34729,37.86625],[127.34733,37.86625],[127.34733,37.8663],[127.34719,37.86632],[127.3472,37.86624],[127.34708,37.86624],[127.34706,37.8663],[127.34697,37.86633],[127.34697,37.86639],[127.34708,37.86639],[127.3471,37.86646],[127.34701,37.86648],[127.34698,37.86651],[127.34692,37.86651]]]}},{"type":"Feature","properties":{"valleyId":"hyeondeungsa","layer":"shadow","date":"2026-08-01","timeLocal":"17:00"},"geometry":{"type":"Polygon","coordinates":[[[127.34738,37.86616],[127.34738,37.8661],[127.34745,37.8661],[127.34745,37.86607],[127.34761,37.86605],[127.34761,37.86611],[127.34745,37.86612],[127.34745,37.86616],[127.34738,37.86616]]]}},{"type":"Feature","properties":{"valleyId":"hyeondeungsa","layer":"shadow","date":"2026-08-01","timeLocal":"17:00"},"geometry":{"type":"Polygon","coordinates":[[[127.34768,37.86602],[127.34768,37.86596],[127.34777,37.86595],[127.34784,37.86582],[127.348,37.86582],[127.348,37.86588],[127.34786,37.86593],[127.34781,37.866],[127.34768,37.86602]]]}},{"type":"Feature","properties":{"valleyId":"hyeondeungsa","layer":"shadow","date":"2026-08-01","timeLocal":"17:00"},"geometry":{"type":"Polygon","coordinates":[[[127.34918,37.86591],[127.34916,37.8658],[127.34923,37.8658],[127.34925,37.86591],[127.34918,37.86591]]]}},{"type":"Feature","properties":{"valleyId":"hyeondeungsa","layer":"shadow","date":"2026-08-01","timeLocal":"17:00"},"geometry":{"type":"Polygon","coordinates":[[[127.34805,37.86579],[127.34805,37.8657],[127.34819,37.86572],[127.34818,37.86577],[127.34805,37.86579]]]}},{"type":"Feature","properties":{"valleyId":"hyeondeungsa","layer":"shadow","date":"2026-08-01","timeLocal":"17:00"},"geometry":{"type":"Polygon","coordinates":[[[127.34996,37.86581],[127.34996,37.86571],[127.35005,37.86571],[127.35007,37.8658],[127.34996,37.86581]]]}},{"type":"Feature","properties":{"valleyId":"hyeondeungsa","layer":"shadow","date":"2026-08-01","timeLocal":"17:00"},"geometry":{"type":"Polygon","coordinates":[[[127.34738,37.86598],[127.34739,37.86587],[127.34743,37.86583],[127.34746,37.86571],[127.34757,37.86569],[127.34762,37.86566],[127.34762,37.86558],[127.34778,37.8656],[127.3478,37.86568],[127.34771,37.86569],[127.34771,37.8658],[127.34766,37.8658],[127.34766,37.86584],[127.34752,37.86592],[127.3475,37.86598],[127.34738,37.86598]]]}},{"type":"Feature","properties":{"valleyId":"hyeondeungsa","layer":"shadow","date":"2026-08-01","timeLocal":"17:00"},"geometry":{"type":"Polygon","coordinates":[[[127.34742,37.86558],[127.34742,37.86553],[127.34751,37.86553],[127.34751,37.86558],[127.34742,37.86558]]]}},{"type":"Feature","properties":{"valleyId":"hyeondeungsa","layer":"shadow","date":"2026-08-01","timeLocal":"17:00"},"geometry":{"type":"Polygon","coordinates":[[[127.34992,37.86558],[127.34992,37.86553],[127.34999,37.86553],[127.34998,37.86558],[127.34992,37.86558]]]}},{"type":"Feature","properties":{"valleyId":"hyeondeungsa","layer":"shadow","date":"2026-08-01","timeLocal":"17:00"},"geometry":{"type":"Polygon","coordinates":[[[127.34564,37.86548],[127.34567,37.86541],[127.3458,37.8654],[127.3458,37.86545],[127.34576,37.86548],[127.34564,37.86548]]]}},{"type":"Feature","properties":{"valleyId":"hyeondeungsa","layer":"shadow","date":"2026-08-01","timeLocal":"17:00"},"geometry":{"type":"Polygon","coordinates":[[[127.34587,37.86538],[127.34587,37.86532],[127.34594,37.86533],[127.34594,37.86538],[127.34587,37.86538]]]}},{"type":"Feature","properties":{"valleyId":"hyeondeungsa","layer":"shadow","date":"2026-08-01","timeLocal":"17:00"},"geometry":{"type":"Polygon","coordinates":[[[127.33846,37.86554],[127.33846,37.86527],[127.33856,37.8652],[127.33862,37.8652],[127.3386,37.86542],[127.33853,37.86547],[127.33853,37.86555],[127.33846,37.86554]]]}},{"type":"Feature","properties":{"valleyId":"hyeondeungsa","layer":"shadow","date":"2026-08-01","timeLocal":"17:00"},"geometry":{"type":"Polygon","coordinates":[[[127.34819,37.86557],[127.34821,37.86545],[127.34828,37.86541],[127.34829,37.86529],[127.34835,37.86529],[127.34838,37.86532],[127.34842,37.86532],[127.34842,37.8654],[127.34833,37.86541],[127.34835,37.86556],[127.34819,37.86557]]]}},{"type":"Feature","properties":{"valleyId":"hyeondeungsa","layer":"shadow","date":"2026-08-01","timeLocal":"17:00"},"geometry":{"type":"Polygon","coordinates":[[[127.34683,37.86523],[127.34686,37.86509],[127.34699,37.86511],[127.34697,37.86521],[127.34683,37.86523]]]}},{"type":"Feature","properties":{"valleyId":"hyeondeungsa","layer":"shadow","date":"2026-08-01","timeLocal":"17:00"},"geometry":{"type":"Polygon","coordinates":[[[127.34243,37.86501],[127.34241,37.86492],[127.34247,37.86492],[127.34249,37.86501],[127.34243,37.86501]]]}},{"type":"Feature","properties":{"valleyId":"hyeondeungsa","layer":"shadow","date":"2026-08-01","timeLocal":"17:00"},"geometry":{"type":"Polygon","coordinates":[[[127.33927,37.86503],[127.33927,37.86491],[127.33931,37.86485],[127.33938,37.86485],[127.33943,37.86489],[127.33942,37.86502],[127.33927,37.86503]]]}},{"type":"Feature","properties":{"valleyId":"hyeondeungsa","layer":"shadow","date":"2026-08-01","timeLocal":"17:00"},"geometry":{"type":"Polygon","coordinates":[[[127.33975,37.8649],[127.3397,37.86484],[127.3397,37.86475],[127.33975,37.86472],[127.33986,37.86472],[127.33986,37.8649],[127.33975,37.8649]]]}},{"type":"Feature","properties":{"valleyId":"hyeondeungsa","layer":"shadow","date":"2026-08-01","timeLocal":"17:00"},"geometry":{"type":"Polygon","coordinates":[[[127.33754,37.86474],[127.3375,37.8647],[127.3375,37.86465],[127.33757,37.86465],[127.33761,37.86469],[127.33761,37.86474],[127.33754,37.86474]]]}},{"type":"Feature","properties":{"valleyId":"hyeondeungsa","layer":"shadow","date":"2026-08-01","timeLocal":"17:00"},"geometry":{"type":"Polygon","coordinates":[[[127.3478,37.86479],[127.3478,37.8647],[127.34787,37.8647],[127.34786,37.86479],[127.3478,37.86479]]]}},{"type":"Feature","properties":{"valleyId":"hyeondeungsa","layer":"shadow","date":"2026-08-01","timeLocal":"17:00"},"geometry":{"type":"Polygon","coordinates":[[[127.34766,37.86461],[127.34767,37.86452],[127.3478,37.86454],[127.3478,37.86459],[127.34766,37.86461]]]}},{"type":"Feature","properties":{"valleyId":"hyeondeungsa","layer":"shadow","date":"2026-08-01","timeLocal":"17:00"},"geometry":{"type":"Polygon","coordinates":[[[127.34742,37.8645],[127.34742,37.86441],[127.34751,37.86441],[127.34748,37.8645],[127.34742,37.8645]]]}},{"type":"Feature","properties":{"valleyId":"hyeondeungsa","layer":"shadow","date":"2026-08-01","timeLocal":"17:00"},"geometry":{"type":"Polygon","coordinates":[[[127.34622,37.86535],[127.34617,37.86531],[127.34617,37.86524],[127.34626,37.86524],[127.34627,37.86515],[127.3462,37.86506],[127.34622,37.86491],[127.34618,37.86486],[127.34616,37.86463],[127.34612,37.86459],[127.34598,37.86459],[127.34594,37.86453],[127.34578,37.86449],[127.34578,37.86446],[127.34571,37.8644],[127.34567,37.8644],[127.34565,37.86431],[127.34572,37.86431],[127.34587,37.86442],[127.34605,37.86444],[127.3461,37.86448],[127.34621,37.8645],[127.34621,37.86454],[127.34628,37.86455],[127.34637,37.86465],[127.34639,37.86475],[127.34648,37.86488],[127.34647,37.86504],[127.3464,37.86508],[127.34635,37.86522],[127.34629,37.86524],[127.34628,37.86535],[127.34622,37.86535]]]}},{"type":"Feature","properties":{"valleyId":"hyeondeungsa","layer":"shadow","date":"2026-08-01","timeLocal":"17:00"},"geometry":{"type":"Polygon","coordinates":[[[127.34606,37.86408],[127.34606,37.86403],[127.34615,37.86403],[127.34615,37.86408],[127.34606,37.86408]]]}},{"type":"Feature","properties":{"valleyId":"hyeondeungsa","layer":"shadow","date":"2026-08-01","timeLocal":"17:00"},"geometry":{"type":"Polygon","coordinates":[[[127.34395,37.86405],[127.34393,37.86396],[127.344,37.86396],[127.34402,37.86405],[127.34395,37.86405]]]}},{"type":"Feature","properties":{"valleyId":"hyeondeungsa","layer":"shadow","date":"2026-08-01","timeLocal":"17:00"},"geometry":{"type":"Polygon","coordinates":[[[127.35079,37.8641],[127.35073,37.86395],[127.35073,37.8639],[127.35079,37.8639],[127.35084,37.86397],[127.35086,37.8641],[127.35079,37.8641]]]}},{"type":"Feature","properties":{"valleyId":"hyeondeungsa","layer":"shadow","date":"2026-08-01","timeLocal":"17:00"},"geometry":{"type":"Polygon","coordinates":[[[127.34761,37.86385],[127.34762,37.86374],[127.34771,37.86375],[127.34771,37.86378],[127.34777,37.8638],[127.34777,37.86385],[127.34761,37.86385]]]}},{"type":"Feature","properties":{"valleyId":"hyeondeungsa","layer":"shadow","date":"2026-08-01","timeLocal":"17:00"},"geometry":{"type":"Polygon","coordinates":[[[127.34671,37.86371],[127.34671,37.86366],[127.34678,37.86366],[127.34677,37.86371],[127.34671,37.86371]]]}},{"type":"Feature","properties":{"valleyId":"hyeondeungsa","layer":"shadow","date":"2026-08-01","timeLocal":"17:00"},"geometry":{"type":"Polygon","coordinates":[[[127.34591,37.86365],[127.34591,37.86359],[127.34598,37.8636],[127.34598,37.86365],[127.34591,37.86365]]]}},{"type":"Feature","properties":{"valleyId":"hyeondeungsa","layer":"shadow","date":"2026-08-01","timeLocal":"17:00"},"geometry":{"type":"Polygon","coordinates":[[[127.34757,37.86364],[127.34757,37.86358],[127.34764,37.86358],[127.34764,37.86364],[127.34757,37.86364]]]}},{"type":"Feature","properties":{"valleyId":"hyeondeungsa","layer":"shadow","date":"2026-08-01","timeLocal":"17:00"},"geometry":{"type":"Polygon","coordinates":[[[127.34646,37.86358],[127.34646,37.86351],[127.34653,37.86351],[127.34653,37.86359],[127.34646,37.86358]]]}},{"type":"Feature","properties":{"valleyId":"hyeondeungsa","layer":"shadow","date":"2026-08-01","timeLocal":"17:00"},"geometry":{"type":"Polygon","coordinates":[[[127.34448,37.86359],[127.34448,37.86347],[127.34462,37.86347],[127.3446,37.86358],[127.34448,37.86359]]]}},{"type":"Feature","properties":{"valleyId":"hyeondeungsa","layer":"shadow","date":"2026-08-01","timeLocal":"17:00"},"geometry":{"type":"Polygon","coordinates":[[[127.34249,37.86414],[127.34252,37.86385],[127.34264,37.86378],[127.34262,37.8636],[127.34253,37.86351],[127.34253,37.86342],[127.34262,37.86342],[127.34264,37.86348],[127.34271,37.8635],[127.34271,37.86364],[127.3428,37.86371],[127.34279,37.86378],[127.34268,37.86387],[127.34265,37.86407],[127.34261,37.86407],[127.34256,37.86414],[127.34249,37.86414]]]}},{"type":"Feature","properties":{"valleyId":"hyeondeungsa","layer":"shadow","date":"2026-08-01","timeLocal":"17:00"},"geometry":{"type":"Polygon","coordinates":[[[127.34521,37.86348],[127.34521,37.8634],[127.34528,37.86341],[127.3453,37.86348],[127.34521,37.86348]]]}},{"type":"Feature","properties":{"valleyId":"hyeondeungsa","layer":"shadow","date":"2026-08-01","timeLocal":"17:00"},"geometry":{"type":"Polygon","coordinates":[[[127.35046,37.8636],[127.35044,37.86351],[127.35039,37.86351],[127.3504,37.86341],[127.35046,37.86341],[127.35048,37.86351],[127.35053,37.86352],[127.35053,37.86361],[127.35046,37.8636]]]}},{"type":"Feature","properties":{"valleyId":"hyeondeungsa","layer":"shadow","date":"2026-08-01","timeLocal":"17:00"},"geometry":{"type":"Polygon","coordinates":[[[127.34558,37.86337],[127.34558,37.86327],[127.3456,37.86323],[127.34567,37.86323],[127.34569,37.86336],[127.34558,37.86337]]]}},{"type":"Feature","properties":{"valleyId":"hyeondeungsa","layer":"shadow","date":"2026-08-01","timeLocal":"17:00"},"geometry":{"type":"Polygon","coordinates":[[[127.34687,37.86343],[127.34685,37.86325],[127.34692,37.86325],[127.34697,37.86328],[127.34696,37.86339],[127.34694,37.86343],[127.34687,37.86343]]]}},{"type":"Feature","properties":{"valleyId":"hyeondeungsa","layer":"shadow","date":"2026-08-01","timeLocal":"17:00"},"geometry":{"type":"Polygon","coordinates":[[[127.34679,37.86325],[127.34679,37.86319],[127.34685,37.86319],[127.34685,37.86325],[127.34679,37.86325]]]}},{"type":"Feature","properties":{"valleyId":"hyeondeungsa","layer":"shadow","date":"2026-08-01","timeLocal":"17:00"},"geometry":{"type":"Polygon","coordinates":[[[127.34589,37.86343],[127.34592,37.86331],[127.34585,37.86325],[127.34585,37.8632],[127.34588,37.86313],[127.34597,37.86311],[127.34604,37.86313],[127.34601,37.86327],[127.3461,37.86331],[127.3461,37.86336],[127.34599,37.86343],[127.34589,37.86343]]]}},{"type":"Feature","properties":{"valleyId":"hyeondeungsa","layer":"shadow","date":"2026-08-01","timeLocal":"17:00"},"geometry":{"type":"Polygon","coordinates":[[[127.34442,37.86332],[127.34442,37.86329],[127.34435,37.86323],[127.34438,37.86301],[127.34445,37.86302],[127.34444,37.8632],[127.34453,37.86327],[127.34453,37.86332],[127.34442,37.86332]]]}},{"type":"Feature","properties":{"valleyId":"hyeondeungsa","layer":"shadow","date":"2026-08-01","timeLocal":"17:00"},"geometry":{"type":"Polygon","coordinates":[[[127.34683,37.8631],[127.34684,37.86301],[127.34688,37.86294],[127.34695,37.86294],[127.34697,37.86307],[127.34692,37.8631],[127.34683,37.8631]]]}},{"type":"Feature","properties":{"valleyId":"hyeondeungsa","layer":"shadow","date":"2026-08-01","timeLocal":"17:00"},"geometry":{"type":"Polygon","coordinates":[[[127.34731,37.86313],[127.34734,37.86284],[127.34741,37.86284],[127.34745,37.86306],[127.34738,37.86313],[127.34731,37.86313]]]}},{"type":"Feature","properties":{"valleyId":"hyeondeungsa","layer":"shadow","date":"2026-08-01","timeLocal":"17:00"},"geometry":{"type":"Polygon","coordinates":[[[127.3485,37.86289],[127.3485,37.86284],[127.34857,37.86278],[127.34857,37.86266],[127.34891,37.86268],[127.34891,37.86274],[127.34886,37.86277],[127.34882,37.86277],[127.3488,37.86281],[127.34859,37.86289],[127.3485,37.86289]]]}},{"type":"Feature","properties":{"valleyId":"hyeondeungsa","layer":"shadow","date":"2026-08-01","timeLocal":"17:00"},"geometry":{"type":"Polygon","coordinates":[[[127.34698,37.86253],[127.34698,37.86247],[127.34705,37.86247],[127.34705,37.86253],[127.34698,37.86253]]]}},{"type":"Feature","properties":{"valleyId":"hyeondeungsa","layer":"shadow","date":"2026-08-01","timeLocal":"17:00"},"geometry":{"type":"Polygon","coordinates":[[[127.34404,37.86287],[127.34395,37.86279],[127.34394,37.86258],[127.34389,37.86254],[127.34389,37.86239],[127.34433,37.8624],[127.34432,37.86267],[127.34427,37.86269],[127.34427,37.86274],[127.34418,37.8628],[127.34413,37.86287],[127.34404,37.86287]]]}},{"type":"Feature","properties":{"valleyId":"hyeondeungsa","layer":"shadow","date":"2026-08-01","timeLocal":"17:00"},"geometry":{"type":"Polygon","coordinates":[[[127.34376,37.86234],[127.34376,37.86228],[127.34385,37.86225],[127.34408,37.86223],[127.34408,37.86229],[127.34403,37.86231],[127.34376,37.86234]]]}},{"type":"Feature","properties":{"valleyId":"hyeondeungsa","layer":"shadow","date":"2026-08-01","timeLocal":"17:00"},"geometry":{"type":"Polygon","coordinates":[[[127.3446,37.86228],[127.34463,37.86217],[127.34454,37.8621],[127.34456,37.86195],[127.34481,37.86197],[127.34481,37.86216],[127.34488,37.86216],[127.34488,37.86221],[127.34483,37.86221],[127.34483,37.86225],[127.34478,37.86224],[127.34476,37.86228],[127.3446,37.86228]]]}},{"type":"Feature","properties":{"valleyId":"hyeondeungsa","layer":"shadow","date":"2026-08-01","timeLocal":"17:00"},"geometry":{"type":"Polygon","coordinates":[[[127.34341,37.86251],[127.34335,37.86244],[127.34314,37.86242],[127.34301,37.86231],[127.34274,37.86222],[127.34263,37.86207],[127.34261,37.86198],[127.34254,37.86196],[127.34254,37.86191],[127.3427,37.86189],[127.34272,37.86198],[127.34277,37.86198],[127.34277,37.86202],[127.34313,37.86206],[127.34313,37.86213],[127.34333,37.86235],[127.34367,37.86234],[127.34364,37.86248],[127.34355,37.86252],[127.34341,37.86251]]]}}]}
