{"type":"FeatureCollection","metadata":{"description":"개방지(CHM ≤ 2 m)에 드리운 나무·지형 그림자, 2026-08-01 18:00 KST. canopy 위에 겹쳐 그린다","source":"위성 기반 추정 — Copernicus GLO-30 지형(30 m) + Meta/WRI 수관 높이(1 m CHM, 2019 촬영). 그늘 = 수관(CHM > 2 m) ∪ 나무·지형 그림자 ∪ 원거리 지형 마스크. 현장과 다를 수 있음.","datasetVersion":"2026-09-06.0","collectedAt":"2026-09-06","coordinateOrder":"[longitude, latitude]","crs":"EPSG:4326","representativeDate":"2026-08-01","hours":["10:00","11:00","12:00","13:00","14:00","15:00","16:00","17:00","18:00"],"chmAcquisition":["2019-03"],"assets":{"glo30":{"dataset":"Copernicus DEM GLO-30 (COG, s3://copernicus-dem-30m)","tiles":["Copernicus_DSM_COG_10_N37_00_E127_00_DEM"]},"chm":{"dataset":"Meta/WRI Global Canopy Height Map v1 (alsgedi_global_v6_float, 1 m, CC-BY 4.0)","quadkeys":["132110303"],"acquisition":["2019-03"]}},"method":{"gridResM":2,"canopyThresholdM":2,"bufferHalfM":25,"corridorHalfM":200,"simplifyTolM":2,"minAreaM2":25,"coordDecimals":5},"generator":"scripts/shade 0.1.0","builtAt":"2026-09-06T06:00:46Z","layer":"shadow","timeLocal":"18:00"},"features":[{"type":"Feature","properties":{"valleyId":"hyeondeungsa","layer":"shadow","date":"2026-08-01","timeLocal":"18:00"},"geometry":{"type":"Polygon","coordinates":[[[127.33274,37.86918],[127.33274,37.8691],[127.33279,37.86907],[127.33283,37.86907],[127.33285,37.86903],[127.33297,37.86904],[127.33294,37.86911],[127.33285,37.86912],[127.33283,37.86918],[127.33274,37.86918]]]}},{"type":"Feature","properties":{"valleyId":"hyeondeungsa","layer":"shadow","date":"2026-08-01","timeLocal":"18:00"},"geometry":{"type":"Polygon","coordinates":[[[127.33578,37.86852],[127.33576,37.86843],[127.3358,37.86832],[127.33594,37.8683],[127.33589,37.86846],[127.33585,37.86848],[127.33584,37.86852],[127.33578,37.86852]]]}},{"type":"Feature","properties":{"valleyId":"hyeondeungsa","layer":"shadow","date":"2026-08-01","timeLocal":"18:00"},"geometry":{"type":"Polygon","coordinates":[[[127.34344,37.86724],[127.34333,37.86722],[127.34333,37.86716],[127.3434,37.86711],[127.34347,37.86711],[127.34349,37.86717],[127.34358,37.86718],[127.34358,37.86724],[127.34344,37.86724]]]}},{"type":"Feature","properties":{"valleyId":"hyeondeungsa","layer":"shadow","date":"2026-08-01","timeLocal":"18:00"},"geometry":{"type":"Polygon","coordinates":[[[127.3437,37.86717],[127.3437,37.86711],[127.34377,37.86712],[127.34376,37.86717],[127.3437,37.86717]]]}},{"type":"Feature","properties":{"valleyId":"hyeondeungsa","layer":"shadow","date":"2026-08-01","timeLocal":"18:00"},"geometry":{"type":"Polygon","coordinates":[[[127.3428,37.86739],[127.34274,37.86733],[127.34253,37.86733],[127.34254,37.86721],[127.34258,37.86721],[127.34263,37.86715],[127.34281,37.86708],[127.34293,37.86709],[127.34292,37.86714],[127.34281,37.86716],[127.34281,37.86723],[127.3429,37.86727],[127.34294,37.86739],[127.3428,37.86739]]]}},{"type":"Feature","properties":{"valleyId":"hyeondeungsa","layer":"shadow","date":"2026-08-01","timeLocal":"18:00"},"geometry":{"type":"Polygon","coordinates":[[[127.34392,37.86712],[127.34397,37.86697],[127.34402,37.86696],[127.34402,37.86692],[127.34409,37.86692],[127.34406,37.8671],[127.34392,37.86712]]]}},{"type":"Feature","properties":{"valleyId":"hyeondeungsa","layer":"shadow","date":"2026-08-01","timeLocal":"18:00"},"geometry":{"type":"Polygon","coordinates":[[[127.34548,37.86681],[127.3453,37.86676],[127.3453,37.86669],[127.34539,37.86667],[127.34551,37.8666],[127.34566,37.86658],[127.34566,37.86664],[127.34557,37.86665],[127.34559,37.86682],[127.34548,37.86681]]]}},{"type":"Feature","properties":{"valleyId":"hyeondeungsa","layer":"shadow","date":"2026-08-01","timeLocal":"18:00"},"geometry":{"type":"Polygon","coordinates":[[[127.33759,37.86652],[127.3376,37.86643],[127.33769,37.86643],[127.33766,37.86652],[127.33759,37.86652]]]}},{"type":"Feature","properties":{"valleyId":"hyeondeungsa","layer":"shadow","date":"2026-08-01","timeLocal":"18:00"},"geometry":{"type":"Polygon","coordinates":[[[127.34908,37.86647],[127.34908,37.86641],[127.34915,37.86642],[127.34915,37.86647],[127.34908,37.86647]]]}},{"type":"Feature","properties":{"valleyId":"hyeondeungsa","layer":"shadow","date":"2026-08-01","timeLocal":"18:00"},"geometry":{"type":"Polygon","coordinates":[[[127.34305,37.86642],[127.34303,37.86629],[127.3431,37.86629],[127.34312,37.86642],[127.34305,37.86642]]]}},{"type":"Feature","properties":{"valleyId":"hyeondeungsa","layer":"shadow","date":"2026-08-01","timeLocal":"18:00"},"geometry":{"type":"Polygon","coordinates":[[[127.34873,37.86657],[127.34869,37.86645],[127.34853,37.86643],[127.34849,37.86637],[127.34844,37.86637],[127.34844,37.86632],[127.34854,37.86632],[127.34856,37.86635],[127.34867,37.86635],[127.34872,37.86639],[127.34883,37.86639],[127.34887,37.86645],[127.34899,37.86647],[127.34899,37.86654],[127.34873,37.86657]]]}},{"type":"Feature","properties":{"valleyId":"hyeondeungsa","layer":"shadow","date":"2026-08-01","timeLocal":"18:00"},"geometry":{"type":"Polygon","coordinates":[[[127.34928,37.86638],[127.34922,37.8662],[127.34952,37.86622],[127.34951,37.86629],[127.34944,37.86635],[127.3494,37.86635],[127.34938,37.86638],[127.34928,37.86638]]]}},{"type":"Feature","properties":{"valleyId":"hyeondeungsa","layer":"shadow","date":"2026-08-01","timeLocal":"18:00"},"geometry":{"type":"Polygon","coordinates":[[[127.3487,37.86618],[127.3487,37.8661],[127.34881,37.8661],[127.34879,37.86618],[127.3487,37.86618]]]}},{"type":"Feature","properties":{"valleyId":"hyeondeungsa","layer":"shadow","date":"2026-08-01","timeLocal":"18:00"},"geometry":{"type":"Polygon","coordinates":[[[127.34895,37.86611],[127.34893,37.86596],[127.34911,37.86596],[127.34909,37.86607],[127.34904,37.86607],[127.34904,37.86611],[127.34895,37.86611]]]}},{"type":"Feature","properties":{"valleyId":"hyeondeungsa","layer":"shadow","date":"2026-08-01","timeLocal":"18:00"},"geometry":{"type":"Polygon","coordinates":[[[127.34842,37.86619],[127.34843,37.86612],[127.34838,37.86606],[127.34839,37.86588],[127.34857,37.86592],[127.34852,37.86619],[127.34842,37.86619]]]}},{"type":"Feature","properties":{"valleyId":"hyeondeungsa","layer":"shadow","date":"2026-08-01","timeLocal":"18:00"},"geometry":{"type":"Polygon","coordinates":[[[127.34934,37.86611],[127.34934,37.86606],[127.34925,37.866],[127.34923,37.86593],[127.34918,37.86593],[127.34916,37.86578],[127.3493,37.86579],[127.34936,37.86582],[127.34934,37.86593],[127.34941,37.86593],[127.3494,37.86611],[127.34934,37.86611]]]}},{"type":"Feature","properties":{"valleyId":"hyeondeungsa","layer":"shadow","date":"2026-08-01","timeLocal":"18:00"},"geometry":{"type":"Polygon","coordinates":[[[127.35032,37.8656],[127.35033,37.86555],[127.35042,37.86555],[127.35042,37.8656],[127.35032,37.8656]]]}},{"type":"Feature","properties":{"valleyId":"hyeondeungsa","layer":"shadow","date":"2026-08-01","timeLocal":"18:00"},"geometry":{"type":"Polygon","coordinates":[[[127.35007,37.86587],[127.35007,37.86582],[127.34996,37.86581],[127.34996,37.8656],[127.34992,37.8656],[127.34992,37.86549],[127.3501,37.86551],[127.3501,37.86556],[127.35005,37.86556],[127.35005,37.86564],[127.35025,37.86569],[127.35025,37.86575],[127.35014,37.86578],[127.35014,37.86587],[127.35007,37.86587]]]}},{"type":"Feature","properties":{"valleyId":"hyeondeungsa","layer":"shadow","date":"2026-08-01","timeLocal":"18:00"},"geometry":{"type":"Polygon","coordinates":[[[127.34564,37.86548],[127.34567,37.86541],[127.34585,37.86538],[127.34585,37.86543],[127.3458,37.86547],[127.34564,37.86548]]]}},{"type":"Feature","properties":{"valleyId":"hyeondeungsa","layer":"shadow","date":"2026-08-01","timeLocal":"18:00"},"geometry":{"type":"Polygon","coordinates":[[[127.3465,37.86687],[127.3465,37.86676],[127.34627,37.86675],[127.34628,37.86666],[127.34612,37.86666],[127.34612,37.86654],[127.34628,37.8665],[127.34647,37.86638],[127.34667,37.86638],[127.34664,37.86652],[127.34669,37.86656],[127.3468,37.86656],[127.34685,37.86651],[127.34692,37.86649],[127.34692,37.86638],[127.34676,37.86636],[127.34676,37.86631],[127.34695,37.86626],[127.34697,37.86619],[127.34704,37.86613],[127.34713,37.86614],[127.34715,37.86617],[127.34731,37.86616],[127.34745,37.86607],[127.34761,37.86605],[127.34768,37.86596],[127.34777,37.86595],[127.34784,37.86582],[127.34796,37.86582],[127.34805,37.86579],[127.34805,37.8657],[127.3478,37.86571],[127.34777,37.86577],[127.34766,37.86582],[127.34764,37.86589],[127.34754,37.86596],[127.34738,37.86598],[127.34739,37.86587],[127.34743,37.86583],[127.34746,37.86571],[127.34753,37.86571],[127.34762,37.86566],[127.34762,37.86557],[127.34742,37.86558],[127.34739,37.86554],[127.34719,37.86554],[127.34712,37.86552],[127.34705,37.86545],[127.34696,37.86545],[127.34696,37.86539],[127.34715,37.8654],[127.34717,37.86543],[127.34728,37.86543],[127.34733,37.86547],[127.34746,37.86547],[127.34758,37.86551],[127.34774,37.86549],[127.34782,37.86555],[127.34801,37.86559],[127.34801,37.86562],[127.34807,37.86563],[127.34807,37.86566],[127.34814,37.86568],[127.34832,37.86568],[127.34832,37.86563],[127.34841,37.86565],[127.34841,37.86572],[127.34837,37.86576],[127.34825,37.86575],[127.34825,37.86581],[127.3482,37.86584],[127.34809,37.86586],[127.34804,37.86602],[127.34786,37.86606],[127.34772,37.86616],[127.34765,37.86616],[127.34763,37.86629],[127.34751,37.8663],[127.34747,37.86637],[127.34737,37.86639],[127.34737,37.86643],[127.34731,37.86643],[127.3473,37.8665],[127.34705,37.86655],[127.34705,37.86664],[127.34696,37.86666],[127.34696,37.86676],[127.347,37.86676],[127.347,37.86684],[127.3468,37.86687],[127.34677,37.86678],[127.34668,37.86678],[127.34668,37.86687],[127.3465,37.86687]],[[127.34646,37.86667],[127.34666,37.86667],[127.34666,37.86662],[127.34651,37.86658],[127.34646,37.86659],[127.34646,37.86667]],[[127.34708,37.86633],[127.34717,37.86633],[127.3472,37.86624],[127.34708,37.86624],[127.34708,37.86633]]]}},{"type":"Feature","properties":{"valleyId":"hyeondeungsa","layer":"shadow","date":"2026-08-01","timeLocal":"18:00"},"geometry":{"type":"Polygon","coordinates":[[[127.34587,37.8654],[127.3459,37.86531],[127.34603,37.86531],[127.34601,37.86538],[127.34587,37.8654]]]}},{"type":"Feature","properties":{"valleyId":"hyeondeungsa","layer":"shadow","date":"2026-08-01","timeLocal":"18:00"},"geometry":{"type":"Polygon","coordinates":[[[127.33846,37.86554],[127.33846,37.86527],[127.33856,37.8652],[127.33869,37.86519],[127.33876,37.86513],[127.33885,37.86514],[127.33885,37.86521],[127.33881,37.86522],[127.33878,37.86531],[127.33874,37.86531],[127.3386,37.86542],[127.3386,37.86546],[127.33855,37.86547],[127.33855,37.86555],[127.33846,37.86554]]]}},{"type":"Feature","properties":{"valleyId":"hyeondeungsa","layer":"shadow","date":"2026-08-01","timeLocal":"18:00"},"geometry":{"type":"Polygon","coordinates":[[[127.34823,37.86559],[127.34819,37.86557],[127.34819,37.8655],[127.34821,37.86545],[127.34828,37.86541],[127.34828,37.86532],[127.34822,37.86527],[127.34815,37.86527],[127.3481,37.86523],[127.34811,37.86518],[127.34829,37.86518],[127.34838,37.86523],[127.34869,37.86529],[127.34867,37.86536],[127.34853,37.86536],[127.34853,37.86542],[127.3486,37.86542],[127.34862,37.86549],[127.34833,37.86554],[127.34832,37.86559],[127.34823,37.86559]]]}},{"type":"Feature","properties":{"valleyId":"hyeondeungsa","layer":"shadow","date":"2026-08-01","timeLocal":"18:00"},"geometry":{"type":"Polygon","coordinates":[[[127.34736,37.86515],[127.34736,37.86509],[127.34754,37.8651],[127.34754,37.86515],[127.34736,37.86515]]]}},{"type":"Feature","properties":{"valleyId":"hyeondeungsa","layer":"shadow","date":"2026-08-01","timeLocal":"18:00"},"geometry":{"type":"Polygon","coordinates":[[[127.34884,37.86508],[127.34884,37.86501],[127.34891,37.86501],[127.34893,37.86508],[127.34884,37.86508]]]}},{"type":"Feature","properties":{"valleyId":"hyeondeungsa","layer":"shadow","date":"2026-08-01","timeLocal":"18:00"},"geometry":{"type":"Polygon","coordinates":[[[127.33927,37.86503],[127.33929,37.86487],[127.33943,37.86487],[127.33945,37.865],[127.3394,37.86503],[127.33927,37.86503]]]}},{"type":"Feature","properties":{"valleyId":"hyeondeungsa","layer":"shadow","date":"2026-08-01","timeLocal":"18:00"},"geometry":{"type":"Polygon","coordinates":[[[127.34804,37.86501],[127.34804,37.8649],[127.34816,37.86491],[127.34818,37.86498],[127.34804,37.86501]]]}},{"type":"Feature","properties":{"valleyId":"hyeondeungsa","layer":"shadow","date":"2026-08-01","timeLocal":"18:00"},"geometry":{"type":"Polygon","coordinates":[[[127.34254,37.86508],[127.34254,37.86504],[127.34247,37.86504],[127.34243,37.86501],[127.34236,37.86486],[127.34229,37.86486],[127.34229,37.86477],[127.34236,37.86477],[127.34236,37.86484],[127.34259,37.86488],[127.34261,37.86497],[127.34265,37.86497],[127.34265,37.86501],[127.34272,37.86501],[127.3427,37.86508],[127.34254,37.86508]]]}},{"type":"Feature","properties":{"valleyId":"hyeondeungsa","layer":"shadow","date":"2026-08-01","timeLocal":"18:00"},"geometry":{"type":"Polygon","coordinates":[[[127.34909,37.86494],[127.34909,37.86486],[127.34916,37.86487],[127.34916,37.86494],[127.34909,37.86494]]]}},{"type":"Feature","properties":{"valleyId":"hyeondeungsa","layer":"shadow","date":"2026-08-01","timeLocal":"18:00"},"geometry":{"type":"Polygon","coordinates":[[[127.33979,37.86491],[127.3397,37.86484],[127.3397,37.86475],[127.33975,37.86472],[127.34,37.86474],[127.34007,37.86468],[127.34016,37.86469],[127.34013,37.86479],[127.34002,37.86479],[127.33991,37.86484],[127.3399,37.8649],[127.33979,37.86491]]]}},{"type":"Feature","properties":{"valleyId":"hyeondeungsa","layer":"shadow","date":"2026-08-01","timeLocal":"18:00"},"geometry":{"type":"Polygon","coordinates":[[[127.33757,37.86476],[127.33745,37.86465],[127.33746,37.86457],[127.33757,37.86458],[127.33764,37.86463],[127.33768,37.86463],[127.33766,37.86476],[127.33757,37.86476]]]}},{"type":"Feature","properties":{"valleyId":"hyeondeungsa","layer":"shadow","date":"2026-08-01","timeLocal":"18:00"},"geometry":{"type":"Polygon","coordinates":[[[127.34784,37.86483],[127.34784,37.86479],[127.3478,37.86479],[127.3478,37.86465],[127.34796,37.86467],[127.34798,37.86476],[127.34791,37.86478],[127.34791,37.86483],[127.34784,37.86483]]]}},{"type":"Feature","properties":{"valleyId":"hyeondeungsa","layer":"shadow","date":"2026-08-01","timeLocal":"18:00"},"geometry":{"type":"Polygon","coordinates":[[[127.34257,37.86459],[127.34257,37.86452],[127.34264,37.86452],[127.34264,37.86459],[127.34257,37.86459]]]}},{"type":"Feature","properties":{"valleyId":"hyeondeungsa","layer":"shadow","date":"2026-08-01","timeLocal":"18:00"},"geometry":{"type":"Polygon","coordinates":[[[127.34766,37.86461],[127.34767,37.86454],[127.34758,37.86448],[127.34749,37.86448],[127.34748,37.86452],[127.34742,37.86452],[127.34742,37.86437],[127.34765,37.86439],[127.34778,37.8645],[127.34798,37.86451],[127.34798,37.86456],[127.34794,37.86458],[127.34785,37.86458],[127.34782,37.86461],[127.34766,37.86461]]]}},{"type":"Feature","properties":{"valleyId":"hyeondeungsa","layer":"shadow","date":"2026-08-01","timeLocal":"18:00"},"geometry":{"type":"Polygon","coordinates":[[[127.34728,37.86437],[127.34731,37.86421],[127.34729,37.86417],[127.3472,37.86417],[127.34715,37.86413],[127.34715,37.86408],[127.34727,37.86408],[127.34731,37.8641],[127.34731,37.86415],[127.34747,37.86419],[127.34747,37.86425],[127.34738,37.8643],[127.34737,37.86437],[127.34728,37.86437]]]}},{"type":"Feature","properties":{"valleyId":"hyeondeungsa","layer":"shadow","date":"2026-08-01","timeLocal":"18:00"},"geometry":{"type":"Polygon","coordinates":[[[127.3466,37.86544],[127.34646,37.86542],[127.34633,37.86535],[127.34622,37.86535],[127.34617,37.86531],[127.34617,37.86524],[127.34626,37.86524],[127.34627,37.86515],[127.3462,37.86506],[127.34622,37.86491],[127.34618,37.86486],[127.34616,37.86463],[127.34612,37.86459],[127.34598,37.86459],[127.34594,37.86453],[127.34578,37.86449],[127.34578,37.86446],[127.34571,37.8644],[127.34567,37.8644],[127.34567,37.86437],[127.3456,37.86431],[127.34547,37.86426],[127.34531,37.86425],[127.34529,37.86418],[127.34556,37.8642],[127.34556,37.86409],[127.34565,37.8641],[127.34565,37.86404],[127.34599,37.86405],[127.34601,37.86419],[127.3462,37.86419],[127.34635,37.86423],[127.34649,37.86422],[127.34649,37.86425],[127.34672,37.86425],[127.34678,37.86429],[127.34692,37.86429],[127.34694,37.86433],[127.34701,37.86433],[127.34705,37.86442],[127.3471,37.86442],[127.3471,37.86448],[127.34719,37.86451],[127.34716,37.86469],[127.34721,37.86473],[127.34721,37.86478],[127.3473,37.86479],[127.34729,37.86486],[127.34718,37.86486],[127.34704,37.86498],[127.34697,37.865],[127.34697,37.86505],[127.3472,37.86505],[127.3472,37.86513],[127.34715,37.86513],[127.34708,37.8652],[127.34683,37.86523],[127.34686,37.8651],[127.34677,37.86508],[127.34672,37.86512],[127.34672,37.86523],[127.34667,37.86523],[127.34665,37.86526],[127.34665,37.86535],[127.34676,37.86537],[127.34676,37.86544],[127.3466,37.86544]],[[127.3464,37.86438],[127.34653,37.86436],[127.34653,37.86431],[127.3464,37.8643],[127.3464,37.86438]]]}},{"type":"Feature","properties":{"valleyId":"hyeondeungsa","layer":"shadow","date":"2026-08-01","timeLocal":"18:00"},"geometry":{"type":"Polygon","coordinates":[[[127.33711,37.86399],[127.33711,37.8639],[127.3372,37.86389],[127.33722,37.86398],[127.33711,37.86399]]]}},{"type":"Feature","properties":{"valleyId":"hyeondeungsa","layer":"shadow","date":"2026-08-01","timeLocal":"18:00"},"geometry":{"type":"Polygon","coordinates":[[[127.34608,37.86407],[127.34609,37.86398],[127.3462,37.864],[127.3462,37.86407],[127.34608,37.86407]]]}},{"type":"Feature","properties":{"valleyId":"hyeondeungsa","layer":"shadow","date":"2026-08-01","timeLocal":"18:00"},"geometry":{"type":"Polygon","coordinates":[[[127.34444,37.86422],[127.34433,37.86417],[127.34404,37.86413],[127.34402,37.86407],[127.34397,37.86407],[127.3439,37.86396],[127.34386,37.86394],[127.34386,37.86387],[127.34402,37.86387],[127.34406,37.86391],[127.34436,37.86395],[127.34436,37.86399],[127.34463,37.86403],[127.34463,37.8641],[127.34476,37.86412],[127.34479,37.86416],[127.34479,37.86421],[127.34444,37.86422]]]}},{"type":"Feature","properties":{"valleyId":"hyeondeungsa","layer":"shadow","date":"2026-08-01","timeLocal":"18:00"},"geometry":{"type":"Polygon","coordinates":[[[127.35079,37.8641],[127.35073,37.86395],[127.35073,37.8639],[127.35079,37.8639],[127.35084,37.86397],[127.35086,37.8641],[127.35079,37.8641]]]}},{"type":"Feature","properties":{"valleyId":"hyeondeungsa","layer":"shadow","date":"2026-08-01","timeLocal":"18:00"},"geometry":{"type":"Polygon","coordinates":[[[127.34405,37.86373],[127.34407,37.86366],[127.34416,37.86364],[127.34419,37.86361],[127.34425,37.86361],[127.34425,37.86368],[127.34418,37.86368],[127.34414,37.86373],[127.34405,37.86373]]]}},{"type":"Feature","properties":{"valleyId":"hyeondeungsa","layer":"shadow","date":"2026-08-01","timeLocal":"18:00"},"geometry":{"type":"Polygon","coordinates":[[[127.34686,37.86393],[127.34686,37.86388],[127.34682,37.86384],[127.34664,37.86382],[127.34664,37.86375],[127.34671,37.86371],[127.34675,37.86361],[127.34685,37.86361],[127.34687,37.86366],[127.34686,37.86379],[127.34693,37.86388],[127.34693,37.86393],[127.34686,37.86393]]]}},{"type":"Feature","properties":{"valleyId":"hyeondeungsa","layer":"shadow","date":"2026-08-01","timeLocal":"18:00"},"geometry":{"type":"Polygon","coordinates":[[[127.34555,37.86363],[127.34553,37.86357],[127.34544,37.86355],[127.34544,37.8635],[127.34564,37.86354],[127.34566,37.86363],[127.34555,37.86363]]]}},{"type":"Feature","properties":{"valleyId":"hyeondeungsa","layer":"shadow","date":"2026-08-01","timeLocal":"18:00"},"geometry":{"type":"Polygon","coordinates":[[[127.34632,37.86369],[127.34632,37.86364],[127.34641,37.86364],[127.34641,37.8636],[127.34646,37.8636],[127.34648,37.86349],[127.3466,37.8635],[127.34657,37.8636],[127.34648,37.8636],[127.34646,37.86369],[127.34632,37.86369]]]}},{"type":"Feature","properties":{"valleyId":"hyeondeungsa","layer":"shadow","date":"2026-08-01","timeLocal":"18:00"},"geometry":{"type":"Polygon","coordinates":[[[127.34761,37.86387],[127.34761,37.86378],[127.34757,37.86376],[127.34758,37.86349],[127.34773,37.86351],[127.34773,37.8636],[127.34764,37.86365],[127.34764,37.86371],[127.34805,37.86373],[127.34805,37.86379],[127.348,37.8638],[127.34791,37.8638],[127.34786,37.86384],[127.3477,37.86384],[127.3477,37.86387],[127.34761,37.86387]]]}},{"type":"Feature","properties":{"valleyId":"hyeondeungsa","layer":"shadow","date":"2026-08-01","timeLocal":"18:00"},"geometry":{"type":"Polygon","coordinates":[[[127.3431,37.86424],[127.3431,37.86417],[127.34299,37.86409],[127.34299,37.86402],[127.34293,37.86402],[127.3429,37.86407],[127.34279,37.86407],[127.34279,37.86411],[127.34258,37.86411],[127.34256,37.86414],[127.34249,37.86414],[127.34252,37.86385],[127.34264,37.86378],[127.34262,37.8636],[127.34253,37.86351],[127.34253,37.8634],[127.34271,37.86344],[127.34278,37.86357],[127.34316,37.86357],[127.34321,37.86361],[127.3433,37.86361],[127.34327,37.86386],[127.34332,37.86386],[127.34331,37.86401],[127.34306,37.86401],[127.34306,37.86406],[127.34345,37.86405],[127.34345,37.86412],[127.34324,37.86417],[127.34317,37.86424],[127.3431,37.86424]]]}},{"type":"Feature","properties":{"valleyId":"hyeondeungsa","layer":"shadow","date":"2026-08-01","timeLocal":"18:00"},"geometry":{"type":"Polygon","coordinates":[[[127.34521,37.86348],[127.34521,37.86335],[127.34528,37.86335],[127.3453,37.86348],[127.34521,37.86348]]]}},{"type":"Feature","properties":{"valleyId":"hyeondeungsa","layer":"shadow","date":"2026-08-01","timeLocal":"18:00"},"geometry":{"type":"Polygon","coordinates":[[[127.35048,37.86362],[127.35044,37.86351],[127.35039,37.86351],[127.35037,37.86335],[127.35044,37.86335],[127.35044,37.86339],[127.35053,37.86344],[127.35053,37.8635],[127.3506,37.86353],[127.3506,37.86361],[127.35048,37.86362]]]}},{"type":"Feature","properties":{"valleyId":"hyeondeungsa","layer":"shadow","date":"2026-08-01","timeLocal":"18:00"},"geometry":{"type":"Polygon","coordinates":[[[127.34203,37.86334],[127.34206,37.8632],[127.34224,37.86324],[127.34224,37.86329],[127.34219,37.86333],[127.34203,37.86334]]]}},{"type":"Feature","properties":{"valleyId":"hyeondeungsa","layer":"shadow","date":"2026-08-01","timeLocal":"18:00"},"geometry":{"type":"Polygon","coordinates":[[[127.34558,37.86337],[127.3456,37.86323],[127.34572,37.86321],[127.34572,37.86325],[127.34576,37.86327],[127.34576,37.86334],[127.34569,37.86338],[127.34558,37.86337]]]}},{"type":"Feature","properties":{"valleyId":"hyeondeungsa","layer":"shadow","date":"2026-08-01","timeLocal":"18:00"},"geometry":{"type":"Polygon","coordinates":[[[127.34663,37.86317],[127.34663,37.86312],[127.3467,37.86312],[127.3467,37.86317],[127.34663,37.86317]]]}},{"type":"Feature","properties":{"valleyId":"hyeondeungsa","layer":"shadow","date":"2026-08-01","timeLocal":"18:00"},"geometry":{"type":"Polygon","coordinates":[[[127.34591,37.86367],[127.34591,37.86359],[127.34585,37.86356],[127.34585,37.86345],[127.34592,37.86338],[127.34592,37.86331],[127.34585,37.86325],[127.34588,37.86311],[127.34577,37.86311],[127.34577,37.86303],[127.34611,37.86304],[127.34617,37.86309],[127.34619,37.8632],[127.34631,37.86322],[127.34633,37.86319],[127.3464,37.86319],[127.34642,37.8633],[127.34633,37.86331],[127.34631,37.86335],[127.34619,37.86335],[127.34615,37.86336],[127.34615,37.8634],[127.34603,37.8634],[127.34601,37.86343],[127.34594,37.86343],[127.34594,37.86349],[127.34614,37.86356],[127.34614,37.86362],[127.34607,37.86361],[127.346,37.86367],[127.34591,37.86367]]]}},{"type":"Feature","properties":{"valleyId":"hyeondeungsa","layer":"shadow","date":"2026-08-01","timeLocal":"18:00"},"geometry":{"type":"Polygon","coordinates":[[[127.34636,37.8631],[127.34636,37.86304],[127.34658,37.86305],[127.34658,37.8631],[127.34636,37.8631]]]}},{"type":"Feature","properties":{"valleyId":"hyeondeungsa","layer":"shadow","date":"2026-08-01","timeLocal":"18:00"},"geometry":{"type":"Polygon","coordinates":[[[127.34691,37.86366],[127.34687,37.86355],[127.34694,37.86352],[127.34694,37.86346],[127.34687,37.86343],[127.34685,37.86327],[127.34679,37.86325],[127.34676,37.86319],[127.34672,37.86319],[127.34672,37.86314],[127.34683,37.86312],[127.34684,37.86301],[127.34688,37.86294],[127.34702,37.86294],[127.34704,37.86309],[127.34697,37.8631],[127.34697,37.86316],[127.34706,37.86316],[127.34708,37.86323],[127.34713,37.86325],[127.34712,37.86334],[127.34708,37.86336],[127.34712,37.8635],[127.34703,37.86352],[127.34698,37.86356],[127.34698,37.86366],[127.34691,37.86366]]]}},{"type":"Feature","properties":{"valleyId":"hyeondeungsa","layer":"shadow","date":"2026-08-01","timeLocal":"18:00"},"geometry":{"type":"Polygon","coordinates":[[[127.34729,37.86315],[127.34729,37.86309],[127.34734,37.86306],[127.34732,37.86279],[127.34739,37.86279],[127.34756,37.86295],[127.34756,37.86306],[127.34747,37.86308],[127.34742,37.86313],[127.34729,37.86315]]]}},{"type":"Feature","properties":{"valleyId":"hyeondeungsa","layer":"shadow","date":"2026-08-01","timeLocal":"18:00"},"geometry":{"type":"Polygon","coordinates":[[[127.3484,37.863],[127.34841,37.86289],[127.34845,37.86289],[127.34857,37.86278],[127.34857,37.86266],[127.34916,37.8627],[127.34916,37.86281],[127.34907,37.86281],[127.34907,37.86277],[127.349,37.86277],[127.34895,37.86281],[127.34889,37.86281],[127.34886,37.86284],[127.34875,37.86284],[127.34875,37.863],[127.3484,37.863]]]}},{"type":"Feature","properties":{"valleyId":"hyeondeungsa","layer":"shadow","date":"2026-08-01","timeLocal":"18:00"},"geometry":{"type":"Polygon","coordinates":[[[127.34703,37.8626],[127.34698,37.86256],[127.34696,37.86237],[127.34705,37.86237],[127.34705,37.86242],[127.3471,37.86242],[127.3471,37.8626],[127.34703,37.8626]]]}},{"type":"Feature","properties":{"valleyId":"hyeondeungsa","layer":"shadow","date":"2026-08-01","timeLocal":"18:00"},"geometry":{"type":"Polygon","coordinates":[[[127.34448,37.86363],[127.34448,37.86343],[127.34464,37.86341],[127.34465,37.86334],[127.34446,37.86336],[127.34446,37.86345],[127.34435,37.86343],[127.34435,37.86337],[127.34442,37.86334],[127.34442,37.86329],[127.34435,37.86323],[127.34438,37.86296],[127.34434,37.86291],[127.3442,37.8629],[127.34398,37.86283],[127.34394,37.86258],[127.34389,37.86254],[127.34389,37.86241],[127.34378,37.86241],[127.34355,37.86252],[127.34341,37.86251],[127.34335,37.86244],[127.34314,37.86242],[127.34301,37.86231],[127.34272,37.8622],[127.34261,37.86198],[127.34254,37.86196],[127.34256,37.86189],[127.34291,37.86186],[127.3429,37.86195],[127.34297,37.86199],[127.34299,37.86204],[127.34315,37.86206],[127.34319,37.8622],[127.34333,37.86235],[127.34367,37.86234],[127.34392,37.86223],[127.34415,37.86224],[127.34419,37.86227],[127.34431,37.86227],[127.34435,37.86231],[127.34456,37.8623],[127.34463,37.86222],[127.3446,37.86213],[127.34454,37.8621],[127.34456,37.86195],[127.34509,37.86198],[127.34543,37.86193],[127.34575,37.86193],[127.34602,37.86197],[127.34602,37.86203],[127.3459,37.86206],[127.3459,37.8621],[127.3457,37.86213],[127.34569,37.86242],[127.34549,37.86242],[127.34546,37.86247],[127.34535,37.86251],[127.34534,37.86269],[127.34518,37.86268],[127.34516,37.86277],[127.34502,37.86282],[127.34502,37.8629],[127.34529,37.86294],[127.34536,37.86297],[127.34538,37.86306],[127.34533,37.86308],[127.34533,37.86323],[127.34515,37.86322],[127.34501,37.86326],[127.34498,37.86349],[127.34489,37.86349],[127.34482,37.86354],[127.34473,37.86354],[127.34473,37.86358],[127.34462,37.86358],[127.34455,37.86363],[127.34448,37.86363]]]}}]}
