{"type":"FeatureCollection","metadata":{"description":"개방지(CHM ≤ 2 m)에 드리운 나무·지형 그림자, 2026-08-01 16:00 KST. canopy 위에 겹쳐 그린다","source":"위성 기반 추정 — Copernicus GLO-30 지형(30 m) + Meta/WRI 수관 높이(1 m CHM, 2019 촬영). 그늘 = 수관(CHM > 2 m) ∪ 나무·지형 그림자 ∪ 원거리 지형 마스크. 현장과 다를 수 있음.","datasetVersion":"2026-09-06.0","collectedAt":"2026-09-06","coordinateOrder":"[longitude, latitude]","crs":"EPSG:4326","representativeDate":"2026-08-01","hours":["10:00","11:00","12:00","13:00","14:00","15:00","16:00","17:00","18:00"],"chmAcquisition":["2019-03"],"assets":{"glo30":{"dataset":"Copernicus DEM GLO-30 (COG, s3://copernicus-dem-30m)","tiles":["Copernicus_DSM_COG_10_N37_00_E127_00_DEM"]},"chm":{"dataset":"Meta/WRI Global Canopy Height Map v1 (alsgedi_global_v6_float, 1 m, CC-BY 4.0)","quadkeys":["132110303"],"acquisition":["2019-03"]}},"method":{"gridResM":2,"canopyThresholdM":2,"bufferHalfM":25,"corridorHalfM":200,"simplifyTolM":2,"minAreaM2":25,"coordDecimals":5},"generator":"scripts/shade 0.1.0","builtAt":"2026-09-06T06:00:46Z","layer":"shadow","timeLocal":"16:00"},"features":[{"type":"Feature","properties":{"valleyId":"hyeondeungsa","layer":"shadow","date":"2026-08-01","timeLocal":"16:00"},"geometry":{"type":"Polygon","coordinates":[[[127.33274,37.86918],[127.33274,37.8691],[127.33285,37.86903],[127.33292,37.86903],[127.33292,37.86909],[127.33285,37.86911],[127.33281,37.86918],[127.33274,37.86918]]]}},{"type":"Feature","properties":{"valleyId":"hyeondeungsa","layer":"shadow","date":"2026-08-01","timeLocal":"16:00"},"geometry":{"type":"Polygon","coordinates":[[[127.34335,37.86718],[127.34336,37.86713],[127.34342,37.86713],[127.34342,37.86718],[127.34335,37.86718]]]}},{"type":"Feature","properties":{"valleyId":"hyeondeungsa","layer":"shadow","date":"2026-08-01","timeLocal":"16:00"},"geometry":{"type":"Polygon","coordinates":[[[127.34612,37.86663],[127.34612,37.86657],[127.34619,37.86657],[127.34619,37.86663],[127.34612,37.86663]]]}},{"type":"Feature","properties":{"valleyId":"hyeondeungsa","layer":"shadow","date":"2026-08-01","timeLocal":"16:00"},"geometry":{"type":"Polygon","coordinates":[[[127.34692,37.86647],[127.34692,37.8664],[127.34701,37.8664],[127.34701,37.86646],[127.34692,37.86647]]]}},{"type":"Feature","properties":{"valleyId":"hyeondeungsa","layer":"shadow","date":"2026-08-01","timeLocal":"16:00"},"geometry":{"type":"Polygon","coordinates":[[[127.34305,37.86642],[127.34303,37.86633],[127.3431,37.86633],[127.34312,37.86642],[127.34305,37.86642]]]}},{"type":"Feature","properties":{"valleyId":"hyeondeungsa","layer":"shadow","date":"2026-08-01","timeLocal":"16:00"},"geometry":{"type":"Polygon","coordinates":[[[127.34694,37.86629],[127.34697,37.86619],[127.34704,37.86613],[127.34713,37.86614],[127.34715,37.86624],[127.34706,37.86624],[127.34704,37.8663],[127.34694,37.86629]]]}},{"type":"Feature","properties":{"valleyId":"hyeondeungsa","layer":"shadow","date":"2026-08-01","timeLocal":"16:00"},"geometry":{"type":"Polygon","coordinates":[[[127.34738,37.86616],[127.34738,37.8661],[127.34752,37.86607],[127.34752,37.86612],[127.34738,37.86616]]]}},{"type":"Feature","properties":{"valleyId":"hyeondeungsa","layer":"shadow","date":"2026-08-01","timeLocal":"16:00"},"geometry":{"type":"Polygon","coordinates":[[[127.34779,37.86595],[127.34782,37.86584],[127.34791,37.86584],[127.34788,37.86593],[127.34779,37.86595]]]}},{"type":"Feature","properties":{"valleyId":"hyeondeungsa","layer":"shadow","date":"2026-08-01","timeLocal":"16:00"},"geometry":{"type":"Polygon","coordinates":[[[127.34805,37.86579],[127.34805,37.86573],[127.34812,37.86573],[127.34812,37.86579],[127.34805,37.86579]]]}},{"type":"Feature","properties":{"valleyId":"hyeondeungsa","layer":"shadow","date":"2026-08-01","timeLocal":"16:00"},"geometry":{"type":"Polygon","coordinates":[[[127.34738,37.86592],[127.34746,37.86571],[127.34755,37.86571],[127.34752,37.86587],[127.34745,37.86592],[127.34738,37.86592]]]}},{"type":"Feature","properties":{"valleyId":"hyeondeungsa","layer":"shadow","date":"2026-08-01","timeLocal":"16:00"},"geometry":{"type":"Polygon","coordinates":[[[127.34759,37.86571],[127.34762,37.86558],[127.34769,37.86558],[127.34771,37.86567],[127.34766,37.86567],[127.34766,37.86571],[127.34759,37.86571]]]}},{"type":"Feature","properties":{"valleyId":"hyeondeungsa","layer":"shadow","date":"2026-08-01","timeLocal":"16:00"},"geometry":{"type":"Polygon","coordinates":[[[127.34819,37.86556],[127.34819,37.8655],[127.34826,37.8655],[127.34826,37.86556],[127.34819,37.86556]]]}},{"type":"Feature","properties":{"valleyId":"hyeondeungsa","layer":"shadow","date":"2026-08-01","timeLocal":"16:00"},"geometry":{"type":"Polygon","coordinates":[[[127.34564,37.86548],[127.34565,37.86543],[127.34574,37.86541],[127.34574,37.86547],[127.34564,37.86548]]]}},{"type":"Feature","properties":{"valleyId":"hyeondeungsa","layer":"shadow","date":"2026-08-01","timeLocal":"16:00"},"geometry":{"type":"Polygon","coordinates":[[[127.34828,37.86541],[127.34828,37.86532],[127.34835,37.86532],[127.34835,37.86541],[127.34828,37.86541]]]}},{"type":"Feature","properties":{"valleyId":"hyeondeungsa","layer":"shadow","date":"2026-08-01","timeLocal":"16:00"},"geometry":{"type":"Polygon","coordinates":[[[127.34683,37.86521],[127.34686,37.86512],[127.34693,37.86512],[127.34692,37.86519],[127.34683,37.86521]]]}},{"type":"Feature","properties":{"valleyId":"hyeondeungsa","layer":"shadow","date":"2026-08-01","timeLocal":"16:00"},"geometry":{"type":"Polygon","coordinates":[[[127.33927,37.86503],[127.33927,37.86491],[127.33934,37.86491],[127.33933,37.86503],[127.33927,37.86503]]]}},{"type":"Feature","properties":{"valleyId":"hyeondeungsa","layer":"shadow","date":"2026-08-01","timeLocal":"16:00"},"geometry":{"type":"Polygon","coordinates":[[[127.3462,37.86506],[127.34622,37.86495],[127.34629,37.86495],[127.34627,37.86506],[127.3462,37.86506]]]}},{"type":"Feature","properties":{"valleyId":"hyeondeungsa","layer":"shadow","date":"2026-08-01","timeLocal":"16:00"},"geometry":{"type":"Polygon","coordinates":[[[127.34618,37.86484],[127.34616,37.86463],[127.34623,37.86463],[127.34625,37.86484],[127.34618,37.86484]]]}},{"type":"Feature","properties":{"valleyId":"hyeondeungsa","layer":"shadow","date":"2026-08-01","timeLocal":"16:00"},"geometry":{"type":"Polygon","coordinates":[[[127.34249,37.86411],[127.34249,37.86405],[127.34256,37.86405],[127.34256,37.86411],[127.34249,37.86411]]]}},{"type":"Feature","properties":{"valleyId":"hyeondeungsa","layer":"shadow","date":"2026-08-01","timeLocal":"16:00"},"geometry":{"type":"Polygon","coordinates":[[[127.35073,37.86395],[127.35073,37.8639],[127.35079,37.8639],[127.35079,37.86395],[127.35073,37.86395]]]}},{"type":"Feature","properties":{"valleyId":"hyeondeungsa","layer":"shadow","date":"2026-08-01","timeLocal":"16:00"},"geometry":{"type":"Polygon","coordinates":[[[127.34761,37.86387],[127.34761,37.86382],[127.34768,37.86382],[127.34768,37.86387],[127.34761,37.86387]]]}},{"type":"Feature","properties":{"valleyId":"hyeondeungsa","layer":"shadow","date":"2026-08-01","timeLocal":"16:00"},"geometry":{"type":"Polygon","coordinates":[[[127.34252,37.86403],[127.34252,37.86385],[127.34264,37.86378],[127.34261,37.86367],[127.34268,37.86368],[127.34268,37.86371],[127.34273,37.86373],[127.34273,37.8638],[127.34259,37.86391],[127.34258,37.86403],[127.34252,37.86403]]]}},{"type":"Feature","properties":{"valleyId":"hyeondeungsa","layer":"shadow","date":"2026-08-01","timeLocal":"16:00"},"geometry":{"type":"Polygon","coordinates":[[[127.34448,37.86359],[127.34448,37.86352],[127.34455,37.86352],[127.34455,37.86359],[127.34448,37.86359]]]}},{"type":"Feature","properties":{"valleyId":"hyeondeungsa","layer":"shadow","date":"2026-08-01","timeLocal":"16:00"},"geometry":{"type":"Polygon","coordinates":[[[127.34259,37.8636],[127.34257,37.86353],[127.34253,37.86351],[127.34253,37.86344],[127.3426,37.86344],[127.3426,37.86348],[127.34266,37.86353],[127.34266,37.8636],[127.34259,37.8636]]]}},{"type":"Feature","properties":{"valleyId":"hyeondeungsa","layer":"shadow","date":"2026-08-01","timeLocal":"16:00"},"geometry":{"type":"Polygon","coordinates":[[[127.34592,37.8634],[127.34592,37.86329],[127.34599,37.86329],[127.34601,37.86338],[127.34592,37.8634]]]}},{"type":"Feature","properties":{"valleyId":"hyeondeungsa","layer":"shadow","date":"2026-08-01","timeLocal":"16:00"},"geometry":{"type":"Polygon","coordinates":[[[127.34558,37.86337],[127.34558,37.86327],[127.34565,37.86327],[127.34565,37.86337],[127.34558,37.86337]]]}},{"type":"Feature","properties":{"valleyId":"hyeondeungsa","layer":"shadow","date":"2026-08-01","timeLocal":"16:00"},"geometry":{"type":"Polygon","coordinates":[[[127.34588,37.86327],[127.34588,37.86313],[127.34595,37.86313],[127.34594,37.86327],[127.34588,37.86327]]]}},{"type":"Feature","properties":{"valleyId":"hyeondeungsa","layer":"shadow","date":"2026-08-01","timeLocal":"16:00"},"geometry":{"type":"Polygon","coordinates":[[[127.34852,37.86287],[127.34852,37.86282],[127.34857,37.86278],[127.34857,37.86266],[127.34873,37.86266],[127.34873,37.86279],[127.34861,37.86282],[127.34859,37.86288],[127.34852,37.86287]]]}},{"type":"Feature","properties":{"valleyId":"hyeondeungsa","layer":"shadow","date":"2026-08-01","timeLocal":"16:00"},"geometry":{"type":"Polygon","coordinates":[[[127.34398,37.86281],[127.34394,37.86258],[127.34389,37.86254],[127.34389,37.86243],[127.34401,37.86243],[127.34403,37.86259],[127.34409,37.86261],[127.34409,37.86274],[127.34405,37.86276],[127.34404,37.86281],[127.34398,37.86281]]]}},{"type":"Feature","properties":{"valleyId":"hyeondeungsa","layer":"shadow","date":"2026-08-01","timeLocal":"16:00"},"geometry":{"type":"Polygon","coordinates":[[[127.34371,37.86236],[127.34371,37.8623],[127.34385,37.86225],[127.34397,37.86225],[127.34394,37.86232],[127.34371,37.86236]]]}},{"type":"Feature","properties":{"valleyId":"hyeondeungsa","layer":"shadow","date":"2026-08-01","timeLocal":"16:00"},"geometry":{"type":"Polygon","coordinates":[[[127.34265,37.86211],[127.34263,37.86202],[127.3427,37.86202],[127.34272,37.86211],[127.34265,37.86211]]]}},{"type":"Feature","properties":{"valleyId":"hyeondeungsa","layer":"shadow","date":"2026-08-01","timeLocal":"16:00"},"geometry":{"type":"Polygon","coordinates":[[[127.3446,37.8623],[127.34463,37.86217],[127.34454,37.8621],[127.34454,37.86201],[127.34456,37.86195],[127.34468,37.86195],[127.34467,37.86215],[127.34474,37.86219],[127.34474,37.86228],[127.3446,37.8623]]]}},{"type":"Feature","properties":{"valleyId":"hyeondeungsa","layer":"shadow","date":"2026-08-01","timeLocal":"16:00"},"geometry":{"type":"Polygon","coordinates":[[[127.34256,37.86198],[127.34254,37.86191],[127.34263,37.86189],[127.34263,37.86198],[127.34256,37.86198]]]}}]}
