{"type":"FeatureCollection","metadata":{"description":"수관 아래(CHM > 2 m) — 시각 무관. 구간 회랑 ±200 m 절단","source":"위성 기반 추정 — Copernicus GLO-30 지형(30 m) + Meta/WRI 수관 높이(1 m CHM, 2019 촬영). 그늘 = 수관(CHM > 2 m) ∪ 나무·지형 그림자 ∪ 원거리 지형 마스크. 현장과 다를 수 있음.","datasetVersion":"2026-09-06.0","collectedAt":"2026-09-06","coordinateOrder":"[longitude, latitude]","crs":"EPSG:4326","representativeDate":"2026-08-01","hours":["10:00","11:00","12:00","13:00","14:00","15:00","16:00","17:00","18:00"],"chmAcquisition":["2019-03"],"assets":{"glo30":{"dataset":"Copernicus DEM GLO-30 (COG, s3://copernicus-dem-30m)","tiles":["Copernicus_DSM_COG_10_N37_00_E126_00_DEM","Copernicus_DSM_COG_10_N37_00_E127_00_DEM"]},"chm":{"dataset":"Meta/WRI Global Canopy Height Map v1 (alsgedi_global_v6_float, 1 m, CC-BY 4.0)","quadkeys":["132110302","132110320"],"acquisition":["2019-03"]}},"method":{"gridResM":2,"canopyThresholdM":2,"bufferHalfM":25,"corridorHalfM":200,"simplifyTolM":2,"minAreaM2":25,"coordDecimals":5},"generator":"scripts/shade 0.1.0","builtAt":"2026-09-06T06:03:58Z","layer":"canopy"},"features":[{"type":"Feature","properties":{"valleyId":"jangheung","layer":"canopy","date":"2026-08-01"},"geometry":{"type":"Polygon","coordinates":[[[126.95621,37.74261],[126.95617,37.74259],[126.95617,37.74255],[126.9561,37.74255],[126.95606,37.74252],[126.95583,37.74255],[126.95565,37.74247],[126.95559,37.74222],[126.95558,37.7419],[126.95569,37.74186],[126.95571,37.74179],[126.95581,37.74176],[126.95583,37.74168],[126.95592,37.74163],[126.95595,37.74156],[126.95599,37.74154],[126.95599,37.74149],[126.95613,37.74136],[126.95616,37.74127],[126.95621,37.74126],[126.95623,37.74115],[126.95628,37.74111],[126.95633,37.74088],[126.95651,37.74085],[126.95652,37.74067],[126.9564,37.74065],[126.95641,37.74058],[126.95647,37.74058],[126.95646,37.74041],[126.95648,37.74036],[126.95655,37.74033],[126.95655,37.7402],[126.95649,37.74016],[126.95649,37.74013],[126.95644,37.74013],[126.95642,37.74],[126.95651,37.73998],[126.95651,37.74011],[126.95671,37.74008],[126.95678,37.74002],[126.95679,37.73999],[126.95692,37.74003],[126.95694,37.7401],[126.95726,37.74009],[126.95726,37.74019],[126.95732,37.74025],[126.95741,37.74025],[126.95746,37.74031],[126.95764,37.74029],[126.95773,37.74036],[126.95782,37.74037],[126.95789,37.74031],[126.9582,37.74035],[126.95852,37.74034],[126.95861,37.74042],[126.95866,37.74042],[126.95866,37.74045],[126.95872,37.74051],[126.95879,37.74051],[126.95875,37.74105],[126.95868,37.74134],[126.95846,37.74173],[126.95842,37.74175],[126.95834,37.74187],[126.95825,37.74192],[126.9582,37.74201],[126.95781,37.74229],[126.95777,37.74229],[126.9576,37.7424],[126.95737,37.74249],[126.95685,37.7426],[126.95621,37.74261]]]}},{"type":"Feature","properties":{"valleyId":"jangheung","layer":"canopy","date":"2026-08-01"},"geometry":{"type":"Polygon","coordinates":[[[126.95871,37.74009],[126.95869,37.74002],[126.9588,37.74002],[126.9588,37.74008],[126.95871,37.74009]]]}},{"type":"Feature","properties":{"valleyId":"jangheung","layer":"canopy","date":"2026-08-01"},"geometry":{"type":"Polygon","coordinates":[[[126.95726,37.74001],[126.95722,37.73998],[126.95722,37.73992],[126.95733,37.73991],[126.95738,37.73994],[126.95737,37.74],[126.95726,37.74001]]]}},{"type":"Feature","properties":{"valleyId":"jangheung","layer":"canopy","date":"2026-08-01"},"geometry":{"type":"Polygon","coordinates":[[[126.95507,37.74223],[126.95467,37.7419],[126.95467,37.74186],[126.95451,37.74171],[126.95438,37.7415],[126.95424,37.74106],[126.95425,37.74052],[126.95412,37.7405],[126.95412,37.74043],[126.95421,37.74038],[126.95423,37.74032],[126.95433,37.74029],[126.95435,37.74018],[126.95458,37.74008],[126.95469,37.74008],[126.95476,37.74015],[126.95485,37.74015],[126.95487,37.74012],[126.9551,37.74012],[126.95519,37.74018],[126.95533,37.74016],[126.95542,37.74009],[126.95545,37.73998],[126.95552,37.73995],[126.95552,37.73982],[126.95564,37.73968],[126.95564,37.7395],[126.95576,37.73934],[126.95576,37.73921],[126.95581,37.7392],[126.95581,37.73916],[126.95588,37.73916],[126.95592,37.73925],[126.95603,37.73933],[126.95605,37.73945],[126.95614,37.73951],[126.95616,37.73969],[126.95611,37.73972],[126.95611,37.73978],[126.95615,37.73981],[126.95617,37.74014],[126.95612,37.74016],[126.95605,37.74041],[126.95595,37.74048],[126.9559,37.74068],[126.95583,37.74071],[126.95572,37.74089],[126.95562,37.7409],[126.95546,37.74105],[126.95539,37.74119],[126.95532,37.74124],[126.95527,37.74139],[126.95513,37.74147],[126.95515,37.74176],[126.9551,37.74189],[126.95505,37.74192],[126.95505,37.7421],[126.95509,37.74212],[126.95509,37.74216],[126.95516,37.74218],[126.95516,37.74223],[126.95507,37.74223]],[[126.95559,37.74056],[126.95566,37.74056],[126.95566,37.74051],[126.9557,37.74051],[126.95571,37.74044],[126.95564,37.74044],[126.95564,37.74051],[126.95559,37.74051],[126.95559,37.74056]]]}},{"type":"Feature","properties":{"valleyId":"jangheung","layer":"canopy","date":"2026-08-01"},"geometry":{"type":"Polygon","coordinates":[[[126.95353,37.73851],[126.95354,37.73845],[126.95363,37.73845],[126.95363,37.73851],[126.95353,37.73851]]]}},{"type":"Feature","properties":{"valleyId":"jangheung","layer":"canopy","date":"2026-08-01"},"geometry":{"type":"Polygon","coordinates":[[[126.9532,37.73843],[126.95315,37.73837],[126.95304,37.73837],[126.95297,37.73832],[126.95298,37.73821],[126.95291,37.73821],[126.95286,37.73817],[126.95282,37.73808],[126.95275,37.73806],[126.95275,37.73799],[126.95282,37.73799],[126.95296,37.7381],[126.953,37.73821],[126.95309,37.73823],[126.95315,37.7383],[126.95324,37.73834],[126.95326,37.73843],[126.9532,37.73843]]]}},{"type":"Feature","properties":{"valleyId":"jangheung","layer":"canopy","date":"2026-08-01"},"geometry":{"type":"Polygon","coordinates":[[[126.9523,37.73816],[126.95216,37.73803],[126.9521,37.73803],[126.95208,37.73792],[126.95217,37.73792],[126.95223,37.738],[126.95228,37.738],[126.95228,37.73803],[126.95234,37.73805],[126.95234,37.73809],[126.95239,37.73809],[126.95239,37.73814],[126.9523,37.73816]]]}},{"type":"Feature","properties":{"valleyId":"jangheung","layer":"canopy","date":"2026-08-01"},"geometry":{"type":"Polygon","coordinates":[[[126.95312,37.738],[126.95312,37.73794],[126.95319,37.73794],[126.95319,37.738],[126.95312,37.738]]]}},{"type":"Feature","properties":{"valleyId":"jangheung","layer":"canopy","date":"2026-08-01"},"geometry":{"type":"Polygon","coordinates":[[[126.95196,37.73783],[126.95192,37.73781],[126.95192,37.73776],[126.95203,37.73778],[126.95203,37.73783],[126.95196,37.73783]]]}},{"type":"Feature","properties":{"valleyId":"jangheung","layer":"canopy","date":"2026-08-01"},"geometry":{"type":"Polygon","coordinates":[[[126.95129,37.73762],[126.95124,37.7376],[126.95125,37.73755],[126.95136,37.73755],[126.95138,37.73762],[126.95129,37.73762]]]}},{"type":"Feature","properties":{"valleyId":"jangheung","layer":"canopy","date":"2026-08-01"},"geometry":{"type":"Polygon","coordinates":[[[126.95241,37.73746],[126.95232,37.7374],[126.95232,37.73733],[126.95237,37.7373],[126.95259,37.73734],[126.95261,37.73745],[126.95241,37.73746]]]}},{"type":"Feature","properties":{"valleyId":"jangheung","layer":"canopy","date":"2026-08-01"},"geometry":{"type":"Polygon","coordinates":[[[126.95082,37.73731],[126.95085,37.73722],[126.95101,37.73722],[126.95105,37.73709],[126.95112,37.7371],[126.95117,37.73713],[126.95112,37.73731],[126.95082,37.73731]]]}},{"type":"Feature","properties":{"valleyId":"jangheung","layer":"canopy","date":"2026-08-01"},"geometry":{"type":"Polygon","coordinates":[[[126.95262,37.73795],[126.95248,37.73791],[126.95242,37.73786],[126.95242,37.73777],[126.95231,37.73777],[126.95226,37.73771],[126.95222,37.73771],[126.95222,37.73767],[126.95206,37.73753],[126.95204,37.73745],[126.95193,37.7374],[126.95191,37.73729],[126.95182,37.73727],[126.95169,37.73716],[126.95164,37.73709],[126.95167,37.737],[126.95176,37.737],[126.95183,37.73704],[126.95185,37.73713],[126.95191,37.73718],[126.95193,37.73729],[126.95203,37.73729],[126.95209,37.73735],[126.95209,37.7374],[126.95222,37.73748],[126.95222,37.73753],[126.95231,37.7376],[126.95247,37.73766],[126.95247,37.73777],[126.95256,37.73777],[126.95271,37.73788],[126.95271,37.73795],[126.95262,37.73795]]]}},{"type":"Feature","properties":{"valleyId":"jangheung","layer":"canopy","date":"2026-08-01"},"geometry":{"type":"Polygon","coordinates":[[[126.95094,37.73706],[126.95083,37.73704],[126.95081,37.73695],[126.95076,37.73695],[126.95077,37.73687],[126.9509,37.73686],[126.95092,37.73691],[126.95101,37.73691],[126.95102,37.73688],[126.95108,37.73688],[126.95108,37.73695],[126.95104,37.73695],[126.95103,37.73704],[126.95094,37.73706]]]}},{"type":"Feature","properties":{"valleyId":"jangheung","layer":"canopy","date":"2026-08-01"},"geometry":{"type":"Polygon","coordinates":[[[126.95181,37.73691],[126.95179,37.73684],[126.95186,37.73684],[126.95188,37.73691],[126.95181,37.73691]]]}},{"type":"Feature","properties":{"valleyId":"jangheung","layer":"canopy","date":"2026-08-01"},"geometry":{"type":"Polygon","coordinates":[[[126.95088,37.73684],[126.95088,37.73679],[126.95095,37.73679],[126.95095,37.73684],[126.95088,37.73684]]]}},{"type":"Feature","properties":{"valleyId":"jangheung","layer":"canopy","date":"2026-08-01"},"geometry":{"type":"Polygon","coordinates":[[[126.95136,37.73672],[126.95134,37.73665],[126.95141,37.73665],[126.95143,37.73672],[126.95136,37.73672]]]}},{"type":"Feature","properties":{"valleyId":"jangheung","layer":"canopy","date":"2026-08-01"},"geometry":{"type":"Polygon","coordinates":[[[126.9507,37.73667],[126.9507,37.73664],[126.95064,37.73662],[126.95064,37.73658],[126.95048,37.73654],[126.9505,37.73645],[126.95062,37.73646],[126.95066,37.73653],[126.95075,37.7366],[126.9508,37.7366],[126.95079,37.73668],[126.9507,37.73667]]]}},{"type":"Feature","properties":{"valleyId":"jangheung","layer":"canopy","date":"2026-08-01"},"geometry":{"type":"Polygon","coordinates":[[[126.95098,37.7365],[126.95091,37.73644],[126.95094,37.73635],[126.95103,37.73636],[126.9511,37.73643],[126.95109,37.7365],[126.95098,37.7365]]]}},{"type":"Feature","properties":{"valleyId":"jangheung","layer":"canopy","date":"2026-08-01"},"geometry":{"type":"Polygon","coordinates":[[[126.94166,37.73616],[126.94166,37.7361],[126.94173,37.7361],[126.94173,37.73616],[126.94166,37.73616]]]}},{"type":"Feature","properties":{"valleyId":"jangheung","layer":"canopy","date":"2026-08-01"},"geometry":{"type":"Polygon","coordinates":[[[126.95088,37.73619],[126.95088,37.73614],[126.95094,37.73614],[126.95094,37.73619],[126.95088,37.73619]]]}},{"type":"Feature","properties":{"valleyId":"jangheung","layer":"canopy","date":"2026-08-01"},"geometry":{"type":"Polygon","coordinates":[[[126.95047,37.73597],[126.95045,37.73589],[126.95052,37.7359],[126.95054,37.73597],[126.95047,37.73597]]]}},{"type":"Feature","properties":{"valleyId":"jangheung","layer":"canopy","date":"2026-08-01"},"geometry":{"type":"Polygon","coordinates":[[[126.95665,37.73979],[126.95661,37.73968],[126.95648,37.73955],[126.95648,37.73946],[126.95655,37.73941],[126.95655,37.73932],[126.95649,37.73912],[126.95645,37.7391],[126.9564,37.73899],[126.95641,37.73894],[126.95645,37.73892],[126.95645,37.73883],[126.95652,37.73881],[126.95657,37.73872],[126.95664,37.73872],[126.95671,37.73867],[126.95669,37.7386],[126.95655,37.73858],[126.95655,37.73851],[126.9566,37.73849],[126.95661,37.73824],[126.95656,37.73824],[126.95652,37.73816],[126.95627,37.73809],[126.95623,37.738],[126.95618,37.73796],[126.95611,37.73796],[126.9561,37.73783],[126.95596,37.73777],[126.95597,37.73754],[126.9559,37.73749],[126.95579,37.73748],[126.95574,37.73754],[126.95554,37.73751],[126.95554,37.73755],[126.95544,37.73759],[126.95544,37.73769],[126.95551,37.73775],[126.95567,37.73777],[126.95569,37.73781],[126.95573,37.73781],[126.95573,37.73784],[126.95587,37.73786],[126.95593,37.73792],[126.95591,37.73803],[126.95573,37.73802],[126.95568,37.73799],[126.95561,37.73798],[126.95561,37.73816],[126.95556,37.7382],[126.95558,37.73834],[126.95551,37.73842],[126.9554,37.73841],[126.95542,37.73856],[126.95533,37.73859],[126.95503,37.73859],[126.9549,37.73853],[126.95488,37.73844],[126.95467,37.73846],[126.95456,37.73838],[126.95424,37.73839],[126.95415,37.73834],[126.95406,37.73834],[126.95399,37.73828],[126.954,37.73825],[126.95391,37.73819],[126.95391,37.73803],[126.95387,37.73799],[126.95366,37.73793],[126.95342,37.73791],[126.95333,37.73785],[126.9533,37.7378],[126.95315,37.73776],[126.95313,37.73762],[126.95304,37.7376],[126.95304,37.73754],[126.95288,37.73743],[126.95289,37.73738],[126.95295,37.73738],[126.95296,37.73729],[126.95284,37.73729],[126.9528,37.7372],[126.95262,37.73716],[126.95249,37.73707],[126.95242,37.73706],[126.95222,37.73695],[126.95208,37.73695],[126.95206,37.737],[126.95196,37.737],[126.95192,37.73697],[126.95192,37.73691],[126.95199,37.73689],[126.95202,37.73675],[126.95195,37.73668],[126.95191,37.7365],[126.95171,37.73649],[126.95171,37.73644],[126.95178,37.73642],[126.95178,37.73635],[126.95173,37.73631],[126.95158,37.73629],[126.95158,37.7362],[126.95151,37.73617],[126.95151,37.73611],[126.95145,37.73607],[126.95142,37.73602],[126.95145,37.73591],[126.95141,37.73586],[126.95132,37.73584],[126.95132,37.73573],[126.95127,37.73569],[126.95128,37.7356],[126.95139,37.7356],[126.95144,37.73539],[126.95158,37.7353],[126.95158,37.73527],[126.95201,37.73525],[126.95222,37.73528],[126.95231,37.73535],[126.95244,37.73535],[126.95247,37.73532],[126.95265,37.73536],[126.95281,37.73534],[126.95288,37.73527],[126.95294,37.73527],[126.95292,37.73538],[126.95287,37.73541],[126.95287,37.73549],[126.95294,37.73552],[126.95294,37.73556],[126.95302,37.73561],[126.95302,37.73565],[126.95311,37.73571],[126.95311,37.73574],[126.9532,37.7358],[126.95329,37.73593],[126.95446,37.7369],[126.95478,37.73691],[126.95524,37.73686],[126.95574,37.73687],[126.95626,37.73697],[126.95637,37.73701],[126.95637,37.73704],[126.95655,37.73705],[126.95702,37.73718],[126.95734,37.73731],[126.95751,37.73744],[126.95756,37.73744],[126.9576,37.7375],[126.95765,37.7375],[126.958,37.73779],[126.958,37.73783],[126.95822,37.73799],[126.95822,37.73803],[126.95836,37.73814],[126.95844,37.7383],[126.95851,37.73836],[126.95851,37.73841],[126.95857,37.73849],[126.95864,37.73865],[126.95864,37.73872],[126.95857,37.73876],[126.95856,37.73885],[126.95843,37.73893],[126.95822,37.73893],[126.9582,37.73898],[126.95813,37.73902],[126.95808,37.73913],[126.95792,37.73916],[126.95792,37.7392],[126.95785,37.73925],[126.9578,37.73946],[126.95773,37.7395],[126.95768,37.73962],[126.95761,37.73964],[126.95756,37.73969],[126.95738,37.73971],[126.95732,37.73967],[126.95718,37.73967],[126.95688,37.73972],[126.95681,37.73979],[126.95665,37.73979]],[[126.95694,37.73842],[126.95701,37.73842],[126.95701,37.73832],[126.95692,37.73833],[126.95694,37.73842]],[[126.95504,37.73819],[126.95511,37.73819],[126.95513,37.73812],[126.95504,37.73812],[126.95504,37.73819]],[[126.95444,37.73787],[126.95455,37.73788],[126.95457,37.73782],[126.95469,37.73777],[126.95471,37.7377],[126.95476,37.73768],[126.95476,37.73761],[126.95465,37.73759],[126.95453,37.73768],[126.95453,37.73773],[126.95442,37.7378],[126.95444,37.73787]],[[126.95337,37.73708],[126.95346,37.73708],[126.95349,37.73701],[126.95367,37.73701],[126.95369,37.73682],[126.95385,37.73684],[126.95399,37.73669],[126.95397,37.7366],[126.95391,37.73657],[126.95389,37.73649],[126.95382,37.73649],[126.95382,37.73644],[126.95377,37.7364],[126.95355,37.73636],[126.95355,37.73647],[126.95336,37.73647],[126.95336,37.73658],[126.95325,37.73659],[126.95325,37.73665],[126.95329,37.73666],[126.95326,37.73683],[126.95331,37.73683],[126.95333,37.73686],[126.95333,37.73697],[126.95328,37.73699],[126.95328,37.73706],[126.95337,37.73708]],[[126.95299,37.73691],[126.95306,37.73691],[126.95306,37.73686],[126.95295,37.73684],[126.95294,37.73689],[126.95299,37.73691]],[[126.95268,37.73658],[126.95275,37.73658],[126.95277,37.73655],[126.95275,37.73646],[126.95266,37.73647],[126.95268,37.73658]],[[126.95193,37.73648],[126.95205,37.73648],[126.95205,37.73643],[126.95194,37.73641],[126.95193,37.73648]],[[126.95284,37.73644],[126.953,37.73644],[126.953,37.73637],[126.95307,37.73637],[126.95307,37.73632],[126.95282,37.7363],[126.9528,37.73639],[126.95284,37.73644]],[[126.95165,37.73599],[126.95181,37.73597],[126.95184,37.7359],[126.95179,37.73586],[126.95166,37.73586],[126.95165,37.73599]],[[126.95224,37.73596],[126.95295,37.73597],[126.95295,37.73592],[126.9529,37.73592],[126.95288,37.73588],[126.95261,37.7359],[126.95252,37.73586],[126.95225,37.73585],[126.95224,37.73596]]]}},{"type":"Feature","properties":{"valleyId":"jangheung","layer":"canopy","date":"2026-08-01"},"geometry":{"type":"Polygon","coordinates":[[[126.95058,37.73521],[126.95059,37.73514],[126.9507,37.73512],[126.9507,37.73521],[126.95058,37.73521]]]}},{"type":"Feature","properties":{"valleyId":"jangheung","layer":"canopy","date":"2026-08-01"},"geometry":{"type":"Polygon","coordinates":[[[126.95263,37.73521],[126.95263,37.73514],[126.9527,37.73514],[126.9527,37.73521],[126.95263,37.73521]]]}},{"type":"Feature","properties":{"valleyId":"jangheung","layer":"canopy","date":"2026-08-01"},"geometry":{"type":"Polygon","coordinates":[[[126.95168,37.73509],[126.95168,37.73501],[126.95175,37.73502],[126.95177,37.73509],[126.95168,37.73509]]]}},{"type":"Feature","properties":{"valleyId":"jangheung","layer":"canopy","date":"2026-08-01"},"geometry":{"type":"Polygon","coordinates":[[[126.95131,37.73506],[126.95132,37.73501],[126.95138,37.73501],[126.95138,37.73506],[126.95131,37.73506]]]}},{"type":"Feature","properties":{"valleyId":"jangheung","layer":"canopy","date":"2026-08-01"},"geometry":{"type":"Polygon","coordinates":[[[126.95107,37.73493],[126.95107,37.73488],[126.95114,37.73488],[126.95114,37.73493],[126.95107,37.73493]]]}},{"type":"Feature","properties":{"valleyId":"jangheung","layer":"canopy","date":"2026-08-01"},"geometry":{"type":"Polygon","coordinates":[[[126.95152,37.73498],[126.95152,37.73492],[126.95162,37.73485],[126.95171,37.73485],[126.9517,37.73496],[126.95152,37.73498]]]}},{"type":"Feature","properties":{"valleyId":"jangheung","layer":"canopy","date":"2026-08-01"},"geometry":{"type":"Polygon","coordinates":[[[126.95276,37.73458],[126.95274,37.73451],[126.95285,37.73449],[126.95285,37.73458],[126.95276,37.73458]]]}},{"type":"Feature","properties":{"valleyId":"jangheung","layer":"canopy","date":"2026-08-01"},"geometry":{"type":"Polygon","coordinates":[[[126.95235,37.73452],[126.95238,37.73445],[126.95247,37.73445],[126.95246,37.73452],[126.95235,37.73452]]]}},{"type":"Feature","properties":{"valleyId":"jangheung","layer":"canopy","date":"2026-08-01"},"geometry":{"type":"Polygon","coordinates":[[[126.94111,37.73798],[126.9407,37.73794],[126.94032,37.73784],[126.9399,37.73766],[126.93943,37.73731],[126.93943,37.73727],[126.93936,37.73723],[126.93936,37.7372],[126.93923,37.73707],[126.93921,37.737],[126.93917,37.73698],[126.93917,37.73692],[126.93908,37.73681],[126.93902,37.73665],[126.93894,37.73622],[126.93897,37.73587],[126.93902,37.7357],[126.93922,37.7357],[126.93923,37.73559],[126.93939,37.73559],[126.93938,37.73565],[126.93929,37.73565],[126.93929,37.7357],[126.93952,37.7357],[126.93954,37.73563],[126.93948,37.73559],[126.93948,37.73543],[126.93955,37.73542],[126.93962,37.73533],[126.93973,37.73533],[126.9398,37.73524],[126.93989,37.73522],[126.94001,37.73508],[126.9401,37.73508],[126.9401,37.73521],[126.94014,37.73523],[126.94021,37.73523],[126.94031,37.73516],[126.9404,37.73516],[126.94045,37.73498],[126.94054,37.73491],[126.94054,37.73477],[126.94064,37.73471],[126.94077,37.7347],[126.94077,37.73461],[126.94085,37.7345],[126.9411,37.7344],[126.94112,37.73431],[126.9414,37.73429],[126.94149,37.73424],[126.94165,37.73423],[126.94174,37.73417],[126.94192,37.73418],[126.94189,37.73445],[126.94153,37.73446],[126.94143,37.73453],[126.94143,37.73458],[126.94155,37.73462],[126.9417,37.73462],[126.94175,37.73455],[126.94191,37.73454],[126.94202,37.73463],[126.94202,37.7347],[126.94188,37.73481],[126.94188,37.73484],[126.94179,37.73486],[126.94179,37.7349],[126.94167,37.73489],[126.94163,37.73479],[126.94152,37.73469],[126.94148,37.73469],[126.94145,37.73464],[126.94139,37.73464],[126.94139,37.7346],[126.94132,37.7346],[126.94132,37.73464],[126.94111,37.73465],[126.94104,37.73476],[126.94086,37.73477],[126.94084,37.73481],[126.94079,37.73499],[126.94108,37.73499],[126.94117,37.73508],[126.94117,37.73525],[126.94126,37.73528],[126.9413,37.73536],[126.94137,37.73536],[126.94137,37.73523],[126.94166,37.73527],[126.94166,37.73533],[126.94157,37.73536],[126.94155,37.73543],[126.94141,37.73541],[126.94136,37.73552],[126.94127,37.73552],[126.94127,37.73548],[126.94116,37.7355],[126.94113,37.73557],[126.94102,37.73566],[126.94101,37.73596],[126.94094,37.73596],[126.9409,37.73591],[126.94083,37.73591],[126.94083,37.73598],[126.94053,37.73596],[126.94051,37.73605],[126.94058,37.73605],[126.94057,37.7361],[126.9405,37.73621],[126.9405,37.73632],[126.94045,37.73633],[126.94043,37.73642],[126.94036,37.73644],[126.94036,37.73664],[126.94044,37.73668],[126.94049,37.73675],[126.94049,37.73684],[126.94055,37.73684],[126.94058,37.73673],[126.94067,37.73673],[126.94074,37.73679],[126.94076,37.73688],[126.94085,37.7369],[126.94083,37.7367],[126.94101,37.73669],[126.94106,37.73652],[126.94127,37.73649],[126.94136,37.73635],[126.94143,37.73631],[126.94143,37.73626],[126.94139,37.73626],[126.94132,37.7362],[126.94132,37.73611],[126.94144,37.73612],[126.9415,37.73617],[126.94164,37.73619],[126.94179,37.73628],[126.94179,37.73634],[126.94184,37.73638],[126.94197,37.7364],[126.94208,37.73647],[126.94222,37.73649],[126.94238,37.73649],[126.94249,37.7364],[126.9427,37.73639],[126.94275,37.73635],[126.94286,37.73634],[126.94291,37.73629],[126.94304,37.73627],[126.94307,37.73623],[126.94336,37.73624],[126.94339,37.7362],[126.94348,37.73621],[126.94344,37.73655],[126.94332,37.73687],[126.94313,37.73715],[126.94297,37.7373],[126.94297,37.73733],[126.94285,37.7374],[126.94285,37.73744],[126.94274,37.73753],[126.94269,37.73753],[126.94257,37.73763],[126.94253,37.73763],[126.94241,37.73772],[126.94207,37.73786],[126.94193,37.73789],[126.9418,37.73789],[126.9418,37.73785],[126.94173,37.73785],[126.94173,37.73794],[126.94111,37.73798]],[[126.94082,37.73773],[126.94096,37.73773],[126.94094,37.73762],[126.94083,37.73762],[126.94082,37.73773]],[[126.94171,37.73753],[126.94181,37.73753],[126.94181,37.73747],[126.94172,37.73745],[126.94171,37.73753]],[[126.94123,37.73698],[126.9413,37.73698],[126.9413,37.73689],[126.94123,37.73689],[126.94123,37.73698]],[[126.94074,37.73587],[126.94081,37.73587],[126.94081,37.73582],[126.94074,37.73582],[126.94074,37.73587]]]}},{"type":"Feature","properties":{"valleyId":"jangheung","layer":"canopy","date":"2026-08-01"},"geometry":{"type":"Polygon","coordinates":[[[126.94407,37.73427],[126.94398,37.73425],[126.94399,37.7342],[126.94415,37.73418],[126.94417,37.73425],[126.94407,37.73427]]]}},{"type":"Feature","properties":{"valleyId":"jangheung","layer":"canopy","date":"2026-08-01"},"geometry":{"type":"Polygon","coordinates":[[[126.95052,37.73418],[126.95052,37.73413],[126.95059,37.73413],[126.95059,37.73418],[126.95052,37.73418]]]}},{"type":"Feature","properties":{"valleyId":"jangheung","layer":"canopy","date":"2026-08-01"},"geometry":{"type":"Polygon","coordinates":[[[126.95222,37.73419],[126.9522,37.73412],[126.95227,37.73412],[126.95229,37.7342],[126.95222,37.73419]]]}},{"type":"Feature","properties":{"valleyId":"jangheung","layer":"canopy","date":"2026-08-01"},"geometry":{"type":"Polygon","coordinates":[[[126.95158,37.73449],[126.95158,37.73444],[126.95142,37.73447],[126.95145,37.73431],[126.95134,37.73429],[126.95132,37.73422],[126.95125,37.73418],[126.9513,37.73405],[126.95139,37.73398],[126.95157,37.73399],[126.95166,37.73406],[126.95166,37.73411],[126.95159,37.73417],[126.9515,37.73416],[126.9515,37.73422],[126.95177,37.73433],[126.95176,37.73442],[126.9517,37.73444],[126.95167,37.73449],[126.95158,37.73449]]]}},{"type":"Feature","properties":{"valleyId":"jangheung","layer":"canopy","date":"2026-08-01"},"geometry":{"type":"Polygon","coordinates":[[[126.94418,37.73384],[126.94418,37.73378],[126.94425,37.73379],[126.94425,37.73384],[126.94418,37.73384]]]}},{"type":"Feature","properties":{"valleyId":"jangheung","layer":"canopy","date":"2026-08-01"},"geometry":{"type":"Polygon","coordinates":[[[126.95073,37.73395],[126.95073,37.7339],[126.9508,37.7339],[126.9508,37.73395],[126.95073,37.73395]]]}},{"type":"Feature","properties":{"valleyId":"jangheung","layer":"canopy","date":"2026-08-01"},"geometry":{"type":"Polygon","coordinates":[[[126.95078,37.73388],[126.95078,37.73379],[126.95085,37.73379],[126.95087,37.73388],[126.95078,37.73388]]]}},{"type":"Feature","properties":{"valleyId":"jangheung","layer":"canopy","date":"2026-08-01"},"geometry":{"type":"Polygon","coordinates":[[[126.95214,37.73398],[126.9521,37.73389],[126.9521,37.73381],[126.95219,37.73382],[126.95221,37.73387],[126.95221,37.73398],[126.95214,37.73398]]]}},{"type":"Feature","properties":{"valleyId":"jangheung","layer":"canopy","date":"2026-08-01"},"geometry":{"type":"Polygon","coordinates":[[[126.94314,37.7336],[126.94314,37.73353],[126.94323,37.73353],[126.94323,37.73359],[126.94314,37.7336]]]}},{"type":"Feature","properties":{"valleyId":"jangheung","layer":"canopy","date":"2026-08-01"},"geometry":{"type":"Polygon","coordinates":[[[126.95242,37.73355],[126.95242,37.7335],[126.95249,37.7335],[126.95249,37.73355],[126.95242,37.73355]]]}},{"type":"Feature","properties":{"valleyId":"jangheung","layer":"canopy","date":"2026-08-01"},"geometry":{"type":"Polygon","coordinates":[[[126.95259,37.73335],[126.95259,37.73319],[126.95286,37.7332],[126.95288,37.73332],[126.95273,37.73328],[126.95268,37.73336],[126.95259,37.73335]]]}},{"type":"Feature","properties":{"valleyId":"jangheung","layer":"canopy","date":"2026-08-01"},"geometry":{"type":"Polygon","coordinates":[[[126.95329,37.73436],[126.95322,37.73425],[126.95315,37.73421],[126.953,37.73421],[126.95295,37.73428],[126.95288,37.73431],[126.95277,37.73429],[126.95277,37.73422],[126.95281,37.73419],[126.9528,37.73384],[126.95285,37.73383],[126.95285,37.73376],[126.95297,37.73365],[126.95297,37.7336],[126.95306,37.73356],[126.95311,37.7334],[126.95315,37.73336],[126.95329,37.73335],[126.9533,37.73315],[126.95316,37.73315],[126.95314,37.73322],[126.95309,37.73322],[126.95309,37.73327],[126.95302,37.73327],[126.95302,37.73322],[126.95295,37.73322],[126.95296,37.73313],[126.95309,37.73309],[126.95316,37.73304],[126.95341,37.73306],[126.95344,37.73299],[126.95351,37.73297],[126.95351,37.7329],[126.95358,37.7329],[126.95358,37.73352],[126.95352,37.73418],[126.95334,37.7342],[126.95331,37.73427],[126.95338,37.73429],[126.95338,37.73434],[126.95329,37.73436]]]}},{"type":"Feature","properties":{"valleyId":"jangheung","layer":"canopy","date":"2026-08-01"},"geometry":{"type":"Polygon","coordinates":[[[126.95278,37.7403],[126.95206,37.74001],[126.95204,37.73998],[126.95195,37.73996],[126.95177,37.73983],[126.95173,37.73983],[126.9516,37.7397],[126.95155,37.7397],[126.94993,37.73835],[126.94993,37.73832],[126.94958,37.73801],[126.94958,37.73797],[126.94949,37.73791],[126.94949,37.73788],[126.9494,37.73782],[126.9494,37.73779],[126.94931,37.73773],[126.94931,37.73769],[126.94922,37.73764],[126.94922,37.7376],[126.94914,37.73755],[126.94914,37.73751],[126.94905,37.73746],[126.94896,37.73733],[126.94885,37.73725],[126.94885,37.73722],[126.94878,37.73718],[126.94878,37.73715],[126.94872,37.73711],[126.94872,37.73707],[126.94858,37.73694],[126.94839,37.7366],[126.94831,37.73636],[126.94826,37.73632],[126.94816,37.73596],[126.94817,37.73546],[126.94843,37.73449],[126.94816,37.73438],[126.948,37.73425],[126.94796,37.73425],[126.94758,37.7339],[126.94745,37.73368],[126.9472,37.73358],[126.94718,37.73355],[126.94709,37.73353],[126.94698,37.73344],[126.94693,37.73344],[126.94682,37.73333],[126.94678,37.73333],[126.94667,37.73323],[126.94667,37.7332],[126.94653,37.7331],[126.94654,37.73307],[126.94636,37.7329],[126.94638,37.73283],[126.94668,37.73287],[126.9469,37.73288],[126.94704,37.73284],[126.94705,37.73268],[126.94709,37.73265],[126.94712,37.73248],[126.94719,37.73241],[126.94753,37.73244],[126.94758,37.73238],[126.9478,37.73239],[126.94791,37.73244],[126.94803,37.73245],[126.94816,37.73257],[126.94821,37.73258],[126.94827,37.73263],[126.94827,37.73267],[126.94857,37.73273],[126.94865,37.7328],[126.94865,37.73284],[126.94886,37.73287],[126.94892,37.73297],[126.94915,37.73304],[126.94917,37.73313],[126.94932,37.73319],[126.94951,37.73319],[126.94953,37.73326],[126.94962,37.7333],[126.94964,37.73343],[126.94982,37.73347],[126.94979,37.73358],[126.94972,37.73359],[126.94972,37.73363],[126.94958,37.73363],[126.94947,37.73373],[126.94944,37.73382],[126.94937,37.73388],[126.94933,37.73387],[126.94928,37.73409],[126.94909,37.73419],[126.94911,37.73432],[126.94934,37.73432],[126.94966,37.7342],[126.94971,37.73415],[126.95011,37.73416],[126.95014,37.73407],[126.95023,37.73409],[126.95025,37.73427],[126.9502,37.73427],[126.9502,37.73432],[126.95038,37.73433],[126.95036,37.73441],[126.95026,37.73447],[126.95026,37.73458],[126.9504,37.73461],[126.95046,37.73469],[126.95041,37.73487],[126.95048,37.73487],[126.95048,37.73492],[126.95036,37.7351],[126.95018,37.7351],[126.95018,37.73517],[126.95031,37.73515],[126.95031,37.73526],[126.95024,37.73533],[126.95024,37.7354],[126.95017,37.73553],[126.95012,37.73553],[126.95007,37.7356],[126.95001,37.7356],[126.94996,37.73563],[126.94996,37.73574],[126.95002,37.73583],[126.95004,37.73598],[126.94997,37.73598],[126.94997,37.73601],[126.94993,37.73603],[126.94995,37.73617],[126.95001,37.73618],[126.95006,37.73625],[126.95026,37.73623],[126.95035,37.73634],[126.95032,37.73649],[126.95039,37.73651],[126.95039,37.73658],[126.95036,37.73667],[126.95027,37.73668],[126.95029,37.73685],[126.95038,37.73683],[126.95038,37.73678],[126.95045,37.73674],[126.95048,37.73665],[126.9507,37.73669],[126.95068,37.73678],[126.95052,37.73676],[126.95049,37.73683],[126.95043,37.73685],[126.95042,37.73689],[126.95036,37.7369],[126.95031,37.73697],[126.9502,37.73697],[126.95019,37.73712],[126.95015,37.73715],[126.95014,37.73722],[126.95028,37.73726],[126.9503,37.73739],[126.95041,37.73741],[126.9505,37.73746],[126.95086,37.73745],[126.95086,37.73754],[126.95079,37.73758],[126.95079,37.73768],[126.95092,37.73774],[126.95094,37.73778],[126.95101,37.73778],[126.95101,37.73781],[126.9511,37.73787],[126.95121,37.73789],[126.95126,37.73793],[126.95135,37.73793],[126.95144,37.73786],[126.95147,37.7377],[126.95156,37.7377],[126.95165,37.73775],[126.95183,37.73776],[126.95183,37.73783],[126.95178,37.73786],[126.95171,37.73786],[126.95162,37.73799],[126.95151,37.73799],[126.95144,37.73802],[126.95148,37.7382],[126.95164,37.73822],[126.9517,37.73828],[126.95184,37.73828],[126.95184,37.73823],[126.95177,37.73817],[126.95177,37.73813],[126.95166,37.73813],[126.95166,37.73806],[126.95191,37.73808],[126.95194,37.73805],[126.95203,37.73805],[126.95202,37.73814],[126.95207,37.73814],[126.95214,37.73821],[126.95239,37.73822],[126.95259,37.73827],[126.95277,37.7384],[126.95279,37.73849],[126.95283,37.73853],[126.95303,37.73857],[126.95305,37.73864],[126.95321,37.73863],[126.95348,37.73876],[126.95373,37.73876],[126.95394,37.7388],[126.95439,37.73877],[126.95439,37.73892],[126.95443,37.73896],[126.95459,37.73903],[126.95486,37.73905],[126.95492,37.73913],[126.95499,37.73913],[126.95505,37.73938],[126.95519,37.73951],[126.95518,37.73964],[126.95514,37.73967],[126.95514,37.73972],[126.95495,37.73983],[126.95488,37.73994],[126.95472,37.73993],[126.95465,37.73997],[126.95449,37.73998],[126.95429,37.73996],[126.95413,37.74001],[126.95386,37.73999],[126.95379,37.74003],[126.95365,37.74002],[126.95356,37.74004],[126.95354,37.74013],[126.95328,37.74027],[126.9529,37.74026],[126.95287,37.7403],[126.95278,37.7403]],[[126.95003,37.73809],[126.95019,37.73807],[126.95026,37.738],[126.95026,37.73793],[126.95019,37.73793],[126.95017,37.73798],[126.95005,37.73798],[126.95003,37.73809]],[[126.94923,37.73724],[126.94942,37.73723],[126.94949,37.73716],[126.94962,37.73716],[126.94962,37.73709],[126.94938,37.73707],[126.94931,37.73712],[126.94912,37.73711],[126.94912,37.73722],[126.94923,37.73724]],[[126.95003,37.73641],[126.9501,37.73641],[126.9501,37.73634],[126.95003,37.73634],[126.95003,37.73641]]]}},{"type":"Feature","properties":{"valleyId":"jangheung","layer":"canopy","date":"2026-08-01"},"geometry":{"type":"Polygon","coordinates":[[[126.94891,37.73252],[126.94884,37.73246],[126.94885,37.73239],[126.94901,37.73237],[126.94903,37.73245],[126.94907,37.73245],[126.94907,37.7325],[126.94891,37.73252]]]}},{"type":"Feature","properties":{"valleyId":"jangheung","layer":"canopy","date":"2026-08-01"},"geometry":{"type":"Polygon","coordinates":[[[126.9491,37.73218],[126.9491,37.73209],[126.9492,37.73209],[126.94919,37.73218],[126.9491,37.73218]]]}},{"type":"Feature","properties":{"valleyId":"jangheung","layer":"canopy","date":"2026-08-01"},"geometry":{"type":"Polygon","coordinates":[[[126.93919,37.73543],[126.93919,37.73536],[126.93938,37.73511],[126.93945,37.73507],[126.93945,37.73504],[126.93975,37.73479],[126.93979,37.73479],[126.93986,37.73472],[126.93993,37.7347],[126.93993,37.73463],[126.93981,37.73437],[126.93974,37.7341],[126.93976,37.73367],[126.93993,37.73319],[126.94014,37.73288],[126.94026,37.7328],[126.94026,37.73276],[126.94061,37.7325],[126.94065,37.7325],[126.9407,37.73244],[126.94074,37.73244],[126.94091,37.73234],[126.94118,37.73224],[126.94132,37.73222],[126.94136,37.73219],[126.9418,37.73212],[126.94209,37.73213],[126.94212,37.73209],[126.94239,37.73199],[126.94285,37.73189],[126.94353,37.73188],[126.94409,37.732],[126.94445,37.73215],[126.94447,37.73219],[126.94465,37.73226],[126.94494,37.73248],[126.94494,37.73252],[126.94505,37.73259],[126.94505,37.73263],[126.94512,37.73267],[126.94518,37.73279],[126.94523,37.73281],[126.94538,37.73308],[126.94538,37.73316],[126.94528,37.73321],[126.94528,37.73325],[126.94524,37.73324],[126.94519,37.7333],[126.9451,37.73333],[126.94505,37.73342],[126.94498,37.73346],[126.94496,37.73355],[126.94502,37.73355],[126.94505,37.73351],[126.94514,37.73349],[126.94521,37.73342],[126.94546,37.73341],[126.94549,37.73379],[126.94539,37.73422],[126.9452,37.73458],[126.94515,37.73459],[126.94513,37.73467],[126.94501,37.73475],[126.94497,37.73484],[126.94462,37.73511],[126.94457,37.73511],[126.94427,37.73528],[126.94411,37.73532],[126.94402,37.73537],[126.94352,37.73547],[126.94343,37.73547],[126.9433,37.73537],[126.94318,37.73535],[126.94312,37.7353],[126.94312,37.73519],[126.94316,37.73519],[126.94317,37.73499],[126.9431,37.73496],[126.9431,37.73487],[126.94306,37.73485],[126.94306,37.73481],[126.94302,37.73477],[126.94295,37.73477],[126.94295,37.7347],[126.94286,37.73464],[126.94286,37.73461],[126.94279,37.73461],[126.94277,37.73466],[126.94261,37.73466],[126.94261,37.73457],[126.94255,37.73453],[126.94255,37.73439],[126.94241,37.7344],[126.94232,37.73455],[126.94218,37.73456],[126.94214,37.73451],[126.94214,37.73443],[126.94216,37.7344],[126.9423,37.73435],[126.9423,37.73427],[126.94217,37.73422],[126.94217,37.73418],[126.94208,37.73414],[126.94208,37.73409],[126.9422,37.73402],[126.94233,37.73402],[126.94244,37.73415],[126.94253,37.73415],[126.94254,37.73406],[126.94261,37.73394],[126.94259,37.73376],[126.94273,37.73371],[126.94275,37.73367],[126.94287,37.73367],[126.94291,37.73378],[126.94311,37.7338],[126.94316,37.73386],[126.94327,37.73386],[126.94336,37.73391],[126.94336,37.73399],[126.94329,37.734],[126.94326,37.73413],[126.9433,37.73422],[126.94344,37.73429],[126.9435,37.7344],[126.94364,37.73442],[126.94371,37.73439],[126.94396,37.73438],[126.94405,37.73447],[126.94439,37.73447],[126.94453,37.73435],[126.94462,37.73431],[126.94482,37.73432],[126.94478,37.7341],[126.94483,37.73403],[126.94483,37.7339],[126.9449,37.73387],[126.94495,37.73378],[126.94495,37.73371],[126.94489,37.73365],[126.94489,37.73354],[126.94482,37.73354],[126.94473,37.7336],[126.94434,37.73361],[126.94423,37.73353],[126.94405,37.73353],[126.94398,37.73349],[126.94348,37.73348],[126.9433,37.73339],[126.94306,37.73339],[126.94296,37.73346],[126.94267,37.73345],[126.94266,37.73354],[126.94239,37.73352],[126.94239,37.73357],[126.94232,37.73363],[126.94194,37.73362],[126.94191,37.73371],[126.94187,37.73374],[126.94175,37.73376],[126.9417,37.73381],[126.94154,37.73388],[126.94141,37.73388],[126.94139,37.73379],[126.94123,37.73381],[126.94122,37.73395],[126.94115,37.73398],[126.94101,37.7342],[126.94087,37.7343],[126.94078,37.7343],[126.94074,37.73427],[126.94051,37.73428],[126.94051,37.73421],[126.94042,37.73417],[126.94022,37.7342],[126.94022,37.73426],[126.94049,37.7343],[126.94044,37.73451],[126.94057,37.73451],[126.94059,37.73459],[126.94028,37.7346],[126.94014,37.73465],[126.94,37.73465],[126.94,37.73472],[126.94004,37.73474],[126.94004,37.73479],[126.94,37.73483],[126.93999,37.73496],[126.9399,37.73501],[126.93981,37.73501],[126.93979,37.7351],[126.93972,37.73513],[126.93972,37.73517],[126.93962,37.7352],[126.93962,37.73524],[126.93955,37.73529],[126.93944,37.73529],[126.93932,37.73541],[126.93919,37.73543]],[[126.94512,37.7342],[126.94521,37.73418],[126.94524,37.73407],[126.94512,37.73409],[126.94512,37.7342]],[[126.94123,37.73375],[126.9413,37.73375],[126.9413,37.73368],[126.94116,37.73364],[126.94116,37.7337],[126.94121,37.7337],[126.94123,37.73375]]]}},{"type":"Feature","properties":{"valleyId":"jangheung","layer":"canopy","date":"2026-08-01"},"geometry":{"type":"Polygon","coordinates":[[[126.94847,37.73189],[126.94848,37.73171],[126.94862,37.73172],[126.94871,37.73175],[126.9487,37.73181],[126.94864,37.73181],[126.94859,37.7319],[126.94847,37.73189]]]}},{"type":"Feature","properties":{"valleyId":"jangheung","layer":"canopy","date":"2026-08-01"},"geometry":{"type":"Polygon","coordinates":[[[126.94837,37.73169],[126.94835,37.73151],[126.94844,37.73152],[126.94848,37.73157],[126.94848,37.73166],[126.94846,37.7317],[126.94837,37.73169]]]}},{"type":"Feature","properties":{"valleyId":"jangheung","layer":"canopy","date":"2026-08-01"},"geometry":{"type":"Polygon","coordinates":[[[126.94847,37.73128],[126.94849,37.73121],[126.94858,37.73121],[126.94856,37.73128],[126.94847,37.73128]]]}},{"type":"Feature","properties":{"valleyId":"jangheung","layer":"canopy","date":"2026-08-01"},"geometry":{"type":"Polygon","coordinates":[[[126.94889,37.73149],[126.94885,37.73145],[126.94886,37.7312],[126.94895,37.7312],[126.94897,37.73136],[126.94901,37.7314],[126.94901,37.73147],[126.94889,37.73149]]]}},{"type":"Feature","properties":{"valleyId":"jangheung","layer":"canopy","date":"2026-08-01"},"geometry":{"type":"Polygon","coordinates":[[[126.95056,37.73049],[126.95054,37.7304],[126.95063,37.73038],[126.95067,37.73049],[126.95056,37.73049]]]}},{"type":"Feature","properties":{"valleyId":"jangheung","layer":"canopy","date":"2026-08-01"},"geometry":{"type":"Polygon","coordinates":[[[126.95137,37.73393],[126.9514,37.73351],[126.95136,37.73348],[126.95136,37.73333],[126.95132,37.73331],[126.95132,37.73317],[126.95121,37.73313],[126.95123,37.73302],[126.95117,37.73297],[126.95117,37.73293],[126.95101,37.73297],[126.95097,37.73291],[126.95088,37.73287],[126.95086,37.73278],[126.95067,37.73276],[126.95061,37.73267],[126.95052,37.73267],[126.95045,37.73261],[126.95045,37.73258],[126.95034,37.73256],[126.9503,37.73247],[126.95018,37.73247],[126.95016,37.73243],[126.95009,37.73243],[126.95003,37.73237],[126.94989,37.73235],[126.94987,37.73224],[126.94983,37.73221],[126.94976,37.73221],[126.94976,37.73213],[126.94967,37.73213],[126.94967,37.73204],[126.94972,37.73202],[126.94973,37.73179],[126.94968,37.73175],[126.94969,37.73161],[126.9496,37.73152],[126.94958,37.73127],[126.94961,37.73118],[126.94965,37.73114],[126.95004,37.73117],[126.95025,37.73097],[126.95025,37.73092],[126.95014,37.73086],[126.95014,37.73068],[126.95007,37.73068],[126.95,37.73073],[126.95,37.73077],[126.94994,37.73077],[126.94985,37.73069],[126.94983,37.73057],[126.94987,37.73053],[126.94988,37.73048],[126.94994,37.73044],[126.94995,37.73039],[126.94999,37.73037],[126.94999,37.73028],[126.94986,37.73026],[126.94986,37.73019],[126.95006,37.73023],[126.95017,37.73045],[126.95033,37.7305],[126.95035,37.73056],[126.95046,37.73056],[126.95053,37.7306],[126.95053,37.73063],[126.95062,37.73065],[126.95073,37.73065],[126.95073,37.73058],[126.95083,37.73058],[126.95089,37.73062],[126.95098,37.73077],[126.95114,37.73079],[126.95118,37.73077],[126.95118,37.73073],[126.95132,37.7307],[126.95133,37.73047],[126.95124,37.73039],[126.95115,37.73037],[126.95115,37.7303],[126.95122,37.73028],[126.95118,37.73003],[126.95127,37.72998],[126.95146,37.72995],[126.95157,37.72984],[126.95164,37.72984],[126.95173,37.72993],[126.95177,37.72993],[126.95188,37.73003],[126.95188,37.73008],[126.95195,37.73013],[126.95195,37.73021],[126.95204,37.73021],[126.95204,37.73024],[126.95211,37.73026],[126.9521,37.73032],[126.95185,37.73048],[126.95188,37.73087],[126.95181,37.73125],[126.95196,37.73129],[126.95234,37.73146],[126.95301,37.73192],[126.95301,37.73196],[126.95315,37.73205],[126.95314,37.73208],[126.95321,37.73212],[126.95328,37.73225],[126.95332,37.73227],[126.95345,37.73249],[126.95351,37.7327],[126.9534,37.73272],[126.95333,37.73279],[126.95312,37.7328],[126.9531,37.73288],[126.9529,37.73287],[126.95287,37.73294],[126.95292,37.73296],[126.95291,37.73304],[126.95287,37.73305],[126.95273,37.73305],[126.95271,37.73301],[126.95264,37.73301],[126.95262,37.73307],[126.95248,37.7331],[126.95221,37.73308],[126.95219,37.73311],[126.95207,37.73311],[126.95207,37.7332],[126.952,37.7332],[126.952,37.73325],[126.95214,37.73326],[126.95223,37.73331],[126.95232,37.73331],[126.95236,37.73333],[126.95236,37.73339],[126.95222,37.7334],[126.95217,37.73351],[126.95211,37.73351],[126.95204,37.73343],[126.95188,37.7334],[126.95177,37.73339],[126.95175,37.73343],[126.9517,37.73343],[126.95165,37.7335],[126.95158,37.73353],[126.95164,37.73379],[126.95158,37.73382],[126.9515,37.73393],[126.95137,37.73393]],[[126.95178,37.73318],[126.95184,37.73318],[126.95191,37.73313],[126.95191,37.73305],[126.95171,37.73305],[126.95171,37.7331],[126.95178,37.73314],[126.95178,37.73318]],[[126.95162,37.73305],[126.95171,37.73305],[126.95171,37.733],[126.95178,37.73298],[126.95187,37.73289],[126.95188,37.73284],[126.95183,37.7328],[126.95169,37.73283],[126.95162,37.73305]]]}},{"type":"Feature","properties":{"valleyId":"jangheung","layer":"canopy","date":"2026-08-01"},"geometry":{"type":"Polygon","coordinates":[[[126.95096,37.72985],[126.95096,37.72979],[126.95103,37.72979],[126.95103,37.72985],[126.95096,37.72985]]]}},{"type":"Feature","properties":{"valleyId":"jangheung","layer":"canopy","date":"2026-08-01"},"geometry":{"type":"Polygon","coordinates":[[[126.95062,37.72986],[126.9506,37.72982],[126.95053,37.72982],[126.95055,37.72975],[126.95073,37.72979],[126.95073,37.72986],[126.95062,37.72986]]]}},{"type":"Feature","properties":{"valleyId":"jangheung","layer":"canopy","date":"2026-08-01"},"geometry":{"type":"Polygon","coordinates":[[[126.94998,37.72988],[126.94992,37.72985],[126.94992,37.72981],[126.94985,37.72981],[126.94985,37.72974],[126.9501,37.72972],[126.95014,37.72985],[126.9501,37.72989],[126.94998,37.72988]]]}},{"type":"Feature","properties":{"valleyId":"jangheung","layer":"canopy","date":"2026-08-01"},"geometry":{"type":"Polygon","coordinates":[[[126.95071,37.72968],[126.95067,37.72964],[126.9506,37.72964],[126.95061,37.72944],[126.95052,37.72941],[126.95052,37.72935],[126.95063,37.72937],[126.95063,37.72943],[126.95072,37.72943],[126.95077,37.72948],[126.95099,37.72956],[126.95096,37.72965],[126.9509,37.72965],[126.95085,37.72968],[126.95071,37.72968]]]}},{"type":"Feature","properties":{"valleyId":"jangheung","layer":"canopy","date":"2026-08-01"},"geometry":{"type":"Polygon","coordinates":[[[126.9526,37.72973],[126.95248,37.72969],[126.9524,37.72962],[126.9524,37.72955],[126.95244,37.72955],[126.95244,37.72949],[126.95235,37.72946],[126.95236,37.72942],[126.95224,37.72942],[126.95224,37.72933],[126.95231,37.72933],[126.95231,37.72937],[126.9524,37.72937],[126.95245,37.7294],[126.95258,37.72937],[126.95263,37.72946],[126.95276,37.72948],[126.95269,37.7297],[126.95266,37.72973],[126.9526,37.72973]]]}},{"type":"Feature","properties":{"valleyId":"jangheung","layer":"canopy","date":"2026-08-01"},"geometry":{"type":"Polygon","coordinates":[[[126.94886,37.7295],[126.94884,37.72936],[126.94879,37.72936],[126.94877,37.72927],[126.9488,37.72916],[126.94887,37.72916],[126.94889,37.72923],[126.94907,37.72933],[126.94907,37.7294],[126.94922,37.7294],[126.94922,37.72946],[126.94918,37.72949],[126.94886,37.7295]]]}},{"type":"Feature","properties":{"valleyId":"jangheung","layer":"canopy","date":"2026-08-01"},"geometry":{"type":"Polygon","coordinates":[[[126.94605,37.7325],[126.9459,37.73219],[126.94584,37.73188],[126.94589,37.73116],[126.94596,37.73091],[126.94605,37.73077],[126.94606,37.73072],[126.94632,37.73036],[126.94701,37.72978],[126.94709,37.72942],[126.94714,37.72928],[126.94719,37.72924],[126.94717,37.72901],[126.94728,37.72901],[126.94728,37.72908],[126.94735,37.72912],[126.94735,37.72921],[126.94725,37.72926],[126.94727,37.72937],[126.9472,37.7294],[126.9472,37.72957],[126.94711,37.72962],[126.94711,37.72969],[126.94715,37.72971],[126.94715,37.72976],[126.94719,37.7298],[126.94731,37.72984],[126.9473,37.72995],[126.94742,37.72997],[126.94744,37.73],[126.9478,37.73003],[126.9478,37.7301],[126.94791,37.7301],[126.948,37.73016],[126.94809,37.73016],[126.9481,37.73],[126.94821,37.72994],[126.94817,37.7298],[126.94824,37.7298],[126.94835,37.72989],[126.9483,37.73004],[126.94846,37.73013],[126.94845,37.73018],[126.94854,37.73026],[126.94856,37.73035],[126.94845,37.73036],[126.94842,37.73049],[126.94831,37.7305],[126.94831,37.73054],[126.94824,37.73057],[126.94813,37.73057],[126.9481,37.73063],[126.94781,37.7306],[126.94774,37.73057],[126.94758,37.73056],[126.94758,37.7306],[126.94744,37.7306],[126.94738,37.73058],[126.94738,37.73045],[126.94734,37.73042],[126.94727,37.73041],[126.94727,37.73045],[126.94715,37.73045],[126.94717,37.73063],[126.94724,37.73065],[126.94726,37.73074],[126.94739,37.73085],[126.94744,37.73085],[126.94743,37.73098],[126.94739,37.73101],[126.94738,37.73115],[126.94731,37.73133],[126.94735,37.73146],[126.94735,37.73168],[126.94718,37.73185],[126.94722,37.73204],[126.94704,37.73209],[126.94702,37.73216],[126.94683,37.73217],[126.94681,37.73226],[126.94676,37.7323],[126.94667,37.73233],[126.94647,37.73235],[126.94642,37.7324],[126.94624,37.73243],[126.94619,37.73249],[126.94605,37.7325]],[[126.94767,37.73048],[126.94788,37.73046],[126.94797,37.73041],[126.94797,37.73035],[126.94772,37.73033],[126.94765,37.7304],[126.94767,37.73048]],[[126.94747,37.73044],[126.94756,37.73044],[126.94757,37.73031],[126.94747,37.73033],[126.94747,37.73044]],[[126.94815,37.73036],[126.94822,37.73036],[126.94822,37.7303],[126.94816,37.7303],[126.94815,37.73036]]]}},{"type":"Feature","properties":{"valleyId":"jangheung","layer":"canopy","date":"2026-08-01"},"geometry":{"type":"Polygon","coordinates":[[[126.95189,37.72905],[126.95187,37.72896],[126.95194,37.72896],[126.95196,37.72905],[126.95189,37.72905]]]}},{"type":"Feature","properties":{"valleyId":"jangheung","layer":"canopy","date":"2026-08-01"},"geometry":{"type":"Polygon","coordinates":[[[126.95223,37.72886],[126.95224,37.72881],[126.95217,37.72877],[126.95217,37.72866],[126.95224,37.72866],[126.95224,37.72873],[126.95233,37.72879],[126.95233,37.72886],[126.95223,37.72886]]]}},{"type":"Feature","properties":{"valleyId":"jangheung","layer":"canopy","date":"2026-08-01"},"geometry":{"type":"Polygon","coordinates":[[[126.95081,37.72873],[126.95081,37.72858],[126.95088,37.72858],[126.95088,37.72862],[126.95097,37.72866],[126.95097,37.72871],[126.95081,37.72873]]]}},{"type":"Feature","properties":{"valleyId":"jangheung","layer":"canopy","date":"2026-08-01"},"geometry":{"type":"Polygon","coordinates":[[[126.9516,37.72878],[126.95158,37.7287],[126.95151,37.72867],[126.95154,37.7286],[126.95161,37.7286],[126.95167,37.72865],[126.95167,37.72878],[126.9516,37.72878]]]}},{"type":"Feature","properties":{"valleyId":"jangheung","layer":"canopy","date":"2026-08-01"},"geometry":{"type":"Polygon","coordinates":[[[126.94918,37.72857],[126.94909,37.72848],[126.94909,37.72841],[126.94914,37.72839],[126.94914,37.72836],[126.94925,37.72836],[126.94932,37.72839],[126.94936,37.72854],[126.94932,37.72858],[126.94918,37.72857]]]}},{"type":"Feature","properties":{"valleyId":"jangheung","layer":"canopy","date":"2026-08-01"},"geometry":{"type":"Polygon","coordinates":[[[126.95124,37.72861],[126.9512,37.72843],[126.95129,37.72843],[126.95134,37.72848],[126.95145,37.72849],[126.9515,37.72838],[126.95161,37.7284],[126.95154,37.72856],[126.95147,37.72856],[126.95145,37.72859],[126.95124,37.72861]]]}},{"type":"Feature","properties":{"valleyId":"jangheung","layer":"canopy","date":"2026-08-01"},"geometry":{"type":"Polygon","coordinates":[[[126.951,37.72848],[126.95095,37.72842],[126.95096,37.72833],[126.95111,37.72835],[126.95113,37.72846],[126.951,37.72848]]]}},{"type":"Feature","properties":{"valleyId":"jangheung","layer":"canopy","date":"2026-08-01"},"geometry":{"type":"Polygon","coordinates":[[[126.95209,37.72844],[126.95209,37.72835],[126.9522,37.72834],[126.9522,37.72841],[126.95216,37.72844],[126.95209,37.72844]]]}},{"type":"Feature","properties":{"valleyId":"jangheung","layer":"canopy","date":"2026-08-01"},"geometry":{"type":"Polygon","coordinates":[[[126.95132,37.72836],[126.95118,37.72834],[126.95114,37.7283],[126.95114,37.72823],[126.95121,37.72823],[126.95126,37.72818],[126.9513,37.72818],[126.9513,37.72809],[126.95135,37.72809],[126.95137,37.72805],[126.95146,37.72805],[126.95148,37.72813],[126.95155,37.72813],[126.95153,37.72802],[126.95165,37.72791],[126.95174,37.72791],[126.95174,37.72804],[126.95167,37.72811],[126.95164,37.72824],[126.95143,37.72831],[126.95141,37.72836],[126.95132,37.72836]]]}},{"type":"Feature","properties":{"valleyId":"jangheung","layer":"canopy","date":"2026-08-01"},"geometry":{"type":"Polygon","coordinates":[[[126.95018,37.72781],[126.95018,37.72772],[126.95025,37.72773],[126.95024,37.72782],[126.95018,37.72781]]]}},{"type":"Feature","properties":{"valleyId":"jangheung","layer":"canopy","date":"2026-08-01"},"geometry":{"type":"Polygon","coordinates":[[[126.94718,37.72881],[126.94721,37.72856],[126.94737,37.72816],[126.94745,37.72806],[126.94749,37.72804],[126.94752,37.72797],[126.94761,37.7279],[126.94761,37.72786],[126.94782,37.7277],[126.94784,37.72765],[126.94793,37.72765],[126.94795,37.72772],[126.948,37.72774],[126.94802,37.7279],[126.94808,37.72796],[126.9481,37.72807],[126.94822,37.72811],[126.9483,37.72818],[126.9483,37.72823],[126.94837,37.72823],[126.94842,37.72827],[126.94857,37.72827],[126.9486,37.72831],[126.94869,37.72833],[126.94873,37.72853],[126.94877,37.72857],[126.94891,37.72857],[126.94891,37.72862],[126.94884,37.72864],[126.94885,37.72882],[126.94865,37.72882],[126.94865,37.72874],[126.94861,37.72869],[126.94829,37.7287],[126.94826,37.72881],[126.94815,37.72881],[126.94804,37.72872],[126.94797,37.72871],[126.94786,37.72864],[126.94754,37.72862],[126.94752,37.72867],[126.94747,37.72871],[126.94741,37.7287],[126.94738,37.72876],[126.94729,37.72876],[126.94727,37.72881],[126.94718,37.72881]]]}},{"type":"Feature","properties":{"valleyId":"jangheung","layer":"canopy","date":"2026-08-01"},"geometry":{"type":"Polygon","coordinates":[[[126.95076,37.72718],[126.95076,37.7271],[126.95083,37.72711],[126.95083,37.72718],[126.95076,37.72718]]]}},{"type":"Feature","properties":{"valleyId":"jangheung","layer":"canopy","date":"2026-08-01"},"geometry":{"type":"Polygon","coordinates":[[[126.95079,37.72703],[126.95081,37.72691],[126.9509,37.72691],[126.9509,37.72698],[126.95086,37.727],[126.95086,37.72703],[126.95079,37.72703]]]}},{"type":"Feature","properties":{"valleyId":"jangheung","layer":"canopy","date":"2026-08-01"},"geometry":{"type":"Polygon","coordinates":[[[126.95086,37.72682],[126.95084,37.72675],[126.95091,37.72675],[126.95093,37.72682],[126.95086,37.72682]]]}},{"type":"Feature","properties":{"valleyId":"jangheung","layer":"canopy","date":"2026-08-01"},"geometry":{"type":"Polygon","coordinates":[[[126.95096,37.72657],[126.95096,37.72649],[126.95103,37.7265],[126.95103,37.72657],[126.95096,37.72657]]]}},{"type":"Feature","properties":{"valleyId":"jangheung","layer":"canopy","date":"2026-08-01"},"geometry":{"type":"Polygon","coordinates":[[[126.95157,37.72665],[126.95152,37.72663],[126.95153,37.72659],[126.95139,37.72661],[126.95144,37.7265],[126.95162,37.72649],[126.95162,37.72658],[126.95168,37.72658],[126.95168,37.72663],[126.95157,37.72665]]]}},{"type":"Feature","properties":{"valleyId":"jangheung","layer":"canopy","date":"2026-08-01"},"geometry":{"type":"Polygon","coordinates":[[[126.95121,37.72657],[126.95123,37.72648],[126.95132,37.72648],[126.9513,37.72657],[126.95121,37.72657]]]}},{"type":"Feature","properties":{"valleyId":"jangheung","layer":"canopy","date":"2026-08-01"},"geometry":{"type":"Polygon","coordinates":[[[126.93772,37.72621],[126.9377,37.72612],[126.93779,37.72612],[126.93781,37.72619],[126.93772,37.72621]]]}},{"type":"Feature","properties":{"valleyId":"jangheung","layer":"canopy","date":"2026-08-01"},"geometry":{"type":"Polygon","coordinates":[[[126.94942,37.72643],[126.94931,37.72638],[126.94931,37.72632],[126.94949,37.72629],[126.94951,37.72643],[126.94942,37.72643]]]}},{"type":"Feature","properties":{"valleyId":"jangheung","layer":"canopy","date":"2026-08-01"},"geometry":{"type":"Polygon","coordinates":[[[126.95165,37.72636],[126.95165,37.72625],[126.95174,37.72626],[126.95174,37.72635],[126.95165,37.72636]]]}},{"type":"Feature","properties":{"valleyId":"jangheung","layer":"canopy","date":"2026-08-01"},"geometry":{"type":"Polygon","coordinates":[[[126.93804,37.72605],[126.93802,37.72602],[126.93797,37.72602],[126.93797,37.72594],[126.93809,37.72595],[126.93815,37.726],[126.93815,37.72606],[126.93804,37.72605]]]}},{"type":"Feature","properties":{"valleyId":"jangheung","layer":"canopy","date":"2026-08-01"},"geometry":{"type":"Polygon","coordinates":[[[126.93895,37.72602],[126.93895,37.72596],[126.93906,37.72596],[126.93906,37.72602],[126.93895,37.72602]]]}},{"type":"Feature","properties":{"valleyId":"jangheung","layer":"canopy","date":"2026-08-01"},"geometry":{"type":"Polygon","coordinates":[[[126.94911,37.72612],[126.94911,37.72607],[126.94918,37.72607],[126.94918,37.72612],[126.94911,37.72612]]]}},{"type":"Feature","properties":{"valleyId":"jangheung","layer":"canopy","date":"2026-08-01"},"geometry":{"type":"Polygon","coordinates":[[[126.95108,37.72623],[126.95109,37.72606],[126.95118,37.72605],[126.9512,37.72619],[126.95117,37.72623],[126.95108,37.72623]]]}},{"type":"Feature","properties":{"valleyId":"jangheung","layer":"canopy","date":"2026-08-01"},"geometry":{"type":"Polygon","coordinates":[[[126.93811,37.72587],[126.93811,37.72582],[126.9382,37.7258],[126.9382,37.72588],[126.93811,37.72587]]]}},{"type":"Feature","properties":{"valleyId":"jangheung","layer":"canopy","date":"2026-08-01"},"geometry":{"type":"Polygon","coordinates":[[[126.9394,37.72591],[126.93945,37.72577],[126.93952,37.72577],[126.9395,37.7259],[126.9394,37.72591]]]}},{"type":"Feature","properties":{"valleyId":"jangheung","layer":"canopy","date":"2026-08-01"},"geometry":{"type":"Polygon","coordinates":[[[126.94961,37.72606],[126.94961,37.72597],[126.94971,37.72595],[126.94972,37.72606],[126.94961,37.72606]]]}},{"type":"Feature","properties":{"valleyId":"jangheung","layer":"canopy","date":"2026-08-01"},"geometry":{"type":"Polygon","coordinates":[[[126.95145,37.72591],[126.95146,37.72585],[126.95152,37.72586],[126.95152,37.72591],[126.95145,37.72591]]]}},{"type":"Feature","properties":{"valleyId":"jangheung","layer":"canopy","date":"2026-08-01"},"geometry":{"type":"Polygon","coordinates":[[[126.93896,37.72564],[126.93896,37.72558],[126.93903,37.72558],[126.93903,37.72564],[126.93896,37.72564]]]}},{"type":"Feature","properties":{"valleyId":"jangheung","layer":"canopy","date":"2026-08-01"},"geometry":{"type":"Polygon","coordinates":[[[126.94989,37.72813],[126.94987,37.72808],[126.94972,37.72806],[126.94963,37.72799],[126.94963,37.72773],[126.94938,37.72775],[126.94941,37.72762],[126.94925,37.72762],[126.94923,37.72744],[126.94903,37.72747],[126.94896,37.72738],[126.94889,37.72738],[126.94878,37.72732],[126.94876,37.72723],[126.94881,37.72721],[126.94881,37.72714],[126.9487,37.72707],[126.94861,37.72705],[126.94861,37.72701],[126.94854,37.72696],[126.94855,37.72687],[126.94837,37.72676],[126.94837,37.72647],[126.94851,37.72645],[126.94849,37.72634],[126.94838,37.72634],[126.94839,37.72605],[126.94849,37.72573],[126.94871,37.72579],[126.94873,37.72606],[126.94868,37.7262],[126.94877,37.7262],[126.94879,37.72628],[126.94895,37.72628],[126.94907,37.72664],[126.94923,37.72665],[126.94923,37.72674],[126.94932,37.72683],[126.94932,37.72692],[126.94927,37.72693],[126.94924,37.72706],[126.94936,37.72708],[126.9494,37.72721],[126.94949,37.72723],[126.94953,37.72728],[126.94962,37.72728],[126.94967,37.72734],[126.94966,37.72745],[126.9498,37.72752],[126.94979,37.72765],[126.94984,37.72766],[126.94984,37.72774],[126.94977,37.72774],[126.94977,37.72781],[126.9497,37.72784],[126.9497,37.7279],[126.94986,37.72792],[126.94992,37.72786],[126.95006,37.72787],[126.95008,37.7279],[126.95008,37.72798],[126.95006,37.72801],[126.95001,37.72801],[126.95003,37.72812],[126.94989,37.72813]],[[126.94859,37.7268],[126.94873,37.7268],[126.94875,37.72671],[126.94882,37.72669],[126.94878,37.72658],[126.94862,37.7266],[126.94862,37.72663],[126.94853,37.72669],[126.94853,37.72676],[126.94859,37.7268]]]}},{"type":"Feature","properties":{"valleyId":"jangheung","layer":"canopy","date":"2026-08-01"},"geometry":{"type":"Polygon","coordinates":[[[126.9383,37.72557],[126.9383,37.72552],[126.93837,37.72552],[126.93837,37.72557],[126.9383,37.72557]]]}},{"type":"Feature","properties":{"valleyId":"jangheung","layer":"canopy","date":"2026-08-01"},"geometry":{"type":"Polygon","coordinates":[[[126.94919,37.72554],[126.94922,37.72546],[126.94938,37.72546],[126.94935,37.72553],[126.94919,37.72554]]]}},{"type":"Feature","properties":{"valleyId":"jangheung","layer":"canopy","date":"2026-08-01"},"geometry":{"type":"Polygon","coordinates":[[[126.9389,37.72544],[126.93876,37.72534],[126.93876,37.72529],[126.93868,37.7252],[126.9387,37.72507],[126.93879,37.72508],[126.93881,37.72511],[126.93886,37.72511],[126.9389,37.72519],[126.93904,37.72519],[126.93906,37.72526],[126.93917,37.72533],[126.93912,37.72544],[126.9389,37.72544]]]}},{"type":"Feature","properties":{"valleyId":"jangheung","layer":"canopy","date":"2026-08-01"},"geometry":{"type":"Polygon","coordinates":[[[126.93709,37.72512],[126.93711,37.72503],[126.9373,37.72505],[126.93729,37.7251],[126.93709,37.72512]]]}},{"type":"Feature","properties":{"valleyId":"jangheung","layer":"canopy","date":"2026-08-01"},"geometry":{"type":"Polygon","coordinates":[[[126.95036,37.72533],[126.95034,37.72524],[126.95043,37.72522],[126.95045,37.72533],[126.95036,37.72533]]]}},{"type":"Feature","properties":{"valleyId":"jangheung","layer":"canopy","date":"2026-08-01"},"geometry":{"type":"Polygon","coordinates":[[[126.93649,37.72529],[126.93645,37.72527],[126.93645,37.72523],[126.93634,37.72523],[126.93629,37.72519],[126.93629,37.72514],[126.93636,37.7251],[126.93636,37.72507],[126.93643,37.72503],[126.93648,37.72496],[126.93649,37.72475],[126.93658,37.72475],[126.93664,37.72477],[126.93662,37.72491],[126.93673,37.72491],[126.93673,37.72497],[126.93671,37.72502],[126.93648,37.72505],[126.93647,37.72521],[126.93659,37.72522],[126.93659,37.72529],[126.93649,37.72529]]]}},{"type":"Feature","properties":{"valleyId":"jangheung","layer":"canopy","date":"2026-08-01"},"geometry":{"type":"Polygon","coordinates":[[[126.93748,37.725],[126.93746,37.72489],[126.93741,37.72487],[126.93742,37.72478],[126.93748,37.72478],[126.9375,37.72487],[126.93759,37.72487],[126.93762,37.72482],[126.93771,37.7248],[126.93773,37.72475],[126.9378,37.72475],[126.9378,37.72481],[126.93773,37.72482],[126.93773,37.72489],[126.93759,37.72495],[126.93755,37.725],[126.93748,37.725]]]}},{"type":"Feature","properties":{"valleyId":"jangheung","layer":"canopy","date":"2026-08-01"},"geometry":{"type":"Polygon","coordinates":[[[126.93685,37.72472],[126.93685,37.72466],[126.93692,37.72466],[126.93692,37.72472],[126.93685,37.72472]]]}},{"type":"Feature","properties":{"valleyId":"jangheung","layer":"canopy","date":"2026-08-01"},"geometry":{"type":"Polygon","coordinates":[[[126.94885,37.72485],[126.94885,37.7248],[126.94892,37.7248],[126.94892,37.72486],[126.94885,37.72485]]]}},{"type":"Feature","properties":{"valleyId":"jangheung","layer":"canopy","date":"2026-08-01"},"geometry":{"type":"Polygon","coordinates":[[[126.93694,37.72466],[126.93694,37.72459],[126.93704,37.72458],[126.93703,37.72467],[126.93694,37.72466]]]}},{"type":"Feature","properties":{"valleyId":"jangheung","layer":"canopy","date":"2026-08-01"},"geometry":{"type":"Polygon","coordinates":[[[126.93855,37.72464],[126.93856,37.72457],[126.93862,37.72457],[126.93862,37.72464],[126.93855,37.72464]]]}},{"type":"Feature","properties":{"valleyId":"jangheung","layer":"canopy","date":"2026-08-01"},"geometry":{"type":"Polygon","coordinates":[[[126.93878,37.72471],[126.93874,37.72466],[126.93874,37.72452],[126.93885,37.72452],[126.93883,37.72464],[126.93889,37.72464],[126.93889,37.72472],[126.93878,37.72471]]]}},{"type":"Feature","properties":{"valleyId":"jangheung","layer":"canopy","date":"2026-08-01"},"geometry":{"type":"Polygon","coordinates":[[[126.93656,37.72439],[126.93657,37.72433],[126.93663,37.72433],[126.93663,37.72439],[126.93656,37.72439]]]}},{"type":"Feature","properties":{"valleyId":"jangheung","layer":"canopy","date":"2026-08-01"},"geometry":{"type":"Polygon","coordinates":[[[126.93797,37.72439],[126.93797,37.72432],[126.93806,37.72432],[126.93806,37.7244],[126.93797,37.72439]]]}},{"type":"Feature","properties":{"valleyId":"jangheung","layer":"canopy","date":"2026-08-01"},"geometry":{"type":"Polygon","coordinates":[[[126.93609,37.72434],[126.93607,37.72427],[126.93618,37.72425],[126.93618,37.72434],[126.93609,37.72434]]]}},{"type":"Feature","properties":{"valleyId":"jangheung","layer":"canopy","date":"2026-08-01"},"geometry":{"type":"Polygon","coordinates":[[[126.94022,37.72443],[126.94013,37.72436],[126.94013,37.72431],[126.94018,37.72429],[126.94027,37.72429],[126.94027,37.72433],[126.94056,37.72431],[126.94056,37.72437],[126.94049,37.72437],[126.94047,37.72442],[126.94022,37.72443]]]}},{"type":"Feature","properties":{"valleyId":"jangheung","layer":"canopy","date":"2026-08-01"},"geometry":{"type":"Polygon","coordinates":[[[126.93779,37.72432],[126.93779,37.72426],[126.93786,37.72421],[126.93793,37.72421],[126.93798,37.72425],[126.93797,37.72432],[126.93779,37.72432]]]}},{"type":"Feature","properties":{"valleyId":"jangheung","layer":"canopy","date":"2026-08-01"},"geometry":{"type":"Polygon","coordinates":[[[126.93988,37.72428],[126.93988,37.72423],[126.94,37.72423],[126.93999,37.72429],[126.93988,37.72428]]]}},{"type":"Feature","properties":{"valleyId":"jangheung","layer":"canopy","date":"2026-08-01"},"geometry":{"type":"Polygon","coordinates":[[[126.93682,37.72423],[126.93682,37.72416],[126.93691,37.72416],[126.93691,37.72421],[126.93682,37.72423]]]}},{"type":"Feature","properties":{"valleyId":"jangheung","layer":"canopy","date":"2026-08-01"},"geometry":{"type":"Polygon","coordinates":[[[126.93726,37.7246],[126.9372,37.72452],[126.9372,37.7244],[126.937,37.72438],[126.937,37.72432],[126.93722,37.72431],[126.93723,37.72424],[126.9373,37.72422],[126.93737,37.72415],[126.93743,37.72415],[126.93741,37.72426],[126.93734,37.72431],[126.93727,37.72431],[126.93727,37.7244],[126.93736,37.72446],[126.93745,37.72446],[126.93752,37.7244],[126.93765,37.72441],[126.93767,37.72457],[126.93738,37.72456],[126.93738,37.7246],[126.93726,37.7246]]]}},{"type":"Feature","properties":{"valleyId":"jangheung","layer":"canopy","date":"2026-08-01"},"geometry":{"type":"Polygon","coordinates":[[[126.93659,37.72414],[126.9366,37.72408],[126.93669,37.72406],[126.93669,37.72412],[126.93659,37.72414]]]}},{"type":"Feature","properties":{"valleyId":"jangheung","layer":"canopy","date":"2026-08-01"},"geometry":{"type":"Polygon","coordinates":[[[126.9478,37.72431],[126.9478,37.72422],[126.94794,37.72423],[126.94794,37.72428],[126.94789,37.72431],[126.9478,37.72431]]]}},{"type":"Feature","properties":{"valleyId":"jangheung","layer":"canopy","date":"2026-08-01"},"geometry":{"type":"Polygon","coordinates":[[[126.94043,37.72424],[126.94041,37.72413],[126.94045,37.72413],[126.94048,37.72406],[126.94054,37.72406],[126.94049,37.72424],[126.94043,37.72424]]]}},{"type":"Feature","properties":{"valleyId":"jangheung","layer":"canopy","date":"2026-08-01"},"geometry":{"type":"Polygon","coordinates":[[[126.93959,37.72419],[126.93961,37.72404],[126.9398,37.72407],[126.93979,37.72414],[126.93975,37.72415],[126.93975,37.72419],[126.93959,37.72419]]]}},{"type":"Feature","properties":{"valleyId":"jangheung","layer":"canopy","date":"2026-08-01"},"geometry":{"type":"Polygon","coordinates":[[[126.93945,37.72411],[126.93946,37.72404],[126.93952,37.72404],[126.93952,37.72411],[126.93945,37.72411]]]}},{"type":"Feature","properties":{"valleyId":"jangheung","layer":"canopy","date":"2026-08-01"},"geometry":{"type":"Polygon","coordinates":[[[126.94,37.72416],[126.93995,37.72409],[126.93986,37.72407],[126.93989,37.72398],[126.93998,37.72398],[126.93998,37.72403],[126.94016,37.72404],[126.94016,37.72411],[126.94009,37.72416],[126.94,37.72416]]]}},{"type":"Feature","properties":{"valleyId":"jangheung","layer":"canopy","date":"2026-08-01"},"geometry":{"type":"Polygon","coordinates":[[[126.93687,37.72414],[126.93687,37.7241],[126.9368,37.72407],[126.9368,37.72401],[126.93692,37.72396],[126.93692,37.72385],[126.93701,37.72384],[126.93701,37.72396],[126.9371,37.72396],[126.93714,37.724],[126.93714,37.72407],[126.93705,37.72413],[126.93687,37.72414]]]}},{"type":"Feature","properties":{"valleyId":"jangheung","layer":"canopy","date":"2026-08-01"},"geometry":{"type":"Polygon","coordinates":[[[126.93805,37.72412],[126.93803,37.72405],[126.93807,37.72395],[126.93819,37.72393],[126.93819,37.72384],[126.93826,37.72384],[126.93835,37.72391],[126.93834,37.72402],[126.93823,37.72402],[126.93816,37.72413],[126.93805,37.72412]]]}},{"type":"Feature","properties":{"valleyId":"jangheung","layer":"canopy","date":"2026-08-01"},"geometry":{"type":"Polygon","coordinates":[[[126.93957,37.72394],[126.93957,37.72388],[126.93967,37.72386],[126.93966,37.72394],[126.93957,37.72394]]]}},{"type":"Feature","properties":{"valleyId":"jangheung","layer":"canopy","date":"2026-08-01"},"geometry":{"type":"Polygon","coordinates":[[[126.93662,37.72394],[126.93663,37.72385],[126.93669,37.72383],[126.93676,37.72374],[126.93683,37.72374],[126.93681,37.72387],[126.93674,37.72389],[126.93669,37.72394],[126.93662,37.72394]]]}},{"type":"Feature","properties":{"valleyId":"jangheung","layer":"canopy","date":"2026-08-01"},"geometry":{"type":"Polygon","coordinates":[[[126.9491,37.72403],[126.9491,37.7239],[126.94919,37.7239],[126.94917,37.72403],[126.9491,37.72403]]]}},{"type":"Feature","properties":{"valleyId":"jangheung","layer":"canopy","date":"2026-08-01"},"geometry":{"type":"Polygon","coordinates":[[[126.93787,37.72378],[126.93783,37.72374],[126.93783,37.72369],[126.93792,37.72367],[126.93794,37.72378],[126.93787,37.72378]]]}},{"type":"Feature","properties":{"valleyId":"jangheung","layer":"canopy","date":"2026-08-01"},"geometry":{"type":"Polygon","coordinates":[[[126.94835,37.72398],[126.94829,37.72394],[126.94827,37.72385],[126.94838,37.72385],[126.94838,37.72389],[126.94842,37.72391],[126.94842,37.72398],[126.94835,37.72398]]]}},{"type":"Feature","properties":{"valleyId":"jangheung","layer":"canopy","date":"2026-08-01"},"geometry":{"type":"Polygon","coordinates":[[[126.93937,37.72381],[126.93935,37.72364],[126.93947,37.72364],[126.93944,37.72381],[126.93937,37.72381]]]}},{"type":"Feature","properties":{"valleyId":"jangheung","layer":"canopy","date":"2026-08-01"},"geometry":{"type":"Polygon","coordinates":[[[126.93747,37.72372],[126.93738,37.72368],[126.93738,37.72363],[126.93743,37.72359],[126.93749,37.72359],[126.93749,37.72365],[126.93756,37.72367],[126.93756,37.72372],[126.93747,37.72372]]]}},{"type":"Feature","properties":{"valleyId":"jangheung","layer":"canopy","date":"2026-08-01"},"geometry":{"type":"Polygon","coordinates":[[[126.93849,37.72368],[126.93849,37.72361],[126.93856,37.72361],[126.93856,37.72368],[126.93849,37.72368]]]}},{"type":"Feature","properties":{"valleyId":"jangheung","layer":"canopy","date":"2026-08-01"},"geometry":{"type":"Polygon","coordinates":[[[126.94911,37.72374],[126.94909,37.72361],[126.94925,37.72365],[126.94925,37.72371],[126.9492,37.72374],[126.94911,37.72374]]]}},{"type":"Feature","properties":{"valleyId":"jangheung","layer":"canopy","date":"2026-08-01"},"geometry":{"type":"Polygon","coordinates":[[[126.94564,37.72366],[126.94564,37.72357],[126.94575,37.72356],[126.9458,37.72352],[126.94589,37.72354],[126.94587,37.72363],[126.94573,37.72363],[126.94571,37.72366],[126.94564,37.72366]]]}},{"type":"Feature","properties":{"valleyId":"jangheung","layer":"canopy","date":"2026-08-01"},"geometry":{"type":"Polygon","coordinates":[[[126.94008,37.72371],[126.94008,37.72367],[126.93997,37.72362],[126.94,37.7234],[126.94011,37.7234],[126.94018,37.72348],[126.94022,37.72348],[126.94022,37.72351],[126.94029,37.72357],[126.94026,37.72371],[126.94008,37.72371]]]}},{"type":"Feature","properties":{"valleyId":"jangheung","layer":"canopy","date":"2026-08-01"},"geometry":{"type":"Polygon","coordinates":[[[126.93924,37.72353],[126.93925,37.72346],[126.93931,37.72343],[126.93932,37.72337],[126.93943,37.72336],[126.93943,37.72346],[126.93936,37.72352],[126.93924,37.72353]]]}},{"type":"Feature","properties":{"valleyId":"jangheung","layer":"canopy","date":"2026-08-01"},"geometry":{"type":"Polygon","coordinates":[[[126.93965,37.72343],[126.93966,37.72336],[126.93977,37.72338],[126.93977,37.72343],[126.93965,37.72343]]]}},{"type":"Feature","properties":{"valleyId":"jangheung","layer":"canopy","date":"2026-08-01"},"geometry":{"type":"Polygon","coordinates":[[[126.93841,37.72346],[126.93841,37.72339],[126.93848,37.72336],[126.93848,37.72332],[126.93857,37.7233],[126.93859,37.72338],[126.93852,37.72339],[126.93852,37.72345],[126.93841,37.72346]]]}},{"type":"Feature","properties":{"valleyId":"jangheung","layer":"canopy","date":"2026-08-01"},"geometry":{"type":"Polygon","coordinates":[[[126.94925,37.7236],[126.94923,37.72351],[126.94939,37.72349],[126.94943,37.72353],[126.94943,37.72358],[126.94925,37.7236]]]}},{"type":"Feature","properties":{"valleyId":"jangheung","layer":"canopy","date":"2026-08-01"},"geometry":{"type":"Polygon","coordinates":[[[126.93862,37.72327],[126.93862,37.72322],[126.93868,37.72322],[126.93868,37.72327],[126.93862,37.72327]]]}},{"type":"Feature","properties":{"valleyId":"jangheung","layer":"canopy","date":"2026-08-01"},"geometry":{"type":"Polygon","coordinates":[[[126.93875,37.72331],[126.93873,37.72324],[126.93889,37.7232],[126.93889,37.72329],[126.93875,37.72331]]]}},{"type":"Feature","properties":{"valleyId":"jangheung","layer":"canopy","date":"2026-08-01"},"geometry":{"type":"Polygon","coordinates":[[[126.94608,37.72335],[126.94608,37.72329],[126.94615,37.72329],[126.94615,37.72335],[126.94608,37.72335]]]}},{"type":"Feature","properties":{"valleyId":"jangheung","layer":"canopy","date":"2026-08-01"},"geometry":{"type":"Polygon","coordinates":[[[126.9496,37.7233],[126.9496,37.72324],[126.94967,37.72325],[126.94966,37.7233],[126.9496,37.7233]]]}},{"type":"Feature","properties":{"valleyId":"jangheung","layer":"canopy","date":"2026-08-01"},"geometry":{"type":"Polygon","coordinates":[[[126.93624,37.72382],[126.93624,37.72377],[126.9365,37.72341],[126.93669,37.72327],[126.93669,37.72324],[126.93706,37.72299],[126.9371,37.72299],[126.93713,37.72296],[126.93733,37.72287],[126.93742,37.72287],[126.93749,37.72296],[126.93762,37.72298],[126.93774,37.72306],[126.93773,37.72318],[126.93766,37.72323],[126.93768,37.72336],[126.93755,37.72332],[126.93752,37.72338],[126.93741,37.72343],[126.93738,37.7235],[126.93707,37.72351],[126.93704,37.7236],[126.9369,37.7236],[126.93686,37.72365],[126.93677,37.72365],[126.93672,37.72371],[126.93654,37.72374],[126.93654,37.72377],[126.93647,37.72381],[126.93624,37.72382]]]}},{"type":"Feature","properties":{"valleyId":"jangheung","layer":"canopy","date":"2026-08-01"},"geometry":{"type":"Polygon","coordinates":[[[126.94551,37.72256],[126.94551,37.72251],[126.94558,37.72251],[126.94558,37.72256],[126.94551,37.72256]]]}},{"type":"Feature","properties":{"valleyId":"jangheung","layer":"canopy","date":"2026-08-01"},"geometry":{"type":"Polygon","coordinates":[[[126.95281,37.72849],[126.95277,37.72845],[126.95277,37.72827],[126.95266,37.72825],[126.95266,37.7282],[126.95277,37.7282],[126.95278,37.72815],[126.95271,37.72813],[126.95262,37.72804],[126.95258,37.72804],[126.95249,37.72791],[126.95237,37.72791],[126.95231,37.72785],[126.95204,37.72783],[126.95199,37.72781],[126.95199,37.72777],[126.95192,37.72777],[126.95193,37.7277],[126.95184,37.7277],[126.95183,37.72779],[126.95176,37.72781],[126.95169,37.72788],[126.95154,37.72787],[126.95144,37.72795],[126.9511,37.7279],[126.95101,37.72794],[126.95076,37.72795],[126.9507,37.72786],[126.95072,37.7277],[126.95084,37.72761],[126.95084,37.72741],[126.9508,37.72736],[126.95076,37.72736],[126.95076,37.72728],[126.95105,37.72731],[126.95108,37.72713],[126.95113,37.72707],[126.95126,37.72711],[126.95123,37.72727],[126.95135,37.72728],[126.95135,37.72719],[126.9514,37.72717],[126.9514,37.72703],[126.95145,37.72701],[126.95145,37.72695],[126.95149,37.72692],[126.9515,37.72686],[126.95154,37.72685],[126.95154,37.72678],[126.95159,37.72676],[126.95159,37.72672],[126.95168,37.72672],[126.95177,37.7268],[126.95186,37.7268],[126.95191,37.72649],[126.95185,37.72649],[126.95185,37.72644],[126.95192,37.72622],[126.95169,37.72624],[126.9517,37.7262],[126.95163,37.72616],[126.95163,37.72609],[126.95168,37.72607],[126.95168,37.72588],[126.95171,37.72584],[126.95182,37.72584],[126.95191,37.72597],[126.95202,37.72599],[126.95202,37.7259],[126.95193,37.72586],[126.95193,37.72577],[126.95198,37.72572],[126.95212,37.7257],[126.95214,37.72565],[126.95223,37.7256],[126.95224,37.72535],[126.95213,37.72525],[126.95211,37.72511],[126.95203,37.72493],[126.95203,37.72487],[126.95212,37.72486],[126.95216,37.72482],[126.95217,37.72477],[126.9521,37.72477],[126.9521,37.72469],[126.95199,37.72462],[126.952,37.72437],[126.95195,37.7243],[126.95186,37.72428],[126.95184,37.72424],[126.95184,37.72413],[126.95191,37.7241],[126.95191,37.72404],[126.95141,37.72403],[126.95142,37.72394],[126.95135,37.72391],[126.95133,37.72382],[126.95124,37.72376],[126.95122,37.72369],[126.95111,37.72361],[126.95107,37.72338],[126.95098,37.72332],[126.95098,37.72323],[126.95091,37.72323],[126.95092,37.72312],[126.95067,37.7231],[126.95062,37.72306],[126.95056,37.72306],[126.95054,37.72301],[126.95047,37.72301],[126.95047,37.72292],[126.95067,37.72292],[126.95091,37.72274],[126.95122,37.72271],[126.95125,37.72262],[126.95132,37.72263],[126.95136,37.72284],[126.95183,37.7228],[126.95184,37.7226],[126.95191,37.7226],[126.95191,37.72264],[126.95195,37.72264],[126.95202,37.72271],[126.95209,37.72271],[126.95209,37.72264],[126.95218,37.72264],[126.9522,37.72273],[126.95229,37.72275],[126.95229,37.72284],[126.9522,37.72284],[126.95219,37.72289],[126.95239,37.72304],[126.95253,37.72306],[126.95257,37.7231],[126.95273,37.7231],[126.95282,37.72319],[126.95282,37.72326],[126.95296,37.72327],[126.95298,37.72334],[126.95311,37.72338],[126.9532,37.72354],[126.9532,37.72363],[126.95324,37.72365],[126.95326,37.72372],[126.95337,37.72457],[126.95336,37.72506],[126.95291,37.72647],[126.95288,37.72849],[126.95281,37.72849]],[[126.95186,37.72748],[126.95195,37.72749],[126.95196,37.72727],[126.95187,37.72721],[126.95176,37.72721],[126.95173,37.72725],[126.95164,37.72726],[126.95164,37.72737],[126.95171,37.72745],[126.95182,37.72745],[126.95186,37.72748]],[[126.95191,37.72401],[126.95225,37.72401],[126.95237,37.72394],[126.9524,37.72385],[126.95278,37.72384],[126.95278,37.72377],[126.95235,37.72373],[126.95227,37.72358],[126.95209,37.7235],[126.952,37.7235],[126.95197,37.72363],[126.95199,37.72367],[126.95204,37.72367],[126.95204,37.72372],[126.95197,37.72374],[126.95194,37.72384],[126.9519,37.72388],[126.95191,37.72401]],[[126.95281,37.72377],[126.95306,37.72374],[126.95306,37.72368],[126.95297,37.72368],[126.9529,37.72363],[126.95279,37.72362],[126.95281,37.72377]]]}},{"type":"Feature","properties":{"valleyId":"jangheung","layer":"canopy","date":"2026-08-01"},"geometry":{"type":"Polygon","coordinates":[[[126.94646,37.72261],[126.9464,37.72256],[126.94635,37.72245],[126.94631,37.72245],[126.94631,37.72238],[126.94638,37.72236],[126.94638,37.72232],[126.94652,37.72233],[126.94663,37.72238],[126.9466,37.72247],[126.94651,37.72247],[126.94651,37.72242],[126.94642,37.72241],[126.94642,37.72247],[126.94653,37.72249],[126.94655,37.72256],[126.94655,37.72262],[126.94646,37.72261]]]}},{"type":"Feature","properties":{"valleyId":"jangheung","layer":"canopy","date":"2026-08-01"},"geometry":{"type":"Polygon","coordinates":[[[126.94608,37.7223],[126.94609,37.72225],[126.94615,37.72225],[126.94615,37.7223],[126.94608,37.7223]]]}},{"type":"Feature","properties":{"valleyId":"jangheung","layer":"canopy","date":"2026-08-01"},"geometry":{"type":"Polygon","coordinates":[[[126.94556,37.72235],[126.94557,37.72218],[126.94563,37.72218],[126.9457,37.72226],[126.9457,37.72231],[126.94567,37.72235],[126.94556,37.72235]]]}},{"type":"Feature","properties":{"valleyId":"jangheung","layer":"canopy","date":"2026-08-01"},"geometry":{"type":"Polygon","coordinates":[[[126.94412,37.72191],[126.94408,37.72185],[126.94408,37.72174],[126.94419,37.72173],[126.94428,37.7218],[126.94428,37.72185],[126.94421,37.72191],[126.94412,37.72191]]]}},{"type":"Feature","properties":{"valleyId":"jangheung","layer":"canopy","date":"2026-08-01"},"geometry":{"type":"Polygon","coordinates":[[[126.9463,37.72202],[126.94616,37.72191],[126.94598,37.72192],[126.94592,37.72187],[126.94592,37.72177],[126.94585,37.72176],[126.94585,37.7217],[126.94594,37.7217],[126.94596,37.72174],[126.94601,37.72174],[126.94605,37.72181],[126.94621,37.72183],[126.94628,37.72191],[126.94635,37.72191],[126.94643,37.72196],[126.94643,37.72202],[126.9463,37.72202]]]}},{"type":"Feature","properties":{"valleyId":"jangheung","layer":"canopy","date":"2026-08-01"},"geometry":{"type":"Polygon","coordinates":[[[126.94796,37.72181],[126.94794,37.72174],[126.94803,37.72174],[126.94803,37.72181],[126.94796,37.72181]]]}},{"type":"Feature","properties":{"valleyId":"jangheung","layer":"canopy","date":"2026-08-01"},"geometry":{"type":"Polygon","coordinates":[[[126.94685,37.72172],[126.94685,37.72167],[126.94692,37.72167],[126.94692,37.72172],[126.94685,37.72172]]]}},{"type":"Feature","properties":{"valleyId":"jangheung","layer":"canopy","date":"2026-08-01"},"geometry":{"type":"Polygon","coordinates":[[[126.94348,37.72141],[126.94348,37.72135],[126.94355,37.72136],[126.94355,37.72141],[126.94348,37.72141]]]}},{"type":"Feature","properties":{"valleyId":"jangheung","layer":"canopy","date":"2026-08-01"},"geometry":{"type":"Polygon","coordinates":[[[126.94432,37.72142],[126.94432,37.72135],[126.94441,37.72135],[126.94441,37.72142],[126.94432,37.72142]]]}},{"type":"Feature","properties":{"valleyId":"jangheung","layer":"canopy","date":"2026-08-01"},"geometry":{"type":"Polygon","coordinates":[[[126.94393,37.72134],[126.94391,37.7212],[126.94412,37.72117],[126.94412,37.72124],[126.94403,37.72126],[126.944,37.72135],[126.94393,37.72134]]]}},{"type":"Feature","properties":{"valleyId":"jangheung","layer":"canopy","date":"2026-08-01"},"geometry":{"type":"Polygon","coordinates":[[[126.94595,37.72071],[126.94588,37.72066],[126.94588,37.7206],[126.94593,37.72057],[126.94604,37.72057],[126.94606,37.72071],[126.94595,37.72071]]]}},{"type":"Feature","properties":{"valleyId":"jangheung","layer":"canopy","date":"2026-08-01"},"geometry":{"type":"Polygon","coordinates":[[[126.946,37.7203],[126.94601,37.72024],[126.94607,37.72025],[126.94607,37.7203],[126.946,37.7203]]]}},{"type":"Feature","properties":{"valleyId":"jangheung","layer":"canopy","date":"2026-08-01"},"geometry":{"type":"Polygon","coordinates":[[[126.94525,37.72032],[126.94516,37.72028],[126.94514,37.72023],[126.94515,37.72009],[126.94519,37.72005],[126.94528,37.72005],[126.94526,37.72021],[126.94542,37.72025],[126.94539,37.72032],[126.94525,37.72032]]]}},{"type":"Feature","properties":{"valleyId":"jangheung","layer":"canopy","date":"2026-08-01"},"geometry":{"type":"Polygon","coordinates":[[[126.94365,37.72008],[126.94368,37.7199],[126.94375,37.7199],[126.94372,37.72008],[126.94365,37.72008]]]}},{"type":"Feature","properties":{"valleyId":"jangheung","layer":"canopy","date":"2026-08-01"},"geometry":{"type":"Polygon","coordinates":[[[126.94472,37.71983],[126.94475,37.71974],[126.94486,37.71976],[126.94484,37.71983],[126.94472,37.71983]]]}},{"type":"Feature","properties":{"valleyId":"jangheung","layer":"canopy","date":"2026-08-01"},"geometry":{"type":"Polygon","coordinates":[[[126.94453,37.71932],[126.94451,37.71917],[126.94458,37.71917],[126.94463,37.71921],[126.94462,37.71932],[126.94453,37.71932]]]}},{"type":"Feature","properties":{"valleyId":"jangheung","layer":"canopy","date":"2026-08-01"},"geometry":{"type":"Polygon","coordinates":[[[126.94772,37.71905],[126.94758,37.71901],[126.94756,37.71894],[126.94768,37.71885],[126.94768,37.71881],[126.94777,37.7188],[126.94779,37.71874],[126.94786,37.71874],[126.94786,37.71882],[126.94779,37.71885],[126.94781,37.71903],[126.94772,37.71905]]]}},{"type":"Feature","properties":{"valleyId":"jangheung","layer":"canopy","date":"2026-08-01"},"geometry":{"type":"Polygon","coordinates":[[[126.94688,37.71909],[126.94684,37.71889],[126.94685,37.71853],[126.94691,37.71853],[126.94691,37.7186],[126.947,37.7186],[126.94697,37.71884],[126.94702,37.71886],[126.94701,37.71905],[126.94688,37.71909]]]}},{"type":"Feature","properties":{"valleyId":"jangheung","layer":"canopy","date":"2026-08-01"},"geometry":{"type":"Polygon","coordinates":[[[126.94745,37.71879],[126.94743,37.71876],[126.94732,37.71872],[126.94732,37.71866],[126.94736,37.71866],[126.94732,37.71852],[126.9475,37.71854],[126.94755,37.71845],[126.94771,37.71845],[126.94778,37.71851],[126.94777,37.71862],[126.94761,37.71869],[126.94754,37.71879],[126.94745,37.71879]]]}},{"type":"Feature","properties":{"valleyId":"jangheung","layer":"canopy","date":"2026-08-01"},"geometry":{"type":"Polygon","coordinates":[[[126.94822,37.71817],[126.94822,37.71808],[126.94833,37.71809],[126.94831,37.71818],[126.94822,37.71817]]]}},{"type":"Feature","properties":{"valleyId":"jangheung","layer":"canopy","date":"2026-08-01"},"geometry":{"type":"Polygon","coordinates":[[[126.94878,37.71826],[126.9487,37.71815],[126.94863,37.71815],[126.94863,37.71818],[126.94845,37.71816],[126.9484,37.71812],[126.94843,37.71802],[126.94859,37.71802],[126.94861,37.71805],[126.94872,37.71807],[126.94881,37.71815],[126.94897,37.71813],[126.94897,37.71821],[126.9489,37.7182],[126.94885,37.71822],[126.94885,37.71826],[126.94878,37.71826]]]}},{"type":"Feature","properties":{"valleyId":"jangheung","layer":"canopy","date":"2026-08-01"},"geometry":{"type":"Polygon","coordinates":[[[126.94848,37.71767],[126.94851,37.7176],[126.94864,37.7176],[126.94864,37.71766],[126.94848,37.71767]]]}},{"type":"Feature","properties":{"valleyId":"jangheung","layer":"canopy","date":"2026-08-01"},"geometry":{"type":"Polygon","coordinates":[[[126.95047,37.72281],[126.95043,37.72274],[126.95023,37.72259],[126.95009,37.7226],[126.95005,37.72264],[126.94984,37.72264],[126.94968,37.72258],[126.94962,37.72249],[126.94951,37.72249],[126.94946,37.72236],[126.94928,37.72236],[126.94906,37.72219],[126.94904,37.72205],[126.94895,37.72194],[126.94886,37.72192],[126.94882,37.72186],[126.94862,37.72186],[126.94855,37.72175],[126.94842,37.72164],[126.94819,37.72158],[126.94792,37.72158],[126.94791,37.72176],[126.9478,37.72175],[126.94776,37.72168],[126.94769,37.72166],[126.94769,37.72163],[126.94762,37.72162],[126.9476,37.72159],[126.94744,37.72155],[126.9474,37.72149],[126.94735,37.72149],[126.94729,37.72142],[126.94729,37.72137],[126.94738,37.72135],[126.94743,37.7213],[126.94779,37.72127],[126.94784,37.72123],[126.94784,37.72114],[126.94786,37.72111],[126.94793,37.72111],[126.94793,37.72105],[126.9478,37.72105],[126.9478,37.721],[126.94771,37.72092],[126.94767,37.72092],[126.94762,37.72087],[126.94753,37.72087],[126.94751,37.72081],[126.94742,37.72081],[126.94742,37.72074],[126.94729,37.72072],[126.94726,37.72068],[126.94681,37.72076],[126.94672,37.72071],[126.94651,37.7207],[126.94649,37.72067],[126.94645,37.72067],[126.94638,37.7205],[126.94632,37.7205],[126.94631,37.72063],[126.94615,37.72061],[126.94609,37.72052],[126.94609,37.72037],[126.94618,37.72037],[126.94621,37.72032],[126.94621,37.72025],[126.94614,37.72025],[126.94619,37.7201],[126.94606,37.71998],[126.94601,37.71997],[126.94602,37.71978],[126.94609,37.71976],[126.94614,37.71965],[126.94618,37.71965],[126.94618,37.71962],[126.9463,37.71956],[126.94666,37.71955],[126.94675,37.71954],[126.94677,37.7195],[126.94684,37.7195],[126.94715,37.71976],[126.94717,37.71983],[126.94722,37.71983],[126.94726,37.71992],[126.94735,37.71993],[126.94735,37.71987],[126.94729,37.71983],[126.94729,37.7198],[126.94713,37.71965],[126.94711,37.71958],[126.94707,37.71956],[126.94707,37.71951],[126.94721,37.71947],[126.94725,37.71942],[126.94732,37.71942],[126.9475,37.71935],[126.9476,37.71935],[126.94764,37.71937],[126.94764,37.71941],[126.94796,37.7194],[126.94798,37.71932],[126.94807,37.71925],[126.94821,37.71922],[126.94824,37.71917],[126.94835,37.71915],[126.94837,37.71911],[126.94849,37.71912],[126.94851,37.71908],[126.94865,37.71903],[126.94878,37.71905],[126.94885,37.71898],[126.94904,37.71898],[126.9491,37.71893],[126.94911,37.71887],[126.94906,37.71887],[126.94906,37.7188],[126.94916,37.71873],[126.9492,37.71861],[126.94936,37.71861],[126.94937,37.71846],[126.94944,37.71841],[126.94953,37.7184],[126.94964,37.71827],[126.94971,37.71827],[126.94974,37.71818],[126.9499,37.71813],[126.94997,37.71808],[126.94997,37.71804],[126.95029,37.71783],[126.95034,37.71776],[126.95043,37.71774],[126.95052,37.71766],[126.95068,37.71762],[126.95075,37.71755],[126.95082,37.71755],[126.95109,37.71785],[126.95124,37.7181],[126.95134,37.71839],[126.95138,37.71863],[126.95137,37.71895],[126.95135,37.71906],[126.95128,37.71913],[126.95127,37.71924],[126.95121,37.71927],[126.95116,37.71936],[126.95093,37.71952],[126.95077,37.71952],[126.95074,37.71966],[126.9509,37.71979],[126.95089,37.71986],[126.9508,37.71986],[126.95078,37.71982],[126.95069,37.7198],[126.95063,37.71975],[126.95063,37.71966],[126.95054,37.71964],[126.95049,37.7198],[126.95055,37.71984],[126.95057,37.71995],[126.95055,37.71998],[126.95051,37.71998],[126.9505,37.72005],[126.95057,37.72007],[126.95057,37.72013],[126.95038,37.72025],[126.94993,37.72044],[126.94972,37.72049],[126.94924,37.72055],[126.94892,37.72055],[126.94892,37.7206],[126.94899,37.72066],[126.94899,37.72069],[126.94944,37.72079],[126.94975,37.72092],[126.94977,37.72096],[126.94995,37.72103],[126.95002,37.72111],[126.95007,37.72111],[126.95024,37.72127],[126.95065,37.72144],[126.95067,37.72148],[126.95085,37.72154],[126.95087,37.72157],[126.951,37.72161],[126.95118,37.72172],[126.95136,37.72178],[126.95138,37.72182],[126.95148,37.72184],[126.95174,37.722],[126.95176,37.72222],[126.9518,37.72222],[126.95189,37.72231],[126.95189,37.72251],[126.95182,37.72251],[126.9518,37.72245],[126.95153,37.72243],[126.95153,37.72232],[126.95167,37.72233],[126.95167,37.72225],[126.9516,37.72223],[126.9516,37.72214],[126.95149,37.72214],[126.95146,37.72221],[126.95151,37.72225],[126.95151,37.7223],[126.95135,37.7223],[126.95135,37.72237],[126.95141,37.72241],[126.95141,37.72247],[126.95134,37.72248],[126.95134,37.72254],[126.95118,37.72253],[126.95098,37.72246],[126.95089,37.72246],[126.95089,37.72255],[126.9508,37.72254],[126.95078,37.72251],[126.95064,37.72251],[126.95064,37.72261],[126.95059,37.7227],[126.95054,37.72272],[126.95054,37.72281],[126.95047,37.72281]],[[126.95156,37.72209],[126.95163,37.72209],[126.95163,37.72204],[126.95156,37.72204],[126.95156,37.72209]],[[126.94745,37.7205],[126.94759,37.72051],[126.94763,37.72047],[126.94763,37.7204],[126.94752,37.72038],[126.94745,37.72045],[126.94745,37.7205]],[[126.94951,37.71993],[126.94958,37.71993],[126.94958,37.71986],[126.94962,37.71982],[126.94961,37.71962],[126.94947,37.71962],[126.94951,37.71973],[126.94951,37.71993]],[[126.95014,37.71942],[126.95025,37.71942],[126.9503,37.71935],[126.95041,37.71929],[126.95044,37.71915],[126.95048,37.7191],[126.95047,37.71884],[126.95038,37.71884],[126.95033,37.71888],[126.95033,37.71895],[126.95019,37.71897],[126.95015,37.71902],[126.94999,37.71905],[126.94998,37.71911],[126.95007,37.7192],[126.95007,37.71934],[126.95014,37.71942]],[[126.94924,37.71902],[126.94956,37.71901],[126.94956,37.71895],[126.94951,37.71892],[126.94945,37.71892],[126.94942,37.71888],[126.94936,37.71888],[126.94929,37.71895],[126.94919,37.71895],[126.94919,37.719],[126.94924,37.71902]]]}},{"type":"Feature","properties":{"valleyId":"jangheung","layer":"canopy","date":"2026-08-01"},"geometry":{"type":"Polygon","coordinates":[[[126.94935,37.71751],[126.94935,37.7174],[126.94944,37.71738],[126.94946,37.71749],[126.94935,37.71751]]]}},{"type":"Feature","properties":{"valleyId":"jangheung","layer":"canopy","date":"2026-08-01"},"geometry":{"type":"Polygon","coordinates":[[[126.94837,37.71749],[126.9484,37.71733],[126.94867,37.71732],[126.94865,37.71748],[126.94837,37.71749]]]}},{"type":"Feature","properties":{"valleyId":"jangheung","layer":"canopy","date":"2026-08-01"},"geometry":{"type":"Polygon","coordinates":[[[126.94958,37.7174],[126.94956,37.71733],[126.94972,37.71734],[126.94971,37.71739],[126.94958,37.7174]]]}},{"type":"Feature","properties":{"valleyId":"jangheung","layer":"canopy","date":"2026-08-01"},"geometry":{"type":"Polygon","coordinates":[[[126.94884,37.7177],[126.94887,37.71752],[126.94881,37.71743],[126.94881,37.71736],[126.94876,37.71735],[126.94877,37.71719],[126.94883,37.71719],[126.94888,37.71725],[126.94895,37.71725],[126.94892,37.71747],[126.94898,37.71752],[126.94912,37.71754],[126.94912,37.71763],[126.94907,37.71763],[126.94903,37.71768],[126.94884,37.7177]]]}},{"type":"Feature","properties":{"valleyId":"jangheung","layer":"canopy","date":"2026-08-01"},"geometry":{"type":"Polygon","coordinates":[[[126.94804,37.7172],[126.94804,37.71714],[126.94811,37.71715],[126.94811,37.7172],[126.94804,37.7172]]]}},{"type":"Feature","properties":{"valleyId":"jangheung","layer":"canopy","date":"2026-08-01"},"geometry":{"type":"Polygon","coordinates":[[[126.94902,37.71716],[126.949,37.71711],[126.94881,37.7171],[126.94882,37.71703],[126.94889,37.71701],[126.94889,37.71696],[126.94945,37.71697],[126.94943,37.71708],[126.94938,37.71708],[126.94934,37.71713],[126.94911,37.71713],[126.94909,37.71716],[126.94902,37.71716]]]}}]}
