{"type":"FeatureCollection","metadata":{"description":"개방지(CHM ≤ 2 m)에 드리운 나무·지형 그림자, 2026-08-01 17:00 KST. canopy 위에 겹쳐 그린다","source":"위성 기반 추정 — Copernicus GLO-30 지형(30 m) + Meta/WRI 수관 높이(1 m CHM, 2019 촬영). 그늘 = 수관(CHM > 2 m) ∪ 나무·지형 그림자 ∪ 원거리 지형 마스크. 현장과 다를 수 있음.","datasetVersion":"2026-09-06.0","collectedAt":"2026-09-06","coordinateOrder":"[longitude, latitude]","crs":"EPSG:4326","representativeDate":"2026-08-01","hours":["10:00","11:00","12:00","13:00","14:00","15:00","16:00","17:00","18:00"],"chmAcquisition":["2019-03"],"assets":{"glo30":{"dataset":"Copernicus DEM GLO-30 (COG, s3://copernicus-dem-30m)","tiles":["Copernicus_DSM_COG_10_N37_00_E126_00_DEM","Copernicus_DSM_COG_10_N37_00_E127_00_DEM"]},"chm":{"dataset":"Meta/WRI Global Canopy Height Map v1 (alsgedi_global_v6_float, 1 m, CC-BY 4.0)","quadkeys":["132110302","132110320"],"acquisition":["2019-03"]}},"method":{"gridResM":2,"canopyThresholdM":2,"bufferHalfM":25,"corridorHalfM":200,"simplifyTolM":2,"minAreaM2":25,"coordDecimals":5},"generator":"scripts/shade 0.1.0","builtAt":"2026-09-06T06:03:58Z","layer":"shadow","timeLocal":"17:00"},"features":[{"type":"Feature","properties":{"valleyId":"jangheung","layer":"shadow","date":"2026-08-01","timeLocal":"17:00"},"geometry":{"type":"Polygon","coordinates":[[[126.95364,37.74046],[126.95305,37.74037],[126.95301,37.74035],[126.95301,37.7403],[126.95314,37.7403],[126.95315,37.74027],[126.95328,37.74027],[126.95337,37.74023],[126.95347,37.74015],[126.95354,37.74013],[126.95356,37.74004],[126.95376,37.74006],[126.95367,37.74028],[126.95383,37.74028],[126.95382,37.74046],[126.95364,37.74046]]]}},{"type":"Feature","properties":{"valleyId":"jangheung","layer":"shadow","date":"2026-08-01","timeLocal":"17:00"},"geometry":{"type":"Polygon","coordinates":[[[126.95493,37.73992],[126.95495,37.73983],[126.955,37.73979],[126.95507,37.7398],[126.95506,37.73987],[126.95499,37.73992],[126.95493,37.73992]]]}},{"type":"Feature","properties":{"valleyId":"jangheung","layer":"shadow","date":"2026-08-01","timeLocal":"17:00"},"geometry":{"type":"Polygon","coordinates":[[[126.95527,37.74234],[126.95516,37.74218],[126.95509,37.74216],[126.95509,37.74212],[126.95505,37.7421],[126.95505,37.74192],[126.9551,37.74189],[126.95515,37.74176],[126.95513,37.74147],[126.95527,37.74139],[126.95532,37.74124],[126.95539,37.74119],[126.95546,37.74105],[126.95562,37.7409],[126.95572,37.74089],[126.95583,37.74071],[126.9559,37.74068],[126.95595,37.74048],[126.956,37.74042],[126.95605,37.74043],[126.9561,37.74021],[126.95617,37.74014],[126.95615,37.73981],[126.95611,37.73978],[126.95611,37.73972],[126.95618,37.73972],[126.95622,37.7398],[126.95622,37.73996],[126.95626,37.74007],[126.95626,37.74014],[126.95621,37.74016],[126.95618,37.74037],[126.95614,37.74043],[126.95607,37.74043],[126.95602,37.74066],[126.95595,37.74071],[126.95595,37.74078],[126.95588,37.74084],[126.95588,37.74089],[126.95576,37.74091],[126.95574,37.74094],[126.95574,37.74101],[126.95569,37.74105],[126.95571,37.74118],[126.95568,37.74123],[126.95562,37.74127],[126.95561,37.74137],[126.95532,37.74142],[126.95529,37.74148],[126.95536,37.74164],[126.95549,37.74166],[126.95548,37.7422],[126.95534,37.7422],[126.95534,37.74234],[126.95527,37.74234]]]}},{"type":"Feature","properties":{"valleyId":"jangheung","layer":"shadow","date":"2026-08-01","timeLocal":"17:00"},"geometry":{"type":"Polygon","coordinates":[[[126.95614,37.7396],[126.95614,37.73954],[126.95621,37.73955],[126.95621,37.7396],[126.95614,37.7396]]]}},{"type":"Feature","properties":{"valleyId":"jangheung","layer":"shadow","date":"2026-08-01","timeLocal":"17:00"},"geometry":{"type":"Polygon","coordinates":[[[126.95514,37.73972],[126.95514,37.73967],[126.95518,37.73964],[126.95519,37.73951],[126.95505,37.73938],[126.95506,37.73927],[126.95513,37.73927],[126.95512,37.73933],[126.95519,37.73933],[126.95519,37.73944],[126.95528,37.73949],[126.95527,37.73964],[126.95523,37.73965],[126.9552,37.73973],[126.95514,37.73972]]]}},{"type":"Feature","properties":{"valleyId":"jangheung","layer":"shadow","date":"2026-08-01","timeLocal":"17:00"},"geometry":{"type":"Polygon","coordinates":[[[126.9578,37.73946],[126.95785,37.73925],[126.95787,37.73921],[126.95794,37.73921],[126.95787,37.73947],[126.9578,37.73946]]]}},{"type":"Feature","properties":{"valleyId":"jangheung","layer":"shadow","date":"2026-08-01","timeLocal":"17:00"},"geometry":{"type":"Polygon","coordinates":[[[126.9581,37.73913],[126.9581,37.73906],[126.9582,37.73898],[126.9582,37.73895],[126.95833,37.73893],[126.95833,37.73902],[126.95817,37.73913],[126.9581,37.73913]]]}},{"type":"Feature","properties":{"valleyId":"jangheung","layer":"shadow","date":"2026-08-01","timeLocal":"17:00"},"geometry":{"type":"Polygon","coordinates":[[[126.95439,37.73892],[126.95439,37.73879],[126.95446,37.73879],[126.95445,37.73892],[126.95439,37.73892]]]}},{"type":"Feature","properties":{"valleyId":"jangheung","layer":"shadow","date":"2026-08-01","timeLocal":"17:00"},"geometry":{"type":"Polygon","coordinates":[[[126.95856,37.73885],[126.95857,37.73876],[126.95866,37.73874],[126.95863,37.73885],[126.95856,37.73885]]]}},{"type":"Feature","properties":{"valleyId":"jangheung","layer":"shadow","date":"2026-08-01","timeLocal":"17:00"},"geometry":{"type":"Polygon","coordinates":[[[126.95363,37.73851],[126.95363,37.73845],[126.9537,37.73846],[126.95369,37.73851],[126.95363,37.73851]]]}},{"type":"Feature","properties":{"valleyId":"jangheung","layer":"shadow","date":"2026-08-01","timeLocal":"17:00"},"geometry":{"type":"Polygon","coordinates":[[[126.95279,37.73849],[126.95279,37.73842],[126.95286,37.73842],[126.95285,37.7385],[126.95279,37.73849]]]}},{"type":"Feature","properties":{"valleyId":"jangheung","layer":"shadow","date":"2026-08-01","timeLocal":"17:00"},"geometry":{"type":"Polygon","coordinates":[[[126.95003,37.73809],[126.95005,37.73798],[126.95017,37.73798],[126.95019,37.73793],[126.95026,37.73793],[126.95026,37.738],[126.95023,37.73804],[126.95019,37.73803],[126.95019,37.73807],[126.95003,37.73809]]]}},{"type":"Feature","properties":{"valleyId":"jangheung","layer":"shadow","date":"2026-08-01","timeLocal":"17:00"},"geometry":{"type":"Polygon","coordinates":[[[126.9408,37.73771],[126.9408,37.73765],[126.94087,37.73766],[126.94087,37.73771],[126.9408,37.73771]]]}},{"type":"Feature","properties":{"valleyId":"jangheung","layer":"shadow","date":"2026-08-01","timeLocal":"17:00"},"geometry":{"type":"Polygon","coordinates":[[[126.9511,37.73787],[126.9511,37.73782],[126.95117,37.73782],[126.95117,37.73787],[126.9511,37.73787]]]}},{"type":"Feature","properties":{"valleyId":"jangheung","layer":"shadow","date":"2026-08-01","timeLocal":"17:00"},"geometry":{"type":"Polygon","coordinates":[[[126.95079,37.73768],[126.95079,37.73758],[126.95086,37.73758],[126.95086,37.73769],[126.95079,37.73768]]]}},{"type":"Feature","properties":{"valleyId":"jangheung","layer":"shadow","date":"2026-08-01","timeLocal":"17:00"},"geometry":{"type":"Polygon","coordinates":[[[126.95086,37.73756],[126.95086,37.73747],[126.95093,37.73747],[126.95093,37.73756],[126.95086,37.73756]]]}},{"type":"Feature","properties":{"valleyId":"jangheung","layer":"shadow","date":"2026-08-01","timeLocal":"17:00"},"geometry":{"type":"Polygon","coordinates":[[[126.95222,37.73753],[126.95222,37.73748],[126.95229,37.73748],[126.95229,37.73753],[126.95222,37.73753]]]}},{"type":"Feature","properties":{"valleyId":"jangheung","layer":"shadow","date":"2026-08-01","timeLocal":"17:00"},"geometry":{"type":"Polygon","coordinates":[[[126.9503,37.73739],[126.9503,37.73726],[126.95037,37.73726],[126.95039,37.73739],[126.9503,37.73739]]]}},{"type":"Feature","properties":{"valleyId":"jangheung","layer":"shadow","date":"2026-08-01","timeLocal":"17:00"},"geometry":{"type":"Polygon","coordinates":[[[126.95103,37.73704],[126.95104,37.73697],[126.95113,37.73697],[126.95112,37.73704],[126.95103,37.73704]]]}},{"type":"Feature","properties":{"valleyId":"jangheung","layer":"shadow","date":"2026-08-01","timeLocal":"17:00"},"geometry":{"type":"Polygon","coordinates":[[[126.94076,37.73688],[126.94074,37.73677],[126.94081,37.73677],[126.94082,37.73688],[126.94076,37.73688]]]}},{"type":"Feature","properties":{"valleyId":"jangheung","layer":"shadow","date":"2026-08-01","timeLocal":"17:00"},"geometry":{"type":"Polygon","coordinates":[[[126.95019,37.73724],[126.95014,37.73722],[126.95015,37.73715],[126.95019,37.73712],[126.9502,37.73697],[126.95031,37.73697],[126.95036,37.73694],[126.95036,37.73688],[126.95049,37.73685],[126.95049,37.7369],[126.95045,37.7369],[126.9504,37.73699],[126.95033,37.73701],[126.95028,37.73712],[126.95024,37.73713],[126.95026,37.73724],[126.95019,37.73724]]]}},{"type":"Feature","properties":{"valleyId":"jangheung","layer":"shadow","date":"2026-08-01","timeLocal":"17:00"},"geometry":{"type":"Polygon","coordinates":[[[126.95049,37.73685],[126.9505,37.7368],[126.95059,37.73678],[126.95059,37.73683],[126.95049,37.73685]]]}},{"type":"Feature","properties":{"valleyId":"jangheung","layer":"shadow","date":"2026-08-01","timeLocal":"17:00"},"geometry":{"type":"Polygon","coordinates":[[[126.95095,37.73684],[126.95095,37.73677],[126.95102,37.73677],[126.95102,37.73684],[126.95095,37.73684]]]}},{"type":"Feature","properties":{"valleyId":"jangheung","layer":"shadow","date":"2026-08-01","timeLocal":"17:00"},"geometry":{"type":"Polygon","coordinates":[[[126.9507,37.73676],[126.9507,37.73671],[126.95077,37.73671],[126.95077,37.73677],[126.9507,37.73676]]]}},{"type":"Feature","properties":{"valleyId":"jangheung","layer":"shadow","date":"2026-08-01","timeLocal":"17:00"},"geometry":{"type":"Polygon","coordinates":[[[126.95027,37.73681],[126.95027,37.73668],[126.95039,37.73667],[126.95041,37.73676],[126.95036,37.73678],[126.95036,37.73681],[126.95027,37.73681]]]}},{"type":"Feature","properties":{"valleyId":"jangheung","layer":"shadow","date":"2026-08-01","timeLocal":"17:00"},"geometry":{"type":"Polygon","coordinates":[[[126.95082,37.73668],[126.95082,37.73662],[126.95089,37.73662],[126.95088,37.73668],[126.95082,37.73668]]]}},{"type":"Feature","properties":{"valleyId":"jangheung","layer":"shadow","date":"2026-08-01","timeLocal":"17:00"},"geometry":{"type":"Polygon","coordinates":[[[126.95071,37.73657],[126.95066,37.73653],[126.95066,37.73647],[126.95078,37.73649],[126.95077,37.73657],[126.95071,37.73657]]]}},{"type":"Feature","properties":{"valleyId":"jangheung","layer":"shadow","date":"2026-08-01","timeLocal":"17:00"},"geometry":{"type":"Polygon","coordinates":[[[126.94179,37.73634],[126.94179,37.73628],[126.94186,37.73629],[126.94186,37.73634],[126.94179,37.73634]]]}},{"type":"Feature","properties":{"valleyId":"jangheung","layer":"shadow","date":"2026-08-01","timeLocal":"17:00"},"geometry":{"type":"Polygon","coordinates":[[[126.95109,37.73646],[126.9511,37.73639],[126.95116,37.73639],[126.95116,37.73647],[126.95109,37.73646]]]}},{"type":"Feature","properties":{"valleyId":"jangheung","layer":"shadow","date":"2026-08-01","timeLocal":"17:00"},"geometry":{"type":"Polygon","coordinates":[[[126.95003,37.73641],[126.95003,37.73634],[126.9501,37.73634],[126.9501,37.73641],[126.95003,37.73641]]]}},{"type":"Feature","properties":{"valleyId":"jangheung","layer":"shadow","date":"2026-08-01","timeLocal":"17:00"},"geometry":{"type":"Polygon","coordinates":[[[126.94103,37.73595],[126.94103,37.73587],[126.9411,37.73588],[126.9411,37.73595],[126.94103,37.73595]]]}},{"type":"Feature","properties":{"valleyId":"jangheung","layer":"shadow","date":"2026-08-01","timeLocal":"17:00"},"geometry":{"type":"Polygon","coordinates":[[[126.95054,37.73597],[126.95054,37.73591],[126.95061,37.73592],[126.95061,37.73597],[126.95054,37.73597]]]}},{"type":"Feature","properties":{"valleyId":"jangheung","layer":"shadow","date":"2026-08-01","timeLocal":"17:00"},"geometry":{"type":"Polygon","coordinates":[[[126.93937,37.73539],[126.93937,37.73534],[126.93944,37.73529],[126.93953,37.73529],[126.93953,37.73536],[126.93948,37.7354],[126.93937,37.73539]]]}},{"type":"Feature","properties":{"valleyId":"jangheung","layer":"shadow","date":"2026-08-01","timeLocal":"17:00"},"geometry":{"type":"Polygon","coordinates":[[[126.94121,37.73528],[126.94117,37.73525],[126.94117,37.73508],[126.94124,37.73508],[126.94128,37.73523],[126.94128,37.73528],[126.94121,37.73528]]]}},{"type":"Feature","properties":{"valleyId":"jangheung","layer":"shadow","date":"2026-08-01","timeLocal":"17:00"},"geometry":{"type":"Polygon","coordinates":[[[126.93962,37.73527],[126.93962,37.7352],[126.93972,37.73517],[126.93981,37.73502],[126.9399,37.73503],[126.9399,37.73513],[126.93983,37.73517],[126.93983,37.73522],[126.93974,37.73522],[126.93969,37.73527],[126.93962,37.73527]]]}},{"type":"Feature","properties":{"valleyId":"jangheung","layer":"shadow","date":"2026-08-01","timeLocal":"17:00"},"geometry":{"type":"Polygon","coordinates":[[[126.9507,37.73521],[126.9507,37.73511],[126.95077,37.73511],[126.95079,37.73522],[126.9507,37.73521]]]}},{"type":"Feature","properties":{"valleyId":"jangheung","layer":"shadow","date":"2026-08-01","timeLocal":"17:00"},"geometry":{"type":"Polygon","coordinates":[[[126.95177,37.73509],[126.95177,37.73503],[126.95184,37.73504],[126.95184,37.73509],[126.95177,37.73509]]]}},{"type":"Feature","properties":{"valleyId":"jangheung","layer":"shadow","date":"2026-08-01","timeLocal":"17:00"},"geometry":{"type":"Polygon","coordinates":[[[126.9517,37.73494],[126.95171,37.73489],[126.95177,37.73489],[126.95177,37.73494],[126.9517,37.73494]]]}},{"type":"Feature","properties":{"valleyId":"jangheung","layer":"shadow","date":"2026-08-01","timeLocal":"17:00"},"geometry":{"type":"Polygon","coordinates":[[[126.94004,37.73478],[126.94004,37.73474],[126.94,37.73472],[126.94,37.73465],[126.94023,37.73463],[126.9402,37.73474],[126.94016,37.73474],[126.94016,37.73478],[126.94004,37.73478]]]}},{"type":"Feature","properties":{"valleyId":"jangheung","layer":"shadow","date":"2026-08-01","timeLocal":"17:00"},"geometry":{"type":"Polygon","coordinates":[[[126.94044,37.73451],[126.94049,37.7343],[126.9406,37.73432],[126.94062,37.7345],[126.94044,37.73451]]]}},{"type":"Feature","properties":{"valleyId":"jangheung","layer":"shadow","date":"2026-08-01","timeLocal":"17:00"},"geometry":{"type":"Polygon","coordinates":[[[126.95285,37.73458],[126.95285,37.73451],[126.95292,37.73451],[126.95292,37.73459],[126.95285,37.73458]]]}},{"type":"Feature","properties":{"valleyId":"jangheung","layer":"shadow","date":"2026-08-01","timeLocal":"17:00"},"geometry":{"type":"Polygon","coordinates":[[[126.94191,37.73441],[126.9419,37.73425],[126.94196,37.73425],[126.94198,37.73441],[126.94191,37.73441]]]}},{"type":"Feature","properties":{"valleyId":"jangheung","layer":"shadow","date":"2026-08-01","timeLocal":"17:00"},"geometry":{"type":"Polygon","coordinates":[[[126.94022,37.73426],[126.94022,37.7342],[126.94035,37.73419],[126.94035,37.73426],[126.94022,37.73426]]]}},{"type":"Feature","properties":{"valleyId":"jangheung","layer":"shadow","date":"2026-08-01","timeLocal":"17:00"},"geometry":{"type":"Polygon","coordinates":[[[126.95037,37.73651],[126.95032,37.73649],[126.95033,37.73631],[126.95026,37.73623],[126.95006,37.73625],[126.95001,37.73618],[126.94992,37.73616],[126.94993,37.73603],[126.94997,37.73601],[126.94997,37.73598],[126.95004,37.73598],[126.95002,37.73583],[126.94996,37.73574],[126.94996,37.73563],[126.95001,37.7356],[126.95007,37.7356],[126.9501,37.73555],[126.95017,37.73553],[126.95024,37.7354],[126.95024,37.73533],[126.95031,37.73526],[126.95031,37.73515],[126.95018,37.73517],[126.95018,37.7351],[126.95036,37.7351],[126.95048,37.73492],[126.95048,37.73487],[126.95041,37.73487],[126.95046,37.73469],[126.9504,37.73461],[126.95026,37.73458],[126.95026,37.73447],[126.95036,37.73441],[126.95038,37.73433],[126.95047,37.73433],[126.95044,37.73452],[126.95058,37.73454],[126.95058,37.73463],[126.95067,37.73467],[126.95064,37.73482],[126.95071,37.73484],[126.9507,37.73503],[126.95075,37.73503],[126.95075,37.73509],[126.95063,37.73509],[126.95063,37.73512],[126.95056,37.73516],[126.95058,37.73536],[126.95049,37.73539],[126.95049,37.73544],[126.95035,37.73555],[126.95023,37.73558],[126.95023,37.73569],[126.95018,37.73571],[126.95018,37.73578],[126.95023,37.7358],[126.95025,37.73587],[126.95045,37.73589],[126.95045,37.73595],[126.95054,37.73597],[126.95053,37.73644],[126.95046,37.73644],[126.95046,37.73649],[126.95037,37.73651]]]}},{"type":"Feature","properties":{"valleyId":"jangheung","layer":"shadow","date":"2026-08-01","timeLocal":"17:00"},"geometry":{"type":"Polygon","coordinates":[[[126.94916,37.73434],[126.94909,37.7343],[126.94909,37.73419],[126.94916,37.73414],[126.94925,37.73414],[126.94927,37.73432],[126.94916,37.73434]]]}},{"type":"Feature","properties":{"valleyId":"jangheung","layer":"shadow","date":"2026-08-01","timeLocal":"17:00"},"geometry":{"type":"Polygon","coordinates":[[[126.95059,37.73418],[126.95059,37.73413],[126.95068,37.73413],[126.95068,37.73419],[126.95059,37.73418]]]}},{"type":"Feature","properties":{"valleyId":"jangheung","layer":"shadow","date":"2026-08-01","timeLocal":"17:00"},"geometry":{"type":"Polygon","coordinates":[[[126.9433,37.73422],[126.94326,37.73406],[126.94331,37.73399],[126.94338,37.73399],[126.94337,37.73422],[126.9433,37.73422]]]}},{"type":"Feature","properties":{"valleyId":"jangheung","layer":"shadow","date":"2026-08-01","timeLocal":"17:00"},"geometry":{"type":"Polygon","coordinates":[[[126.95025,37.73427],[126.95023,37.73409],[126.95032,37.73409],[126.95032,37.73427],[126.95025,37.73427]]]}},{"type":"Feature","properties":{"valleyId":"jangheung","layer":"shadow","date":"2026-08-01","timeLocal":"17:00"},"geometry":{"type":"Polygon","coordinates":[[[126.94104,37.73418],[126.94104,37.73413],[126.94113,37.73406],[126.94115,37.73398],[126.94122,37.73395],[126.9412,37.73382],[126.94127,37.73382],[126.94131,37.734],[126.94124,37.73408],[126.9412,37.73407],[126.94113,37.73413],[126.9411,37.73418],[126.94104,37.73418]]]}},{"type":"Feature","properties":{"valleyId":"jangheung","layer":"shadow","date":"2026-08-01","timeLocal":"17:00"},"geometry":{"type":"Polygon","coordinates":[[[126.94925,37.73414],[126.94933,37.73387],[126.94937,37.73388],[126.94944,37.73382],[126.94951,37.73368],[126.94958,37.73368],[126.94958,37.73382],[126.94949,37.73386],[126.94946,37.73395],[126.94948,37.73406],[126.94934,37.73411],[126.94932,37.73414],[126.94925,37.73414]]]}},{"type":"Feature","properties":{"valleyId":"jangheung","layer":"shadow","date":"2026-08-01","timeLocal":"17:00"},"geometry":{"type":"Polygon","coordinates":[[[126.94977,37.73363],[126.94982,37.73347],[126.94988,37.73347],[126.94988,37.73356],[126.94984,37.73358],[126.94983,37.73363],[126.94977,37.73363]]]}},{"type":"Feature","properties":{"valleyId":"jangheung","layer":"shadow","date":"2026-08-01","timeLocal":"17:00"},"geometry":{"type":"Polygon","coordinates":[[[126.94505,37.73344],[126.9451,37.73333],[126.94519,37.73332],[126.94519,37.73339],[126.94512,37.73344],[126.94505,37.73344]]]}},{"type":"Feature","properties":{"valleyId":"jangheung","layer":"shadow","date":"2026-08-01","timeLocal":"17:00"},"geometry":{"type":"Polygon","coordinates":[[[126.94964,37.73343],[126.94961,37.73334],[126.94968,37.73334],[126.9497,37.73343],[126.94964,37.73343]]]}},{"type":"Feature","properties":{"valleyId":"jangheung","layer":"shadow","date":"2026-08-01","timeLocal":"17:00"},"geometry":{"type":"Polygon","coordinates":[[[126.94531,37.73325],[126.94531,37.73319],[126.9454,37.73317],[126.9454,37.73323],[126.94531,37.73325]]]}},{"type":"Feature","properties":{"valleyId":"jangheung","layer":"shadow","date":"2026-08-01","timeLocal":"17:00"},"geometry":{"type":"Polygon","coordinates":[[[126.94953,37.73326],[126.94953,37.73321],[126.9496,37.73321],[126.94959,37.73327],[126.94953,37.73326]]]}},{"type":"Feature","properties":{"valleyId":"jangheung","layer":"shadow","date":"2026-08-01","timeLocal":"17:00"},"geometry":{"type":"Polygon","coordinates":[[[126.95291,37.73302],[126.95292,37.73296],[126.95298,37.73296],[126.95298,37.73302],[126.95291,37.73302]]]}},{"type":"Feature","properties":{"valleyId":"jangheung","layer":"shadow","date":"2026-08-01","timeLocal":"17:00"},"geometry":{"type":"Polygon","coordinates":[[[126.94865,37.73284],[126.94865,37.73278],[126.94875,37.73278],[126.94874,37.73284],[126.94865,37.73284]]]}},{"type":"Feature","properties":{"valleyId":"jangheung","layer":"shadow","date":"2026-08-01","timeLocal":"17:00"},"geometry":{"type":"Polygon","coordinates":[[[126.9461,37.73259],[126.94608,37.7325],[126.94621,37.73249],[126.94619,37.73258],[126.9461,37.73259]]]}},{"type":"Feature","properties":{"valleyId":"jangheung","layer":"shadow","date":"2026-08-01","timeLocal":"17:00"},"geometry":{"type":"Polygon","coordinates":[[[126.94623,37.73249],[126.94624,37.73243],[126.94637,37.73243],[126.94637,37.73249],[126.94623,37.73249]]]}},{"type":"Feature","properties":{"valleyId":"jangheung","layer":"shadow","date":"2026-08-01","timeLocal":"17:00"},"geometry":{"type":"Polygon","coordinates":[[[126.94646,37.7324],[126.94647,37.73235],[126.94653,37.73235],[126.94653,37.7324],[126.94646,37.7324]]]}},{"type":"Feature","properties":{"valleyId":"jangheung","layer":"shadow","date":"2026-08-01","timeLocal":"17:00"},"geometry":{"type":"Polygon","coordinates":[[[126.94681,37.73228],[126.94681,37.73219],[126.94692,37.73219],[126.94692,37.73225],[126.94688,37.73228],[126.94681,37.73228]]]}},{"type":"Feature","properties":{"valleyId":"jangheung","layer":"shadow","date":"2026-08-01","timeLocal":"17:00"},"geometry":{"type":"Polygon","coordinates":[[[126.94702,37.73216],[126.94704,37.73209],[126.94718,37.73207],[126.94715,37.73214],[126.94702,37.73216]]]}},{"type":"Feature","properties":{"valleyId":"jangheung","layer":"shadow","date":"2026-08-01","timeLocal":"17:00"},"geometry":{"type":"Polygon","coordinates":[[[126.94743,37.73207],[126.94743,37.732],[126.9475,37.732],[126.94749,37.73208],[126.94743,37.73207]]]}},{"type":"Feature","properties":{"valleyId":"jangheung","layer":"shadow","date":"2026-08-01","timeLocal":"17:00"},"geometry":{"type":"Polygon","coordinates":[[[126.94722,37.73204],[126.94718,37.73185],[126.94728,37.73175],[126.94734,37.73175],[126.94731,37.732],[126.94729,37.73204],[126.94722,37.73204]]]}},{"type":"Feature","properties":{"valleyId":"jangheung","layer":"shadow","date":"2026-08-01","timeLocal":"17:00"},"geometry":{"type":"Polygon","coordinates":[[[126.94778,37.73075],[126.94774,37.73073],[126.94774,37.73069],[126.94767,37.73069],[126.94767,37.73064],[126.94785,37.73066],[126.94785,37.73075],[126.94778,37.73075]]]}},{"type":"Feature","properties":{"valleyId":"jangheung","layer":"shadow","date":"2026-08-01","timeLocal":"17:00"},"geometry":{"type":"Polygon","coordinates":[[[126.9481,37.73066],[126.94813,37.73057],[126.94824,37.73057],[126.94821,37.73065],[126.9481,37.73066]]]}},{"type":"Feature","properties":{"valleyId":"jangheung","layer":"shadow","date":"2026-08-01","timeLocal":"17:00"},"geometry":{"type":"Polygon","coordinates":[[[126.94831,37.73056],[126.94831,37.7305],[126.94838,37.73051],[126.94838,37.73056],[126.94831,37.73056]]]}},{"type":"Feature","properties":{"valleyId":"jangheung","layer":"shadow","date":"2026-08-01","timeLocal":"17:00"},"geometry":{"type":"Polygon","coordinates":[[[126.94732,37.73173],[126.94735,37.73146],[126.94731,37.73139],[126.94731,37.73128],[126.94736,37.73124],[126.94744,37.73085],[126.94739,37.73085],[126.94724,37.73072],[126.94724,37.73065],[126.94717,37.73063],[126.94715,37.73045],[126.94727,37.73045],[126.94727,37.73041],[126.94734,37.73042],[126.94738,37.73045],[126.94738,37.73058],[126.94744,37.73058],[126.94749,37.73062],[126.94756,37.73062],[126.94756,37.73056],[126.94767,37.73058],[126.94767,37.73064],[126.9476,37.73064],[126.9476,37.73074],[126.94767,37.73076],[126.94766,37.73085],[126.94787,37.73086],[126.94796,37.7308],[126.94798,37.73075],[126.94812,37.73075],[126.94812,37.73081],[126.94803,37.73084],[126.94804,37.73113],[126.94795,37.73122],[126.94794,37.73153],[126.94771,37.73152],[126.94771,37.73159],[126.94767,37.73159],[126.9476,37.73166],[126.94732,37.73173]]]}},{"type":"Feature","properties":{"valleyId":"jangheung","layer":"shadow","date":"2026-08-01","timeLocal":"17:00"},"geometry":{"type":"Polygon","coordinates":[[[126.94842,37.73052],[126.94845,37.73038],[126.94858,37.73038],[126.9486,37.73047],[126.94849,37.73053],[126.94842,37.73052]]]}},{"type":"Feature","properties":{"valleyId":"jangheung","layer":"shadow","date":"2026-08-01","timeLocal":"17:00"},"geometry":{"type":"Polygon","coordinates":[[[126.94767,37.73048],[126.94747,37.73044],[126.94747,37.73033],[126.94757,37.73031],[126.94756,37.7304],[126.94768,37.7304],[126.94772,37.73033],[126.94779,37.73033],[126.94779,37.73042],[126.94774,37.73042],[126.94774,37.73048],[126.94767,37.73048]]]}},{"type":"Feature","properties":{"valleyId":"jangheung","layer":"shadow","date":"2026-08-01","timeLocal":"17:00"},"geometry":{"type":"Polygon","coordinates":[[[126.94815,37.73036],[126.94816,37.7303],[126.94822,37.7303],[126.94822,37.73036],[126.94815,37.73036]]]}},{"type":"Feature","properties":{"valleyId":"jangheung","layer":"shadow","date":"2026-08-01","timeLocal":"17:00"},"geometry":{"type":"Polygon","coordinates":[[[126.95008,37.73034],[126.95009,37.73026],[126.95015,37.73027],[126.95015,37.73034],[126.95008,37.73034]]]}},{"type":"Feature","properties":{"valleyId":"jangheung","layer":"shadow","date":"2026-08-01","timeLocal":"17:00"},"geometry":{"type":"Polygon","coordinates":[[[126.948,37.73016],[126.94791,37.7301],[126.9478,37.7301],[126.9478,37.73001],[126.94807,37.73001],[126.94809,37.73016],[126.948,37.73016]]]}},{"type":"Feature","properties":{"valleyId":"jangheung","layer":"shadow","date":"2026-08-01","timeLocal":"17:00"},"geometry":{"type":"Polygon","coordinates":[[[126.94856,37.73035],[126.94856,37.73029],[126.94845,37.73018],[126.94846,37.73013],[126.9483,37.73004],[126.94835,37.72989],[126.94828,37.72985],[126.94828,37.7298],[126.94869,37.72984],[126.94869,37.72993],[126.94864,37.72993],[126.94864,37.72999],[126.94866,37.73006],[126.94871,37.73006],[126.94875,37.73013],[126.94875,37.73022],[126.9487,37.73022],[126.9487,37.73029],[126.94863,37.73031],[126.94863,37.73035],[126.94856,37.73035]]]}},{"type":"Feature","properties":{"valleyId":"jangheung","layer":"shadow","date":"2026-08-01","timeLocal":"17:00"},"geometry":{"type":"Polygon","coordinates":[[[126.94902,37.72954],[126.94902,37.72949],[126.94911,37.72949],[126.94911,37.72954],[126.94902,37.72954]]]}},{"type":"Feature","properties":{"valleyId":"jangheung","layer":"shadow","date":"2026-08-01","timeLocal":"17:00"},"geometry":{"type":"Polygon","coordinates":[[[126.94918,37.72953],[126.94918,37.72947],[126.94924,37.72948],[126.94924,37.72953],[126.94918,37.72953]]]}},{"type":"Feature","properties":{"valleyId":"jangheung","layer":"shadow","date":"2026-08-01","timeLocal":"17:00"},"geometry":{"type":"Polygon","coordinates":[[[126.94922,37.72946],[126.94923,37.72937],[126.94932,37.72937],[126.94931,37.72944],[126.94922,37.72946]]]}},{"type":"Feature","properties":{"valleyId":"jangheung","layer":"shadow","date":"2026-08-01","timeLocal":"17:00"},"geometry":{"type":"Polygon","coordinates":[[[126.94907,37.72938],[126.94907,37.72933],[126.94889,37.72923],[126.94889,37.72916],[126.94907,37.72918],[126.94907,37.72926],[126.94911,37.72926],[126.94918,37.72933],[126.94918,37.72938],[126.94907,37.72938]]]}},{"type":"Feature","properties":{"valleyId":"jangheung","layer":"shadow","date":"2026-08-01","timeLocal":"17:00"},"geometry":{"type":"Polygon","coordinates":[[[126.94741,37.73],[126.94742,37.72997],[126.9473,37.72995],[126.94731,37.72984],[126.94719,37.7298],[126.94715,37.72976],[126.94715,37.72971],[126.94711,37.72969],[126.94711,37.72962],[126.9472,37.72957],[126.9472,37.7294],[126.94727,37.72937],[126.94725,37.72926],[126.94735,37.72921],[126.94735,37.72912],[126.94724,37.72904],[126.94724,37.72901],[126.94717,37.72895],[126.94717,37.72884],[126.94727,37.72881],[126.94729,37.72876],[126.94738,37.72876],[126.94741,37.7287],[126.94747,37.72871],[126.94754,37.72862],[126.94768,37.72862],[126.94768,37.72867],[126.94761,37.72869],[126.94761,37.72874],[126.94765,37.72874],[126.9477,37.72887],[126.94783,37.72895],[126.94785,37.72909],[126.94801,37.72909],[126.948,37.72922],[126.94805,37.72924],[126.94805,37.72931],[126.94811,37.72935],[126.94815,37.72955],[126.94799,37.72956],[126.94799,37.72963],[126.94765,37.72963],[126.94765,37.72968],[126.94772,37.7297],[126.94772,37.72975],[126.94765,37.72977],[126.94764,37.7299],[126.9476,37.7299],[126.9476,37.72995],[126.94767,37.72995],[126.94766,37.73001],[126.94741,37.73]]]}},{"type":"Feature","properties":{"valleyId":"jangheung","layer":"shadow","date":"2026-08-01","timeLocal":"17:00"},"geometry":{"type":"Polygon","coordinates":[[[126.94837,37.72825],[126.9483,37.72823],[126.94826,37.72811],[126.94833,37.72811],[126.94844,37.72818],[126.94844,37.72825],[126.94837,37.72825]]]}},{"type":"Feature","properties":{"valleyId":"jangheung","layer":"shadow","date":"2026-08-01","timeLocal":"17:00"},"geometry":{"type":"Polygon","coordinates":[[[126.94971,37.72826],[126.94962,37.7282],[126.94962,37.72806],[126.94972,37.72806],[126.94971,37.7281],[126.9498,37.7281],[126.94983,37.72813],[126.94992,37.72815],[126.94991,37.72826],[126.94971,37.72826]]]}},{"type":"Feature","properties":{"valleyId":"jangheung","layer":"shadow","date":"2026-08-01","timeLocal":"17:00"},"geometry":{"type":"Polygon","coordinates":[[[126.94896,37.72895],[126.94897,37.72884],[126.94885,37.72882],[126.94886,37.72871],[126.94897,37.72871],[126.94897,37.72866],[126.9489,37.72864],[126.94889,37.72853],[126.94873,37.72853],[126.94871,37.72835],[126.9486,37.72831],[126.9486,37.72826],[126.94871,37.72826],[126.94872,37.72802],[126.94906,37.72803],[126.94905,37.7283],[126.95007,37.72832],[126.95006,37.72859],[126.94995,37.72859],[126.94993,37.72866],[126.94986,37.72866],[126.94981,37.72873],[126.94974,37.72873],[126.94972,37.72885],[126.94919,37.72888],[126.9491,37.72893],[126.94896,37.72895]],[[126.94918,37.72857],[126.94932,37.72858],[126.94936,37.72854],[126.94936,37.72847],[126.94932,37.72839],[126.94925,37.72836],[126.94914,37.72836],[126.94914,37.72839],[126.94909,37.72841],[126.94909,37.72848],[126.94918,37.72857]]]}},{"type":"Feature","properties":{"valleyId":"jangheung","layer":"shadow","date":"2026-08-01","timeLocal":"17:00"},"geometry":{"type":"Polygon","coordinates":[[[126.95003,37.72814],[126.95001,37.72801],[126.95006,37.72801],[126.95008,37.72798],[126.95004,37.72778],[126.95013,37.72778],[126.9502,37.72791],[126.95024,37.72791],[126.95024,37.72796],[126.95022,37.728],[126.95012,37.72801],[126.95017,37.72812],[126.95003,37.72814]]]}},{"type":"Feature","properties":{"valleyId":"jangheung","layer":"shadow","date":"2026-08-01","timeLocal":"17:00"},"geometry":{"type":"Polygon","coordinates":[[[126.95024,37.72782],[126.95025,37.72773],[126.95034,37.72773],[126.95036,37.7278],[126.95024,37.72782]]]}},{"type":"Feature","properties":{"valleyId":"jangheung","layer":"shadow","date":"2026-08-01","timeLocal":"17:00"},"geometry":{"type":"Polygon","coordinates":[[[126.9481,37.72807],[126.94808,37.72796],[126.94802,37.7279],[126.94802,37.72778],[126.94793,37.72769],[126.94794,37.7276],[126.94798,37.72756],[126.94809,37.72758],[126.94816,37.72764],[126.9482,37.72774],[126.9482,37.72801],[126.94817,37.72807],[126.9481,37.72807]]]}},{"type":"Feature","properties":{"valleyId":"jangheung","layer":"shadow","date":"2026-08-01","timeLocal":"17:00"},"geometry":{"type":"Polygon","coordinates":[[[126.94972,37.72792],[126.9497,37.72784],[126.94977,37.72781],[126.94977,37.72774],[126.94984,37.72774],[126.94984,37.72766],[126.94979,37.72765],[126.9498,37.72752],[126.94973,37.7275],[126.94973,37.72745],[126.94985,37.72745],[126.94991,37.72749],[126.94995,37.72763],[126.95004,37.72767],[126.95004,37.72774],[126.94993,37.72774],[126.94992,37.72788],[126.94988,37.72788],[126.94986,37.72792],[126.94972,37.72792]]]}},{"type":"Feature","properties":{"valleyId":"jangheung","layer":"shadow","date":"2026-08-01","timeLocal":"17:00"},"geometry":{"type":"Polygon","coordinates":[[[126.94966,37.72745],[126.94965,37.72728],[126.94976,37.72729],[126.94973,37.72745],[126.94966,37.72745]]]}},{"type":"Feature","properties":{"valleyId":"jangheung","layer":"shadow","date":"2026-08-01","timeLocal":"17:00"},"geometry":{"type":"Polygon","coordinates":[[[126.95168,37.72743],[126.95164,37.72737],[126.95164,37.7273],[126.95171,37.7273],[126.95175,37.72736],[126.95175,37.72743],[126.95168,37.72743]]]}},{"type":"Feature","properties":{"valleyId":"jangheung","layer":"shadow","date":"2026-08-01","timeLocal":"17:00"},"geometry":{"type":"Polygon","coordinates":[[[126.9494,37.72721],[126.94938,37.72713],[126.94949,37.72714],[126.94949,37.72721],[126.9494,37.72721]]]}},{"type":"Feature","properties":{"valleyId":"jangheung","layer":"shadow","date":"2026-08-01","timeLocal":"17:00"},"geometry":{"type":"Polygon","coordinates":[[[126.94945,37.72712],[126.94945,37.72708],[126.94938,37.72708],[126.94938,37.72699],[126.94929,37.72697],[126.94932,37.72683],[126.94923,37.72674],[126.94923,37.72663],[126.9493,37.72663],[126.94932,37.72674],[126.94946,37.72679],[126.94943,37.72694],[126.94947,37.72696],[126.94947,37.72701],[126.94954,37.72706],[126.94954,37.72712],[126.94945,37.72712]]]}},{"type":"Feature","properties":{"valleyId":"jangheung","layer":"shadow","date":"2026-08-01","timeLocal":"17:00"},"geometry":{"type":"Polygon","coordinates":[[[126.95039,37.72668],[126.95039,37.72663],[126.95046,37.72663],[126.95046,37.72668],[126.95039,37.72668]]]}},{"type":"Feature","properties":{"valleyId":"jangheung","layer":"shadow","date":"2026-08-01","timeLocal":"17:00"},"geometry":{"type":"Polygon","coordinates":[[[126.94859,37.7268],[126.94853,37.72676],[126.94853,37.72669],[126.94862,37.72663],[126.94862,37.7266],[126.94878,37.72658],[126.94878,37.72666],[126.94866,37.72667],[126.94871,37.7268],[126.94859,37.7268]]]}},{"type":"Feature","properties":{"valleyId":"jangheung","layer":"shadow","date":"2026-08-01","timeLocal":"17:00"},"geometry":{"type":"Polygon","coordinates":[[[126.93781,37.72619],[126.93781,37.72614],[126.93788,37.72614],[126.93788,37.72619],[126.93781,37.72619]]]}},{"type":"Feature","properties":{"valleyId":"jangheung","layer":"shadow","date":"2026-08-01","timeLocal":"17:00"},"geometry":{"type":"Polygon","coordinates":[[[126.94951,37.72643],[126.94951,37.72631],[126.94958,37.72631],[126.94958,37.72643],[126.94951,37.72643]]]}},{"type":"Feature","properties":{"valleyId":"jangheung","layer":"shadow","date":"2026-08-01","timeLocal":"17:00"},"geometry":{"type":"Polygon","coordinates":[[[126.94907,37.72664],[126.94907,37.72659],[126.94899,37.72644],[126.94897,37.7263],[126.94906,37.7263],[126.94908,37.72641],[126.94912,37.72643],[126.94914,37.72664],[126.94907,37.72664]]]}},{"type":"Feature","properties":{"valleyId":"jangheung","layer":"shadow","date":"2026-08-01","timeLocal":"17:00"},"geometry":{"type":"Polygon","coordinates":[[[126.93815,37.72604],[126.93813,37.72595],[126.9382,37.72595],[126.93822,37.72604],[126.93815,37.72604]]]}},{"type":"Feature","properties":{"valleyId":"jangheung","layer":"shadow","date":"2026-08-01","timeLocal":"17:00"},"geometry":{"type":"Polygon","coordinates":[[[126.94918,37.72612],[126.94918,37.72607],[126.94925,37.72607],[126.94925,37.72612],[126.94918,37.72612]]]}},{"type":"Feature","properties":{"valleyId":"jangheung","layer":"shadow","date":"2026-08-01","timeLocal":"17:00"},"geometry":{"type":"Polygon","coordinates":[[[126.9382,37.72588],[126.9382,37.7258],[126.93834,37.72581],[126.93834,37.72588],[126.9382,37.72588]]]}},{"type":"Feature","properties":{"valleyId":"jangheung","layer":"shadow","date":"2026-08-01","timeLocal":"17:00"},"geometry":{"type":"Polygon","coordinates":[[[126.9395,37.7259],[126.93954,37.72579],[126.93963,37.72579],[126.93963,37.7259],[126.9395,37.7259]]]}},{"type":"Feature","properties":{"valleyId":"jangheung","layer":"shadow","date":"2026-08-01","timeLocal":"17:00"},"geometry":{"type":"Polygon","coordinates":[[[126.9497,37.72604],[126.9497,37.72597],[126.9498,37.72597],[126.94979,37.72604],[126.9497,37.72604]]]}},{"type":"Feature","properties":{"valleyId":"jangheung","layer":"shadow","date":"2026-08-01","timeLocal":"17:00"},"geometry":{"type":"Polygon","coordinates":[[[126.94877,37.72626],[126.94877,37.7262],[126.94868,37.7262],[126.94873,37.72606],[126.94871,37.72579],[126.94878,37.72579],[126.94885,37.72585],[126.94884,37.72595],[126.9488,37.72597],[126.94879,37.7262],[126.94884,37.72621],[126.94883,37.72626],[126.94877,37.72626]]]}},{"type":"Feature","properties":{"valleyId":"jangheung","layer":"shadow","date":"2026-08-01","timeLocal":"17:00"},"geometry":{"type":"Polygon","coordinates":[[[126.93658,37.72563],[126.93651,37.72558],[126.93651,37.72552],[126.93676,37.72554],[126.93676,37.72562],[126.93658,37.72563]]]}},{"type":"Feature","properties":{"valleyId":"jangheung","layer":"shadow","date":"2026-08-01","timeLocal":"17:00"},"geometry":{"type":"Polygon","coordinates":[[[126.93917,37.72541],[126.93917,37.72532],[126.93924,37.72532],[126.93924,37.72541],[126.93917,37.72541]]]}},{"type":"Feature","properties":{"valleyId":"jangheung","layer":"shadow","date":"2026-08-01","timeLocal":"17:00"},"geometry":{"type":"Polygon","coordinates":[[[126.93729,37.7251],[126.9373,37.72503],[126.93739,37.72503],[126.93738,37.72509],[126.93729,37.7251]]]}},{"type":"Feature","properties":{"valleyId":"jangheung","layer":"shadow","date":"2026-08-01","timeLocal":"17:00"},"geometry":{"type":"Polygon","coordinates":[[[126.95045,37.72533],[126.95045,37.72524],[126.95054,37.72524],[126.95054,37.72532],[126.95045,37.72533]]]}},{"type":"Feature","properties":{"valleyId":"jangheung","layer":"shadow","date":"2026-08-01","timeLocal":"17:00"},"geometry":{"type":"Polygon","coordinates":[[[126.93658,37.72531],[126.93659,37.72522],[126.93647,37.72521],[126.93648,37.72505],[126.93671,37.72502],[126.93673,37.72491],[126.93662,37.72491],[126.93662,37.72482],[126.93664,37.72477],[126.93676,37.72477],[126.9368,37.72479],[126.9368,37.7249],[126.93689,37.72493],[126.93689,37.72501],[126.93677,37.72502],[126.93677,37.72511],[126.9367,37.72513],[126.9367,37.72522],[126.93693,37.72524],[126.93693,37.72529],[126.93658,37.72531]]]}},{"type":"Feature","properties":{"valleyId":"jangheung","layer":"shadow","date":"2026-08-01","timeLocal":"17:00"},"geometry":{"type":"Polygon","coordinates":[[[126.9375,37.72487],[126.93748,37.72476],[126.93758,37.72477],[126.93759,37.72487],[126.9375,37.72487]]]}},{"type":"Feature","properties":{"valleyId":"jangheung","layer":"shadow","date":"2026-08-01","timeLocal":"17:00"},"geometry":{"type":"Polygon","coordinates":[[[126.93764,37.72498],[126.93764,37.72493],[126.93771,37.72491],[126.93773,37.72482],[126.93778,37.72482],[126.93785,37.72477],[126.93787,37.7247],[126.93794,37.7247],[126.93796,37.72479],[126.93789,37.72481],[126.93789,37.72493],[126.93784,37.72497],[126.93764,37.72498]]]}},{"type":"Feature","properties":{"valleyId":"jangheung","layer":"shadow","date":"2026-08-01","timeLocal":"17:00"},"geometry":{"type":"Polygon","coordinates":[[[126.93889,37.72472],[126.93889,37.72464],[126.93896,37.72465],[126.93896,37.72472],[126.93889,37.72472]]]}},{"type":"Feature","properties":{"valleyId":"jangheung","layer":"shadow","date":"2026-08-01","timeLocal":"17:00"},"geometry":{"type":"Polygon","coordinates":[[[126.93703,37.72467],[126.93704,37.72458],[126.93717,37.7246],[126.93717,37.72465],[126.93703,37.72467]]]}},{"type":"Feature","properties":{"valleyId":"jangheung","layer":"shadow","date":"2026-08-01","timeLocal":"17:00"},"geometry":{"type":"Polygon","coordinates":[[[126.93726,37.72467],[126.93726,37.72462],[126.93738,37.7246],[126.93738,37.72456],[126.93747,37.72457],[126.93744,37.72465],[126.93726,37.72467]]]}},{"type":"Feature","properties":{"valleyId":"jangheung","layer":"shadow","date":"2026-08-01","timeLocal":"17:00"},"geometry":{"type":"Polygon","coordinates":[[[126.93883,37.72464],[126.93885,37.72452],[126.93892,37.72452],[126.93889,37.72464],[126.93883,37.72464]]]}},{"type":"Feature","properties":{"valleyId":"jangheung","layer":"shadow","date":"2026-08-01","timeLocal":"17:00"},"geometry":{"type":"Polygon","coordinates":[[[126.93606,37.72447],[126.93606,37.72441],[126.93613,37.72442],[126.93613,37.72447],[126.93606,37.72447]]]}},{"type":"Feature","properties":{"valleyId":"jangheung","layer":"shadow","date":"2026-08-01","timeLocal":"17:00"},"geometry":{"type":"Polygon","coordinates":[[[126.93634,37.72444],[126.93634,37.72438],[126.93641,37.72438],[126.9364,37.72444],[126.93634,37.72444]]]}},{"type":"Feature","properties":{"valleyId":"jangheung","layer":"shadow","date":"2026-08-01","timeLocal":"17:00"},"geometry":{"type":"Polygon","coordinates":[[[126.93663,37.72439],[126.93663,37.72432],[126.93675,37.7243],[126.93675,37.72437],[126.93663,37.72439]]]}},{"type":"Feature","properties":{"valleyId":"jangheung","layer":"shadow","date":"2026-08-01","timeLocal":"17:00"},"geometry":{"type":"Polygon","coordinates":[[[126.93618,37.72433],[126.93618,37.72425],[126.93625,37.72426],[126.93627,37.72433],[126.93618,37.72433]]]}},{"type":"Feature","properties":{"valleyId":"jangheung","layer":"shadow","date":"2026-08-01","timeLocal":"17:00"},"geometry":{"type":"Polygon","coordinates":[[[126.93675,37.72428],[126.93675,37.72423],[126.93682,37.72423],[126.93682,37.72428],[126.93675,37.72428]]]}},{"type":"Feature","properties":{"valleyId":"jangheung","layer":"shadow","date":"2026-08-01","timeLocal":"17:00"},"geometry":{"type":"Polygon","coordinates":[[[126.93736,37.72446],[126.93727,37.7244],[126.93727,37.72431],[126.93734,37.72431],[126.93741,37.72426],[126.93743,37.72415],[126.93755,37.72415],[126.93757,37.72424],[126.9375,37.7243],[126.93745,37.72429],[126.93747,37.72444],[126.93736,37.72446]]]}},{"type":"Feature","properties":{"valleyId":"jangheung","layer":"shadow","date":"2026-08-01","timeLocal":"17:00"},"geometry":{"type":"Polygon","coordinates":[[[126.93691,37.72423],[126.93694,37.72412],[126.93709,37.72413],[126.93709,37.72422],[126.93691,37.72423]]]}},{"type":"Feature","properties":{"valleyId":"jangheung","layer":"shadow","date":"2026-08-01","timeLocal":"17:00"},"geometry":{"type":"Polygon","coordinates":[[[126.93662,37.72421],[126.93662,37.72415],[126.93669,37.72412],[126.93669,37.72406],[126.9368,37.72407],[126.9368,37.72412],[126.93673,37.72414],[126.93673,37.72421],[126.93662,37.72421]]]}},{"type":"Feature","properties":{"valleyId":"jangheung","layer":"shadow","date":"2026-08-01","timeLocal":"17:00"},"geometry":{"type":"Polygon","coordinates":[[[126.93979,37.72416],[126.9398,37.72408],[126.93991,37.72409],[126.93988,37.72416],[126.93979,37.72416]]]}},{"type":"Feature","properties":{"valleyId":"jangheung","layer":"shadow","date":"2026-08-01","timeLocal":"17:00"},"geometry":{"type":"Polygon","coordinates":[[[126.93952,37.72411],[126.93952,37.72404],[126.93959,37.72404],[126.93959,37.72412],[126.93952,37.72411]]]}},{"type":"Feature","properties":{"valleyId":"jangheung","layer":"shadow","date":"2026-08-01","timeLocal":"17:00"},"geometry":{"type":"Polygon","coordinates":[[[126.93712,37.72413],[126.93714,37.72398],[126.93737,37.72402],[126.93734,37.72409],[126.93712,37.72413]]]}},{"type":"Feature","properties":{"valleyId":"jangheung","layer":"shadow","date":"2026-08-01","timeLocal":"17:00"},"geometry":{"type":"Polygon","coordinates":[[[126.93621,37.72404],[126.93621,37.72397],[126.9363,37.72397],[126.9363,37.72402],[126.93621,37.72404]]]}},{"type":"Feature","properties":{"valleyId":"jangheung","layer":"shadow","date":"2026-08-01","timeLocal":"17:00"},"geometry":{"type":"Polygon","coordinates":[[[126.93799,37.72461],[126.93799,37.72457],[126.93767,37.72459],[126.93768,37.72441],[126.93799,37.72445],[126.93802,37.72439],[126.93806,37.7244],[126.93806,37.72432],[126.93797,37.72432],[126.93798,37.72423],[126.93816,37.72422],[126.93816,37.72409],[126.93821,37.72407],[126.93821,37.72404],[126.93834,37.72402],[126.93835,37.72391],[126.9383,37.72389],[126.9383,37.72384],[126.93853,37.72386],[126.9386,37.7239],[126.9386,37.72395],[126.93866,37.72396],[126.93866,37.72399],[126.93878,37.72399],[126.93878,37.72405],[126.93868,37.72406],[126.93868,37.7241],[126.93825,37.72416],[126.93825,37.72422],[126.93843,37.72426],[126.93843,37.72431],[126.93822,37.72431],[126.93822,37.72436],[126.93815,37.72442],[126.93811,37.72441],[126.93815,37.72454],[126.9381,37.72454],[126.93806,37.72461],[126.93799,37.72461]]]}},{"type":"Feature","properties":{"valleyId":"jangheung","layer":"shadow","date":"2026-08-01","timeLocal":"17:00"},"geometry":{"type":"Polygon","coordinates":[[[126.93654,37.72379],[126.93654,37.72374],[126.93667,37.72372],[126.93667,37.72378],[126.93654,37.72379]]]}},{"type":"Feature","properties":{"valleyId":"jangheung","layer":"shadow","date":"2026-08-01","timeLocal":"17:00"},"geometry":{"type":"Polygon","coordinates":[[[126.93717,37.72377],[126.93717,37.72369],[126.93729,37.7237],[126.93729,37.72377],[126.93717,37.72377]]]}},{"type":"Feature","properties":{"valleyId":"jangheung","layer":"shadow","date":"2026-08-01","timeLocal":"17:00"},"geometry":{"type":"Polygon","coordinates":[[[126.94919,37.72398],[126.94919,37.72389],[126.94926,37.72389],[126.94926,37.72398],[126.94919,37.72398]]]}},{"type":"Feature","properties":{"valleyId":"jangheung","layer":"shadow","date":"2026-08-01","timeLocal":"17:00"},"geometry":{"type":"Polygon","coordinates":[[[126.93794,37.72378],[126.93795,37.72367],[126.93808,37.72369],[126.93806,37.72378],[126.93794,37.72378]]]}},{"type":"Feature","properties":{"valleyId":"jangheung","layer":"shadow","date":"2026-08-01","timeLocal":"17:00"},"geometry":{"type":"Polygon","coordinates":[[[126.93671,37.72396],[126.93671,37.7239],[126.93681,37.72387],[126.93683,37.72378],[126.93688,37.72374],[126.93686,37.72364],[126.93699,37.72362],[126.93699,37.72371],[126.93704,37.72371],[126.93706,37.72384],[126.93715,37.72386],[126.93714,37.72396],[126.93701,37.72396],[126.93701,37.72384],[126.93692,37.72383],[126.93687,37.72394],[126.93671,37.72396]]]}},{"type":"Feature","properties":{"valleyId":"jangheung","layer":"shadow","date":"2026-08-01","timeLocal":"17:00"},"geometry":{"type":"Polygon","coordinates":[[[126.93856,37.72368],[126.93856,37.72361],[126.9389,37.72364],[126.9389,37.72369],[126.93856,37.72368]]]}},{"type":"Feature","properties":{"valleyId":"jangheung","layer":"shadow","date":"2026-08-01","timeLocal":"17:00"},"geometry":{"type":"Polygon","coordinates":[[[126.93756,37.72372],[126.93756,37.72367],[126.93749,37.72365],[126.93749,37.72359],[126.93761,37.72359],[126.93765,37.72361],[126.93765,37.72367],[126.93772,37.72367],[126.93772,37.72372],[126.93756,37.72372]]]}},{"type":"Feature","properties":{"valleyId":"jangheung","layer":"shadow","date":"2026-08-01","timeLocal":"17:00"},"geometry":{"type":"Polygon","coordinates":[[[126.93706,37.72362],[126.93707,37.72351],[126.93734,37.72352],[126.93734,37.72359],[126.93706,37.72362]]]}},{"type":"Feature","properties":{"valleyId":"jangheung","layer":"shadow","date":"2026-08-01","timeLocal":"17:00"},"geometry":{"type":"Polygon","coordinates":[[[126.94589,37.72365],[126.94589,37.72354],[126.94596,37.72354],[126.94596,37.72365],[126.94589,37.72365]]]}},{"type":"Feature","properties":{"valleyId":"jangheung","layer":"shadow","date":"2026-08-01","timeLocal":"17:00"},"geometry":{"type":"Polygon","coordinates":[[[126.94943,37.72358],[126.94943,37.72351],[126.9495,37.72351],[126.9495,37.72359],[126.94943,37.72358]]]}},{"type":"Feature","properties":{"valleyId":"jangheung","layer":"shadow","date":"2026-08-01","timeLocal":"17:00"},"geometry":{"type":"Polygon","coordinates":[[[126.93852,37.72347],[126.93852,37.72339],[126.93859,37.72338],[126.93859,37.72331],[126.93886,37.72331],[126.93881,37.72345],[126.93852,37.72347]]]}},{"type":"Feature","properties":{"valleyId":"jangheung","layer":"shadow","date":"2026-08-01","timeLocal":"17:00"},"geometry":{"type":"Polygon","coordinates":[[[126.93889,37.72329],[126.93889,37.7232],[126.93893,37.7232],[126.93894,37.72315],[126.939,37.72315],[126.939,37.72329],[126.93889,37.72329]]]}},{"type":"Feature","properties":{"valleyId":"jangheung","layer":"shadow","date":"2026-08-01","timeLocal":"17:00"},"geometry":{"type":"Polygon","coordinates":[[[126.94495,37.72313],[126.94495,37.72304],[126.94502,37.72304],[126.94504,37.72311],[126.94495,37.72313]]]}},{"type":"Feature","properties":{"valleyId":"jangheung","layer":"shadow","date":"2026-08-01","timeLocal":"17:00"},"geometry":{"type":"Polygon","coordinates":[[[126.94486,37.723],[126.94484,37.72289],[126.94493,37.72289],[126.94493,37.723],[126.94486,37.723]]]}},{"type":"Feature","properties":{"valleyId":"jangheung","layer":"shadow","date":"2026-08-01","timeLocal":"17:00"},"geometry":{"type":"Polygon","coordinates":[[[126.93741,37.72352],[126.93741,37.72343],[126.9375,37.72339],[126.93755,37.72332],[126.93768,37.72334],[126.93766,37.72323],[126.93773,37.72318],[126.93774,37.72306],[126.93769,37.72304],[126.93767,37.72284],[126.93772,37.72275],[126.93779,37.72275],[126.93776,37.72289],[126.93781,37.72297],[126.93831,37.72298],[126.9383,37.72325],[126.93796,37.72324],[126.93791,37.72326],[126.93789,37.72337],[126.93773,37.72338],[126.93754,37.7235],[126.93741,37.72352]]]}},{"type":"Feature","properties":{"valleyId":"jangheung","layer":"shadow","date":"2026-08-01","timeLocal":"17:00"},"geometry":{"type":"Polygon","coordinates":[[[126.9522,37.72271],[126.9522,37.72266],[126.95227,37.72266],[126.95227,37.72271],[126.9522,37.72271]]]}},{"type":"Feature","properties":{"valleyId":"jangheung","layer":"shadow","date":"2026-08-01","timeLocal":"17:00"},"geometry":{"type":"Polygon","coordinates":[[[126.94662,37.72245],[126.94663,37.72236],[126.94676,37.72238],[126.94676,37.72244],[126.94662,37.72245]]]}},{"type":"Feature","properties":{"valleyId":"jangheung","layer":"shadow","date":"2026-08-01","timeLocal":"17:00"},"geometry":{"type":"Polygon","coordinates":[[[126.9457,37.72233],[126.94568,37.7222],[126.94575,37.7222],[126.94579,37.72222],[126.94579,37.72231],[126.9457,37.72233]]]}},{"type":"Feature","properties":{"valleyId":"jangheung","layer":"shadow","date":"2026-08-01","timeLocal":"17:00"},"geometry":{"type":"Polygon","coordinates":[[[126.95189,37.72237],[126.95187,37.72226],[126.95196,37.72226],[126.95198,37.72233],[126.95196,37.72237],[126.95189,37.72237]]]}},{"type":"Feature","properties":{"valleyId":"jangheung","layer":"shadow","date":"2026-08-01","timeLocal":"17:00"},"geometry":{"type":"Polygon","coordinates":[[[126.94643,37.72204],[126.94643,37.72195],[126.94655,37.72197],[126.94655,37.72202],[126.94643,37.72204]]]}},{"type":"Feature","properties":{"valleyId":"jangheung","layer":"shadow","date":"2026-08-01","timeLocal":"17:00"},"geometry":{"type":"Polygon","coordinates":[[[126.95176,37.72217],[126.95174,37.72204],[126.95181,37.72204],[126.95185,37.72217],[126.95176,37.72217]]]}},{"type":"Feature","properties":{"valleyId":"jangheung","layer":"shadow","date":"2026-08-01","timeLocal":"17:00"},"geometry":{"type":"Polygon","coordinates":[[[126.94428,37.72184],[126.94428,37.72178],[126.94437,37.72178],[126.94437,37.72184],[126.94428,37.72184]]]}},{"type":"Feature","properties":{"valleyId":"jangheung","layer":"shadow","date":"2026-08-01","timeLocal":"17:00"},"geometry":{"type":"Polygon","coordinates":[[[126.94605,37.72181],[126.94601,37.72178],[126.94601,37.72172],[126.94612,37.72174],[126.94612,37.72181],[126.94605,37.72181]]]}},{"type":"Feature","properties":{"valleyId":"jangheung","layer":"shadow","date":"2026-08-01","timeLocal":"17:00"},"geometry":{"type":"Polygon","coordinates":[[[126.94355,37.72141],[126.94355,37.72134],[126.94362,37.72134],[126.94361,37.72141],[126.94355,37.72141]]]}},{"type":"Feature","properties":{"valleyId":"jangheung","layer":"shadow","date":"2026-08-01","timeLocal":"17:00"},"geometry":{"type":"Polygon","coordinates":[[[126.94441,37.72142],[126.94441,37.72135],[126.94448,37.72135],[126.9445,37.72143],[126.94441,37.72142]]]}},{"type":"Feature","properties":{"valleyId":"jangheung","layer":"shadow","date":"2026-08-01","timeLocal":"17:00"},"geometry":{"type":"Polygon","coordinates":[[[126.94332,37.72135],[126.94332,37.7213],[126.94339,37.7213],[126.94339,37.72135],[126.94332,37.72135]]]}},{"type":"Feature","properties":{"valleyId":"jangheung","layer":"shadow","date":"2026-08-01","timeLocal":"17:00"},"geometry":{"type":"Polygon","coordinates":[[[126.94374,37.72008],[126.94372,37.71995],[126.94381,37.71995],[126.94381,37.71999],[126.94386,37.71999],[126.94385,37.72006],[126.94374,37.72008]]]}},{"type":"Feature","properties":{"valleyId":"jangheung","layer":"shadow","date":"2026-08-01","timeLocal":"17:00"},"geometry":{"type":"Polygon","coordinates":[[[126.9505,37.72003],[126.95051,37.71998],[126.95057,37.71998],[126.95057,37.72004],[126.9505,37.72003]]]}},{"type":"Feature","properties":{"valleyId":"jangheung","layer":"shadow","date":"2026-08-01","timeLocal":"17:00"},"geometry":{"type":"Polygon","coordinates":[[[126.95053,37.71984],[126.95049,37.7198],[126.95049,37.71975],[126.95058,37.71975],[126.9506,37.71978],[126.9506,37.71984],[126.95053,37.71984]]]}},{"type":"Feature","properties":{"valleyId":"jangheung","layer":"shadow","date":"2026-08-01","timeLocal":"17:00"},"geometry":{"type":"Polygon","coordinates":[[[126.95087,37.71979],[126.95085,37.71972],[126.95092,37.71972],[126.95094,37.71979],[126.95087,37.71979]]]}},{"type":"Feature","properties":{"valleyId":"jangheung","layer":"shadow","date":"2026-08-01","timeLocal":"17:00"},"geometry":{"type":"Polygon","coordinates":[[[126.94951,37.71993],[126.94949,37.71967],[126.94956,37.71968],[126.9496,37.71973],[126.9496,37.71989],[126.94958,37.71993],[126.94951,37.71993]]]}},{"type":"Feature","properties":{"valleyId":"jangheung","layer":"shadow","date":"2026-08-01","timeLocal":"17:00"},"geometry":{"type":"Polygon","coordinates":[[[126.95074,37.71966],[126.95077,37.71953],[126.95084,37.71954],[126.95083,37.71966],[126.95074,37.71966]]]}},{"type":"Feature","properties":{"valleyId":"jangheung","layer":"shadow","date":"2026-08-01","timeLocal":"17:00"},"geometry":{"type":"Polygon","coordinates":[[[126.95007,37.71934],[126.95007,37.7192],[126.95014,37.7192],[126.95014,37.71934],[126.95007,37.71934]]]}},{"type":"Feature","properties":{"valleyId":"jangheung","layer":"shadow","date":"2026-08-01","timeLocal":"17:00"},"geometry":{"type":"Polygon","coordinates":[[[126.94786,37.71882],[126.94786,37.71871],[126.94793,37.71871],[126.94793,37.71882],[126.94786,37.71882]]]}},{"type":"Feature","properties":{"valleyId":"jangheung","layer":"shadow","date":"2026-08-01","timeLocal":"17:00"},"geometry":{"type":"Polygon","coordinates":[[[126.94777,37.71864],[126.94778,37.71849],[126.94785,37.71849],[126.94787,37.71862],[126.94777,37.71864]]]}},{"type":"Feature","properties":{"valleyId":"jangheung","layer":"shadow","date":"2026-08-01","timeLocal":"17:00"},"geometry":{"type":"Polygon","coordinates":[[[126.94701,37.71905],[126.94702,37.71886],[126.94697,37.71884],[126.947,37.7186],[126.94691,37.7186],[126.94689,37.71853],[126.9469,37.71831],[126.94697,37.71812],[126.94704,37.71812],[126.94701,37.71826],[126.9471,37.71832],[126.94705,37.7186],[126.94712,37.71861],[126.94715,37.71889],[126.94724,37.71893],[126.94724,37.71899],[126.94717,37.71904],[126.94701,37.71905]]]}},{"type":"Feature","properties":{"valleyId":"jangheung","layer":"shadow","date":"2026-08-01","timeLocal":"17:00"},"geometry":{"type":"Polygon","coordinates":[[[126.94897,37.71819],[126.94897,37.71813],[126.94906,37.71813],[126.94906,37.71819],[126.94897,37.71819]]]}},{"type":"Feature","properties":{"valleyId":"jangheung","layer":"shadow","date":"2026-08-01","timeLocal":"17:00"},"geometry":{"type":"Polygon","coordinates":[[[126.94831,37.71818],[126.94831,37.7181],[126.94842,37.71812],[126.94842,37.71818],[126.94831,37.71818]]]}},{"type":"Feature","properties":{"valleyId":"jangheung","layer":"shadow","date":"2026-08-01","timeLocal":"17:00"},"geometry":{"type":"Polygon","coordinates":[[[126.94713,37.71817],[126.94711,37.71806],[126.94704,37.71806],[126.94704,37.71799],[126.94711,37.71787],[126.94718,37.71787],[126.94722,37.71803],[126.94734,37.71807],[126.94733,37.71812],[126.94713,37.71817]]]}},{"type":"Feature","properties":{"valleyId":"jangheung","layer":"shadow","date":"2026-08-01","timeLocal":"17:00"},"geometry":{"type":"Polygon","coordinates":[[[126.94946,37.71749],[126.94946,37.7174],[126.94953,37.7174],[126.94958,37.71744],[126.94958,37.71749],[126.94946,37.71749]]]}},{"type":"Feature","properties":{"valleyId":"jangheung","layer":"shadow","date":"2026-08-01","timeLocal":"17:00"},"geometry":{"type":"Polygon","coordinates":[[[126.94813,37.71718],[126.94813,37.71711],[126.9482,37.71711],[126.9482,37.71718],[126.94813,37.71718]]]}},{"type":"Feature","properties":{"valleyId":"jangheung","layer":"shadow","date":"2026-08-01","timeLocal":"17:00"},"geometry":{"type":"Polygon","coordinates":[[[126.94945,37.71706],[126.94945,37.71701],[126.94952,37.71701],[126.94952,37.71706],[126.94945,37.71706]]]}}]}
