{"type":"FeatureCollection","metadata":{"description":"개방지(CHM ≤ 2 m)에 드리운 나무·지형 그림자, 2026-08-01 18:00 KST. canopy 위에 겹쳐 그린다","source":"위성 기반 추정 — Copernicus GLO-30 지형(30 m) + Meta/WRI 수관 높이(1 m CHM, 2019 촬영). 그늘 = 수관(CHM > 2 m) ∪ 나무·지형 그림자 ∪ 원거리 지형 마스크. 현장과 다를 수 있음.","datasetVersion":"2026-09-06.0","collectedAt":"2026-09-06","coordinateOrder":"[longitude, latitude]","crs":"EPSG:4326","representativeDate":"2026-08-01","hours":["10:00","11:00","12:00","13:00","14:00","15:00","16:00","17:00","18:00"],"chmAcquisition":["2019-03"],"assets":{"glo30":{"dataset":"Copernicus DEM GLO-30 (COG, s3://copernicus-dem-30m)","tiles":["Copernicus_DSM_COG_10_N37_00_E126_00_DEM","Copernicus_DSM_COG_10_N37_00_E127_00_DEM"]},"chm":{"dataset":"Meta/WRI Global Canopy Height Map v1 (alsgedi_global_v6_float, 1 m, CC-BY 4.0)","quadkeys":["132110302","132110320"],"acquisition":["2019-03"]}},"method":{"gridResM":2,"canopyThresholdM":2,"bufferHalfM":25,"corridorHalfM":200,"simplifyTolM":2,"minAreaM2":25,"coordDecimals":5},"generator":"scripts/shade 0.1.0","builtAt":"2026-09-06T06:03:58Z","layer":"shadow","timeLocal":"18:00"},"features":[{"type":"Feature","properties":{"valleyId":"jangheung","layer":"shadow","date":"2026-08-01","timeLocal":"18:00"},"geometry":{"type":"Polygon","coordinates":[[[126.95559,37.74056],[126.95559,37.74051],[126.95564,37.74051],[126.95564,37.74044],[126.95571,37.74044],[126.9557,37.74051],[126.95566,37.74051],[126.95566,37.74056],[126.95559,37.74056]]]}},{"type":"Feature","properties":{"valleyId":"jangheung","layer":"shadow","date":"2026-08-01","timeLocal":"18:00"},"geometry":{"type":"Polygon","coordinates":[[[126.95872,37.74051],[126.9587,37.74045],[126.95866,37.74045],[126.95866,37.7404],[126.95873,37.7404],[126.95872,37.74044],[126.95882,37.74044],[126.95881,37.74051],[126.95872,37.74051]]]}},{"type":"Feature","properties":{"valleyId":"jangheung","layer":"shadow","date":"2026-08-01","timeLocal":"18:00"},"geometry":{"type":"Polygon","coordinates":[[[126.95773,37.74036],[126.95768,37.74033],[126.95769,37.74027],[126.95782,37.74029],[126.95782,37.74037],[126.95773,37.74036]]]}},{"type":"Feature","properties":{"valleyId":"jangheung","layer":"shadow","date":"2026-08-01","timeLocal":"18:00"},"geometry":{"type":"Polygon","coordinates":[[[126.95746,37.74031],[126.95746,37.74025],[126.95753,37.74025],[126.95753,37.74031],[126.95746,37.74031]]]}},{"type":"Feature","properties":{"valleyId":"jangheung","layer":"shadow","date":"2026-08-01","timeLocal":"18:00"},"geometry":{"type":"Polygon","coordinates":[[[126.95759,37.74029],[126.9576,37.74024],[126.95766,37.74024],[126.95766,37.74029],[126.95759,37.74029]]]}},{"type":"Feature","properties":{"valleyId":"jangheung","layer":"shadow","date":"2026-08-01","timeLocal":"18:00"},"geometry":{"type":"Polygon","coordinates":[[[126.95476,37.74015],[126.95472,37.74011],[126.95472,37.74006],[126.95485,37.74006],[126.95483,37.74015],[126.95476,37.74015]]]}},{"type":"Feature","properties":{"valleyId":"jangheung","layer":"shadow","date":"2026-08-01","timeLocal":"18:00"},"geometry":{"type":"Polygon","coordinates":[[[126.9573,37.74023],[126.95726,37.74019],[126.95726,37.74007],[126.95733,37.74007],[126.95733,37.74011],[126.95737,37.74012],[126.95737,37.74023],[126.9573,37.74023]]]}},{"type":"Feature","properties":{"valleyId":"jangheung","layer":"shadow","date":"2026-08-01","timeLocal":"18:00"},"geometry":{"type":"Polygon","coordinates":[[[126.954,37.7405],[126.95314,37.74039],[126.95299,37.74034],[126.95289,37.74033],[126.9529,37.74026],[126.95328,37.74027],[126.95354,37.74013],[126.95356,37.74004],[126.95365,37.74002],[126.95379,37.74003],[126.95386,37.73999],[126.95413,37.74001],[126.95422,37.73998],[126.95452,37.73998],[126.95451,37.74011],[126.95435,37.74018],[126.95433,37.74029],[126.95421,37.74034],[126.95421,37.74038],[126.95412,37.74043],[126.95409,37.7405],[126.954,37.7405]]]}},{"type":"Feature","properties":{"valleyId":"jangheung","layer":"shadow","date":"2026-08-01","timeLocal":"18:00"},"geometry":{"type":"Polygon","coordinates":[[[126.95753,37.74013],[126.95753,37.74004],[126.9576,37.74004],[126.95762,37.74011],[126.95753,37.74013]]]}},{"type":"Feature","properties":{"valleyId":"jangheung","layer":"shadow","date":"2026-08-01","timeLocal":"18:00"},"geometry":{"type":"Polygon","coordinates":[[[126.95737,37.74],[126.95736,37.73989],[126.95742,37.73989],[126.95747,37.73993],[126.95747,37.73998],[126.95737,37.74]]]}},{"type":"Feature","properties":{"valleyId":"jangheung","layer":"shadow","date":"2026-08-01","timeLocal":"18:00"},"geometry":{"type":"Polygon","coordinates":[[[126.9577,37.73961],[126.95773,37.7395],[126.95782,37.73948],[126.95779,37.73961],[126.9577,37.73961]]]}},{"type":"Feature","properties":{"valleyId":"jangheung","layer":"shadow","date":"2026-08-01","timeLocal":"18:00"},"geometry":{"type":"Polygon","coordinates":[[[126.95558,37.74247],[126.95522,37.7423],[126.95516,37.74218],[126.95509,37.74216],[126.95509,37.74212],[126.95505,37.7421],[126.95505,37.74192],[126.9551,37.74189],[126.95515,37.74176],[126.95513,37.74147],[126.95527,37.74139],[126.95532,37.74124],[126.95539,37.74119],[126.95546,37.74105],[126.95562,37.7409],[126.95572,37.74089],[126.95583,37.74071],[126.9559,37.74068],[126.95595,37.74048],[126.95605,37.74041],[126.9561,37.74021],[126.95617,37.74014],[126.95615,37.73981],[126.95611,37.73978],[126.95616,37.7396],[126.95614,37.73951],[126.95603,37.73942],[126.95603,37.73931],[126.95599,37.73931],[126.95585,37.73916],[126.95586,37.73911],[126.95595,37.73911],[126.95595,37.73916],[126.95601,37.7392],[126.95606,37.73929],[126.95614,37.73933],[126.95614,37.73944],[126.95623,37.73946],[126.95623,37.73949],[126.95628,37.73951],[126.95632,37.73958],[126.95634,37.73975],[126.95638,37.73975],[126.95638,37.73978],[126.95656,37.73979],[126.95656,37.73997],[126.9566,37.73997],[126.95663,37.74],[126.95662,37.74009],[126.95651,37.74013],[126.95651,37.74018],[126.95655,37.7402],[126.95655,37.74033],[126.95644,37.74032],[126.95643,37.74043],[126.95636,37.74052],[126.95636,37.74068],[126.95629,37.74079],[126.95628,37.7409],[126.95624,37.74095],[126.95623,37.74102],[126.95619,37.74102],[126.95616,37.74133],[126.95609,37.7414],[126.95602,37.7414],[126.95595,37.74158],[126.95583,37.74167],[126.95581,37.74176],[126.95571,37.74179],[126.95569,37.74186],[126.95558,37.7419],[126.95559,37.74222],[126.95565,37.74242],[126.95565,37.74247],[126.95558,37.74247]],[[126.95642,37.74009],[126.95649,37.74009],[126.95651,37.73998],[126.95642,37.74],[126.95642,37.74009]]]}},{"type":"Feature","properties":{"valleyId":"jangheung","layer":"shadow","date":"2026-08-01","timeLocal":"18:00"},"geometry":{"type":"Polygon","coordinates":[[[126.95482,37.73891],[126.95482,37.73885],[126.95489,37.73886],[126.95489,37.73891],[126.95482,37.73891]]]}},{"type":"Feature","properties":{"valleyId":"jangheung","layer":"shadow","date":"2026-08-01","timeLocal":"18:00"},"geometry":{"type":"Polygon","coordinates":[[[126.95493,37.73992],[126.95495,37.73983],[126.95514,37.73972],[126.95514,37.73967],[126.95518,37.73964],[126.95519,37.73951],[126.95505,37.73938],[126.95499,37.73913],[126.95492,37.73913],[126.95486,37.73905],[126.95459,37.73903],[126.95443,37.73896],[126.95439,37.73892],[126.95439,37.73877],[126.95457,37.7388],[126.95461,37.73887],[126.95466,37.73887],[126.95473,37.73894],[126.95484,37.73894],[126.95486,37.739],[126.95522,37.73902],[126.95529,37.73906],[126.95538,37.73906],[126.95545,37.73914],[126.95551,37.73914],[126.95551,37.73917],[126.9556,37.73925],[126.95565,37.73925],[126.95564,37.73943],[126.9556,37.73946],[126.9556,37.73952],[126.95555,37.73953],[126.95555,37.73962],[126.95559,37.73962],[126.95559,37.73968],[126.95555,37.73968],[126.95554,37.73977],[126.95525,37.73976],[126.95511,37.73989],[126.95493,37.73992]]]}},{"type":"Feature","properties":{"valleyId":"jangheung","layer":"shadow","date":"2026-08-01","timeLocal":"18:00"},"geometry":{"type":"Polygon","coordinates":[[[126.9578,37.73946],[126.95783,37.7393],[126.95792,37.73916],[126.95808,37.73913],[126.95813,37.73902],[126.9582,37.73898],[126.95822,37.73893],[126.95843,37.73893],[126.95849,37.73888],[126.95854,37.73888],[126.95857,37.73876],[126.95866,37.73874],[126.95868,37.73887],[126.95856,37.7389],[126.95851,37.73901],[126.95842,37.73901],[126.95838,37.73908],[126.95829,37.73908],[126.95826,37.73911],[126.9581,37.73915],[126.9581,37.73924],[126.95803,37.73938],[126.95796,37.73938],[126.95796,37.73945],[126.9578,37.73946]]]}},{"type":"Feature","properties":{"valleyId":"jangheung","layer":"shadow","date":"2026-08-01","timeLocal":"18:00"},"geometry":{"type":"Polygon","coordinates":[[[126.9539,37.7386],[126.95388,37.73851],[126.95394,37.73851],[126.95396,37.7386],[126.9539,37.7386]]]}},{"type":"Feature","properties":{"valleyId":"jangheung","layer":"shadow","date":"2026-08-01","timeLocal":"18:00"},"geometry":{"type":"Polygon","coordinates":[[[126.95363,37.73851],[126.95363,37.73844],[126.95374,37.73844],[126.95372,37.73851],[126.95363,37.73851]]]}},{"type":"Feature","properties":{"valleyId":"jangheung","layer":"shadow","date":"2026-08-01","timeLocal":"18:00"},"geometry":{"type":"Polygon","coordinates":[[[126.95565,37.73851],[126.95565,37.73844],[126.95574,37.73844],[126.95574,37.73851],[126.95565,37.73851]]]}},{"type":"Feature","properties":{"valleyId":"jangheung","layer":"shadow","date":"2026-08-01","timeLocal":"18:00"},"geometry":{"type":"Polygon","coordinates":[[[126.95326,37.73845],[126.95327,37.73838],[126.95322,37.73834],[126.95322,37.73829],[126.95329,37.73829],[126.95338,37.73836],[126.95338,37.73841],[126.95333,37.73841],[126.95333,37.73845],[126.95326,37.73845]]]}},{"type":"Feature","properties":{"valleyId":"jangheung","layer":"shadow","date":"2026-08-01","timeLocal":"18:00"},"geometry":{"type":"Polygon","coordinates":[[[126.95553,37.73842],[126.95554,37.73836],[126.95558,37.73834],[126.95558,37.73824],[126.95572,37.73826],[126.95572,37.73831],[126.95565,37.73831],[126.95565,37.73842],[126.95553,37.73842]]]}},{"type":"Feature","properties":{"valleyId":"jangheung","layer":"shadow","date":"2026-08-01","timeLocal":"18:00"},"geometry":{"type":"Polygon","coordinates":[[[126.953,37.73821],[126.95296,37.73808],[126.95307,37.73808],[126.95307,37.73821],[126.953,37.73821]]]}},{"type":"Feature","properties":{"valleyId":"jangheung","layer":"shadow","date":"2026-08-01","timeLocal":"18:00"},"geometry":{"type":"Polygon","coordinates":[[[126.94173,37.73791],[126.94173,37.73785],[126.9418,37.73785],[126.9418,37.73791],[126.94173,37.73791]]]}},{"type":"Feature","properties":{"valleyId":"jangheung","layer":"shadow","date":"2026-08-01","timeLocal":"18:00"},"geometry":{"type":"Polygon","coordinates":[[[126.95214,37.73821],[126.952,37.7381],[126.95203,37.73801],[126.9521,37.73801],[126.95212,37.73805],[126.95216,37.73805],[126.95216,37.73809],[126.95221,37.73809],[126.9522,37.73821],[126.95214,37.73821]]]}},{"type":"Feature","properties":{"valleyId":"jangheung","layer":"shadow","date":"2026-08-01","timeLocal":"18:00"},"geometry":{"type":"Polygon","coordinates":[[[126.95003,37.73809],[126.95005,37.73798],[126.95017,37.73798],[126.95019,37.73793],[126.95026,37.73793],[126.95026,37.738],[126.95019,37.73807],[126.95003,37.73809]]]}},{"type":"Feature","properties":{"valleyId":"jangheung","layer":"shadow","date":"2026-08-01","timeLocal":"18:00"},"geometry":{"type":"Polygon","coordinates":[[[126.95348,37.73876],[126.95321,37.73863],[126.95305,37.73864],[126.95303,37.73857],[126.95283,37.73853],[126.95279,37.73849],[126.95277,37.7384],[126.95266,37.73831],[126.9525,37.73826],[126.9525,37.73822],[126.95236,37.73822],[126.95239,37.73809],[126.95234,37.73809],[126.95234,37.73805],[126.95217,37.73794],[126.95217,37.73789],[126.95235,37.73793],[126.95235,37.73798],[126.95241,37.73798],[126.95241,37.73802],[126.95253,37.73804],[126.95252,37.7382],[126.95266,37.73822],[126.95266,37.73826],[126.95277,37.73826],[126.95297,37.73837],[126.95315,37.73837],[126.95322,37.73843],[126.95322,37.7385],[126.95335,37.7385],[126.9534,37.73856],[126.95349,37.73856],[126.95355,37.73863],[126.95373,37.73871],[126.95373,37.73876],[126.95348,37.73876]]]}},{"type":"Feature","properties":{"valleyId":"jangheung","layer":"shadow","date":"2026-08-01","timeLocal":"18:00"},"geometry":{"type":"Polygon","coordinates":[[[126.95271,37.73792],[126.95271,37.73786],[126.95278,37.73786],[126.95278,37.73792],[126.95271,37.73792]]]}},{"type":"Feature","properties":{"valleyId":"jangheung","layer":"shadow","date":"2026-08-01","timeLocal":"18:00"},"geometry":{"type":"Polygon","coordinates":[[[126.9517,37.73828],[126.95164,37.73822],[126.95146,37.73818],[126.95144,37.73802],[126.95151,37.73799],[126.95162,37.73799],[126.95167,37.7379],[126.95171,37.73786],[126.95178,37.73786],[126.95183,37.73781],[126.95194,37.73781],[126.95194,37.73787],[126.95178,37.73794],[126.95178,37.73801],[126.95191,37.73803],[126.95191,37.73808],[126.95178,37.73808],[126.95173,37.73804],[126.95166,37.73804],[126.95166,37.73813],[126.95177,37.73813],[126.9518,37.73822],[126.95184,37.73823],[126.95184,37.73828],[126.9517,37.73828]]]}},{"type":"Feature","properties":{"valleyId":"jangheung","layer":"shadow","date":"2026-08-01","timeLocal":"18:00"},"geometry":{"type":"Polygon","coordinates":[[[126.94082,37.73773],[126.94083,37.7376],[126.94094,37.7376],[126.94096,37.73773],[126.94082,37.73773]]]}},{"type":"Feature","properties":{"valleyId":"jangheung","layer":"shadow","date":"2026-08-01","timeLocal":"18:00"},"geometry":{"type":"Polygon","coordinates":[[[126.9521,37.73789],[126.95208,37.73782],[126.95199,37.73778],[126.95199,37.73772],[126.95206,37.73772],[126.95217,37.7378],[126.95217,37.73789],[126.9521,37.73789]]]}},{"type":"Feature","properties":{"valleyId":"jangheung","layer":"shadow","date":"2026-08-01","timeLocal":"18:00"},"geometry":{"type":"Polygon","coordinates":[[[126.95165,37.73775],[126.95156,37.73772],[126.95156,37.73766],[126.95183,37.7377],[126.95183,37.73776],[126.95165,37.73775]]]}},{"type":"Feature","properties":{"valleyId":"jangheung","layer":"shadow","date":"2026-08-01","timeLocal":"18:00"},"geometry":{"type":"Polygon","coordinates":[[[126.94171,37.73753],[126.94172,37.73745],[126.94178,37.73746],[126.94178,37.73753],[126.94171,37.73753]]]}},{"type":"Feature","properties":{"valleyId":"jangheung","layer":"shadow","date":"2026-08-01","timeLocal":"18:00"},"geometry":{"type":"Polygon","coordinates":[[[126.95572,37.73763],[126.95574,37.73752],[126.95583,37.7375],[126.95583,37.73757],[126.95578,37.73759],[126.95578,37.73763],[126.95572,37.73763]]]}},{"type":"Feature","properties":{"valleyId":"jangheung","layer":"shadow","date":"2026-08-01","timeLocal":"18:00"},"geometry":{"type":"Polygon","coordinates":[[[126.95236,37.73762],[126.95222,37.73753],[126.9522,37.73742],[126.95232,37.73744],[126.95236,37.73755],[126.95243,37.73757],[126.95242,37.73762],[126.95236,37.73762]]]}},{"type":"Feature","properties":{"valleyId":"jangheung","layer":"shadow","date":"2026-08-01","timeLocal":"18:00"},"geometry":{"type":"Polygon","coordinates":[[[126.95209,37.7374],[126.95209,37.73733],[126.95216,37.73733],[126.95216,37.7374],[126.95209,37.7374]]]}},{"type":"Feature","properties":{"valleyId":"jangheung","layer":"shadow","date":"2026-08-01","timeLocal":"18:00"},"geometry":{"type":"Polygon","coordinates":[[[126.94123,37.73698],[126.94123,37.73689],[126.9413,37.73689],[126.9413,37.73698],[126.94123,37.73698]]]}},{"type":"Feature","properties":{"valleyId":"jangheung","layer":"shadow","date":"2026-08-01","timeLocal":"18:00"},"geometry":{"type":"Polygon","coordinates":[[[126.95003,37.73641],[126.95003,37.73634],[126.9501,37.73634],[126.9501,37.73641],[126.95003,37.73641]]]}},{"type":"Feature","properties":{"valleyId":"jangheung","layer":"shadow","date":"2026-08-01","timeLocal":"18:00"},"geometry":{"type":"Polygon","coordinates":[[[126.94157,37.73619],[126.94157,37.73614],[126.94164,37.73614],[126.94164,37.73619],[126.94157,37.73619]]]}},{"type":"Feature","properties":{"valleyId":"jangheung","layer":"shadow","date":"2026-08-01","timeLocal":"18:00"},"geometry":{"type":"Polygon","coordinates":[[[126.94148,37.73615],[126.94144,37.73612],[126.94135,37.73611],[126.94135,37.73606],[126.94151,37.73606],[126.94155,37.7361],[126.94155,37.73615],[126.94148,37.73615]]]}},{"type":"Feature","properties":{"valleyId":"jangheung","layer":"shadow","date":"2026-08-01","timeLocal":"18:00"},"geometry":{"type":"Polygon","coordinates":[[[126.94222,37.73649],[126.94208,37.73647],[126.94199,37.73643],[126.942,37.7364],[126.94188,37.73639],[126.94179,37.73634],[126.94179,37.73628],[126.9417,37.73625],[126.94171,37.73619],[126.94175,37.73618],[126.94171,37.73605],[126.9418,37.73605],[126.94182,37.73609],[126.94187,37.73609],[126.94182,37.73619],[126.94186,37.73625],[126.94198,37.73627],[126.942,37.73638],[126.94222,37.73638],[126.94222,37.73642],[126.94227,37.73644],[126.94238,37.73644],[126.94238,37.73649],[126.94222,37.73649]]]}},{"type":"Feature","properties":{"valleyId":"jangheung","layer":"shadow","date":"2026-08-01","timeLocal":"18:00"},"geometry":{"type":"Polygon","coordinates":[[[126.94078,37.7369],[126.94074,37.73679],[126.94067,37.73673],[126.94058,37.73673],[126.94055,37.73684],[126.94049,37.73684],[126.94049,37.73675],[126.94044,37.73668],[126.94036,37.73664],[126.94036,37.73644],[126.94043,37.73642],[126.94045,37.73633],[126.9405,37.73632],[126.94055,37.7361],[126.94064,37.73608],[126.94064,37.73603],[126.94051,37.73605],[126.94053,37.73596],[126.94067,37.73596],[126.94067,37.73601],[126.94078,37.73601],[126.94078,37.73612],[126.94073,37.73612],[126.94073,37.73618],[126.94078,37.73618],[126.94077,37.73625],[126.94068,37.73628],[126.94064,37.73634],[126.94063,37.73652],[126.94069,37.7367],[126.94083,37.73674],[126.94085,37.7369],[126.94078,37.7369]]]}},{"type":"Feature","properties":{"valleyId":"jangheung","layer":"shadow","date":"2026-08-01","timeLocal":"18:00"},"geometry":{"type":"Polygon","coordinates":[[[126.94083,37.73598],[126.94083,37.73591],[126.9409,37.73591],[126.9409,37.73598],[126.94083,37.73598]]]}},{"type":"Feature","properties":{"valleyId":"jangheung","layer":"shadow","date":"2026-08-01","timeLocal":"18:00"},"geometry":{"type":"Polygon","coordinates":[[[126.94139,37.73599],[126.9414,37.73592],[126.94153,37.73592],[126.94153,37.73597],[126.94139,37.73599]]]}},{"type":"Feature","properties":{"valleyId":"jangheung","layer":"shadow","date":"2026-08-01","timeLocal":"18:00"},"geometry":{"type":"Polygon","coordinates":[[[126.94067,37.73587],[126.94067,37.73581],[126.94081,37.73582],[126.94081,37.73587],[126.94067,37.73587]]]}},{"type":"Feature","properties":{"valleyId":"jangheung","layer":"shadow","date":"2026-08-01","timeLocal":"18:00"},"geometry":{"type":"Polygon","coordinates":[[[126.94124,37.73586],[126.94124,37.73575],[126.9414,37.73577],[126.9414,37.73584],[126.94124,37.73586]]]}},{"type":"Feature","properties":{"valleyId":"jangheung","layer":"shadow","date":"2026-08-01","timeLocal":"18:00"},"geometry":{"type":"Polygon","coordinates":[[[126.94231,37.73563],[126.94231,37.73557],[126.94238,37.73557],[126.94238,37.73563],[126.94231,37.73563]]]}},{"type":"Feature","properties":{"valleyId":"jangheung","layer":"shadow","date":"2026-08-01","timeLocal":"18:00"},"geometry":{"type":"Polygon","coordinates":[[[126.94103,37.73596],[126.94102,37.73566],[126.94109,37.73562],[126.94118,37.73548],[126.94127,37.73548],[126.94127,37.73566],[126.9412,37.73568],[126.9412,37.73577],[126.94115,37.73577],[126.94115,37.73586],[126.94124,37.73586],[126.94124,37.73591],[126.94119,37.73595],[126.94103,37.73596]]]}},{"type":"Feature","properties":{"valleyId":"jangheung","layer":"shadow","date":"2026-08-01","timeLocal":"18:00"},"geometry":{"type":"Polygon","coordinates":[[[126.94182,37.73555],[126.94177,37.73553],[126.94177,37.73547],[126.94186,37.73546],[126.94191,37.73549],[126.94191,37.73555],[126.94182,37.73555]]]}},{"type":"Feature","properties":{"valleyId":"jangheung","layer":"shadow","date":"2026-08-01","timeLocal":"18:00"},"geometry":{"type":"Polygon","coordinates":[[[126.95228,37.73533],[126.95228,37.73528],[126.95235,37.73528],[126.95235,37.73533],[126.95228,37.73533]]]}},{"type":"Feature","properties":{"valleyId":"jangheung","layer":"shadow","date":"2026-08-01","timeLocal":"18:00"},"geometry":{"type":"Polygon","coordinates":[[[126.95204,37.73527],[126.95204,37.7352],[126.95211,37.7352],[126.95213,37.73527],[126.95204,37.73527]]]}},{"type":"Feature","properties":{"valleyId":"jangheung","layer":"shadow","date":"2026-08-01","timeLocal":"18:00"},"geometry":{"type":"Polygon","coordinates":[[[126.94145,37.73552],[126.94141,37.7355],[126.94141,37.73541],[126.94155,37.73543],[126.94157,37.73536],[126.94166,37.73534],[126.94166,37.73527],[126.94135,37.73523],[126.94137,37.73536],[126.9413,37.73536],[126.94128,37.7353],[126.94117,37.73525],[126.94117,37.73508],[126.9411,37.73503],[126.9411,37.73497],[126.94142,37.73502],[126.94142,37.73505],[126.94149,37.73507],[126.94149,37.73513],[126.94153,37.73513],[126.94153,37.7352],[126.94173,37.73522],[126.94173,37.73526],[126.94178,37.73526],[126.94178,37.73533],[126.94171,37.73535],[126.94171,37.73542],[126.94166,37.73543],[126.94166,37.73547],[126.94159,37.73552],[126.94145,37.73552]]]}},{"type":"Feature","properties":{"valleyId":"jangheung","layer":"shadow","date":"2026-08-01","timeLocal":"18:00"},"geometry":{"type":"Polygon","coordinates":[[[126.9527,37.73521],[126.9527,37.73512],[126.95277,37.73512],[126.95276,37.73521],[126.9527,37.73521]]]}},{"type":"Feature","properties":{"valleyId":"jangheung","layer":"shadow","date":"2026-08-01","timeLocal":"18:00"},"geometry":{"type":"Polygon","coordinates":[[[126.94079,37.73495],[126.94079,37.7349],[126.94086,37.7349],[126.94086,37.73495],[126.94079,37.73495]]]}},{"type":"Feature","properties":{"valleyId":"jangheung","layer":"shadow","date":"2026-08-01","timeLocal":"18:00"},"geometry":{"type":"Polygon","coordinates":[[[126.95247,37.73512],[126.95247,37.73506],[126.95254,37.73507],[126.95254,37.73512],[126.95247,37.73512]]]}},{"type":"Feature","properties":{"valleyId":"jangheung","layer":"shadow","date":"2026-08-01","timeLocal":"18:00"},"geometry":{"type":"Polygon","coordinates":[[[126.95177,37.73509],[126.95177,37.73502],[126.95191,37.73502],[126.9519,37.73507],[126.95177,37.73509]]]}},{"type":"Feature","properties":{"valleyId":"jangheung","layer":"shadow","date":"2026-08-01","timeLocal":"18:00"},"geometry":{"type":"Polygon","coordinates":[[[126.95141,37.73506],[126.95141,37.73499],[126.95148,37.73499],[126.9515,37.73507],[126.95141,37.73506]]]}},{"type":"Feature","properties":{"valleyId":"jangheung","layer":"shadow","date":"2026-08-01","timeLocal":"18:00"},"geometry":{"type":"Polygon","coordinates":[[[126.94097,37.73481],[126.94097,37.73476],[126.94107,37.73476],[126.94106,37.73481],[126.94097,37.73481]]]}},{"type":"Feature","properties":{"valleyId":"jangheung","layer":"shadow","date":"2026-08-01","timeLocal":"18:00"},"geometry":{"type":"Polygon","coordinates":[[[126.94109,37.73474],[126.94109,37.73469],[126.94116,37.73469],[126.94116,37.73474],[126.94109,37.73474]]]}},{"type":"Feature","properties":{"valleyId":"jangheung","layer":"shadow","date":"2026-08-01","timeLocal":"18:00"},"geometry":{"type":"Polygon","coordinates":[[[126.95168,37.73501],[126.95171,37.73483],[126.95184,37.73486],[126.95184,37.73491],[126.95177,37.73494],[126.95177,37.73502],[126.95168,37.73501]]]}},{"type":"Feature","properties":{"valleyId":"jangheung","layer":"shadow","date":"2026-08-01","timeLocal":"18:00"},"geometry":{"type":"Polygon","coordinates":[[[126.9415,37.73462],[126.94143,37.73458],[126.94143,37.73453],[126.94148,37.73449],[126.94155,37.7345],[126.94157,37.73462],[126.9415,37.73462]]]}},{"type":"Feature","properties":{"valleyId":"jangheung","layer":"shadow","date":"2026-08-01","timeLocal":"18:00"},"geometry":{"type":"Polygon","coordinates":[[[126.94234,37.73453],[126.94237,37.73444],[126.94246,37.73442],[126.94246,37.73449],[126.94241,37.73453],[126.94234,37.73453]]]}},{"type":"Feature","properties":{"valleyId":"jangheung","layer":"shadow","date":"2026-08-01","timeLocal":"18:00"},"geometry":{"type":"Polygon","coordinates":[[[126.94405,37.73447],[126.94398,37.73441],[126.94398,37.73436],[126.94423,37.73438],[126.94423,37.73443],[126.94418,37.73443],[126.94418,37.73447],[126.94405,37.73447]]]}},{"type":"Feature","properties":{"valleyId":"jangheung","layer":"shadow","date":"2026-08-01","timeLocal":"18:00"},"geometry":{"type":"Polygon","coordinates":[[[126.95285,37.73457],[126.95285,37.73449],[126.95296,37.7345],[126.95296,37.73457],[126.95285,37.73457]]]}},{"type":"Feature","properties":{"valleyId":"jangheung","layer":"shadow","date":"2026-08-01","timeLocal":"18:00"},"geometry":{"type":"Polygon","coordinates":[[[126.95246,37.73451],[126.95247,37.73445],[126.95258,37.73445],[126.95258,37.73451],[126.95246,37.73451]]]}},{"type":"Feature","properties":{"valleyId":"jangheung","layer":"shadow","date":"2026-08-01","timeLocal":"18:00"},"geometry":{"type":"Polygon","coordinates":[[[126.94131,37.73426],[126.94131,37.7342],[126.94144,37.73421],[126.94144,37.73426],[126.94131,37.73426]]]}},{"type":"Feature","properties":{"valleyId":"jangheung","layer":"shadow","date":"2026-08-01","timeLocal":"18:00"},"geometry":{"type":"Polygon","coordinates":[[[126.95179,37.7344],[126.95179,37.73435],[126.95186,37.73435],[126.95185,37.7344],[126.95179,37.7344]]]}},{"type":"Feature","properties":{"valleyId":"jangheung","layer":"shadow","date":"2026-08-01","timeLocal":"18:00"},"geometry":{"type":"Polygon","coordinates":[[[126.94179,37.73491],[126.94179,37.73486],[126.94188,37.73484],[126.94188,37.73481],[126.94193,37.73481],[126.94193,37.73477],[126.94202,37.7347],[126.94202,37.73463],[126.94189,37.73454],[126.94192,37.73416],[126.94203,37.73416],[126.94208,37.73423],[126.94215,37.73425],[126.94214,37.73434],[126.94196,37.73445],[126.94196,37.7345],[126.94205,37.73452],[126.94209,37.73458],[126.94216,37.73458],[126.94216,37.73469],[126.94206,37.73477],[126.94206,37.73483],[126.94195,37.73483],[126.94195,37.73488],[126.94179,37.73491]]]}},{"type":"Feature","properties":{"valleyId":"jangheung","layer":"shadow","date":"2026-08-01","timeLocal":"18:00"},"geometry":{"type":"Polygon","coordinates":[[[126.94417,37.73427],[126.94417,37.73416],[126.94433,37.73417],[126.9443,37.73424],[126.94417,37.73427]]]}},{"type":"Feature","properties":{"valleyId":"jangheung","layer":"shadow","date":"2026-08-01","timeLocal":"18:00"},"geometry":{"type":"Polygon","coordinates":[[[126.95331,37.73427],[126.95331,37.73421],[126.95338,37.73422],[126.95338,37.73427],[126.95331,37.73427]]]}},{"type":"Feature","properties":{"valleyId":"jangheung","layer":"shadow","date":"2026-08-01","timeLocal":"18:00"},"geometry":{"type":"Polygon","coordinates":[[[126.94244,37.73415],[126.94242,37.7341],[126.94236,37.73406],[126.94236,37.73401],[126.94243,37.73401],[126.94251,37.73406],[126.94251,37.73415],[126.94244,37.73415]]]}},{"type":"Feature","properties":{"valleyId":"jangheung","layer":"shadow","date":"2026-08-01","timeLocal":"18:00"},"geometry":{"type":"Polygon","coordinates":[[[126.95229,37.73418],[126.95229,37.73411],[126.95239,37.73411],[126.95238,37.73418],[126.95229,37.73418]]]}},{"type":"Feature","properties":{"valleyId":"jangheung","layer":"shadow","date":"2026-08-01","timeLocal":"18:00"},"geometry":{"type":"Polygon","coordinates":[[[126.93904,37.7357],[126.93912,37.73546],[126.93932,37.73541],[126.93944,37.73529],[126.93955,37.73529],[126.93962,37.73524],[126.93962,37.7352],[126.93972,37.73517],[126.93972,37.73513],[126.93979,37.7351],[126.93981,37.73501],[126.9399,37.73501],[126.93999,37.73496],[126.94,37.73483],[126.94004,37.73479],[126.94,37.73465],[126.94014,37.73465],[126.94028,37.7346],[126.94059,37.73459],[126.94057,37.73451],[126.94044,37.73451],[126.94049,37.7343],[126.94022,37.73426],[126.94022,37.7342],[126.94042,37.73417],[126.94051,37.73421],[126.94051,37.73428],[126.94074,37.73427],[126.94078,37.7343],[126.94087,37.7343],[126.94101,37.7342],[126.94115,37.73398],[126.94122,37.73395],[126.9412,37.73382],[126.94125,37.73379],[126.94139,37.73379],[126.94141,37.73388],[126.94161,37.73388],[126.94161,37.73394],[126.94154,37.73397],[126.94154,37.73401],[126.9414,37.73402],[126.9414,37.73406],[126.94124,37.73409],[126.94124,37.73429],[126.94112,37.73431],[126.9411,37.7344],[126.94085,37.7345],[126.94077,37.73461],[126.94077,37.7347],[126.94064,37.73471],[126.94054,37.73477],[126.94054,37.73491],[126.94045,37.73493],[126.94042,37.73505],[126.94038,37.73507],[126.94037,37.73518],[126.94021,37.73518],[126.94021,37.73523],[126.94014,37.73523],[126.9401,37.73521],[126.9401,37.73508],[126.94001,37.73508],[126.93989,37.73522],[126.9398,37.73524],[126.93973,37.73533],[126.93962,37.73533],[126.93957,37.7354],[126.93948,37.73543],[126.93948,37.73559],[126.93954,37.73563],[126.93952,37.7357],[126.93929,37.7357],[126.93929,37.73565],[126.93938,37.73565],[126.93939,37.73559],[126.93923,37.73559],[126.93922,37.7357],[126.93904,37.7357]]]}},{"type":"Feature","properties":{"valleyId":"jangheung","layer":"shadow","date":"2026-08-01","timeLocal":"18:00"},"geometry":{"type":"Polygon","coordinates":[[[126.9417,37.73385],[126.9417,37.7338],[126.94175,37.73376],[126.94182,37.73376],[126.94179,37.73385],[126.9417,37.73385]]]}},{"type":"Feature","properties":{"valleyId":"jangheung","layer":"shadow","date":"2026-08-01","timeLocal":"18:00"},"geometry":{"type":"Polygon","coordinates":[[[126.94357,37.73442],[126.9435,37.7344],[126.94344,37.73429],[126.94328,37.73418],[126.94326,37.73406],[126.94329,37.734],[126.94336,37.73399],[126.94336,37.73391],[126.94327,37.73386],[126.94316,37.73386],[126.94313,37.73378],[126.94336,37.73381],[126.94341,37.73384],[126.94363,37.73388],[126.9436,37.73404],[126.94351,37.73404],[126.94349,37.73413],[126.94351,37.73417],[126.9436,37.73417],[126.94362,37.73426],[126.94373,37.73426],[126.94373,37.73439],[126.94357,37.73442]]]}},{"type":"Feature","properties":{"valleyId":"jangheung","layer":"shadow","date":"2026-08-01","timeLocal":"18:00"},"geometry":{"type":"Polygon","coordinates":[[[126.94427,37.73382],[126.94427,37.73377],[126.94436,37.73377],[126.94436,37.73382],[126.94427,37.73382]]]}},{"type":"Feature","properties":{"valleyId":"jangheung","layer":"shadow","date":"2026-08-01","timeLocal":"18:00"},"geometry":{"type":"Polygon","coordinates":[[[126.94123,37.73375],[126.94123,37.73372],[126.94116,37.7337],[126.94116,37.73364],[126.94128,37.73366],[126.9413,37.73375],[126.94123,37.73375]]]}},{"type":"Feature","properties":{"valleyId":"jangheung","layer":"shadow","date":"2026-08-01","timeLocal":"18:00"},"geometry":{"type":"Polygon","coordinates":[[[126.94398,37.73374],[126.94398,37.73367],[126.94405,37.73367],[126.94404,37.73375],[126.94398,37.73374]]]}},{"type":"Feature","properties":{"valleyId":"jangheung","layer":"shadow","date":"2026-08-01","timeLocal":"18:00"},"geometry":{"type":"Polygon","coordinates":[[[126.95221,37.73394],[126.95219,37.73382],[126.95228,37.73382],[126.95228,37.73394],[126.95221,37.73394]]]}},{"type":"Feature","properties":{"valleyId":"jangheung","layer":"shadow","date":"2026-08-01","timeLocal":"18:00"},"geometry":{"type":"Polygon","coordinates":[[[126.94191,37.73373],[126.94194,37.73362],[126.94203,37.73362],[126.94205,37.73369],[126.94191,37.73373]]]}},{"type":"Feature","properties":{"valleyId":"jangheung","layer":"shadow","date":"2026-08-01","timeLocal":"18:00"},"geometry":{"type":"Polygon","coordinates":[[[126.94289,37.73376],[126.94287,37.73364],[126.94293,37.73364],[126.94298,37.73369],[126.94298,37.73376],[126.94289,37.73376]]]}},{"type":"Feature","properties":{"valleyId":"jangheung","layer":"shadow","date":"2026-08-01","timeLocal":"18:00"},"geometry":{"type":"Polygon","coordinates":[[[126.95164,37.73381],[126.95165,37.7337],[126.95174,37.7337],[126.95171,37.73381],[126.95164,37.73381]]]}},{"type":"Feature","properties":{"valleyId":"jangheung","layer":"shadow","date":"2026-08-01","timeLocal":"18:00"},"geometry":{"type":"Polygon","coordinates":[[[126.94237,37.73363],[126.94237,37.73352],[126.94248,37.73352],[126.94246,37.73363],[126.94237,37.73363]]]}},{"type":"Feature","properties":{"valleyId":"jangheung","layer":"shadow","date":"2026-08-01","timeLocal":"18:00"},"geometry":{"type":"Polygon","coordinates":[[[126.94323,37.73361],[126.94323,37.73353],[126.9433,37.73353],[126.9433,37.73361],[126.94323,37.73361]]]}},{"type":"Feature","properties":{"valleyId":"jangheung","layer":"shadow","date":"2026-08-01","timeLocal":"18:00"},"geometry":{"type":"Polygon","coordinates":[[[126.94266,37.73354],[126.94267,37.73345],[126.94276,37.73345],[126.94276,37.73353],[126.94266,37.73354]]]}},{"type":"Feature","properties":{"valleyId":"jangheung","layer":"shadow","date":"2026-08-01","timeLocal":"18:00"},"geometry":{"type":"Polygon","coordinates":[[[126.94498,37.73351],[126.94498,37.73346],[126.94505,37.73342],[126.9451,37.73333],[126.94519,37.7333],[126.94524,37.73324],[126.94528,37.73325],[126.94533,37.73317],[126.9454,37.73317],[126.94542,37.73325],[126.94535,37.7333],[126.94535,37.73343],[126.94519,37.73341],[126.94514,37.73348],[126.94509,37.73348],[126.94507,37.73351],[126.94498,37.73351]]]}},{"type":"Feature","properties":{"valleyId":"jangheung","layer":"shadow","date":"2026-08-01","timeLocal":"18:00"},"geometry":{"type":"Polygon","coordinates":[[[126.95207,37.73326],[126.95207,37.73315],[126.95214,37.73315],[126.95216,37.73326],[126.95207,37.73326]]]}},{"type":"Feature","properties":{"valleyId":"jangheung","layer":"shadow","date":"2026-08-01","timeLocal":"18:00"},"geometry":{"type":"Polygon","coordinates":[[[126.95046,37.73317],[126.95046,37.73312],[126.95053,37.73312],[126.95053,37.73317],[126.95046,37.73317]]]}},{"type":"Feature","properties":{"valleyId":"jangheung","layer":"shadow","date":"2026-08-01","timeLocal":"18:00"},"geometry":{"type":"Polygon","coordinates":[[[126.95028,37.7331],[126.95028,37.73304],[126.95035,37.73304],[126.95035,37.7331],[126.95028,37.7331]]]}},{"type":"Feature","properties":{"valleyId":"jangheung","layer":"shadow","date":"2026-08-01","timeLocal":"18:00"},"geometry":{"type":"Polygon","coordinates":[[[126.94974,37.73303],[126.94974,37.73298],[126.94981,37.73298],[126.9498,37.73304],[126.94974,37.73303]]]}},{"type":"Feature","properties":{"valleyId":"jangheung","layer":"shadow","date":"2026-08-01","timeLocal":"18:00"},"geometry":{"type":"Polygon","coordinates":[[[126.95291,37.73304],[126.95287,37.73289],[126.95299,37.73287],[126.95303,37.73302],[126.95291,37.73304]]]}},{"type":"Feature","properties":{"valleyId":"jangheung","layer":"shadow","date":"2026-08-01","timeLocal":"18:00"},"geometry":{"type":"Polygon","coordinates":[[[126.9497,37.73278],[126.9497,37.73271],[126.94979,37.73269],[126.94979,37.73276],[126.9497,37.73278]]]}},{"type":"Feature","properties":{"valleyId":"jangheung","layer":"shadow","date":"2026-08-01","timeLocal":"18:00"},"geometry":{"type":"Polygon","coordinates":[[[126.95337,37.73281],[126.95338,37.73274],[126.95347,37.73272],[126.95347,37.73279],[126.95337,37.73281]]]}},{"type":"Feature","properties":{"valleyId":"jangheung","layer":"shadow","date":"2026-08-01","timeLocal":"18:00"},"geometry":{"type":"Polygon","coordinates":[[[126.94949,37.7328],[126.9495,37.73263],[126.94959,37.73264],[126.94958,37.7328],[126.94949,37.7328]]]}},{"type":"Feature","properties":{"valleyId":"jangheung","layer":"shadow","date":"2026-08-01","timeLocal":"18:00"},"geometry":{"type":"Polygon","coordinates":[[[126.95126,37.73793],[126.95121,37.73789],[126.9511,37.73787],[126.95101,37.73781],[126.95101,37.73778],[126.95094,37.73778],[126.95092,37.73774],[126.95079,37.73768],[126.95079,37.73758],[126.95086,37.73754],[126.95086,37.73745],[126.9505,37.73746],[126.95041,37.73741],[126.9503,37.73739],[126.95028,37.73726],[126.95014,37.73722],[126.95015,37.73715],[126.95019,37.73712],[126.9502,37.73697],[126.95031,37.73697],[126.95036,37.73694],[126.95036,37.73688],[126.95042,37.73689],[126.95043,37.73685],[126.95049,37.73683],[126.95052,37.73676],[126.9507,37.73676],[126.9507,37.73669],[126.95048,37.73665],[126.95045,37.73674],[126.95038,37.73678],[126.95038,37.73683],[126.95029,37.73685],[126.95027,37.73668],[126.95036,37.73667],[126.95039,37.73658],[126.95039,37.73651],[126.95032,37.73649],[126.95033,37.73631],[126.95026,37.73623],[126.95006,37.73625],[126.95001,37.73618],[126.94992,37.73616],[126.94993,37.73603],[126.94997,37.73601],[126.94997,37.73598],[126.95004,37.73598],[126.95002,37.73583],[126.94996,37.73574],[126.94996,37.73563],[126.95001,37.7356],[126.95007,37.7356],[126.9501,37.73555],[126.95017,37.73553],[126.95024,37.7354],[126.95024,37.73533],[126.95031,37.73526],[126.95031,37.73515],[126.95018,37.73517],[126.95018,37.7351],[126.95036,37.7351],[126.95048,37.73492],[126.95048,37.73487],[126.95041,37.73487],[126.95046,37.73469],[126.9504,37.73461],[126.95026,37.73458],[126.95026,37.73447],[126.95036,37.73441],[126.95038,37.73433],[126.9502,37.73432],[126.9502,37.73427],[126.95025,37.73427],[126.95023,37.73409],[126.95014,37.73407],[126.95011,37.73416],[126.94971,37.73415],[126.94966,37.7342],[126.94934,37.73432],[126.94911,37.73432],[126.94909,37.73419],[126.94928,37.73409],[126.94933,37.73387],[126.94937,37.73388],[126.94944,37.73382],[126.94947,37.73373],[126.94958,37.73363],[126.94972,37.73363],[126.94972,37.73359],[126.94979,37.73358],[126.94982,37.73347],[126.94964,37.73343],[126.94962,37.7333],[126.94953,37.73326],[126.94951,37.73319],[126.94932,37.73319],[126.94917,37.73313],[126.94917,37.73306],[126.94892,37.73297],[126.94886,37.73287],[126.94865,37.73284],[126.94865,37.7328],[126.94857,37.73273],[126.94827,37.73267],[126.94827,37.73263],[126.94805,37.73248],[126.94805,37.73243],[126.94819,37.73243],[126.94821,37.73247],[126.9483,37.73247],[126.94843,37.73252],[126.94859,37.73253],[126.94859,37.73258],[126.94877,37.73258],[126.9488,37.73262],[126.94893,37.73262],[126.94893,37.7327],[126.949,37.7327],[126.94902,37.73275],[126.94911,37.73277],[126.94911,37.73281],[126.94929,37.73283],[126.94935,37.7329],[126.9496,37.73291],[126.9496,37.7331],[126.94964,37.7331],[126.94964,37.73318],[126.94994,37.73318],[126.94993,37.73334],[126.9502,37.7334],[126.9502,37.73346],[126.95027,37.73346],[126.95027,37.73349],[126.95034,37.73351],[126.95038,37.73357],[126.95047,37.73357],[126.95067,37.73374],[126.95094,37.73374],[126.95096,37.73399],[126.95128,37.73402],[126.95127,37.73436],[126.95138,37.73436],[126.95135,37.73467],[126.95142,37.73472],[126.95141,37.73487],[126.95138,37.73501],[126.95132,37.73501],[126.95131,37.73506],[126.95136,37.73508],[126.95136,37.73517],[126.95129,37.73524],[126.95128,37.73535],[126.95124,37.73542],[126.95121,37.73636],[126.95126,37.73638],[126.95125,37.73643],[126.95121,37.73643],[126.9512,37.73672],[126.95109,37.73672],[126.95108,37.73686],[126.95115,37.73686],[126.9512,37.73693],[126.95124,37.73694],[126.95124,37.73701],[126.95112,37.73702],[126.95112,37.73706],[126.95103,37.73706],[126.95104,37.73693],[126.95108,37.73693],[126.95108,37.73688],[126.95102,37.73688],[126.95101,37.73691],[126.95092,37.73691],[126.95093,37.73677],[126.95086,37.73677],[126.95086,37.73686],[126.95077,37.73687],[126.95076,37.73695],[126.95081,37.73695],[126.95083,37.73702],[126.95088,37.73702],[126.95085,37.73716],[126.95094,37.73716],[126.95094,37.73722],[126.95082,37.73723],[126.95082,37.73731],[126.95112,37.73731],[126.95117,37.7372],[126.95115,37.73708],[126.95124,37.73708],[126.95126,37.73712],[126.9513,37.73712],[126.9513,37.73724],[126.95123,37.73731],[126.95123,37.73742],[126.95127,37.73744],[126.95127,37.73748],[126.95134,37.73748],[126.95136,37.73751],[126.95152,37.73752],[126.95154,37.73755],[126.95152,37.73764],[126.9514,37.73764],[126.95142,37.73788],[126.95135,37.73793],[126.95126,37.73793]],[[126.95127,37.73764],[126.95138,37.73764],[126.95138,37.73757],[126.95129,37.73755],[126.95127,37.73751],[126.9512,37.73751],[126.9512,37.73758],[126.95127,37.73764]],[[126.9507,37.73667],[126.95079,37.73668],[126.9508,37.7366],[126.95075,37.7366],[126.95062,37.73646],[126.9505,37.73645],[126.95048,37.73654],[126.95064,37.73658],[126.95064,37.73662],[126.95068,37.73662],[126.9507,37.73667]],[[126.95098,37.7365],[126.95109,37.7365],[126.9511,37.73643],[126.95103,37.73636],[126.95092,37.73637],[126.95091,37.73644],[126.95098,37.7365]],[[126.95088,37.73619],[126.95094,37.73619],[126.95094,37.73614],[126.95088,37.73614],[126.95088,37.73619]],[[126.95047,37.73597],[126.95054,37.73597],[126.95052,37.7359],[126.95045,37.73589],[126.95047,37.73597]],[[126.95058,37.73521],[126.9507,37.73521],[126.9507,37.73512],[126.95059,37.73514],[126.95058,37.73521]],[[126.95107,37.73493],[126.95114,37.73493],[126.95114,37.73488],[126.95107,37.73488],[126.95107,37.73493]],[[126.95052,37.73418],[126.95059,37.73418],[126.95059,37.73413],[126.95052,37.73413],[126.95052,37.73418]],[[126.95073,37.73395],[126.9508,37.73395],[126.9508,37.73388],[126.95087,37.73388],[126.95085,37.73379],[126.95078,37.73379],[126.95078,37.7339],[126.95073,37.7339],[126.95073,37.73395]]]}},{"type":"Feature","properties":{"valleyId":"jangheung","layer":"shadow","date":"2026-08-01","timeLocal":"18:00"},"geometry":{"type":"Polygon","coordinates":[[[126.94791,37.73244],[126.94785,37.73242],[126.94785,37.73237],[126.94801,37.73239],[126.94801,37.73245],[126.94791,37.73244]]]}},{"type":"Feature","properties":{"valleyId":"jangheung","layer":"shadow","date":"2026-08-01","timeLocal":"18:00"},"geometry":{"type":"Polygon","coordinates":[[[126.94616,37.73268],[126.94607,37.73256],[126.94608,37.7325],[126.94619,37.73249],[126.94624,37.73243],[126.94642,37.7324],[126.94647,37.73235],[126.94665,37.73233],[126.94665,37.73239],[126.94655,37.73242],[126.94655,37.73258],[126.94641,37.73258],[126.9463,37.73269],[126.94616,37.73268]]]}},{"type":"Feature","properties":{"valleyId":"jangheung","layer":"shadow","date":"2026-08-01","timeLocal":"18:00"},"geometry":{"type":"Polygon","coordinates":[[[126.94907,37.73252],[126.94907,37.73245],[126.94903,37.73245],[126.94903,37.73236],[126.94912,37.73236],[126.94914,37.73243],[126.94919,37.73243],[126.94916,37.73252],[126.94907,37.73252]]]}},{"type":"Feature","properties":{"valleyId":"jangheung","layer":"shadow","date":"2026-08-01","timeLocal":"18:00"},"geometry":{"type":"Polygon","coordinates":[[[126.94919,37.73218],[126.9492,37.73207],[126.94926,37.73207],[126.94928,37.73218],[126.94919,37.73218]]]}},{"type":"Feature","properties":{"valleyId":"jangheung","layer":"shadow","date":"2026-08-01","timeLocal":"18:00"},"geometry":{"type":"Polygon","coordinates":[[[126.94863,37.73186],[126.94864,37.73181],[126.9487,37.73181],[126.94871,37.73174],[126.94877,37.73174],[126.94877,37.73183],[126.94873,37.73183],[126.94873,37.73186],[126.94863,37.73186]]]}},{"type":"Feature","properties":{"valleyId":"jangheung","layer":"shadow","date":"2026-08-01","timeLocal":"18:00"},"geometry":{"type":"Polygon","coordinates":[[[126.94848,37.73168],[126.94846,37.7315],[126.94853,37.7315],[126.94853,37.73154],[126.94857,37.73155],[126.94857,37.73168],[126.94848,37.73168]]]}},{"type":"Feature","properties":{"valleyId":"jangheung","layer":"shadow","date":"2026-08-01","timeLocal":"18:00"},"geometry":{"type":"Polygon","coordinates":[[[126.94901,37.73147],[126.94901,37.7314],[126.94897,37.73136],[126.94895,37.7312],[126.94902,37.7312],[126.94903,37.73133],[126.9491,37.73142],[126.9491,37.73147],[126.94901,37.73147]]]}},{"type":"Feature","properties":{"valleyId":"jangheung","layer":"shadow","date":"2026-08-01","timeLocal":"18:00"},"geometry":{"type":"Polygon","coordinates":[[[126.94767,37.73048],[126.94747,37.73044],[126.94747,37.73033],[126.94757,37.73031],[126.94756,37.7304],[126.94768,37.7304],[126.94772,37.73033],[126.94797,37.73035],[126.94797,37.73041],[126.94788,37.73046],[126.94767,37.73048]]]}},{"type":"Feature","properties":{"valleyId":"jangheung","layer":"shadow","date":"2026-08-01","timeLocal":"18:00"},"geometry":{"type":"Polygon","coordinates":[[[126.94815,37.73036],[126.94816,37.7303],[126.94822,37.7303],[126.94822,37.73036],[126.94815,37.73036]]]}},{"type":"Feature","properties":{"valleyId":"jangheung","layer":"shadow","date":"2026-08-01","timeLocal":"18:00"},"geometry":{"type":"Polygon","coordinates":[[[126.95024,37.73048],[126.95008,37.73034],[126.95009,37.73023],[126.95029,37.73027],[126.95029,37.73032],[126.95022,37.73034],[126.95022,37.73039],[126.95031,37.73043],[126.95031,37.73048],[126.95024,37.73048]]]}},{"type":"Feature","properties":{"valleyId":"jangheung","layer":"shadow","date":"2026-08-01","timeLocal":"18:00"},"geometry":{"type":"Polygon","coordinates":[[[126.95193,37.73013],[126.95191,37.73004],[126.95198,37.73005],[126.952,37.73014],[126.95193,37.73013]]]}},{"type":"Feature","properties":{"valleyId":"jangheung","layer":"shadow","date":"2026-08-01","timeLocal":"18:00"},"geometry":{"type":"Polygon","coordinates":[[[126.95196,37.72886],[126.95196,37.7288],[126.95203,37.7288],[126.95203,37.72886],[126.95196,37.72886]]]}},{"type":"Feature","properties":{"valleyId":"jangheung","layer":"shadow","date":"2026-08-01","timeLocal":"18:00"},"geometry":{"type":"Polygon","coordinates":[[[126.95097,37.72869],[126.95097,37.72864],[126.95104,37.72864],[126.95104,37.7287],[126.95097,37.72869]]]}},{"type":"Feature","properties":{"valleyId":"jangheung","layer":"shadow","date":"2026-08-01","timeLocal":"18:00"},"geometry":{"type":"Polygon","coordinates":[[[126.95084,37.72858],[126.95084,37.72853],[126.9509,37.72853],[126.9509,37.72858],[126.95084,37.72858]]]}},{"type":"Feature","properties":{"valleyId":"jangheung","layer":"shadow","date":"2026-08-01","timeLocal":"18:00"},"geometry":{"type":"Polygon","coordinates":[[[126.95161,37.72847],[126.95161,37.7284],[126.95173,37.7284],[126.95172,37.72847],[126.95161,37.72847]]]}},{"type":"Feature","properties":{"valleyId":"jangheung","layer":"shadow","date":"2026-08-01","timeLocal":"18:00"},"geometry":{"type":"Polygon","coordinates":[[[126.95114,37.72841],[126.95114,37.72835],[126.9512,37.72836],[126.9512,37.72841],[126.95114,37.72841]]]}},{"type":"Feature","properties":{"valleyId":"jangheung","layer":"shadow","date":"2026-08-01","timeLocal":"18:00"},"geometry":{"type":"Polygon","coordinates":[[[126.9522,37.72841],[126.9522,37.72835],[126.95227,37.72836],[126.95227,37.72841],[126.9522,37.72841]]]}},{"type":"Feature","properties":{"valleyId":"jangheung","layer":"shadow","date":"2026-08-01","timeLocal":"18:00"},"geometry":{"type":"Polygon","coordinates":[[[126.95166,37.72822],[126.95167,37.72811],[126.95169,37.72808],[126.95176,37.72808],[126.95175,37.72818],[126.95173,37.72822],[126.95166,37.72822]]]}},{"type":"Feature","properties":{"valleyId":"jangheung","layer":"shadow","date":"2026-08-01","timeLocal":"18:00"},"geometry":{"type":"Polygon","coordinates":[[[126.95174,37.72804],[126.95174,37.7279],[126.95181,37.7279],[126.95183,37.72802],[126.95174,37.72804]]]}},{"type":"Feature","properties":{"valleyId":"jangheung","layer":"shadow","date":"2026-08-01","timeLocal":"18:00"},"geometry":{"type":"Polygon","coordinates":[[[126.95171,37.72745],[126.95164,37.72737],[126.95164,37.72726],[126.9518,37.72728],[126.9518,37.72743],[126.95171,37.72745]]]}},{"type":"Feature","properties":{"valleyId":"jangheung","layer":"shadow","date":"2026-08-01","timeLocal":"18:00"},"geometry":{"type":"Polygon","coordinates":[[[126.9508,37.72729],[126.95081,37.72718],[126.95087,37.72718],[126.95087,37.72729],[126.9508,37.72729]]]}},{"type":"Feature","properties":{"valleyId":"jangheung","layer":"shadow","date":"2026-08-01","timeLocal":"18:00"},"geometry":{"type":"Polygon","coordinates":[[[126.95083,37.72716],[126.95083,37.72703],[126.95086,37.727],[126.9509,37.727],[126.95091,37.72687],[126.95097,37.72687],[126.95097,37.72702],[126.95092,37.72702],[126.9509,37.72705],[126.9509,37.72716],[126.95083,37.72716]]]}},{"type":"Feature","properties":{"valleyId":"jangheung","layer":"shadow","date":"2026-08-01","timeLocal":"18:00"},"geometry":{"type":"Polygon","coordinates":[[[126.95093,37.72685],[126.95093,37.72676],[126.95089,37.72675],[126.95089,37.72667],[126.95098,37.72668],[126.951,37.72673],[126.951,37.72686],[126.95093,37.72685]]]}},{"type":"Feature","properties":{"valleyId":"jangheung","layer":"shadow","date":"2026-08-01","timeLocal":"18:00"},"geometry":{"type":"Polygon","coordinates":[[[126.95123,37.72672],[126.95123,37.72666],[126.9513,37.72666],[126.9513,37.72672],[126.95123,37.72672]]]}},{"type":"Feature","properties":{"valleyId":"jangheung","layer":"shadow","date":"2026-08-01","timeLocal":"18:00"},"geometry":{"type":"Polygon","coordinates":[[[126.94859,37.7268],[126.94853,37.72676],[126.94853,37.72669],[126.94862,37.72663],[126.94862,37.7266],[126.94878,37.72658],[126.94882,37.72669],[126.94875,37.72671],[126.94873,37.7268],[126.94859,37.7268]]]}},{"type":"Feature","properties":{"valleyId":"jangheung","layer":"shadow","date":"2026-08-01","timeLocal":"18:00"},"geometry":{"type":"Polygon","coordinates":[[[126.95036,37.72675],[126.95039,37.72661],[126.95055,37.72661],[126.95052,37.7267],[126.95046,37.7267],[126.95045,37.72676],[126.95036,37.72675]]]}},{"type":"Feature","properties":{"valleyId":"jangheung","layer":"shadow","date":"2026-08-01","timeLocal":"18:00"},"geometry":{"type":"Polygon","coordinates":[[[126.95044,37.72649],[126.95044,37.72641],[126.95053,37.7264],[126.95053,37.72649],[126.95044,37.72649]]]}},{"type":"Feature","properties":{"valleyId":"jangheung","layer":"shadow","date":"2026-08-01","timeLocal":"18:00"},"geometry":{"type":"Polygon","coordinates":[[[126.94838,37.72645],[126.94838,37.72634],[126.94849,37.72634],[126.94851,37.72645],[126.94838,37.72645]]]}},{"type":"Feature","properties":{"valleyId":"jangheung","layer":"shadow","date":"2026-08-01","timeLocal":"18:00"},"geometry":{"type":"Polygon","coordinates":[[[126.93781,37.72619],[126.93779,37.72608],[126.93797,37.72612],[126.93797,37.72618],[126.93781,37.72619]]]}},{"type":"Feature","properties":{"valleyId":"jangheung","layer":"shadow","date":"2026-08-01","timeLocal":"18:00"},"geometry":{"type":"Polygon","coordinates":[[[126.94955,37.72647],[126.94951,37.72643],[126.94951,37.72627],[126.94967,37.72627],[126.94967,37.72642],[126.94962,37.72642],[126.94962,37.72647],[126.94955,37.72647]]]}},{"type":"Feature","properties":{"valleyId":"jangheung","layer":"shadow","date":"2026-08-01","timeLocal":"18:00"},"geometry":{"type":"Polygon","coordinates":[[[126.93906,37.72602],[126.93906,37.72596],[126.93915,37.72596],[126.93915,37.72602],[126.93906,37.72602]]]}},{"type":"Feature","properties":{"valleyId":"jangheung","layer":"shadow","date":"2026-08-01","timeLocal":"18:00"},"geometry":{"type":"Polygon","coordinates":[[[126.93815,37.72606],[126.93811,37.72593],[126.93818,37.72593],[126.93821,37.72579],[126.93843,37.72579],[126.93841,37.72586],[126.93827,37.72586],[126.93831,37.726],[126.93827,37.726],[126.93822,37.72606],[126.93815,37.72606]]]}},{"type":"Feature","properties":{"valleyId":"jangheung","layer":"shadow","date":"2026-08-01","timeLocal":"18:00"},"geometry":{"type":"Polygon","coordinates":[[[126.93684,37.72585],[126.9368,37.72583],[126.93682,37.72576],[126.93712,37.72577],[126.93711,37.72582],[126.93684,37.72585]]]}},{"type":"Feature","properties":{"valleyId":"jangheung","layer":"shadow","date":"2026-08-01","timeLocal":"18:00"},"geometry":{"type":"Polygon","coordinates":[[[126.93947,37.72595],[126.93952,37.72577],[126.93982,37.72576],[126.93981,37.72587],[126.93961,37.72588],[126.93954,37.72595],[126.93947,37.72595]]]}},{"type":"Feature","properties":{"valleyId":"jangheung","layer":"shadow","date":"2026-08-01","timeLocal":"18:00"},"geometry":{"type":"Polygon","coordinates":[[[126.9497,37.72606],[126.94971,37.72593],[126.94986,37.72595],[126.94984,37.72604],[126.9497,37.72606]]]}},{"type":"Feature","properties":{"valleyId":"jangheung","layer":"shadow","date":"2026-08-01","timeLocal":"18:00"},"geometry":{"type":"Polygon","coordinates":[[[126.95117,37.72625],[126.95118,37.72601],[126.95122,37.72601],[126.95123,37.72594],[126.95129,37.72594],[126.95129,37.72619],[126.95126,37.72625],[126.95117,37.72625]]]}},{"type":"Feature","properties":{"valleyId":"jangheung","layer":"shadow","date":"2026-08-01","timeLocal":"18:00"},"geometry":{"type":"Polygon","coordinates":[[[126.93861,37.72574],[126.93862,37.72568],[126.93871,37.72569],[126.93871,37.72574],[126.93861,37.72574]]]}},{"type":"Feature","properties":{"valleyId":"jangheung","layer":"shadow","date":"2026-08-01","timeLocal":"18:00"},"geometry":{"type":"Polygon","coordinates":[[[126.95054,37.72595],[126.95052,37.72586],[126.95062,37.72586],[126.95061,37.72595],[126.95054,37.72595]]]}},{"type":"Feature","properties":{"valleyId":"jangheung","layer":"shadow","date":"2026-08-01","timeLocal":"18:00"},"geometry":{"type":"Polygon","coordinates":[[[126.93873,37.7257],[126.93873,37.72563],[126.9388,37.72563],[126.93882,37.72571],[126.93873,37.7257]]]}},{"type":"Feature","properties":{"valleyId":"jangheung","layer":"shadow","date":"2026-08-01","timeLocal":"18:00"},"geometry":{"type":"Polygon","coordinates":[[[126.95152,37.72593],[126.95152,37.72584],[126.95159,37.72584],[126.95159,37.72593],[126.95152,37.72593]]]}},{"type":"Feature","properties":{"valleyId":"jangheung","layer":"shadow","date":"2026-08-01","timeLocal":"18:00"},"geometry":{"type":"Polygon","coordinates":[[[126.93903,37.72564],[126.93903,37.72557],[126.93916,37.72557],[126.93916,37.72562],[126.93903,37.72564]]]}},{"type":"Feature","properties":{"valleyId":"jangheung","layer":"shadow","date":"2026-08-01","timeLocal":"18:00"},"geometry":{"type":"Polygon","coordinates":[[[126.93837,37.72557],[126.93837,37.7255],[126.93851,37.7255],[126.93851,37.72556],[126.93837,37.72557]]]}},{"type":"Feature","properties":{"valleyId":"jangheung","layer":"shadow","date":"2026-08-01","timeLocal":"18:00"},"geometry":{"type":"Polygon","coordinates":[[[126.95012,37.72576],[126.95012,37.72569],[126.95021,37.72569],[126.95021,37.72574],[126.95012,37.72576]]]}},{"type":"Feature","properties":{"valleyId":"jangheung","layer":"shadow","date":"2026-08-01","timeLocal":"18:00"},"geometry":{"type":"Polygon","coordinates":[[[126.93658,37.72565],[126.93658,37.72561],[126.93649,37.72556],[126.93649,37.72549],[126.93653,37.72547],[126.93724,37.72544],[126.93724,37.72552],[126.93712,37.72551],[126.93699,37.72557],[126.93683,37.72556],[126.93683,37.72564],[126.93658,37.72565]]]}},{"type":"Feature","properties":{"valleyId":"jangheung","layer":"shadow","date":"2026-08-01","timeLocal":"18:00"},"geometry":{"type":"Polygon","coordinates":[[[126.94973,37.72577],[126.94974,37.72566],[126.9498,37.72566],[126.94982,37.72575],[126.94973,37.72577]]]}},{"type":"Feature","properties":{"valleyId":"jangheung","layer":"shadow","date":"2026-08-01","timeLocal":"18:00"},"geometry":{"type":"Polygon","coordinates":[[[126.95003,37.72556],[126.95004,37.72545],[126.95015,37.72545],[126.95015,37.72553],[126.9501,37.72552],[126.9501,37.72556],[126.95003,37.72556]]]}},{"type":"Feature","properties":{"valleyId":"jangheung","layer":"shadow","date":"2026-08-01","timeLocal":"18:00"},"geometry":{"type":"Polygon","coordinates":[[[126.94938,37.72551],[126.94938,37.72544],[126.94947,37.72544],[126.94947,37.7255],[126.94938,37.72551]]]}},{"type":"Feature","properties":{"valleyId":"jangheung","layer":"shadow","date":"2026-08-01","timeLocal":"18:00"},"geometry":{"type":"Polygon","coordinates":[[[126.94681,37.7323],[126.94683,37.73217],[126.94702,37.73216],[126.94704,37.73209],[126.94722,37.73204],[126.94718,37.73185],[126.94735,37.73168],[126.94735,37.73146],[126.94731,37.73139],[126.94731,37.73128],[126.94736,37.73124],[126.94744,37.73085],[126.94739,37.73085],[126.94724,37.73072],[126.94724,37.73065],[126.94717,37.73063],[126.94715,37.73045],[126.94727,37.73045],[126.94727,37.73041],[126.94734,37.73042],[126.94738,37.73045],[126.94738,37.73058],[126.94744,37.7306],[126.94753,37.7306],[126.94754,37.73053],[126.9476,37.73053],[126.94763,37.73056],[126.94774,37.73057],[126.94781,37.7306],[126.9481,37.73063],[126.94813,37.73057],[126.94824,37.73057],[126.94831,37.73054],[126.94831,37.7305],[126.94842,37.73049],[126.94845,37.73036],[126.94856,37.73035],[126.94856,37.73029],[126.94845,37.73018],[126.94846,37.73013],[126.9483,37.73004],[126.94835,37.72989],[126.94828,37.72985],[126.94828,37.72982],[126.94817,37.7298],[126.94821,37.72994],[126.9481,37.73],[126.94809,37.73016],[126.948,37.73016],[126.94791,37.7301],[126.9478,37.7301],[126.9478,37.73003],[126.94741,37.73],[126.94742,37.72997],[126.9473,37.72995],[126.94731,37.72984],[126.94719,37.7298],[126.94715,37.72976],[126.94715,37.72971],[126.94711,37.72969],[126.94711,37.72962],[126.9472,37.72957],[126.9472,37.7294],[126.94727,37.72937],[126.94725,37.72926],[126.94735,37.72921],[126.94735,37.72912],[126.94724,37.72904],[126.94724,37.72901],[126.94717,37.72895],[126.94717,37.72884],[126.94727,37.72881],[126.94729,37.72876],[126.94738,37.72876],[126.94741,37.7287],[126.94747,37.72871],[126.94754,37.72862],[126.94786,37.72864],[126.94788,37.72868],[126.94804,37.72872],[126.94815,37.72881],[126.94826,37.72881],[126.94827,37.7287],[126.94838,37.72868],[126.94863,37.72871],[126.94865,37.72882],[126.94885,37.72882],[126.94884,37.72864],[126.94891,37.72862],[126.94891,37.72857],[126.94877,37.72857],[126.94873,37.72853],[126.94869,37.72833],[126.9483,37.72823],[126.9483,37.72818],[126.94822,37.72811],[126.9481,37.72807],[126.94808,37.72796],[126.94802,37.7279],[126.94802,37.72778],[126.94793,37.72769],[126.94794,37.7276],[126.94814,37.72746],[126.94835,37.72737],[126.94835,37.72726],[126.94858,37.72728],[126.94862,37.72732],[126.94876,37.7273],[126.94876,37.72738],[126.94901,37.72742],[126.94903,37.72747],[126.94923,37.72744],[126.94925,37.72762],[126.94941,37.72762],[126.94938,37.72775],[126.94963,37.72773],[126.94963,37.72799],[126.94972,37.72806],[126.94987,37.72808],[126.94989,37.72813],[126.95001,37.72814],[126.95001,37.72801],[126.95006,37.72801],[126.95008,37.72798],[126.95006,37.72787],[126.94988,37.72788],[126.94986,37.72792],[126.9497,37.7279],[126.9497,37.72784],[126.94974,37.72783],[126.94975,37.72774],[126.94984,37.72774],[126.94984,37.72766],[126.94979,37.72765],[126.9498,37.72752],[126.94966,37.72745],[126.94965,37.7273],[126.94953,37.72728],[126.94949,37.72723],[126.9494,37.72721],[126.94936,37.7271],[126.94924,37.72706],[126.94927,37.72693],[126.94932,37.72692],[126.94932,37.72683],[126.94923,37.72674],[126.94921,37.72663],[126.94907,37.72664],[126.94895,37.72628],[126.94879,37.72628],[126.94877,37.7262],[126.94868,37.7262],[126.94873,37.72606],[126.94873,37.72584],[126.94869,37.72577],[126.9486,37.72577],[126.94851,37.72571],[126.94851,37.72559],[126.94861,37.72537],[126.94877,37.72538],[126.94876,37.7255],[126.94888,37.72558],[126.94887,37.72561],[126.94908,37.72567],[126.9491,37.72578],[126.94916,37.72583],[126.94916,37.72592],[126.94923,37.72594],[126.94923,37.726],[126.94927,37.72603],[126.94934,37.72603],[126.94931,37.72618],[126.94936,37.7262],[126.94936,37.72623],[126.94943,37.72623],[126.94942,37.72629],[126.94931,37.72632],[126.94933,37.72641],[126.94937,37.72641],[126.9494,37.72649],[126.94953,37.72656],[126.94953,37.72663],[126.94966,37.72663],[126.94971,37.72671],[126.9498,37.72673],[126.94979,37.727],[126.9499,37.72702],[126.94992,37.72705],[126.95022,37.72704],[126.95033,37.7271],[126.95047,37.72712],[126.95049,37.72719],[126.95055,37.72724],[126.95076,37.72725],[126.95082,37.72761],[126.95072,37.7277],[126.9507,37.72786],[126.95076,37.72795],[126.95097,37.72794],[126.95101,37.72806],[126.9511,37.72807],[126.95109,37.72834],[126.95086,37.72833],[126.95088,37.72848],[126.95075,37.72846],[126.95074,37.72865],[126.95079,37.72865],[126.95079,37.72871],[126.95085,37.72876],[126.95085,37.72884],[126.95092,37.72891],[126.95089,37.72925],[126.95084,37.72927],[126.95081,37.72934],[126.95072,37.72939],[126.95072,37.72943],[126.95063,37.72943],[126.95063,37.72937],[126.95052,37.72935],[126.95052,37.72941],[126.95061,37.72944],[126.9506,37.72968],[126.95042,37.72968],[126.95037,37.72971],[126.95037,37.72995],[126.95007,37.72994],[126.95003,37.72998],[126.95002,37.73008],[126.95009,37.73008],[126.95009,37.73023],[126.94986,37.73019],[126.94972,37.7302],[126.94968,37.73024],[126.94967,37.73047],[126.94949,37.73047],[126.94947,37.73051],[126.94937,37.73052],[126.94933,37.73056],[126.94932,37.73074],[126.94912,37.73073],[126.94898,37.73088],[126.94898,37.731],[126.94882,37.731],[126.9487,37.73109],[126.94867,37.73129],[126.9486,37.73128],[126.94858,37.73143],[126.94851,37.73143],[126.94851,37.73137],[126.94844,37.73137],[126.94839,37.7315],[126.94833,37.7315],[126.94828,37.73158],[126.94819,37.7316],[126.94814,37.73167],[126.94793,37.73176],[126.94793,37.7318],[126.94784,37.73179],[126.94784,37.73183],[126.94777,37.73183],[126.94777,37.73194],[126.9477,37.73195],[126.9477,37.73199],[126.94761,37.73199],[126.94761,37.7319],[126.94754,37.7319],[126.94756,37.73208],[126.94743,37.73209],[126.94743,37.73206],[126.94734,37.73206],[126.94727,37.73213],[126.94713,37.73214],[126.94708,37.73225],[126.94697,37.73225],[126.94697,37.73228],[126.94681,37.7323]],[[126.94847,37.73128],[126.94858,37.73128],[126.94858,37.73121],[126.94849,37.73121],[126.94847,37.73128]],[[126.94998,37.72988],[126.9501,37.72989],[126.95014,37.72985],[126.95012,37.72976],[126.94985,37.72974],[126.94985,37.72981],[126.94992,37.72981],[126.94992,37.72985],[126.94998,37.72988]],[[126.94895,37.72951],[126.94918,37.72949],[126.94922,37.72946],[126.94922,37.7294],[126.94907,37.7294],[126.94907,37.72933],[126.94893,37.72927],[126.94887,37.72916],[126.9488,37.72916],[126.94877,37.72927],[126.94879,37.72936],[126.94884,37.72936],[126.94884,37.72949],[126.94895,37.72951]],[[126.94918,37.72857],[126.94932,37.72858],[126.94936,37.72854],[126.94936,37.72847],[126.94932,37.72839],[126.94925,37.72836],[126.94914,37.72836],[126.94914,37.72839],[126.94909,37.72841],[126.94909,37.72848],[126.94918,37.72857]],[[126.95018,37.72781],[126.95024,37.72782],[126.95025,37.72773],[126.95018,37.72772],[126.95018,37.72781]],[[126.94911,37.72612],[126.94918,37.72612],[126.94918,37.72607],[126.94911,37.72607],[126.94911,37.72612]]]}},{"type":"Feature","properties":{"valleyId":"jangheung","layer":"shadow","date":"2026-08-01","timeLocal":"18:00"},"geometry":{"type":"Polygon","coordinates":[[[126.95065,37.72552],[126.95065,37.72541],[126.95076,37.72543],[126.95076,37.7255],[126.95065,37.72552]]]}},{"type":"Feature","properties":{"valleyId":"jangheung","layer":"shadow","date":"2026-08-01","timeLocal":"18:00"},"geometry":{"type":"Polygon","coordinates":[[[126.93917,37.72542],[126.93917,37.72533],[126.93906,37.72526],[126.93906,37.72517],[126.93915,37.72517],[126.93917,37.72521],[126.93922,37.72521],[126.93926,37.72528],[126.93935,37.72528],[126.93935,37.72537],[126.93926,37.72543],[126.93917,37.72542]]]}},{"type":"Feature","properties":{"valleyId":"jangheung","layer":"shadow","date":"2026-08-01","timeLocal":"18:00"},"geometry":{"type":"Polygon","coordinates":[[[126.94906,37.7254],[126.94906,37.72533],[126.94913,37.72533],[126.94913,37.7254],[126.94906,37.7254]]]}},{"type":"Feature","properties":{"valleyId":"jangheung","layer":"shadow","date":"2026-08-01","timeLocal":"18:00"},"geometry":{"type":"Polygon","coordinates":[[[126.93838,37.72514],[126.93838,37.72507],[126.93845,37.72507],[126.93845,37.72514],[126.93838,37.72514]]]}},{"type":"Feature","properties":{"valleyId":"jangheung","layer":"shadow","date":"2026-08-01","timeLocal":"18:00"},"geometry":{"type":"Polygon","coordinates":[[[126.9389,37.72519],[126.93886,37.72515],[126.93886,37.72508],[126.93893,37.72508],[126.93899,37.72513],[126.93899,37.72519],[126.9389,37.72519]]]}},{"type":"Feature","properties":{"valleyId":"jangheung","layer":"shadow","date":"2026-08-01","timeLocal":"18:00"},"geometry":{"type":"Polygon","coordinates":[[[126.94863,37.72528],[126.94866,37.72518],[126.9488,37.72518],[126.94879,37.72523],[126.94873,37.72528],[126.94863,37.72528]]]}},{"type":"Feature","properties":{"valleyId":"jangheung","layer":"shadow","date":"2026-08-01","timeLocal":"18:00"},"geometry":{"type":"Polygon","coordinates":[[[126.93866,37.72487],[126.93866,37.7248],[126.93875,37.7248],[126.93875,37.72486],[126.93866,37.72487]]]}},{"type":"Feature","properties":{"valleyId":"jangheung","layer":"shadow","date":"2026-08-01","timeLocal":"18:00"},"geometry":{"type":"Polygon","coordinates":[[[126.95045,37.72535],[126.95045,37.72512],[126.95041,37.72508],[126.95041,37.72501],[126.9505,37.72501],[126.95052,37.72521],[126.95066,37.72523],[126.95065,37.7253],[126.95045,37.72535]]]}},{"type":"Feature","properties":{"valleyId":"jangheung","layer":"shadow","date":"2026-08-01","timeLocal":"18:00"},"geometry":{"type":"Polygon","coordinates":[[[126.9375,37.72487],[126.93744,37.72471],[126.93776,37.7247],[126.93771,37.7248],[126.93762,37.72482],[126.93759,37.72487],[126.9375,37.72487]]]}},{"type":"Feature","properties":{"valleyId":"jangheung","layer":"shadow","date":"2026-08-01","timeLocal":"18:00"},"geometry":{"type":"Polygon","coordinates":[[[126.93869,37.72475],[126.93869,37.72469],[126.93876,37.7247],[126.93876,37.72475],[126.93869,37.72475]]]}},{"type":"Feature","properties":{"valleyId":"jangheung","layer":"shadow","date":"2026-08-01","timeLocal":"18:00"},"geometry":{"type":"Polygon","coordinates":[[[126.93658,37.72531],[126.93659,37.72522],[126.93647,37.72521],[126.93648,37.72505],[126.93671,37.72502],[126.93673,37.72491],[126.93662,37.72491],[126.93665,37.72473],[126.9369,37.72474],[126.93692,37.72466],[126.93701,37.72467],[126.93701,37.72483],[126.93705,37.72483],[126.93705,37.72486],[126.93714,37.72487],[126.93714,37.72479],[126.93726,37.72481],[126.93723,37.72492],[126.93719,37.72492],[126.93716,37.72497],[126.93696,37.72499],[126.93695,37.72504],[126.93707,37.72506],[126.93707,37.72515],[126.93713,37.72515],[126.93718,37.7251],[126.93729,37.7251],[126.9373,37.72501],[126.93755,37.725],[126.93759,37.72495],[126.93768,37.72493],[126.93773,37.72482],[126.93778,37.72482],[126.93785,37.72477],[126.93787,37.72466],[126.93819,37.72469],[126.93819,37.72478],[126.93826,37.7248],[126.93825,37.72487],[126.93819,37.72487],[126.93816,37.7249],[126.93803,37.7249],[126.938,37.72494],[126.93787,37.72493],[126.93766,37.72498],[126.93766,37.72506],[126.93759,37.72505],[126.93757,37.72509],[126.93745,37.72509],[126.93743,37.7252],[126.93713,37.72523],[126.93699,37.72528],[126.93658,37.72531]]]}},{"type":"Feature","properties":{"valleyId":"jangheung","layer":"shadow","date":"2026-08-01","timeLocal":"18:00"},"geometry":{"type":"Polygon","coordinates":[[[126.94894,37.72487],[126.94894,37.72478],[126.94906,37.72479],[126.94905,37.72486],[126.94894,37.72487]]]}},{"type":"Feature","properties":{"valleyId":"jangheung","layer":"shadow","date":"2026-08-01","timeLocal":"18:00"},"geometry":{"type":"Polygon","coordinates":[[[126.93703,37.72468],[126.93704,37.72456],[126.93722,37.72454],[126.93726,37.7246],[126.93738,37.7246],[126.93738,37.72456],[126.93758,37.72459],[126.93758,37.72464],[126.93744,37.72464],[126.93735,37.72467],[126.93717,37.72463],[126.93715,37.72467],[126.93703,37.72468]]]}},{"type":"Feature","properties":{"valleyId":"jangheung","layer":"shadow","date":"2026-08-01","timeLocal":"18:00"},"geometry":{"type":"Polygon","coordinates":[[[126.93862,37.72468],[126.93863,37.72453],[126.93872,37.72453],[126.93874,37.72461],[126.93869,37.72468],[126.93862,37.72468]]]}},{"type":"Feature","properties":{"valleyId":"jangheung","layer":"shadow","date":"2026-08-01","timeLocal":"18:00"},"geometry":{"type":"Polygon","coordinates":[[[126.93889,37.72472],[126.93889,37.72464],[126.93883,37.72464],[126.93885,37.7245],[126.93903,37.7245],[126.93899,37.72463],[126.93905,37.72463],[126.93905,37.72468],[126.93889,37.72472]]]}},{"type":"Feature","properties":{"valleyId":"jangheung","layer":"shadow","date":"2026-08-01","timeLocal":"18:00"},"geometry":{"type":"Polygon","coordinates":[[[126.94008,37.72457],[126.94008,37.72452],[126.94015,37.72452],[126.94014,37.72458],[126.94008,37.72457]]]}},{"type":"Feature","properties":{"valleyId":"jangheung","layer":"shadow","date":"2026-08-01","timeLocal":"18:00"},"geometry":{"type":"Polygon","coordinates":[[[126.93634,37.72444],[126.93634,37.72438],[126.93652,37.72437],[126.93652,37.72442],[126.93634,37.72444]]]}},{"type":"Feature","properties":{"valleyId":"jangheung","layer":"shadow","date":"2026-08-01","timeLocal":"18:00"},"geometry":{"type":"Polygon","coordinates":[[[126.95024,37.72459],[126.95024,37.7245],[126.95036,37.7245],[126.95036,37.72456],[126.95031,37.72459],[126.95024,37.72459]]]}},{"type":"Feature","properties":{"valleyId":"jangheung","layer":"shadow","date":"2026-08-01","timeLocal":"18:00"},"geometry":{"type":"Polygon","coordinates":[[[126.93606,37.72445],[126.93607,37.72438],[126.93616,37.72438],[126.93618,37.72434],[126.93618,37.72424],[126.93639,37.72426],[126.93639,37.72431],[126.93629,37.72431],[126.93629,37.72435],[126.93625,37.72435],[126.93625,37.72444],[126.93606,37.72445]]]}},{"type":"Feature","properties":{"valleyId":"jangheung","layer":"shadow","date":"2026-08-01","timeLocal":"18:00"},"geometry":{"type":"Polygon","coordinates":[[[126.94845,37.72445],[126.94845,37.7244],[126.94852,37.7244],[126.94852,37.72445],[126.94845,37.72445]]]}},{"type":"Feature","properties":{"valleyId":"jangheung","layer":"shadow","date":"2026-08-01","timeLocal":"18:00"},"geometry":{"type":"Polygon","coordinates":[[[126.93999,37.72429],[126.94,37.72423],[126.94006,37.72423],[126.94006,37.72429],[126.93999,37.72429]]]}},{"type":"Feature","properties":{"valleyId":"jangheung","layer":"shadow","date":"2026-08-01","timeLocal":"18:00"},"geometry":{"type":"Polygon","coordinates":[[[126.95075,37.7244],[126.95075,37.72435],[126.95082,37.72435],[126.95081,37.7244],[126.95075,37.7244]]]}},{"type":"Feature","properties":{"valleyId":"jangheung","layer":"shadow","date":"2026-08-01","timeLocal":"18:00"},"geometry":{"type":"Polygon","coordinates":[[[126.94049,37.72422],[126.9405,37.72415],[126.94056,37.72415],[126.94056,37.72422],[126.94049,37.72422]]]}},{"type":"Feature","properties":{"valleyId":"jangheung","layer":"shadow","date":"2026-08-01","timeLocal":"18:00"},"geometry":{"type":"Polygon","coordinates":[[[126.94818,37.72436],[126.94819,37.72428],[126.94828,37.72427],[126.94827,37.72434],[126.94818,37.72436]]]}},{"type":"Feature","properties":{"valleyId":"jangheung","layer":"shadow","date":"2026-08-01","timeLocal":"18:00"},"geometry":{"type":"Polygon","coordinates":[[[126.93979,37.72416],[126.9398,37.72405],[126.93995,37.72407],[126.93993,37.72414],[126.93979,37.72416]]]}},{"type":"Feature","properties":{"valleyId":"jangheung","layer":"shadow","date":"2026-08-01","timeLocal":"18:00"},"geometry":{"type":"Polygon","coordinates":[[[126.93952,37.72411],[126.93952,37.72404],[126.93959,37.72404],[126.93959,37.72412],[126.93952,37.72411]]]}},{"type":"Feature","properties":{"valleyId":"jangheung","layer":"shadow","date":"2026-08-01","timeLocal":"18:00"},"geometry":{"type":"Polygon","coordinates":[[[126.94016,37.72411],[126.94016,37.72404],[126.94023,37.72404],[126.94025,37.72411],[126.94016,37.72411]]]}},{"type":"Feature","properties":{"valleyId":"jangheung","layer":"shadow","date":"2026-08-01","timeLocal":"18:00"},"geometry":{"type":"Polygon","coordinates":[[[126.94789,37.72435],[126.94789,37.7243],[126.94794,37.72428],[126.94792,37.72415],[126.94801,37.72415],[126.94803,37.72434],[126.94789,37.72435]]]}},{"type":"Feature","properties":{"valleyId":"jangheung","layer":"shadow","date":"2026-08-01","timeLocal":"18:00"},"geometry":{"type":"Polygon","coordinates":[[[126.93614,37.72406],[126.93617,37.72391],[126.93637,37.72392],[126.93637,37.72401],[126.93623,37.72406],[126.93614,37.72406]]]}},{"type":"Feature","properties":{"valleyId":"jangheung","layer":"shadow","date":"2026-08-01","timeLocal":"18:00"},"geometry":{"type":"Polygon","coordinates":[[[126.93998,37.72403],[126.93998,37.72398],[126.94009,37.72398],[126.94009,37.72403],[126.93998,37.72403]]]}},{"type":"Feature","properties":{"valleyId":"jangheung","layer":"shadow","date":"2026-08-01","timeLocal":"18:00"},"geometry":{"type":"Polygon","coordinates":[[[126.94935,37.72414],[126.94935,37.72409],[126.94942,37.72409],[126.94941,37.72414],[126.94935,37.72414]]]}},{"type":"Feature","properties":{"valleyId":"jangheung","layer":"shadow","date":"2026-08-01","timeLocal":"18:00"},"geometry":{"type":"Polygon","coordinates":[[[126.93968,37.72397],[126.93967,37.72385],[126.93973,37.72385],[126.93975,37.72397],[126.93968,37.72397]]]}},{"type":"Feature","properties":{"valleyId":"jangheung","layer":"shadow","date":"2026-08-01","timeLocal":"18:00"},"geometry":{"type":"Polygon","coordinates":[[[126.94617,37.72409],[126.94597,37.72399],[126.94586,37.72397],[126.94586,37.72392],[126.94622,37.72393],[126.9464,37.72396],[126.94638,37.72405],[126.94631,37.72405],[126.94628,37.72409],[126.94617,37.72409]]]}},{"type":"Feature","properties":{"valleyId":"jangheung","layer":"shadow","date":"2026-08-01","timeLocal":"18:00"},"geometry":{"type":"Polygon","coordinates":[[[126.94917,37.72405],[126.9492,37.72387],[126.94931,37.72387],[126.94931,37.724],[126.94926,37.724],[126.94926,37.72405],[126.94917,37.72405]]]}},{"type":"Feature","properties":{"valleyId":"jangheung","layer":"shadow","date":"2026-08-01","timeLocal":"18:00"},"geometry":{"type":"Polygon","coordinates":[[[126.93944,37.72379],[126.93944,37.7237],[126.93951,37.7237],[126.93951,37.72379],[126.93944,37.72379]]]}},{"type":"Feature","properties":{"valleyId":"jangheung","layer":"shadow","date":"2026-08-01","timeLocal":"18:00"},"geometry":{"type":"Polygon","coordinates":[[[126.94842,37.724],[126.94842,37.72391],[126.94838,37.72389],[126.94838,37.72384],[126.94847,37.72384],[126.94856,37.72389],[126.94856,37.72395],[126.94851,37.72395],[126.94849,37.724],[126.94842,37.724]]]}},{"type":"Feature","properties":{"valleyId":"jangheung","layer":"shadow","date":"2026-08-01","timeLocal":"18:00"},"geometry":{"type":"Polygon","coordinates":[[[126.94953,37.72395],[126.94954,37.7238],[126.94965,37.7238],[126.94962,37.72393],[126.94953,37.72395]]]}},{"type":"Feature","properties":{"valleyId":"jangheung","layer":"shadow","date":"2026-08-01","timeLocal":"18:00"},"geometry":{"type":"Polygon","coordinates":[[[126.94557,37.72377],[126.94559,37.7237],[126.94568,37.7237],[126.94568,37.72375],[126.94557,37.72377]]]}},{"type":"Feature","properties":{"valleyId":"jangheung","layer":"shadow","date":"2026-08-01","timeLocal":"18:00"},"geometry":{"type":"Polygon","coordinates":[[[126.9457,37.72374],[126.94571,37.72365],[126.94584,37.72363],[126.94584,37.72372],[126.9457,37.72374]]]}},{"type":"Feature","properties":{"valleyId":"jangheung","layer":"shadow","date":"2026-08-01","timeLocal":"18:00"},"geometry":{"type":"Polygon","coordinates":[[[126.94925,37.72371],[126.94925,37.72362],[126.94936,37.72362],[126.94936,37.72369],[126.94925,37.72371]]]}},{"type":"Feature","properties":{"valleyId":"jangheung","layer":"shadow","date":"2026-08-01","timeLocal":"18:00"},"geometry":{"type":"Polygon","coordinates":[[[126.94589,37.72365],[126.94589,37.7235],[126.94612,37.72353],[126.94612,37.72358],[126.946,37.72361],[126.946,37.72365],[126.94589,37.72365]]]}},{"type":"Feature","properties":{"valleyId":"jangheung","layer":"shadow","date":"2026-08-01","timeLocal":"18:00"},"geometry":{"type":"Polygon","coordinates":[[[126.93977,37.72342],[126.93977,37.72336],[126.93986,37.72336],[126.93986,37.72342],[126.93977,37.72342]]]}},{"type":"Feature","properties":{"valleyId":"jangheung","layer":"shadow","date":"2026-08-01","timeLocal":"18:00"},"geometry":{"type":"Polygon","coordinates":[[[126.93943,37.72348],[126.93945,37.72334],[126.93954,37.72334],[126.93954,37.72343],[126.9395,37.72345],[126.93949,37.72348],[126.93943,37.72348]]]}},{"type":"Feature","properties":{"valleyId":"jangheung","layer":"shadow","date":"2026-08-01","timeLocal":"18:00"},"geometry":{"type":"Polygon","coordinates":[[[126.94893,37.72356],[126.94893,37.7235],[126.949,37.7235],[126.949,37.72356],[126.94893,37.72356]]]}},{"type":"Feature","properties":{"valleyId":"jangheung","layer":"shadow","date":"2026-08-01","timeLocal":"18:00"},"geometry":{"type":"Polygon","coordinates":[[[126.94943,37.72358],[126.94941,37.72348],[126.94964,37.7235],[126.94964,37.72355],[126.94943,37.72358]]]}},{"type":"Feature","properties":{"valleyId":"jangheung","layer":"shadow","date":"2026-08-01","timeLocal":"18:00"},"geometry":{"type":"Polygon","coordinates":[[[126.94975,37.72359],[126.94973,37.72345],[126.9498,37.72345],[126.94984,37.72359],[126.94975,37.72359]]]}},{"type":"Feature","properties":{"valleyId":"jangheung","layer":"shadow","date":"2026-08-01","timeLocal":"18:00"},"geometry":{"type":"Polygon","coordinates":[[[126.94615,37.72333],[126.94615,37.72327],[126.94628,37.72328],[126.94628,37.72333],[126.94615,37.72333]]]}},{"type":"Feature","properties":{"valleyId":"jangheung","layer":"shadow","date":"2026-08-01","timeLocal":"18:00"},"geometry":{"type":"Polygon","coordinates":[[[126.95282,37.72325],[126.95282,37.72317],[126.95289,37.72318],[126.95289,37.72325],[126.95282,37.72325]]]}},{"type":"Feature","properties":{"valleyId":"jangheung","layer":"shadow","date":"2026-08-01","timeLocal":"18:00"},"geometry":{"type":"Polygon","coordinates":[[[126.94702,37.72298],[126.94702,37.72293],[126.94709,37.72293],[126.94709,37.72298],[126.94702,37.72298]]]}},{"type":"Feature","properties":{"valleyId":"jangheung","layer":"shadow","date":"2026-08-01","timeLocal":"18:00"},"geometry":{"type":"Polygon","coordinates":[[[126.93765,37.72462],[126.93765,37.72441],[126.93752,37.7244],[126.93745,37.72446],[126.93736,37.72446],[126.93727,37.7244],[126.93727,37.72431],[126.93734,37.72431],[126.93741,37.72426],[126.93743,37.72415],[126.93734,37.72415],[126.9373,37.7242],[126.93716,37.7242],[126.93714,37.72424],[126.93691,37.72425],[126.93691,37.7243],[126.93698,37.7243],[126.93697,37.72436],[126.93663,37.72439],[126.93663,37.72432],[126.93675,37.7243],[126.93675,37.72423],[126.93661,37.72423],[126.93662,37.72414],[126.93669,37.72412],[126.93669,37.72405],[126.93657,37.72404],[126.93658,37.72397],[126.93644,37.72399],[126.93644,37.72381],[126.93651,37.72379],[126.93654,37.72374],[126.93672,37.72371],[126.93677,37.72365],[126.93686,37.72365],[126.9369,37.7236],[126.93704,37.7236],[126.93707,37.72351],[126.93738,37.7235],[126.93741,37.72343],[126.9375,37.72339],[126.93755,37.72332],[126.93768,37.72334],[126.93766,37.72323],[126.93773,37.72318],[126.93774,37.72306],[126.93767,37.723],[126.93747,37.72294],[126.93742,37.72283],[126.93752,37.7228],[126.93802,37.7227],[126.93856,37.72269],[126.93904,37.72277],[126.93933,37.72287],[126.93935,37.72296],[126.9394,37.72296],[126.93939,37.72301],[126.93932,37.72307],[126.93932,37.72326],[126.93918,37.72326],[126.93916,37.72337],[126.93863,37.72345],[126.93865,37.72356],[126.9392,37.72357],[126.9392,37.72362],[126.93892,37.72364],[126.93879,37.72369],[126.93856,37.7237],[126.93856,37.72376],[126.93869,37.72374],[126.93899,37.72378],[126.93903,37.7238],[126.93903,37.72384],[126.93921,37.72387],[126.93916,37.72398],[126.939,37.72403],[126.939,37.72409],[126.93911,37.72411],[126.93911,37.72416],[126.93907,37.72416],[126.93904,37.7242],[126.93895,37.72419],[126.93895,37.72427],[126.93913,37.72427],[126.93913,37.72432],[126.93904,37.72438],[126.93895,37.72437],[126.93888,37.72443],[126.93879,37.72443],[126.93874,37.72446],[126.93831,37.72451],[126.93826,37.72453],[126.93826,37.7246],[126.93788,37.72459],[126.93765,37.72462]],[[126.93797,37.72439],[126.93806,37.7244],[126.93806,37.72432],[126.93797,37.72432],[126.93798,37.72425],[126.93793,37.72421],[126.93775,37.72419],[126.9377,37.7243],[126.93777,37.7243],[126.93777,37.72435],[126.93797,37.72434],[126.93797,37.72439]],[[126.93682,37.72423],[126.93691,37.72423],[126.93691,37.72412],[126.93705,37.72413],[126.93714,37.72407],[126.93714,37.724],[126.9371,37.72396],[126.93701,37.72396],[126.93701,37.72384],[126.93692,37.72385],[126.93689,37.72396],[126.93678,37.72398],[126.93678,37.72405],[126.93685,37.72409],[126.93682,37.72423]],[[126.93805,37.72414],[126.93814,37.72414],[126.93823,37.72402],[126.93834,37.72402],[126.93835,37.72391],[126.93826,37.72384],[126.93819,37.72384],[126.93819,37.72377],[126.9381,37.72377],[126.9381,37.7238],[126.93794,37.72378],[126.93795,37.72369],[126.93786,37.72367],[126.93783,37.72378],[126.93767,37.72378],[126.93762,37.72383],[126.93749,37.72384],[126.93749,37.7239],[126.93769,37.72392],[126.9381,37.72389],[126.9381,37.72395],[126.93805,37.72394],[126.93803,37.72402],[126.93805,37.72414]],[[126.93766,37.72412],[126.93777,37.72412],[126.93778,37.72403],[126.93766,37.72403],[126.93766,37.72412]],[[126.9366,37.72397],[126.93667,37.72397],[126.93667,37.72394],[126.93681,37.72387],[126.93683,37.72374],[126.93676,37.72374],[126.93672,37.72381],[126.93663,37.72383],[126.9366,37.72397]],[[126.93747,37.72372],[126.93756,37.72372],[126.93756,37.72367],[126.93749,37.72365],[126.93749,37.72359],[126.93743,37.72359],[126.93738,37.72363],[126.93738,37.72368],[126.93747,37.72372]],[[126.93849,37.72368],[126.93856,37.72368],[126.93856,37.72361],[126.93849,37.72361],[126.93849,37.72368]],[[126.93806,37.72362],[126.9382,37.72362],[126.9382,37.72359],[126.93833,37.72357],[126.93849,37.72357],[126.93849,37.72352],[126.93813,37.72355],[126.93806,37.72357],[126.93806,37.72362]],[[126.93841,37.72346],[126.93852,37.72345],[126.93852,37.72339],[126.93859,37.72338],[126.93857,37.7233],[126.93848,37.72332],[126.93848,37.72336],[126.93841,37.72339],[126.93841,37.72346]],[[126.93875,37.72331],[126.93886,37.72331],[126.93889,37.7232],[126.93875,37.72322],[126.93875,37.72331]]]}},{"type":"Feature","properties":{"valleyId":"jangheung","layer":"shadow","date":"2026-08-01","timeLocal":"18:00"},"geometry":{"type":"Polygon","coordinates":[[[126.94499,37.72327],[126.94499,37.72315],[126.94495,37.72313],[126.94493,37.72304],[126.94484,37.72298],[126.94484,37.72291],[126.9448,37.72289],[126.9448,37.72282],[126.94489,37.72282],[126.94489,37.72277],[126.94496,37.72277],[126.94516,37.72286],[126.94516,37.72292],[126.94509,37.72291],[126.94511,37.72299],[126.94527,37.72299],[126.94527,37.72303],[126.94532,37.72303],[126.94531,37.72308],[126.94522,37.72308],[126.94515,37.72313],[126.94511,37.72313],[126.94511,37.7232],[126.94515,37.7232],[126.94515,37.72326],[126.94499,37.72327]]]}},{"type":"Feature","properties":{"valleyId":"jangheung","layer":"shadow","date":"2026-08-01","timeLocal":"18:00"},"geometry":{"type":"Polygon","coordinates":[[[126.95229,37.72281],[126.95229,37.72273],[126.9522,37.72271],[126.9522,37.72262],[126.95232,37.72263],[126.95231,37.72273],[126.95236,37.72273],[126.95236,37.72281],[126.95229,37.72281]]]}},{"type":"Feature","properties":{"valleyId":"jangheung","layer":"shadow","date":"2026-08-01","timeLocal":"18:00"},"geometry":{"type":"Polygon","coordinates":[[[126.94682,37.72266],[126.94683,37.7226],[126.94673,37.7226],[126.94674,37.72253],[126.9468,37.72253],[126.94683,37.72258],[126.94692,37.72259],[126.94691,37.72266],[126.94682,37.72266]]]}},{"type":"Feature","properties":{"valleyId":"jangheung","layer":"shadow","date":"2026-08-01","timeLocal":"18:00"},"geometry":{"type":"Polygon","coordinates":[[[126.95061,37.72263],[126.95062,37.72258],[126.95068,37.72258],[126.95068,37.72263],[126.95061,37.72263]]]}},{"type":"Feature","properties":{"valleyId":"jangheung","layer":"shadow","date":"2026-08-01","timeLocal":"18:00"},"geometry":{"type":"Polygon","coordinates":[[[126.94558,37.72256],[126.94558,37.72247],[126.94569,37.72249],[126.94569,37.72256],[126.94558,37.72256]]]}},{"type":"Feature","properties":{"valleyId":"jangheung","layer":"shadow","date":"2026-08-01","timeLocal":"18:00"},"geometry":{"type":"Polygon","coordinates":[[[126.94463,37.72246],[126.94463,37.7224],[126.9447,37.7224],[126.9447,37.72246],[126.94463,37.72246]]]}},{"type":"Feature","properties":{"valleyId":"jangheung","layer":"shadow","date":"2026-08-01","timeLocal":"18:00"},"geometry":{"type":"Polygon","coordinates":[[[126.94655,37.72262],[126.94653,37.72247],[126.94662,37.72247],[126.94663,37.72238],[126.94658,37.72236],[126.94658,37.72231],[126.9469,37.72235],[126.9469,37.7224],[126.94672,37.72244],[126.94671,37.72249],[126.94665,37.72249],[126.94662,37.72262],[126.94655,37.72262]]]}},{"type":"Feature","properties":{"valleyId":"jangheung","layer":"shadow","date":"2026-08-01","timeLocal":"18:00"},"geometry":{"type":"Polygon","coordinates":[[[126.95191,37.72249],[126.95187,37.72244],[126.95187,37.72238],[126.95194,37.72238],[126.95194,37.72242],[126.95198,37.72244],[126.95198,37.72249],[126.95191,37.72249]]]}},{"type":"Feature","properties":{"valleyId":"jangheung","layer":"shadow","date":"2026-08-01","timeLocal":"18:00"},"geometry":{"type":"Polygon","coordinates":[[[126.94615,37.72232],[126.94615,37.72223],[126.94629,37.72223],[126.94629,37.72229],[126.94615,37.72232]]]}},{"type":"Feature","properties":{"valleyId":"jangheung","layer":"shadow","date":"2026-08-01","timeLocal":"18:00"},"geometry":{"type":"Polygon","coordinates":[[[126.9457,37.72235],[126.9457,37.72226],[126.94563,37.7222],[126.94563,37.72215],[126.94582,37.72219],[126.94584,37.72206],[126.94593,37.72206],[126.94593,37.72228],[126.94579,37.72231],[126.94577,37.72235],[126.9457,37.72235]]]}},{"type":"Feature","properties":{"valleyId":"jangheung","layer":"shadow","date":"2026-08-01","timeLocal":"18:00"},"geometry":{"type":"Polygon","coordinates":[[[126.94484,37.72212],[126.94484,37.72204],[126.94493,37.72205],[126.94493,37.7221],[126.94484,37.72212]]]}},{"type":"Feature","properties":{"valleyId":"jangheung","layer":"shadow","date":"2026-08-01","timeLocal":"18:00"},"geometry":{"type":"Polygon","coordinates":[[[126.95153,37.72232],[126.95153,37.72227],[126.95146,37.72221],[126.95149,37.72214],[126.95156,37.72214],[126.95158,37.72223],[126.95162,37.72223],[126.95162,37.72232],[126.95153,37.72232]]]}},{"type":"Feature","properties":{"valleyId":"jangheung","layer":"shadow","date":"2026-08-01","timeLocal":"18:00"},"geometry":{"type":"Polygon","coordinates":[[[126.95189,37.72237],[126.95187,37.72228],[126.9518,37.72222],[126.95176,37.72222],[126.95174,37.72204],[126.95181,37.72204],[126.95192,37.72213],[126.95192,37.72219],[126.95208,37.72226],[126.95207,37.72233],[126.95189,37.72237]]]}},{"type":"Feature","properties":{"valleyId":"jangheung","layer":"shadow","date":"2026-08-01","timeLocal":"18:00"},"geometry":{"type":"Polygon","coordinates":[[[126.95156,37.72209],[126.95156,37.72204],[126.95163,37.72204],[126.95163,37.72209],[126.95156,37.72209]]]}},{"type":"Feature","properties":{"valleyId":"jangheung","layer":"shadow","date":"2026-08-01","timeLocal":"18:00"},"geometry":{"type":"Polygon","coordinates":[[[126.94643,37.72205],[126.94641,37.72191],[126.94664,37.72191],[126.94664,37.722],[126.94652,37.72202],[126.94652,37.72206],[126.94643,37.72205]]]}},{"type":"Feature","properties":{"valleyId":"jangheung","layer":"shadow","date":"2026-08-01","timeLocal":"18:00"},"geometry":{"type":"Polygon","coordinates":[[[126.94426,37.72191],[126.94428,37.7218],[126.94422,37.72176],[126.94422,37.72171],[126.94458,37.72173],[126.94455,37.72184],[126.94442,37.72184],[126.94442,37.72188],[126.94426,37.72191]]]}},{"type":"Feature","properties":{"valleyId":"jangheung","layer":"shadow","date":"2026-08-01","timeLocal":"18:00"},"geometry":{"type":"Polygon","coordinates":[[[126.9471,37.7218],[126.9471,37.72174],[126.94717,37.72174],[126.94716,37.7218],[126.9471,37.7218]]]}},{"type":"Feature","properties":{"valleyId":"jangheung","layer":"shadow","date":"2026-08-01","timeLocal":"18:00"},"geometry":{"type":"Polygon","coordinates":[[[126.94628,37.72191],[126.94621,37.72183],[126.94605,37.72181],[126.94601,37.72174],[126.94594,37.72172],[126.94594,37.72167],[126.94619,37.72169],[126.94619,37.72173],[126.94626,37.72173],[126.94626,37.7218],[126.94635,37.72184],[126.94635,37.72191],[126.94628,37.72191]]]}},{"type":"Feature","properties":{"valleyId":"jangheung","layer":"shadow","date":"2026-08-01","timeLocal":"18:00"},"geometry":{"type":"Polygon","coordinates":[[[126.94694,37.72172],[126.94694,37.72165],[126.94703,37.72165],[126.94703,37.7217],[126.94694,37.72172]]]}},{"type":"Feature","properties":{"valleyId":"jangheung","layer":"shadow","date":"2026-08-01","timeLocal":"18:00"},"geometry":{"type":"Polygon","coordinates":[[[126.94441,37.72142],[126.94441,37.72133],[126.94461,37.72134],[126.94461,37.72139],[126.94441,37.72142]]]}},{"type":"Feature","properties":{"valleyId":"jangheung","layer":"shadow","date":"2026-08-01","timeLocal":"18:00"},"geometry":{"type":"Polygon","coordinates":[[[126.94332,37.72135],[126.94334,37.72128],[126.94346,37.72128],[126.94346,37.72134],[126.94332,37.72135]]]}},{"type":"Feature","properties":{"valleyId":"jangheung","layer":"shadow","date":"2026-08-01","timeLocal":"18:00"},"geometry":{"type":"Polygon","coordinates":[[[126.94354,37.72143],[126.94353,37.72128],[126.94366,37.72129],[126.94373,37.72132],[126.94373,37.72139],[126.94354,37.72143]]]}},{"type":"Feature","properties":{"valleyId":"jangheung","layer":"shadow","date":"2026-08-01","timeLocal":"18:00"},"geometry":{"type":"Polygon","coordinates":[[[126.944,37.72135],[126.94403,37.72126],[126.94412,37.72124],[126.94412,37.72115],[126.94423,37.72115],[126.94423,37.7212],[126.94416,37.72126],[126.94416,37.72129],[126.94407,37.72135],[126.944,37.72135]]]}},{"type":"Feature","properties":{"valleyId":"jangheung","layer":"shadow","date":"2026-08-01","timeLocal":"18:00"},"geometry":{"type":"Polygon","coordinates":[[[126.94309,37.72072],[126.94309,37.72063],[126.94332,37.72063],[126.94332,37.7207],[126.94309,37.72072]]]}},{"type":"Feature","properties":{"valleyId":"jangheung","layer":"shadow","date":"2026-08-01","timeLocal":"18:00"},"geometry":{"type":"Polygon","coordinates":[[[126.94606,37.7207],[126.94606,37.72061],[126.94615,37.72061],[126.94617,37.72068],[126.94606,37.7207]]]}},{"type":"Feature","properties":{"valleyId":"jangheung","layer":"shadow","date":"2026-08-01","timeLocal":"18:00"},"geometry":{"type":"Polygon","coordinates":[[[126.94541,37.72031],[126.94542,37.72025],[126.94526,37.72021],[126.94529,37.72003],[126.94538,37.72005],[126.94535,37.72018],[126.94548,37.72024],[126.94548,37.72031],[126.94541,37.72031]]]}},{"type":"Feature","properties":{"valleyId":"jangheung","layer":"shadow","date":"2026-08-01","timeLocal":"18:00"},"geometry":{"type":"Polygon","coordinates":[[[126.94547,37.72004],[126.94547,37.71998],[126.94554,37.71998],[126.94553,37.72004],[126.94547,37.72004]]]}},{"type":"Feature","properties":{"valleyId":"jangheung","layer":"shadow","date":"2026-08-01","timeLocal":"18:00"},"geometry":{"type":"Polygon","coordinates":[[[126.94372,37.7201],[126.94372,37.71995],[126.94377,37.71994],[126.94377,37.71988],[126.94393,37.7199],[126.94395,37.72005],[126.94385,37.72006],[126.94385,37.7201],[126.94372,37.7201]]]}},{"type":"Feature","properties":{"valleyId":"jangheung","layer":"shadow","date":"2026-08-01","timeLocal":"18:00"},"geometry":{"type":"Polygon","coordinates":[[[126.95055,37.72007],[126.9505,37.72005],[126.95051,37.71998],[126.95055,37.71998],[126.95058,37.71987],[126.95049,37.7198],[126.95049,37.71975],[126.95054,37.71964],[126.95061,37.71964],[126.95063,37.71975],[126.95067,37.71977],[126.95067,37.71982],[126.95071,37.71982],[126.95071,37.71989],[126.95066,37.72007],[126.95055,37.72007]]]}},{"type":"Feature","properties":{"valleyId":"jangheung","layer":"shadow","date":"2026-08-01","timeLocal":"18:00"},"geometry":{"type":"Polygon","coordinates":[[[126.94951,37.71993],[126.94951,37.71973],[126.94947,37.71962],[126.94961,37.71962],[126.94962,37.71982],[126.94958,37.71993],[126.94951,37.71993]]]}},{"type":"Feature","properties":{"valleyId":"jangheung","layer":"shadow","date":"2026-08-01","timeLocal":"18:00"},"geometry":{"type":"Polygon","coordinates":[[[126.94705,37.71951],[126.94705,37.71945],[126.94712,37.71945],[126.94711,37.71951],[126.94705,37.71951]]]}},{"type":"Feature","properties":{"valleyId":"jangheung","layer":"shadow","date":"2026-08-01","timeLocal":"18:00"},"geometry":{"type":"Polygon","coordinates":[[[126.95087,37.71979],[126.95085,37.71973],[126.95078,37.71971],[126.95074,37.71966],[126.95077,37.71952],[126.95099,37.7195],[126.95097,37.71968],[126.95101,37.71968],[126.95101,37.71974],[126.95096,37.71979],[126.95087,37.71979]]]}},{"type":"Feature","properties":{"valleyId":"jangheung","layer":"shadow","date":"2026-08-01","timeLocal":"18:00"},"geometry":{"type":"Polygon","coordinates":[[[126.94764,37.71941],[126.94764,37.71934],[126.94778,37.71934],[126.94778,37.71939],[126.94764,37.71941]]]}},{"type":"Feature","properties":{"valleyId":"jangheung","layer":"shadow","date":"2026-08-01","timeLocal":"18:00"},"geometry":{"type":"Polygon","coordinates":[[[126.94462,37.7193],[126.94463,37.71923],[126.94469,37.71923],[126.94469,37.7193],[126.94462,37.7193]]]}},{"type":"Feature","properties":{"valleyId":"jangheung","layer":"shadow","date":"2026-08-01","timeLocal":"18:00"},"geometry":{"type":"Polygon","coordinates":[[[126.95099,37.7195],[126.951,37.71945],[126.95104,37.71945],[126.95118,37.71931],[126.95125,37.71931],[126.9512,37.71947],[126.95099,37.7195]]]}},{"type":"Feature","properties":{"valleyId":"jangheung","layer":"shadow","date":"2026-08-01","timeLocal":"18:00"},"geometry":{"type":"Polygon","coordinates":[[[126.95014,37.71942],[126.95007,37.71934],[126.95007,37.7192],[126.94998,37.71911],[126.94999,37.71905],[126.95003,37.71903],[126.95015,37.71904],[126.95017,37.71915],[126.95039,37.71917],[126.95039,37.71922],[126.95034,37.71924],[126.95034,37.71931],[126.95027,37.71936],[126.95027,37.7194],[126.95014,37.71942]]]}},{"type":"Feature","properties":{"valleyId":"jangheung","layer":"shadow","date":"2026-08-01","timeLocal":"18:00"},"geometry":{"type":"Polygon","coordinates":[[[126.94924,37.71902],[126.94924,37.71897],[126.94929,37.71897],[126.94931,37.71891],[126.94938,37.71892],[126.94937,37.71901],[126.94924,37.71902]]]}},{"type":"Feature","properties":{"valleyId":"jangheung","layer":"shadow","date":"2026-08-01","timeLocal":"18:00"},"geometry":{"type":"Polygon","coordinates":[[[126.95033,37.71895],[126.95033,37.71888],[126.95045,37.71886],[126.95044,37.71893],[126.95033,37.71895]]]}},{"type":"Feature","properties":{"valleyId":"jangheung","layer":"shadow","date":"2026-08-01","timeLocal":"18:00"},"geometry":{"type":"Polygon","coordinates":[[[126.94897,37.71821],[126.94897,37.71812],[126.94913,37.71812],[126.9491,37.71819],[126.94897,37.71821]]]}},{"type":"Feature","properties":{"valleyId":"jangheung","layer":"shadow","date":"2026-08-01","timeLocal":"18:00"},"geometry":{"type":"Polygon","coordinates":[[[126.94831,37.71818],[126.94831,37.7181],[126.9484,37.71811],[126.9484,37.71816],[126.94831,37.71818]]]}},{"type":"Feature","properties":{"valleyId":"jangheung","layer":"shadow","date":"2026-08-01","timeLocal":"18:00"},"geometry":{"type":"Polygon","coordinates":[[[126.94881,37.71815],[126.94872,37.71811],[126.94872,37.71807],[126.94861,37.71805],[126.94861,37.718],[126.94895,37.71802],[126.94895,37.71811],[126.94881,37.71815]]]}},{"type":"Feature","properties":{"valleyId":"jangheung","layer":"shadow","date":"2026-08-01","timeLocal":"18:00"},"geometry":{"type":"Polygon","coordinates":[[[126.94864,37.71762],[126.94864,37.71757],[126.94871,37.71757],[126.94871,37.71762],[126.94864,37.71762]]]}},{"type":"Feature","properties":{"valleyId":"jangheung","layer":"shadow","date":"2026-08-01","timeLocal":"18:00"},"geometry":{"type":"Polygon","coordinates":[[[126.94837,37.7176],[126.94837,37.71755],[126.94855,37.71753],[126.94855,37.71759],[126.94837,37.7176]]]}},{"type":"Feature","properties":{"valleyId":"jangheung","layer":"shadow","date":"2026-08-01","timeLocal":"18:00"},"geometry":{"type":"Polygon","coordinates":[[[126.94912,37.71763],[126.94912,37.71751],[126.94926,37.71753],[126.94923,37.71762],[126.94912,37.71763]]]}},{"type":"Feature","properties":{"valleyId":"jangheung","layer":"shadow","date":"2026-08-01","timeLocal":"18:00"},"geometry":{"type":"Polygon","coordinates":[[[126.94865,37.71746],[126.94867,37.71734],[126.94874,37.71734],[126.94871,37.71746],[126.94865,37.71746]]]}},{"type":"Feature","properties":{"valleyId":"jangheung","layer":"shadow","date":"2026-08-01","timeLocal":"18:00"},"geometry":{"type":"Polygon","coordinates":[[[126.94946,37.71751],[126.94944,37.71735],[126.94951,37.71735],[126.94958,37.7174],[126.94969,37.71741],[126.94969,37.71746],[126.94946,37.71751]]]}},{"type":"Feature","properties":{"valleyId":"jangheung","layer":"shadow","date":"2026-08-01","timeLocal":"18:00"},"geometry":{"type":"Polygon","coordinates":[[[126.94971,37.71739],[126.94972,37.7173],[126.94981,37.71728],[126.94981,37.71739],[126.94971,37.71739]]]}},{"type":"Feature","properties":{"valleyId":"jangheung","layer":"shadow","date":"2026-08-01","timeLocal":"18:00"},"geometry":{"type":"Polygon","coordinates":[[[126.94701,37.71907],[126.94702,37.71886],[126.94697,37.71884],[126.947,37.7186],[126.94691,37.7186],[126.9469,37.71831],[126.94707,37.71794],[126.94726,37.71769],[126.94732,37.71765],[126.94733,37.71762],[126.94765,37.71735],[126.9477,37.71735],[126.94772,37.71732],[126.94786,37.71732],[126.94786,37.71728],[126.94795,37.71725],[126.948,37.7172],[126.94813,37.71718],[126.94813,37.71711],[126.94827,37.71709],[126.94827,37.71715],[126.94822,37.71718],[126.94815,37.71718],[126.94815,37.71738],[126.9481,37.71756],[126.94816,37.71774],[126.94832,37.71774],[126.94831,37.71809],[126.94822,37.71808],[126.94822,37.71817],[126.94831,37.71818],[126.94831,37.71828],[126.94819,37.71828],[126.94819,37.71839],[126.9481,37.71842],[126.9481,37.71848],[126.94819,37.71852],[126.94816,37.71873],[126.94809,37.71875],[126.94806,37.7188],[126.948,37.7188],[126.94797,37.71896],[126.9479,37.71905],[126.94781,37.71905],[126.94779,37.71885],[126.94786,37.71882],[126.94786,37.71871],[126.94807,37.71869],[126.94807,37.71864],[126.94777,37.71867],[126.94775,37.71876],[126.94763,37.71878],[126.94761,37.71887],[126.94754,37.7189],[126.94754,37.71894],[126.94749,37.71894],[126.94745,37.71899],[126.94726,37.71902],[126.94726,37.71908],[126.94701,37.71907]],[[126.94745,37.71879],[126.94754,37.71879],[126.94759,37.7187],[126.94766,37.71869],[126.94773,37.71862],[126.94777,37.71862],[126.94778,37.71851],[126.94771,37.71845],[126.94755,37.71845],[126.94753,37.71856],[126.94732,37.71852],[126.94732,37.71859],[126.94737,37.71859],[126.94736,37.71866],[126.94732,37.71866],[126.94732,37.71872],[126.94743,37.71876],[126.94745,37.71879]]]}},{"type":"Feature","properties":{"valleyId":"jangheung","layer":"shadow","date":"2026-08-01","timeLocal":"18:00"},"geometry":{"type":"Polygon","coordinates":[[[126.94898,37.71752],[126.94892,37.71747],[126.94895,37.71725],[126.94888,37.71725],[126.94881,37.71716],[126.94875,37.71716],[126.94875,37.7171],[126.94897,37.71711],[126.94897,37.71716],[126.94904,37.71716],[126.94903,37.71745],[126.94908,37.71747],[126.94908,37.71752],[126.94898,37.71752]]]}},{"type":"Feature","properties":{"valleyId":"jangheung","layer":"shadow","date":"2026-08-01","timeLocal":"18:00"},"geometry":{"type":"Polygon","coordinates":[[[126.94999,37.71716],[126.94999,37.71711],[126.95006,37.71711],[126.95006,37.71716],[126.94999,37.71716]]]}},{"type":"Feature","properties":{"valleyId":"jangheung","layer":"shadow","date":"2026-08-01","timeLocal":"18:00"},"geometry":{"type":"Polygon","coordinates":[[[126.94945,37.71706],[126.94945,37.71699],[126.94957,37.71699],[126.94956,37.71706],[126.94945,37.71706]]]}}]}
