{"type":"FeatureCollection","metadata":{"description":"개방지(CHM ≤ 2 m)에 드리운 나무·지형 그림자, 2026-08-01 15:00 KST. canopy 위에 겹쳐 그린다","source":"위성 기반 추정 — Copernicus GLO-30 지형(30 m) + Meta/WRI 수관 높이(1 m CHM, 2019 촬영). 그늘 = 수관(CHM > 2 m) ∪ 나무·지형 그림자 ∪ 원거리 지형 마스크. 현장과 다를 수 있음.","datasetVersion":"2026-09-06.0","collectedAt":"2026-09-06","coordinateOrder":"[longitude, latitude]","crs":"EPSG:4326","representativeDate":"2026-08-01","hours":["10:00","11:00","12:00","13:00","14:00","15:00","16:00","17:00","18:00"],"chmAcquisition":["2019-03"],"assets":{"glo30":{"dataset":"Copernicus DEM GLO-30 (COG, s3://copernicus-dem-30m)","tiles":["Copernicus_DSM_COG_10_N37_00_E126_00_DEM","Copernicus_DSM_COG_10_N37_00_E127_00_DEM"]},"chm":{"dataset":"Meta/WRI Global Canopy Height Map v1 (alsgedi_global_v6_float, 1 m, CC-BY 4.0)","quadkeys":["132110302","132110320"],"acquisition":["2019-03"]}},"method":{"gridResM":2,"canopyThresholdM":2,"bufferHalfM":25,"corridorHalfM":200,"simplifyTolM":2,"minAreaM2":25,"coordDecimals":5},"generator":"scripts/shade 0.1.0","builtAt":"2026-09-06T06:03:58Z","layer":"shadow","timeLocal":"15:00"},"features":[{"type":"Feature","properties":{"valleyId":"jangheung","layer":"shadow","date":"2026-08-01","timeLocal":"15:00"},"geometry":{"type":"Polygon","coordinates":[[[126.94936,37.72858],[126.94936,37.72852],[126.94943,37.72852],[126.94943,37.72858],[126.94936,37.72858]]]}},{"type":"Feature","properties":{"valleyId":"jangheung","layer":"shadow","date":"2026-08-01","timeLocal":"15:00"},"geometry":{"type":"Polygon","coordinates":[[[126.93658,37.72532],[126.93659,37.72527],[126.93665,37.72527],[126.93665,37.72533],[126.93658,37.72532]]]}},{"type":"Feature","properties":{"valleyId":"jangheung","layer":"shadow","date":"2026-08-01","timeLocal":"15:00"},"geometry":{"type":"Polygon","coordinates":[[[126.93738,37.72462],[126.93738,37.72456],[126.93744,37.72456],[126.93744,37.72462],[126.93738,37.72462]]]}},{"type":"Feature","properties":{"valleyId":"jangheung","layer":"shadow","date":"2026-08-01","timeLocal":"15:00"},"geometry":{"type":"Polygon","coordinates":[[[126.93767,37.72457],[126.93767,37.72451],[126.93774,37.72452],[126.93774,37.72457],[126.93767,37.72457]]]}},{"type":"Feature","properties":{"valleyId":"jangheung","layer":"shadow","date":"2026-08-01","timeLocal":"15:00"},"geometry":{"type":"Polygon","coordinates":[[[126.93821,37.72409],[126.93821,37.72404],[126.93828,37.72404],[126.93827,37.72409],[126.93821,37.72409]]]}},{"type":"Feature","properties":{"valleyId":"jangheung","layer":"shadow","date":"2026-08-01","timeLocal":"15:00"},"geometry":{"type":"Polygon","coordinates":[[[126.93858,37.72372],[126.93856,37.72365],[126.93865,37.72365],[126.93865,37.72372],[126.93858,37.72372]]]}},{"type":"Feature","properties":{"valleyId":"jangheung","layer":"shadow","date":"2026-08-01","timeLocal":"15:00"},"geometry":{"type":"Polygon","coordinates":[[[126.94701,37.71905],[126.94702,37.71895],[126.94708,37.71895],[126.94708,37.71906],[126.94701,37.71905]]]}}]}
