{"type":"FeatureCollection","metadata":{"description":"개방지(CHM ≤ 2 m)에 드리운 나무·지형 그림자, 2026-08-01 10:00 KST. canopy 위에 겹쳐 그린다","source":"위성 기반 추정 — Copernicus GLO-30 지형(30 m) + Meta/WRI 수관 높이(1 m CHM, 2019 촬영). 그늘 = 수관(CHM > 2 m) ∪ 나무·지형 그림자 ∪ 원거리 지형 마스크. 현장과 다를 수 있음.","datasetVersion":"2026-09-06.0","collectedAt":"2026-09-06","coordinateOrder":"[longitude, latitude]","crs":"EPSG:4326","representativeDate":"2026-08-01","hours":["10:00","11:00","12:00","13:00","14:00","15:00","16:00","17:00","18:00"],"chmAcquisition":["2019-03"],"assets":{"glo30":{"dataset":"Copernicus DEM GLO-30 (COG, s3://copernicus-dem-30m)","tiles":["Copernicus_DSM_COG_10_N37_00_E126_00_DEM","Copernicus_DSM_COG_10_N37_00_E127_00_DEM"]},"chm":{"dataset":"Meta/WRI Global Canopy Height Map v1 (alsgedi_global_v6_float, 1 m, CC-BY 4.0)","quadkeys":["132110302","132110320"],"acquisition":["2019-03"]}},"method":{"gridResM":2,"canopyThresholdM":2,"bufferHalfM":25,"corridorHalfM":200,"simplifyTolM":2,"minAreaM2":25,"coordDecimals":5},"generator":"scripts/shade 0.1.0","builtAt":"2026-09-06T06:03:58Z","layer":"shadow","timeLocal":"10:00"},"features":[{"type":"Feature","properties":{"valleyId":"jangheung","layer":"shadow","date":"2026-08-01","timeLocal":"10:00"},"geometry":{"type":"Polygon","coordinates":[[[126.95467,37.73766],[126.95467,37.73761],[126.95476,37.73761],[126.95476,37.73766],[126.95467,37.73766]]]}},{"type":"Feature","properties":{"valleyId":"jangheung","layer":"shadow","date":"2026-08-01","timeLocal":"10:00"},"geometry":{"type":"Polygon","coordinates":[[[126.95181,37.73289],[126.95181,37.73284],[126.95188,37.73284],[126.95187,37.73289],[126.95181,37.73289]]]}},{"type":"Feature","properties":{"valleyId":"jangheung","layer":"shadow","date":"2026-08-01","timeLocal":"10:00"},"geometry":{"type":"Polygon","coordinates":[[[126.952,37.72511],[126.952,37.72504],[126.95196,37.725],[126.95196,37.72491],[126.95205,37.72493],[126.95205,37.725],[126.95209,37.72505],[126.95209,37.72511],[126.952,37.72511]]]}},{"type":"Feature","properties":{"valleyId":"jangheung","layer":"shadow","date":"2026-08-01","timeLocal":"10:00"},"geometry":{"type":"Polygon","coordinates":[[[126.94039,37.72463],[126.94039,37.72458],[126.94046,37.72458],[126.94046,37.72464],[126.94039,37.72463]]]}},{"type":"Feature","properties":{"valleyId":"jangheung","layer":"shadow","date":"2026-08-01","timeLocal":"10:00"},"geometry":{"type":"Polygon","coordinates":[[[126.95198,37.72482],[126.95198,37.72476],[126.95205,37.72477],[126.95205,37.72482],[126.95198,37.72482]]]}},{"type":"Feature","properties":{"valleyId":"jangheung","layer":"shadow","date":"2026-08-01","timeLocal":"10:00"},"geometry":{"type":"Polygon","coordinates":[[[126.93713,37.7246],[126.93711,37.7245],[126.9372,37.72449],[126.93722,37.7246],[126.93713,37.7246]]]}},{"type":"Feature","properties":{"valleyId":"jangheung","layer":"shadow","date":"2026-08-01","timeLocal":"10:00"},"geometry":{"type":"Polygon","coordinates":[[[126.95192,37.72466],[126.9519,37.72453],[126.95199,37.72453],[126.95199,37.72466],[126.95192,37.72466]]]}},{"type":"Feature","properties":{"valleyId":"jangheung","layer":"shadow","date":"2026-08-01","timeLocal":"10:00"},"geometry":{"type":"Polygon","coordinates":[[[126.9395,37.7242],[126.9395,37.72413],[126.93959,37.72412],[126.93959,37.72421],[126.9395,37.7242]]]}},{"type":"Feature","properties":{"valleyId":"jangheung","layer":"shadow","date":"2026-08-01","timeLocal":"10:00"},"geometry":{"type":"Polygon","coordinates":[[[126.93991,37.72418],[126.93989,37.72408],[126.93995,37.72409],[126.93997,37.72418],[126.93991,37.72418]]]}},{"type":"Feature","properties":{"valleyId":"jangheung","layer":"shadow","date":"2026-08-01","timeLocal":"10:00"},"geometry":{"type":"Polygon","coordinates":[[[126.93842,37.7237],[126.93842,37.72364],[126.93849,37.72365],[126.93849,37.7237],[126.93842,37.7237]]]}},{"type":"Feature","properties":{"valleyId":"jangheung","layer":"shadow","date":"2026-08-01","timeLocal":"10:00"},"geometry":{"type":"Polygon","coordinates":[[[126.95124,37.72387],[126.95119,37.72385],[126.95119,37.72378],[126.95129,37.72378],[126.95128,37.72381],[126.95133,37.72382],[126.95133,37.72387],[126.95124,37.72387]]]}},{"type":"Feature","properties":{"valleyId":"jangheung","layer":"shadow","date":"2026-08-01","timeLocal":"10:00"},"geometry":{"type":"Polygon","coordinates":[[[126.95253,37.7238],[126.95253,37.72375],[126.95263,37.72375],[126.95262,37.7238],[126.95253,37.7238]]]}},{"type":"Feature","properties":{"valleyId":"jangheung","layer":"shadow","date":"2026-08-01","timeLocal":"10:00"},"geometry":{"type":"Polygon","coordinates":[[[126.95226,37.72374],[126.95226,37.72369],[126.95235,37.72369],[126.95235,37.72374],[126.95226,37.72374]]]}},{"type":"Feature","properties":{"valleyId":"jangheung","layer":"shadow","date":"2026-08-01","timeLocal":"10:00"},"geometry":{"type":"Polygon","coordinates":[[[126.95113,37.72376],[126.95113,37.72369],[126.95106,37.72368],[126.95106,37.72363],[126.95115,37.72363],[126.95115,37.72369],[126.95122,37.72369],[126.95122,37.72376],[126.95113,37.72376]]]}},{"type":"Feature","properties":{"valleyId":"jangheung","layer":"shadow","date":"2026-08-01","timeLocal":"10:00"},"geometry":{"type":"Polygon","coordinates":[[[126.951,37.72358],[126.951,37.72349],[126.95109,37.72349],[126.95109,37.72358],[126.951,37.72358]]]}},{"type":"Feature","properties":{"valleyId":"jangheung","layer":"shadow","date":"2026-08-01","timeLocal":"10:00"},"geometry":{"type":"Polygon","coordinates":[[[126.9508,37.72337],[126.9508,37.72332],[126.95089,37.72332],[126.95089,37.72338],[126.9508,37.72337]]]}},{"type":"Feature","properties":{"valleyId":"jangheung","layer":"shadow","date":"2026-08-01","timeLocal":"10:00"},"geometry":{"type":"Polygon","coordinates":[[[126.95053,37.72312],[126.95053,37.72306],[126.95062,37.72306],[126.95062,37.72312],[126.95053,37.72312]]]}},{"type":"Feature","properties":{"valleyId":"jangheung","layer":"shadow","date":"2026-08-01","timeLocal":"10:00"},"geometry":{"type":"Polygon","coordinates":[[[126.95026,37.72308],[126.95026,37.723],[126.95035,37.72301],[126.95035,37.72308],[126.95026,37.72308]]]}},{"type":"Feature","properties":{"valleyId":"jangheung","layer":"shadow","date":"2026-08-01","timeLocal":"10:00"},"geometry":{"type":"Polygon","coordinates":[[[126.94992,37.72294],[126.94993,37.72289],[126.94986,37.72289],[126.94986,37.72283],[126.94979,37.72283],[126.94979,37.72278],[126.95002,37.72278],[126.95002,37.72295],[126.94992,37.72294]]]}},{"type":"Feature","properties":{"valleyId":"jangheung","layer":"shadow","date":"2026-08-01","timeLocal":"10:00"},"geometry":{"type":"Polygon","coordinates":[[[126.94986,37.72271],[126.9498,37.72269],[126.9498,37.72264],[126.95002,37.72264],[126.95002,37.72269],[126.94986,37.72271]]]}},{"type":"Feature","properties":{"valleyId":"jangheung","layer":"shadow","date":"2026-08-01","timeLocal":"10:00"},"geometry":{"type":"Polygon","coordinates":[[[126.94966,37.72265],[126.94959,37.72263],[126.94957,37.72258],[126.94953,37.72258],[126.94951,37.72249],[126.94962,37.72249],[126.94968,37.72258],[126.94977,37.7226],[126.94977,37.72265],[126.94966,37.72265]]]}},{"type":"Feature","properties":{"valleyId":"jangheung","layer":"shadow","date":"2026-08-01","timeLocal":"10:00"},"geometry":{"type":"Polygon","coordinates":[[[126.95068,37.72256],[126.95069,37.72251],[126.95078,37.72251],[126.95077,37.72256],[126.95068,37.72256]]]}},{"type":"Feature","properties":{"valleyId":"jangheung","layer":"shadow","date":"2026-08-01","timeLocal":"10:00"},"geometry":{"type":"Polygon","coordinates":[[[126.94939,37.72247],[126.94939,37.72243],[126.94933,37.72243],[126.94933,37.72236],[126.94949,37.72238],[126.94948,37.72247],[126.94939,37.72247]]]}},{"type":"Feature","properties":{"valleyId":"jangheung","layer":"shadow","date":"2026-08-01","timeLocal":"10:00"},"geometry":{"type":"Polygon","coordinates":[[[126.94906,37.72228],[126.94906,37.72224],[126.94899,37.72224],[126.94899,37.72212],[126.94906,37.72212],[126.94906,37.72219],[126.94908,37.72223],[126.94913,37.72223],[126.94913,37.72228],[126.94906,37.72228]]]}},{"type":"Feature","properties":{"valleyId":"jangheung","layer":"shadow","date":"2026-08-01","timeLocal":"10:00"},"geometry":{"type":"Polygon","coordinates":[[[126.94893,37.72204],[126.94893,37.72199],[126.949,37.72199],[126.949,37.72204],[126.94893,37.72204]]]}},{"type":"Feature","properties":{"valleyId":"jangheung","layer":"shadow","date":"2026-08-01","timeLocal":"10:00"},"geometry":{"type":"Polygon","coordinates":[[[126.94859,37.72195],[126.94852,37.72193],[126.94852,37.72189],[126.94839,37.72187],[126.94839,37.72182],[126.94832,37.72182],[126.94832,37.72176],[126.94855,37.72178],[126.94855,37.72184],[126.94862,37.72184],[126.94861,37.72188],[126.94882,37.72186],[126.94882,37.72195],[126.94859,37.72195]]]}},{"type":"Feature","properties":{"valleyId":"jangheung","layer":"shadow","date":"2026-08-01","timeLocal":"10:00"},"geometry":{"type":"Polygon","coordinates":[[[126.94805,37.72163],[126.94806,37.72158],[126.94815,37.72158],[126.94815,37.72163],[126.94805,37.72163]]]}},{"type":"Feature","properties":{"valleyId":"jangheung","layer":"shadow","date":"2026-08-01","timeLocal":"10:00"},"geometry":{"type":"Polygon","coordinates":[[[126.94753,37.72094],[126.94753,37.72087],[126.94762,37.72087],[126.94762,37.72094],[126.94753,37.72094]]]}},{"type":"Feature","properties":{"valleyId":"jangheung","layer":"shadow","date":"2026-08-01","timeLocal":"10:00"},"geometry":{"type":"Polygon","coordinates":[[[126.94672,37.72083],[126.94672,37.7208],[126.94658,37.72076],[126.94658,37.72071],[126.94681,37.72075],[126.94681,37.72084],[126.94672,37.72083]]]}},{"type":"Feature","properties":{"valleyId":"jangheung","layer":"shadow","date":"2026-08-01","timeLocal":"10:00"},"geometry":{"type":"Polygon","coordinates":[[[126.94602,37.72053],[126.94602,37.72041],[126.94609,37.72041],[126.94609,37.72053],[126.94602,37.72053]]]}},{"type":"Feature","properties":{"valleyId":"jangheung","layer":"shadow","date":"2026-08-01","timeLocal":"10:00"},"geometry":{"type":"Polygon","coordinates":[[[126.94358,37.72006],[126.94358,37.71999],[126.94365,37.71999],[126.94365,37.72006],[126.94358,37.72006]]]}},{"type":"Feature","properties":{"valleyId":"jangheung","layer":"shadow","date":"2026-08-01","timeLocal":"10:00"},"geometry":{"type":"Polygon","coordinates":[[[126.94581,37.71918],[126.94581,37.71912],[126.94597,37.71913],[126.94597,37.71918],[126.94581,37.71918]]]}}]}
