{
  "type": "FeatureCollection",
  "metadata": {
    "description": "백둔리계곡 주변 봉우리 4개 — 중심선 3 km 안, 이름 있는 OSM natural=peak",
    "source": "OSM natural=peak (ODbL) — 이름·표고(ele) 그대로, 데스크 검수",
    "sourceFile": "scripts/seed/peaks.mts (pnpm seed:peaks)",
    "datasetVersion": "2026-09-23.0",
    "collectedAt": "2026-09-23",
    "coordinateOrder": "[longitude, latitude]",
    "crs": "EPSG:4326",
    "sources": ["https://www.openstreetmap.org/copyright"]
  },
  "features": [
    {
      "type": "Feature",
      "geometry": {
        "type": "Point",
        "coordinates": [127.479342, 37.881804]
      },
      "properties": {
        "valleyId": "baekdunri",
        "name": "노적봉",
        "elevationM": 859,
        "distanceM": 1911,
        "osmId": "node/10120267034"
      }
    },
    {
      "type": "Feature",
      "geometry": {
        "type": "Point",
        "coordinates": [127.47088, 37.92103]
      },
      "properties": {
        "valleyId": "baekdunri",
        "name": "매봉",
        "elevationM": 834.8,
        "distanceM": 1928,
        "osmId": "node/10253010800"
      }
    },
    {
      "type": "Feature",
      "geometry": {
        "type": "Point",
        "coordinates": [127.463801, 37.886881]
      },
      "properties": {
        "valleyId": "baekdunri",
        "name": "바른골봉",
        "elevationM": 781,
        "distanceM": 2186,
        "osmId": "node/10120267035"
      }
    },
    {
      "type": "Feature",
      "geometry": {
        "type": "Point",
        "coordinates": [127.512166, 37.917246]
      },
      "properties": {
        "valleyId": "baekdunri",
        "name": "수덕산",
        "elevationM": 795.7,
        "distanceM": 2193,
        "osmId": "node/10120317427"
      }
    }
  ]
}
