{"type":"FeatureCollection","metadata":{"description":"개방지(CHM ≤ 2 m)에 드리운 나무·지형 그림자, 2026-08-01 10:00 KST. canopy 위에 겹쳐 그린다","source":"위성 기반 추정 — Copernicus GLO-30 지형(30 m) + Meta/WRI 수관 높이(1 m CHM, 2016~2018 촬영). 그늘 = 수관(CHM > 2 m) ∪ 나무·지형 그림자 ∪ 원거리 지형 마스크. 현장과 다를 수 있음.","datasetVersion":"2026-09-06.0","collectedAt":"2026-09-06","coordinateOrder":"[longitude, latitude]","crs":"EPSG:4326","representativeDate":"2026-08-01","hours":["10:00","11:00","12:00","13:00","14:00","15:00","16:00","17:00","18:00"],"chmAcquisition":["2016-12","2018-03"],"assets":{"glo30":{"dataset":"Copernicus DEM GLO-30 (COG, s3://copernicus-dem-30m)","tiles":["Copernicus_DSM_COG_10_N38_00_E127_00_DEM"]},"chm":{"dataset":"Meta/WRI Global Canopy Height Map v1 (alsgedi_global_v6_float, 1 m, CC-BY 4.0)","quadkeys":["132110303"],"acquisition":["2016-12","2018-03"]}},"method":{"gridResM":2,"canopyThresholdM":2,"bufferHalfM":25,"corridorHalfM":200,"simplifyTolM":2,"minAreaM2":25,"coordDecimals":5},"generator":"scripts/shade 0.1.0","builtAt":"2026-09-06T05:51:08Z","layer":"shadow","timeLocal":"10:00"},"features":[{"type":"Feature","properties":{"valleyId":"baegun-pocheon","layer":"shadow","date":"2026-08-01","timeLocal":"10:00"},"geometry":{"type":"Polygon","coordinates":[[[127.43489,38.09156],[127.43489,38.09152],[127.43482,38.09152],[127.43482,38.09146],[127.43502,38.09147],[127.43502,38.09156],[127.43489,38.09156]]]}},{"type":"Feature","properties":{"valleyId":"baegun-pocheon","layer":"shadow","date":"2026-08-01","timeLocal":"10:00"},"geometry":{"type":"Polygon","coordinates":[[[127.43521,38.09143],[127.43521,38.09138],[127.4353,38.09138],[127.4353,38.09144],[127.43521,38.09143]]]}},{"type":"Feature","properties":{"valleyId":"baegun-pocheon","layer":"shadow","date":"2026-08-01","timeLocal":"10:00"},"geometry":{"type":"Polygon","coordinates":[[[127.43475,38.09125],[127.43476,38.09116],[127.43483,38.09116],[127.43485,38.09125],[127.43475,38.09125]]]}},{"type":"Feature","properties":{"valleyId":"baegun-pocheon","layer":"shadow","date":"2026-08-01","timeLocal":"10:00"},"geometry":{"type":"Polygon","coordinates":[[[127.434,38.09012],[127.434,38.09007],[127.4341,38.09007],[127.43409,38.09012],[127.434,38.09012]]]}},{"type":"Feature","properties":{"valleyId":"baegun-pocheon","layer":"shadow","date":"2026-08-01","timeLocal":"10:00"},"geometry":{"type":"Polygon","coordinates":[[[127.4338,38.09012],[127.4338,38.09003],[127.43396,38.09005],[127.43396,38.0901],[127.4338,38.09012]]]}},{"type":"Feature","properties":{"valleyId":"baegun-pocheon","layer":"shadow","date":"2026-08-01","timeLocal":"10:00"},"geometry":{"type":"Polygon","coordinates":[[[127.42835,38.08588],[127.4283,38.08584],[127.4283,38.08579],[127.42837,38.08579],[127.42842,38.08583],[127.42842,38.08588],[127.42835,38.08588]]]}},{"type":"Feature","properties":{"valleyId":"baegun-pocheon","layer":"shadow","date":"2026-08-01","timeLocal":"10:00"},"geometry":{"type":"Polygon","coordinates":[[[127.42821,38.0857],[127.42822,38.08564],[127.42828,38.08565],[127.42828,38.0857],[127.42821,38.0857]]]}},{"type":"Feature","properties":{"valleyId":"baegun-pocheon","layer":"shadow","date":"2026-08-01","timeLocal":"10:00"},"geometry":{"type":"Polygon","coordinates":[[[127.42326,38.08167],[127.42326,38.08161],[127.42335,38.08161],[127.42335,38.08167],[127.42326,38.08167]]]}},{"type":"Feature","properties":{"valleyId":"baegun-pocheon","layer":"shadow","date":"2026-08-01","timeLocal":"10:00"},"geometry":{"type":"Polygon","coordinates":[[[127.42301,38.08157],[127.42301,38.0815],[127.42308,38.0815],[127.42308,38.08157],[127.42301,38.08157]]]}}]}
