{"type":"FeatureCollection","metadata":{"description":"개방지(CHM ≤ 2 m)에 드리운 나무·지형 그림자, 2026-08-01 16:00 KST. canopy 위에 겹쳐 그린다","source":"위성 기반 추정 — Copernicus GLO-30 지형(30 m) + Meta/WRI 수관 높이(1 m CHM, 2016~2018 촬영). 그늘 = 수관(CHM > 2 m) ∪ 나무·지형 그림자 ∪ 원거리 지형 마스크. 현장과 다를 수 있음.","datasetVersion":"2026-09-06.0","collectedAt":"2026-09-06","coordinateOrder":"[longitude, latitude]","crs":"EPSG:4326","representativeDate":"2026-08-01","hours":["10:00","11:00","12:00","13:00","14:00","15:00","16:00","17:00","18:00"],"chmAcquisition":["2016-12","2018-03"],"assets":{"glo30":{"dataset":"Copernicus DEM GLO-30 (COG, s3://copernicus-dem-30m)","tiles":["Copernicus_DSM_COG_10_N38_00_E127_00_DEM"]},"chm":{"dataset":"Meta/WRI Global Canopy Height Map v1 (alsgedi_global_v6_float, 1 m, CC-BY 4.0)","quadkeys":["132110303"],"acquisition":["2016-12","2018-03"]}},"method":{"gridResM":2,"canopyThresholdM":2,"bufferHalfM":25,"corridorHalfM":200,"simplifyTolM":2,"minAreaM2":25,"coordDecimals":5},"generator":"scripts/shade 0.1.0","builtAt":"2026-09-06T05:51:08Z","layer":"shadow","timeLocal":"16:00"},"features":[{"type":"Feature","properties":{"valleyId":"baegun-pocheon","layer":"shadow","date":"2026-08-01","timeLocal":"16:00"},"geometry":{"type":"Polygon","coordinates":[[[127.43159,38.09221],[127.43157,38.09202],[127.43161,38.09198],[127.43162,38.09185],[127.43169,38.09186],[127.43173,38.09189],[127.43173,38.09195],[127.43166,38.092],[127.43168,38.09216],[127.43166,38.09222],[127.43159,38.09221]]]}},{"type":"Feature","properties":{"valleyId":"baegun-pocheon","layer":"shadow","date":"2026-08-01","timeLocal":"16:00"},"geometry":{"type":"Polygon","coordinates":[[[127.43148,38.09182],[127.43148,38.09176],[127.43155,38.09176],[127.43155,38.09182],[127.43148,38.09182]]]}},{"type":"Feature","properties":{"valleyId":"baegun-pocheon","layer":"shadow","date":"2026-08-01","timeLocal":"16:00"},"geometry":{"type":"Polygon","coordinates":[[[127.4315,38.09108],[127.4315,38.09101],[127.43157,38.09101],[127.43157,38.09108],[127.4315,38.09108]]]}},{"type":"Feature","properties":{"valleyId":"baegun-pocheon","layer":"shadow","date":"2026-08-01","timeLocal":"16:00"},"geometry":{"type":"Polygon","coordinates":[[[127.42834,38.08839],[127.42837,38.08819],[127.42846,38.08812],[127.42851,38.08801],[127.42858,38.08801],[127.42855,38.08817],[127.42848,38.08819],[127.42841,38.08839],[127.42834,38.08839]]]}},{"type":"Feature","properties":{"valleyId":"baegun-pocheon","layer":"shadow","date":"2026-08-01","timeLocal":"16:00"},"geometry":{"type":"Polygon","coordinates":[[[127.42799,38.08748],[127.42802,38.08737],[127.42809,38.08737],[127.42806,38.08748],[127.42799,38.08748]]]}},{"type":"Feature","properties":{"valleyId":"baegun-pocheon","layer":"shadow","date":"2026-08-01","timeLocal":"16:00"},"geometry":{"type":"Polygon","coordinates":[[[127.42797,38.08734],[127.42798,38.08728],[127.42804,38.08728],[127.42804,38.08734],[127.42797,38.08734]]]}},{"type":"Feature","properties":{"valleyId":"baegun-pocheon","layer":"shadow","date":"2026-08-01","timeLocal":"16:00"},"geometry":{"type":"Polygon","coordinates":[[[127.4283,38.08684],[127.42828,38.08676],[127.42835,38.08676],[127.42837,38.08684],[127.4283,38.08684]]]}},{"type":"Feature","properties":{"valleyId":"baegun-pocheon","layer":"shadow","date":"2026-08-01","timeLocal":"16:00"},"geometry":{"type":"Polygon","coordinates":[[[127.4284,38.08648],[127.42834,38.0864],[127.42834,38.08635],[127.42841,38.08635],[127.42847,38.08642],[127.42847,38.08648],[127.4284,38.08648]]]}},{"type":"Feature","properties":{"valleyId":"baegun-pocheon","layer":"shadow","date":"2026-08-01","timeLocal":"16:00"},"geometry":{"type":"Polygon","coordinates":[[[127.42872,38.08635],[127.4287,38.08628],[127.42882,38.08627],[127.42882,38.08636],[127.42872,38.08635]]]}},{"type":"Feature","properties":{"valleyId":"baegun-pocheon","layer":"shadow","date":"2026-08-01","timeLocal":"16:00"},"geometry":{"type":"Polygon","coordinates":[[[127.42798,38.08611],[127.42798,38.08606],[127.42805,38.08606],[127.42805,38.08611],[127.42798,38.08611]]]}},{"type":"Feature","properties":{"valleyId":"baegun-pocheon","layer":"shadow","date":"2026-08-01","timeLocal":"16:00"},"geometry":{"type":"Polygon","coordinates":[[[127.42665,38.08543],[127.42663,38.0853],[127.42672,38.0853],[127.42672,38.08543],[127.42665,38.08543]]]}}]}
