{"type":"FeatureCollection","metadata":{"description":"개방지(CHM ≤ 2 m)에 드리운 나무·지형 그림자, 2026-08-01 17:00 KST. canopy 위에 겹쳐 그린다","source":"위성 기반 추정 — Copernicus GLO-30 지형(30 m) + Meta/WRI 수관 높이(1 m CHM, 2016~2018 촬영). 그늘 = 수관(CHM > 2 m) ∪ 나무·지형 그림자 ∪ 원거리 지형 마스크. 현장과 다를 수 있음.","datasetVersion":"2026-09-06.0","collectedAt":"2026-09-06","coordinateOrder":"[longitude, latitude]","crs":"EPSG:4326","representativeDate":"2026-08-01","hours":["10:00","11:00","12:00","13:00","14:00","15:00","16:00","17:00","18:00"],"chmAcquisition":["2016-12","2018-03"],"assets":{"glo30":{"dataset":"Copernicus DEM GLO-30 (COG, s3://copernicus-dem-30m)","tiles":["Copernicus_DSM_COG_10_N38_00_E127_00_DEM"]},"chm":{"dataset":"Meta/WRI Global Canopy Height Map v1 (alsgedi_global_v6_float, 1 m, CC-BY 4.0)","quadkeys":["132110303"],"acquisition":["2016-12","2018-03"]}},"method":{"gridResM":2,"canopyThresholdM":2,"bufferHalfM":25,"corridorHalfM":200,"simplifyTolM":2,"minAreaM2":25,"coordDecimals":5},"generator":"scripts/shade 0.1.0","builtAt":"2026-09-06T05:51:08Z","layer":"shadow","timeLocal":"17:00"},"features":[{"type":"Feature","properties":{"valleyId":"baegun-pocheon","layer":"shadow","date":"2026-08-01","timeLocal":"17:00"},"geometry":{"type":"Polygon","coordinates":[[[127.43415,38.09284],[127.43415,38.09275],[127.43422,38.09275],[127.43422,38.09284],[127.43415,38.09284]]]}},{"type":"Feature","properties":{"valleyId":"baegun-pocheon","layer":"shadow","date":"2026-08-01","timeLocal":"17:00"},"geometry":{"type":"Polygon","coordinates":[[[127.43307,38.0913],[127.43307,38.09124],[127.43314,38.09124],[127.43313,38.0913],[127.43307,38.0913]]]}},{"type":"Feature","properties":{"valleyId":"baegun-pocheon","layer":"shadow","date":"2026-08-01","timeLocal":"17:00"},"geometry":{"type":"Polygon","coordinates":[[[127.43181,38.09251],[127.43154,38.09227],[127.43154,38.09221],[127.43159,38.0922],[127.43157,38.09202],[127.43161,38.09198],[127.43162,38.09185],[127.43157,38.09182],[127.43148,38.09182],[127.43144,38.09171],[127.43146,38.09156],[127.43137,38.09156],[127.43138,38.09145],[127.4314,38.0914],[127.43147,38.09138],[127.43147,38.09133],[127.43136,38.09133],[127.43133,38.09124],[127.43143,38.09122],[127.43145,38.09111],[127.4315,38.0911],[127.43148,38.09086],[127.43155,38.09086],[127.43164,38.09097],[127.43163,38.09106],[127.43156,38.09113],[127.43156,38.0913],[127.43161,38.09133],[127.43156,38.09146],[127.4316,38.09146],[127.4316,38.09151],[127.43156,38.09151],[127.43153,38.09155],[127.43153,38.09164],[127.4318,38.09171],[127.4318,38.09175],[127.43187,38.09179],[127.43191,38.09189],[127.43191,38.09202],[127.43196,38.09206],[127.4319,38.09229],[127.43186,38.09233],[127.43188,38.09251],[127.43181,38.09251]]]}},{"type":"Feature","properties":{"valleyId":"baegun-pocheon","layer":"shadow","date":"2026-08-01","timeLocal":"17:00"},"geometry":{"type":"Polygon","coordinates":[[[127.43275,38.09113],[127.43271,38.09109],[127.43271,38.09102],[127.43296,38.09083],[127.4331,38.09081],[127.43307,38.09092],[127.43296,38.09092],[127.43291,38.09101],[127.43282,38.09102],[127.43282,38.09113],[127.43275,38.09113]]]}},{"type":"Feature","properties":{"valleyId":"baegun-pocheon","layer":"shadow","date":"2026-08-01","timeLocal":"17:00"},"geometry":{"type":"Polygon","coordinates":[[[127.43306,38.0907],[127.43306,38.09065],[127.43313,38.09065],[127.43312,38.0907],[127.43306,38.0907]]]}},{"type":"Feature","properties":{"valleyId":"baegun-pocheon","layer":"shadow","date":"2026-08-01","timeLocal":"17:00"},"geometry":{"type":"Polygon","coordinates":[[[127.43324,38.09054],[127.43318,38.0904],[127.43318,38.09031],[127.43304,38.09027],[127.43305,38.09011],[127.43289,38.09002],[127.43287,38.08983],[127.43294,38.08984],[127.43296,38.08978],[127.43305,38.08978],[127.43305,38.08991],[127.43328,38.08991],[127.43327,38.09022],[127.43336,38.09029],[127.43336,38.09036],[127.43331,38.0904],[127.43331,38.09054],[127.43324,38.09054]]]}},{"type":"Feature","properties":{"valleyId":"baegun-pocheon","layer":"shadow","date":"2026-08-01","timeLocal":"17:00"},"geometry":{"type":"Polygon","coordinates":[[[127.43001,38.09005],[127.42986,38.08992],[127.42979,38.0899],[127.42979,38.08987],[127.4297,38.08979],[127.4297,38.08974],[127.42979,38.08974],[127.42979,38.08979],[127.42984,38.08983],[127.42995,38.08985],[127.42999,38.08989],[127.42999,38.08994],[127.43008,38.08998],[127.43008,38.09005],[127.43001,38.09005]]]}},{"type":"Feature","properties":{"valleyId":"baegun-pocheon","layer":"shadow","date":"2026-08-01","timeLocal":"17:00"},"geometry":{"type":"Polygon","coordinates":[[[127.42952,38.08968],[127.42952,38.08961],[127.42959,38.08961],[127.42959,38.08968],[127.42952,38.08968]]]}},{"type":"Feature","properties":{"valleyId":"baegun-pocheon","layer":"shadow","date":"2026-08-01","timeLocal":"17:00"},"geometry":{"type":"Polygon","coordinates":[[[127.43273,38.08983],[127.43273,38.08972],[127.4328,38.08973],[127.43281,38.08964],[127.4329,38.08964],[127.43289,38.08973],[127.43283,38.08973],[127.4328,38.08983],[127.43273,38.08983]]]}},{"type":"Feature","properties":{"valleyId":"baegun-pocheon","layer":"shadow","date":"2026-08-01","timeLocal":"17:00"},"geometry":{"type":"Polygon","coordinates":[[[127.43114,38.08961],[127.43114,38.08956],[127.43121,38.08956],[127.43121,38.08961],[127.43114,38.08961]]]}},{"type":"Feature","properties":{"valleyId":"baegun-pocheon","layer":"shadow","date":"2026-08-01","timeLocal":"17:00"},"geometry":{"type":"Polygon","coordinates":[[[127.43175,38.0889],[127.43175,38.08881],[127.43182,38.08881],[127.43182,38.0889],[127.43175,38.0889]]]}},{"type":"Feature","properties":{"valleyId":"baegun-pocheon","layer":"shadow","date":"2026-08-01","timeLocal":"17:00"},"geometry":{"type":"Polygon","coordinates":[[[127.4313,38.08862],[127.43128,38.08855],[127.43135,38.08855],[127.43137,38.08863],[127.4313,38.08862]]]}},{"type":"Feature","properties":{"valleyId":"baegun-pocheon","layer":"shadow","date":"2026-08-01","timeLocal":"17:00"},"geometry":{"type":"Polygon","coordinates":[[[127.43409,38.08834],[127.43409,38.08825],[127.43416,38.08825],[127.43416,38.08834],[127.43409,38.08834]]]}},{"type":"Feature","properties":{"valleyId":"baegun-pocheon","layer":"shadow","date":"2026-08-01","timeLocal":"17:00"},"geometry":{"type":"Polygon","coordinates":[[[127.43067,38.08827],[127.43065,38.0882],[127.43074,38.08818],[127.43076,38.08827],[127.43067,38.08827]]]}},{"type":"Feature","properties":{"valleyId":"baegun-pocheon","layer":"shadow","date":"2026-08-01","timeLocal":"17:00"},"geometry":{"type":"Polygon","coordinates":[[[127.42836,38.08842],[127.42837,38.08819],[127.42851,38.08805],[127.42849,38.08788],[127.42858,38.08788],[127.42865,38.08794],[127.42871,38.0881],[127.42859,38.08825],[127.42854,38.08839],[127.42836,38.08842]]]}},{"type":"Feature","properties":{"valleyId":"baegun-pocheon","layer":"shadow","date":"2026-08-01","timeLocal":"17:00"},"geometry":{"type":"Polygon","coordinates":[[[127.42911,38.08775],[127.42911,38.08769],[127.42918,38.08769],[127.42917,38.08775],[127.42911,38.08775]]]}},{"type":"Feature","properties":{"valleyId":"baegun-pocheon","layer":"shadow","date":"2026-08-01","timeLocal":"17:00"},"geometry":{"type":"Polygon","coordinates":[[[127.43043,38.08775],[127.43043,38.08769],[127.4305,38.08769],[127.4305,38.08775],[127.43043,38.08775]]]}},{"type":"Feature","properties":{"valleyId":"baegun-pocheon","layer":"shadow","date":"2026-08-01","timeLocal":"17:00"},"geometry":{"type":"Polygon","coordinates":[[[127.42963,38.08752],[127.42957,38.08747],[127.42957,38.08741],[127.42966,38.08741],[127.42966,38.08745],[127.4297,38.08747],[127.4297,38.08752],[127.42963,38.08752]]]}},{"type":"Feature","properties":{"valleyId":"baegun-pocheon","layer":"shadow","date":"2026-08-01","timeLocal":"17:00"},"geometry":{"type":"Polygon","coordinates":[[[127.42913,38.08755],[127.42921,38.0873],[127.42907,38.08719],[127.42907,38.08712],[127.42914,38.08712],[127.42916,38.08717],[127.42934,38.08725],[127.42934,38.08735],[127.42939,38.08739],[127.42939,38.08745],[127.42932,38.08744],[127.42922,38.08751],[127.42922,38.08755],[127.42913,38.08755]]]}},{"type":"Feature","properties":{"valleyId":"baegun-pocheon","layer":"shadow","date":"2026-08-01","timeLocal":"17:00"},"geometry":{"type":"Polygon","coordinates":[[[127.42739,38.08715],[127.42739,38.08706],[127.42748,38.08706],[127.42748,38.08713],[127.42739,38.08715]]]}},{"type":"Feature","properties":{"valleyId":"baegun-pocheon","layer":"shadow","date":"2026-08-01","timeLocal":"17:00"},"geometry":{"type":"Polygon","coordinates":[[[127.42815,38.0877],[127.42806,38.08752],[127.42799,38.08748],[127.42802,38.08735],[127.42797,38.08734],[127.428,38.08721],[127.42795,38.08717],[127.42794,38.08703],[127.428,38.08703],[127.42805,38.08707],[127.42805,38.08712],[127.42809,38.08712],[127.42811,38.08719],[127.42816,38.08721],[127.42815,38.08743],[127.42811,38.08745],[127.42811,38.0875],[127.42818,38.08754],[127.42822,38.08765],[127.42822,38.0877],[127.42815,38.0877]]]}},{"type":"Feature","properties":{"valleyId":"baegun-pocheon","layer":"shadow","date":"2026-08-01","timeLocal":"17:00"},"geometry":{"type":"Polygon","coordinates":[[[127.42771,38.08683],[127.42771,38.08676],[127.42778,38.08676],[127.42778,38.08683],[127.42771,38.08683]]]}},{"type":"Feature","properties":{"valleyId":"baegun-pocheon","layer":"shadow","date":"2026-08-01","timeLocal":"17:00"},"geometry":{"type":"Polygon","coordinates":[[[127.42846,38.087],[127.42839,38.08689],[127.42826,38.0868],[127.42826,38.08676],[127.42797,38.0866],[127.42797,38.08654],[127.42822,38.08658],[127.42826,38.08667],[127.42837,38.08675],[127.42847,38.08675],[127.42847,38.08669],[127.42854,38.08669],[127.42858,38.08673],[127.4286,38.087],[127.42846,38.087]]]}},{"type":"Feature","properties":{"valleyId":"baegun-pocheon","layer":"shadow","date":"2026-08-01","timeLocal":"17:00"},"geometry":{"type":"Polygon","coordinates":[[[127.42733,38.08657],[127.42733,38.0865],[127.4274,38.0865],[127.4274,38.08657],[127.42733,38.08657]]]}},{"type":"Feature","properties":{"valleyId":"baegun-pocheon","layer":"shadow","date":"2026-08-01","timeLocal":"17:00"},"geometry":{"type":"Polygon","coordinates":[[[127.42781,38.08654],[127.42776,38.0865],[127.42777,38.08645],[127.42786,38.08645],[127.42786,38.08649],[127.4279,38.08649],[127.4279,38.08654],[127.42781,38.08654]]]}},{"type":"Feature","properties":{"valleyId":"baegun-pocheon","layer":"shadow","date":"2026-08-01","timeLocal":"17:00"},"geometry":{"type":"Polygon","coordinates":[[[127.42879,38.08637],[127.4287,38.08634],[127.4287,38.08628],[127.42891,38.08629],[127.42891,38.08638],[127.42879,38.08637]]]}},{"type":"Feature","properties":{"valleyId":"baegun-pocheon","layer":"shadow","date":"2026-08-01","timeLocal":"17:00"},"geometry":{"type":"Polygon","coordinates":[[[127.42722,38.08624],[127.42723,38.0861],[127.42732,38.0861],[127.42729,38.08625],[127.42722,38.08624]]]}},{"type":"Feature","properties":{"valleyId":"baegun-pocheon","layer":"shadow","date":"2026-08-01","timeLocal":"17:00"},"geometry":{"type":"Polygon","coordinates":[[[127.42867,38.08664],[127.42861,38.08657],[127.42843,38.08649],[127.42829,38.08635],[127.42829,38.08631],[127.4282,38.08629],[127.42813,38.08624],[127.42814,38.0862],[127.42802,38.08611],[127.42798,38.08611],[127.42791,38.086],[127.42791,38.08593],[127.42798,38.08593],[127.428,38.08598],[127.42812,38.08602],[127.42818,38.08611],[127.42823,38.08611],[127.4283,38.08619],[127.42836,38.08621],[127.42838,38.08631],[127.42847,38.08637],[127.42854,38.08648],[127.42859,38.08648],[127.42861,38.08652],[127.42874,38.08652],[127.42874,38.08655],[127.42879,38.08657],[127.42879,38.08664],[127.42867,38.08664]]]}},{"type":"Feature","properties":{"valleyId":"baegun-pocheon","layer":"shadow","date":"2026-08-01","timeLocal":"17:00"},"geometry":{"type":"Polygon","coordinates":[[[127.42737,38.08563],[127.42737,38.08556],[127.42744,38.08556],[127.42744,38.08563],[127.42737,38.08563]]]}},{"type":"Feature","properties":{"valleyId":"baegun-pocheon","layer":"shadow","date":"2026-08-01","timeLocal":"17:00"},"geometry":{"type":"Polygon","coordinates":[[[127.42509,38.08557],[127.42512,38.08548],[127.42519,38.08548],[127.42516,38.08557],[127.42509,38.08557]]]}},{"type":"Feature","properties":{"valleyId":"baegun-pocheon","layer":"shadow","date":"2026-08-01","timeLocal":"17:00"},"geometry":{"type":"Polygon","coordinates":[[[127.42437,38.0852],[127.42435,38.08502],[127.42442,38.08502],[127.42444,38.0852],[127.42437,38.0852]]]}},{"type":"Feature","properties":{"valleyId":"baegun-pocheon","layer":"shadow","date":"2026-08-01","timeLocal":"17:00"},"geometry":{"type":"Polygon","coordinates":[[[127.42418,38.08474],[127.42415,38.08465],[127.42425,38.08465],[127.42424,38.08474],[127.42418,38.08474]]]}},{"type":"Feature","properties":{"valleyId":"baegun-pocheon","layer":"shadow","date":"2026-08-01","timeLocal":"17:00"},"geometry":{"type":"Polygon","coordinates":[[[127.42673,38.08557],[127.42667,38.08555],[127.42667,38.08543],[127.4266,38.08537],[127.42653,38.08537],[127.42654,38.08532],[127.42663,38.08532],[127.42667,38.08525],[127.42679,38.08519],[127.42677,38.08498],[127.42668,38.0849],[127.42668,38.08478],[127.4268,38.08478],[127.4268,38.08467],[127.42687,38.08467],[127.42689,38.08491],[127.42693,38.08492],[127.42693,38.085],[127.427,38.08507],[127.42699,38.08523],[127.42692,38.0853],[127.42692,38.08536],[127.42688,38.08537],[127.42687,38.0855],[127.4268,38.08557],[127.42673,38.08557]]]}},{"type":"Feature","properties":{"valleyId":"baegun-pocheon","layer":"shadow","date":"2026-08-01","timeLocal":"17:00"},"geometry":{"type":"Polygon","coordinates":[[[127.42669,38.08445],[127.42667,38.08434],[127.42674,38.08435],[127.42676,38.08445],[127.42669,38.08445]]]}},{"type":"Feature","properties":{"valleyId":"baegun-pocheon","layer":"shadow","date":"2026-08-01","timeLocal":"17:00"},"geometry":{"type":"Polygon","coordinates":[[[127.42669,38.08463],[127.4266,38.08461],[127.42639,38.08445],[127.4263,38.08441],[127.42628,38.08434],[127.42624,38.08432],[127.42626,38.08425],[127.42633,38.08425],[127.42633,38.08432],[127.4264,38.08432],[127.4264,38.08436],[127.42646,38.0844],[127.42651,38.08447],[127.4266,38.08449],[127.42667,38.08454],[127.42673,38.08454],[127.42676,38.08463],[127.42669,38.08463]]]}},{"type":"Feature","properties":{"valleyId":"baegun-pocheon","layer":"shadow","date":"2026-08-01","timeLocal":"17:00"},"geometry":{"type":"Polygon","coordinates":[[[127.42337,38.08399],[127.42335,38.08392],[127.42346,38.08392],[127.42346,38.084],[127.42337,38.08399]]]}},{"type":"Feature","properties":{"valleyId":"baegun-pocheon","layer":"shadow","date":"2026-08-01","timeLocal":"17:00"},"geometry":{"type":"Polygon","coordinates":[[[127.42345,38.08333],[127.42345,38.08327],[127.42357,38.08328],[127.42357,38.08333],[127.42345,38.08333]]]}},{"type":"Feature","properties":{"valleyId":"baegun-pocheon","layer":"shadow","date":"2026-08-01","timeLocal":"17:00"},"geometry":{"type":"Polygon","coordinates":[[[127.42327,38.08322],[127.42327,38.08316],[127.42339,38.08317],[127.42339,38.08322],[127.42327,38.08322]]]}},{"type":"Feature","properties":{"valleyId":"baegun-pocheon","layer":"shadow","date":"2026-08-01","timeLocal":"17:00"},"geometry":{"type":"Polygon","coordinates":[[[127.42307,38.08311],[127.423,38.08305],[127.42301,38.08296],[127.4231,38.08296],[127.4231,38.083],[127.42314,38.08302],[127.42314,38.08311],[127.42307,38.08311]]]}},{"type":"Feature","properties":{"valleyId":"baegun-pocheon","layer":"shadow","date":"2026-08-01","timeLocal":"17:00"},"geometry":{"type":"Polygon","coordinates":[[[127.42292,38.08292],[127.42292,38.08287],[127.42298,38.08287],[127.42298,38.08293],[127.42292,38.08292]]]}},{"type":"Feature","properties":{"valleyId":"baegun-pocheon","layer":"shadow","date":"2026-08-01","timeLocal":"17:00"},"geometry":{"type":"Polygon","coordinates":[[[127.42321,38.08282],[127.42312,38.08277],[127.42312,38.08271],[127.42319,38.08271],[127.42324,38.08277],[127.42328,38.08277],[127.42328,38.08282],[127.42321,38.08282]]]}},{"type":"Feature","properties":{"valleyId":"baegun-pocheon","layer":"shadow","date":"2026-08-01","timeLocal":"17:00"},"geometry":{"type":"Polygon","coordinates":[[[127.42285,38.08287],[127.42262,38.08269],[127.42256,38.08267],[127.42256,38.08261],[127.42269,38.08263],[127.42274,38.08271],[127.42278,38.08271],[127.42285,38.08276],[127.42285,38.0828],[127.42292,38.08282],[127.42292,38.08287],[127.42285,38.08287]]]}},{"type":"Feature","properties":{"valleyId":"baegun-pocheon","layer":"shadow","date":"2026-08-01","timeLocal":"17:00"},"geometry":{"type":"Polygon","coordinates":[[[127.42212,38.08263],[127.42212,38.08257],[127.42219,38.08257],[127.42219,38.08263],[127.42212,38.08263]]]}},{"type":"Feature","properties":{"valleyId":"baegun-pocheon","layer":"shadow","date":"2026-08-01","timeLocal":"17:00"},"geometry":{"type":"Polygon","coordinates":[[[127.42154,38.08233],[127.42149,38.08226],[127.4215,38.08213],[127.42156,38.08213],[127.42161,38.08226],[127.42161,38.08233],[127.42154,38.08233]]]}},{"type":"Feature","properties":{"valleyId":"baegun-pocheon","layer":"shadow","date":"2026-08-01","timeLocal":"17:00"},"geometry":{"type":"Polygon","coordinates":[[[127.42475,38.08232],[127.42475,38.08228],[127.42471,38.08226],[127.42471,38.08214],[127.42478,38.08214],[127.42478,38.08221],[127.42482,38.08225],[127.42482,38.08232],[127.42475,38.08232]]]}},{"type":"Feature","properties":{"valleyId":"baegun-pocheon","layer":"shadow","date":"2026-08-01","timeLocal":"17:00"},"geometry":{"type":"Polygon","coordinates":[[[127.42473,38.0821],[127.42474,38.08194],[127.42478,38.0819],[127.42485,38.08191],[127.4248,38.0821],[127.42473,38.0821]]]}},{"type":"Feature","properties":{"valleyId":"baegun-pocheon","layer":"shadow","date":"2026-08-01","timeLocal":"17:00"},"geometry":{"type":"Polygon","coordinates":[[[127.42524,38.08204],[127.42524,38.08198],[127.42515,38.08193],[127.42517,38.08178],[127.42513,38.08171],[127.42514,38.08148],[127.42527,38.0815],[127.42529,38.08153],[127.42524,38.08177],[127.42531,38.08204],[127.42524,38.08204]]]}}]}
