{"type":"FeatureCollection","metadata":{"description":"개방지(CHM ≤ 2 m)에 드리운 나무·지형 그림자, 2026-08-01 18:00 KST. canopy 위에 겹쳐 그린다","source":"위성 기반 추정 — Copernicus GLO-30 지형(30 m) + Meta/WRI 수관 높이(1 m CHM, 2016~2018 촬영). 그늘 = 수관(CHM > 2 m) ∪ 나무·지형 그림자 ∪ 원거리 지형 마스크. 현장과 다를 수 있음.","datasetVersion":"2026-09-06.0","collectedAt":"2026-09-06","coordinateOrder":"[longitude, latitude]","crs":"EPSG:4326","representativeDate":"2026-08-01","hours":["10:00","11:00","12:00","13:00","14:00","15:00","16:00","17:00","18:00"],"chmAcquisition":["2016-12","2018-03"],"assets":{"glo30":{"dataset":"Copernicus DEM GLO-30 (COG, s3://copernicus-dem-30m)","tiles":["Copernicus_DSM_COG_10_N38_00_E127_00_DEM"]},"chm":{"dataset":"Meta/WRI Global Canopy Height Map v1 (alsgedi_global_v6_float, 1 m, CC-BY 4.0)","quadkeys":["132110303"],"acquisition":["2016-12","2018-03"]}},"method":{"gridResM":2,"canopyThresholdM":2,"bufferHalfM":25,"corridorHalfM":200,"simplifyTolM":2,"minAreaM2":25,"coordDecimals":5},"generator":"scripts/shade 0.1.0","builtAt":"2026-09-06T05:51:08Z","layer":"shadow","timeLocal":"18:00"},"features":[{"type":"Feature","properties":{"valleyId":"baegun-pocheon","layer":"shadow","date":"2026-08-01","timeLocal":"18:00"},"geometry":{"type":"Polygon","coordinates":[[[127.4342,38.09288],[127.4342,38.09284],[127.43415,38.09284],[127.43413,38.09274],[127.43424,38.09274],[127.43431,38.09279],[127.43431,38.09286],[127.4342,38.09288]]]}},{"type":"Feature","properties":{"valleyId":"baegun-pocheon","layer":"shadow","date":"2026-08-01","timeLocal":"18:00"},"geometry":{"type":"Polygon","coordinates":[[[127.43206,38.09267],[127.43197,38.0926],[127.43192,38.0926],[127.43154,38.09227],[127.43154,38.09221],[127.43159,38.0922],[127.43157,38.09202],[127.43161,38.09198],[127.43162,38.09185],[127.43157,38.09182],[127.43148,38.09182],[127.43146,38.09171],[127.4313,38.09163],[127.4313,38.09158],[127.43137,38.09156],[127.43138,38.09142],[127.43147,38.09138],[127.43147,38.09133],[127.43133,38.09131],[127.43133,38.09124],[127.43143,38.09122],[127.43145,38.09111],[127.4315,38.0911],[127.4315,38.09092],[127.43141,38.09082],[127.43132,38.09079],[127.43132,38.09072],[127.43137,38.09068],[127.43137,38.09052],[127.43146,38.09052],[127.43153,38.09054],[127.43153,38.09057],[127.43158,38.09057],[127.43158,38.09063],[127.43146,38.09068],[127.43146,38.09075],[127.43175,38.09081],[127.4318,38.09087],[127.4318,38.09092],[127.43175,38.09096],[127.43175,38.09106],[127.43181,38.09124],[127.43181,38.09151],[127.43176,38.09151],[127.43176,38.09159],[127.43183,38.0917],[127.43182,38.09177],[127.43189,38.09179],[127.43191,38.09189],[127.43196,38.09191],[127.43195,38.09215],[127.43193,38.09229],[127.43188,38.09233],[127.43188,38.09245],[127.43197,38.09249],[127.43201,38.09254],[127.4321,38.09256],[127.43212,38.09267],[127.43206,38.09267]]]}},{"type":"Feature","properties":{"valleyId":"baegun-pocheon","layer":"shadow","date":"2026-08-01","timeLocal":"18:00"},"geometry":{"type":"Polygon","coordinates":[[[127.43051,38.09036],[127.43046,38.09031],[127.43042,38.09031],[127.43037,38.09025],[127.43033,38.09025],[127.43028,38.0902],[127.43024,38.0902],[127.43019,38.09014],[127.43006,38.09009],[127.42999,38.09001],[127.42995,38.09001],[127.42986,38.08992],[127.42981,38.08992],[127.42979,38.08987],[127.42972,38.08983],[127.42968,38.08972],[127.42952,38.08968],[127.42948,38.08956],[127.43021,38.0896],[127.4302,38.08978],[127.43029,38.08978],[127.43034,38.08984],[127.43047,38.08987],[127.43054,38.09],[127.43059,38.09],[127.43058,38.09007],[127.4307,38.09011],[127.43072,38.09033],[127.43067,38.09036],[127.43051,38.09036]]]}},{"type":"Feature","properties":{"valleyId":"baegun-pocheon","layer":"shadow","date":"2026-08-01","timeLocal":"18:00"},"geometry":{"type":"Polygon","coordinates":[[[127.43114,38.08961],[127.43114,38.08956],[127.43121,38.08956],[127.43121,38.08961],[127.43114,38.08961]]]}},{"type":"Feature","properties":{"valleyId":"baegun-pocheon","layer":"shadow","date":"2026-08-01","timeLocal":"18:00"},"geometry":{"type":"Polygon","coordinates":[[[127.42939,38.08957],[127.42932,38.08953],[127.42932,38.08948],[127.42946,38.0895],[127.42945,38.08957],[127.42939,38.08957]]]}},{"type":"Feature","properties":{"valleyId":"baegun-pocheon","layer":"shadow","date":"2026-08-01","timeLocal":"18:00"},"geometry":{"type":"Polygon","coordinates":[[[127.43313,38.09135],[127.43307,38.0913],[127.43307,38.09123],[127.43311,38.09119],[127.43339,38.09121],[127.43341,38.09105],[127.43319,38.09105],[127.43314,38.0911],[127.43293,38.09108],[127.43289,38.09113],[127.43275,38.09113],[127.43271,38.09109],[127.43271,38.09102],[127.43282,38.09095],[127.43282,38.09092],[127.4331,38.09077],[127.43306,38.09065],[127.4331,38.09061],[127.43324,38.0906],[127.43318,38.09031],[127.43304,38.09027],[127.43305,38.09011],[127.43289,38.09002],[127.43287,38.08985],[127.43273,38.08983],[127.43273,38.08972],[127.4328,38.08973],[127.43281,38.08964],[127.43292,38.08962],[127.43295,38.08949],[127.43301,38.08949],[127.43303,38.08957],[127.43313,38.08957],[127.43315,38.08962],[127.43328,38.08964],[127.43328,38.08971],[127.43342,38.08977],[127.43342,38.08981],[127.43353,38.08992],[127.43362,38.08993],[127.43362,38.09006],[127.43353,38.09006],[127.43346,38.09015],[127.43347,38.0904],[127.43352,38.09042],[127.43356,38.09055],[127.43361,38.09057],[127.4336,38.091],[127.43353,38.091],[127.43352,38.09121],[127.43348,38.09123],[127.43345,38.09132],[127.43325,38.0913],[127.4332,38.09135],[127.43313,38.09135]]]}},{"type":"Feature","properties":{"valleyId":"baegun-pocheon","layer":"shadow","date":"2026-08-01","timeLocal":"18:00"},"geometry":{"type":"Polygon","coordinates":[[[127.42914,38.0893],[127.42914,38.08923],[127.42923,38.08923],[127.42923,38.08928],[127.42914,38.0893]]]}},{"type":"Feature","properties":{"valleyId":"baegun-pocheon","layer":"shadow","date":"2026-08-01","timeLocal":"18:00"},"geometry":{"type":"Polygon","coordinates":[[[127.42964,38.08936],[127.42967,38.08925],[127.4296,38.08923],[127.42958,38.08903],[127.42965,38.08903],[127.42972,38.08909],[127.42971,38.08922],[127.42976,38.08923],[127.42976,38.08936],[127.42964,38.08936]]]}},{"type":"Feature","properties":{"valleyId":"baegun-pocheon","layer":"shadow","date":"2026-08-01","timeLocal":"18:00"},"geometry":{"type":"Polygon","coordinates":[[[127.43276,38.08949],[127.43274,38.08945],[127.43256,38.08942],[127.43242,38.08945],[127.43242,38.08936],[127.43238,38.08936],[127.43229,38.08927],[127.43224,38.08927],[127.43218,38.08916],[127.43206,38.08907],[127.43202,38.08907],[127.43195,38.08899],[127.43182,38.08896],[127.43175,38.0889],[127.43175,38.08881],[127.4318,38.08879],[127.4318,38.08874],[127.43189,38.08876],[127.43195,38.08889],[127.43202,38.0889],[127.43204,38.08898],[127.43213,38.089],[127.43216,38.08905],[127.43231,38.08911],[127.43238,38.08918],[127.43245,38.08918],[127.43249,38.08922],[127.43249,38.08927],[127.43256,38.08927],[127.43263,38.08934],[127.43295,38.08937],[127.43295,38.08949],[127.43276,38.08949]]]}},{"type":"Feature","properties":{"valleyId":"baegun-pocheon","layer":"shadow","date":"2026-08-01","timeLocal":"18:00"},"geometry":{"type":"Polygon","coordinates":[[[127.4313,38.08862],[127.43128,38.08853],[127.43135,38.08853],[127.43137,38.08863],[127.4313,38.08862]]]}},{"type":"Feature","properties":{"valleyId":"baegun-pocheon","layer":"shadow","date":"2026-08-01","timeLocal":"18:00"},"geometry":{"type":"Polygon","coordinates":[[[127.42955,38.0884],[127.42955,38.08835],[127.42962,38.08835],[127.42962,38.0884],[127.42955,38.0884]]]}},{"type":"Feature","properties":{"valleyId":"baegun-pocheon","layer":"shadow","date":"2026-08-01","timeLocal":"18:00"},"geometry":{"type":"Polygon","coordinates":[[[127.43181,38.08841],[127.43176,38.08838],[127.43176,38.08827],[127.43183,38.08827],[127.43188,38.08834],[127.43187,38.08842],[127.43181,38.08841]]]}},{"type":"Feature","properties":{"valleyId":"baegun-pocheon","layer":"shadow","date":"2026-08-01","timeLocal":"18:00"},"geometry":{"type":"Polygon","coordinates":[[[127.43074,38.08829],[127.43065,38.08825],[127.43067,38.08818],[127.43074,38.08818],[127.43085,38.08824],[127.43085,38.08829],[127.43074,38.08829]]]}},{"type":"Feature","properties":{"valleyId":"baegun-pocheon","layer":"shadow","date":"2026-08-01","timeLocal":"18:00"},"geometry":{"type":"Polygon","coordinates":[[[127.43408,38.08844],[127.43409,38.08819],[127.43418,38.08818],[127.43418,38.08805],[127.43425,38.08805],[127.4343,38.08807],[127.4343,38.08814],[127.4342,38.08818],[127.43418,38.08845],[127.43408,38.08844]]]}},{"type":"Feature","properties":{"valleyId":"baegun-pocheon","layer":"shadow","date":"2026-08-01","timeLocal":"18:00"},"geometry":{"type":"Polygon","coordinates":[[[127.42911,38.08775],[127.42911,38.08769],[127.42918,38.08769],[127.42917,38.08775],[127.42911,38.08775]]]}},{"type":"Feature","properties":{"valleyId":"baegun-pocheon","layer":"shadow","date":"2026-08-01","timeLocal":"18:00"},"geometry":{"type":"Polygon","coordinates":[[[127.43043,38.08775],[127.43043,38.08766],[127.43034,38.08764],[127.43034,38.08758],[127.43048,38.0876],[127.4305,38.08764],[127.43052,38.08775],[127.43043,38.08775]]]}},{"type":"Feature","properties":{"valleyId":"baegun-pocheon","layer":"shadow","date":"2026-08-01","timeLocal":"18:00"},"geometry":{"type":"Polygon","coordinates":[[[127.42736,38.08724],[127.42739,38.087],[127.42741,38.08697],[127.42748,38.08697],[127.4275,38.08701],[127.42755,38.08701],[127.42757,38.08717],[127.42745,38.08717],[127.42743,38.08724],[127.42736,38.08724]]]}},{"type":"Feature","properties":{"valleyId":"baegun-pocheon","layer":"shadow","date":"2026-08-01","timeLocal":"18:00"},"geometry":{"type":"Polygon","coordinates":[[[127.42697,38.08741],[127.42638,38.08715],[127.42634,38.08712],[127.42634,38.08704],[127.42638,38.08704],[127.42641,38.08701],[127.42659,38.08701],[127.42661,38.08696],[127.42673,38.08696],[127.4268,38.08701],[127.42691,38.08702],[127.42702,38.08711],[127.42702,38.08725],[127.42706,38.08736],[127.42706,38.08741],[127.42697,38.08741]]]}},{"type":"Feature","properties":{"valleyId":"baegun-pocheon","layer":"shadow","date":"2026-08-01","timeLocal":"18:00"},"geometry":{"type":"Polygon","coordinates":[[[127.42843,38.08853],[127.42841,38.08846],[127.42834,38.0884],[127.42834,38.08831],[127.42837,38.08819],[127.42851,38.08805],[127.42849,38.08788],[127.42844,38.08786],[127.42844,38.08781],[127.42835,38.08781],[127.42813,38.08768],[127.42806,38.08752],[127.42799,38.08748],[127.428,38.08721],[127.42795,38.08717],[127.42791,38.08699],[127.42787,38.08697],[127.42787,38.08694],[127.42782,38.08694],[127.4278,38.08688],[127.42771,38.08688],[127.42769,38.08676],[127.42755,38.0867],[127.42756,38.08665],[127.42781,38.08668],[127.4278,38.08672],[127.4279,38.08676],[127.42789,38.08687],[127.42807,38.08692],[127.42807,38.08696],[127.42821,38.08698],[127.42825,38.08727],[127.42822,38.08748],[127.42827,38.08748],[127.42827,38.08752],[127.42833,38.08754],[127.42838,38.08776],[127.42847,38.08776],[127.42847,38.08779],[127.42872,38.08783],[127.42874,38.08762],[127.42881,38.08762],[127.42883,38.08765],[127.42876,38.0881],[127.42871,38.0881],[127.42869,38.08821],[127.42864,38.08823],[127.42861,38.08832],[127.42857,38.08835],[127.42854,38.08852],[127.42843,38.08853]]]}},{"type":"Feature","properties":{"valleyId":"baegun-pocheon","layer":"shadow","date":"2026-08-01","timeLocal":"18:00"},"geometry":{"type":"Polygon","coordinates":[[[127.42742,38.08664],[127.42733,38.08657],[127.42731,38.08641],[127.4274,38.08641],[127.4274,38.08645],[127.42747,38.08646],[127.42747,38.08657],[127.42751,38.08659],[127.42751,38.08664],[127.42742,38.08664]]]}},{"type":"Feature","properties":{"valleyId":"baegun-pocheon","layer":"shadow","date":"2026-08-01","timeLocal":"18:00"},"geometry":{"type":"Polygon","coordinates":[[[127.42906,38.08649],[127.42909,38.08638],[127.42918,38.08638],[127.42916,38.08647],[127.42906,38.08649]]]}},{"type":"Feature","properties":{"valleyId":"baegun-pocheon","layer":"shadow","date":"2026-08-01","timeLocal":"18:00"},"geometry":{"type":"Polygon","coordinates":[[[127.42658,38.08658],[127.42653,38.08654],[127.42653,38.08649],[127.42663,38.0864],[127.42669,38.0864],[127.42683,38.08633],[127.42697,38.08635],[127.42699,38.08658],[127.42658,38.08658]]]}},{"type":"Feature","properties":{"valleyId":"baegun-pocheon","layer":"shadow","date":"2026-08-01","timeLocal":"18:00"},"geometry":{"type":"Polygon","coordinates":[[[127.42772,38.08632],[127.42772,38.08627],[127.42779,38.08627],[127.42779,38.08632],[127.42772,38.08632]]]}},{"type":"Feature","properties":{"valleyId":"baegun-pocheon","layer":"shadow","date":"2026-08-01","timeLocal":"18:00"},"geometry":{"type":"Polygon","coordinates":[[[127.42879,38.08637],[127.4287,38.08634],[127.42873,38.08626],[127.42905,38.0863],[127.42904,38.08636],[127.42879,38.08637]]]}},{"type":"Feature","properties":{"valleyId":"baegun-pocheon","layer":"shadow","date":"2026-08-01","timeLocal":"18:00"},"geometry":{"type":"Polygon","coordinates":[[[127.42724,38.0863],[127.42723,38.0861],[127.42734,38.08608],[127.42734,38.0863],[127.42724,38.0863]]]}},{"type":"Feature","properties":{"valleyId":"baegun-pocheon","layer":"shadow","date":"2026-08-01","timeLocal":"18:00"},"geometry":{"type":"Polygon","coordinates":[[[127.42864,38.08614],[127.42864,38.08607],[127.42871,38.08607],[127.42871,38.08614],[127.42864,38.08614]]]}},{"type":"Feature","properties":{"valleyId":"baegun-pocheon","layer":"shadow","date":"2026-08-01","timeLocal":"18:00"},"geometry":{"type":"Polygon","coordinates":[[[127.42509,38.0856],[127.42512,38.08548],[127.42523,38.08546],[127.42523,38.08553],[127.42518,38.08555],[127.42518,38.08559],[127.42509,38.0856]]]}},{"type":"Feature","properties":{"valleyId":"baegun-pocheon","layer":"shadow","date":"2026-08-01","timeLocal":"18:00"},"geometry":{"type":"Polygon","coordinates":[[[127.42984,38.08529],[127.42982,38.08522],[127.42989,38.08522],[127.42991,38.08529],[127.42984,38.08529]]]}},{"type":"Feature","properties":{"valleyId":"baegun-pocheon","layer":"shadow","date":"2026-08-01","timeLocal":"18:00"},"geometry":{"type":"Polygon","coordinates":[[[127.42342,38.08499],[127.42335,38.08495],[127.42335,38.08488],[127.42344,38.08488],[127.42344,38.08493],[127.42349,38.08493],[127.42349,38.08499],[127.42342,38.08499]]]}},{"type":"Feature","properties":{"valleyId":"baegun-pocheon","layer":"shadow","date":"2026-08-01","timeLocal":"18:00"},"geometry":{"type":"Polygon","coordinates":[[[127.42356,38.08468],[127.42356,38.08461],[127.42363,38.08461],[127.42363,38.08468],[127.42356,38.08468]]]}},{"type":"Feature","properties":{"valleyId":"baegun-pocheon","layer":"shadow","date":"2026-08-01","timeLocal":"18:00"},"geometry":{"type":"Polygon","coordinates":[[[127.42444,38.08522],[127.42435,38.0852],[127.42437,38.08507],[127.42428,38.08502],[127.42419,38.08501],[127.42417,38.08496],[127.42415,38.08465],[127.42434,38.08466],[127.42436,38.0846],[127.4245,38.0846],[127.42452,38.08464],[127.42452,38.08471],[127.42436,38.08473],[127.42436,38.08482],[127.42442,38.08486],[127.42453,38.08504],[127.42453,38.08513],[127.42458,38.08516],[127.42458,38.08522],[127.42444,38.08522]]]}},{"type":"Feature","properties":{"valleyId":"baegun-pocheon","layer":"shadow","date":"2026-08-01","timeLocal":"18:00"},"geometry":{"type":"Polygon","coordinates":[[[127.42454,38.08455],[127.42455,38.08446],[127.42459,38.08442],[127.42457,38.08424],[127.42464,38.08425],[127.42469,38.08432],[127.42466,38.08455],[127.42454,38.08455]]]}},{"type":"Feature","properties":{"valleyId":"baegun-pocheon","layer":"shadow","date":"2026-08-01","timeLocal":"18:00"},"geometry":{"type":"Polygon","coordinates":[[[127.42337,38.08399],[127.42335,38.08392],[127.42356,38.08391],[127.42355,38.084],[127.42337,38.08399]]]}},{"type":"Feature","properties":{"valleyId":"baegun-pocheon","layer":"shadow","date":"2026-08-01","timeLocal":"18:00"},"geometry":{"type":"Polygon","coordinates":[[[127.42984,38.08758],[127.42979,38.08754],[127.42963,38.08752],[127.42952,38.08741],[127.42952,38.08737],[127.42946,38.08737],[127.42943,38.08743],[127.42932,38.08744],[127.42922,38.08751],[127.42922,38.08755],[127.42913,38.08755],[127.42921,38.0873],[127.42907,38.08719],[127.42905,38.08713],[127.42882,38.08713],[127.42873,38.08704],[127.42846,38.087],[127.42839,38.08689],[127.42826,38.0868],[127.42826,38.08676],[127.42819,38.08671],[127.42801,38.08663],[127.4279,38.08654],[127.42781,38.08654],[127.42772,38.08647],[127.42772,38.0864],[127.42806,38.0864],[127.42813,38.08647],[127.42827,38.08651],[127.42824,38.08664],[127.42833,38.08673],[127.42847,38.08675],[127.42847,38.08669],[127.4286,38.08671],[127.42865,38.08675],[127.42869,38.08689],[127.42885,38.08692],[127.42912,38.08686],[127.42913,38.08679],[127.42906,38.08677],[127.42901,38.08672],[127.42895,38.08672],[127.42881,38.08664],[127.42867,38.08664],[127.42861,38.08657],[127.42843,38.08649],[127.42829,38.08635],[127.42829,38.08631],[127.4282,38.08629],[127.42813,38.08624],[127.42814,38.0862],[127.42802,38.08611],[127.42798,38.08611],[127.4278,38.0858],[127.4276,38.08574],[127.42751,38.08567],[127.42742,38.08567],[127.42737,38.08563],[127.42737,38.08556],[127.42719,38.08552],[127.42715,38.08549],[127.42699,38.08547],[127.42692,38.08554],[127.42683,38.08554],[127.4268,38.08557],[127.42667,38.08555],[127.42667,38.08543],[127.4266,38.08537],[127.42653,38.08537],[127.42654,38.08532],[127.42663,38.08532],[127.42667,38.08525],[127.42679,38.08519],[127.42677,38.08498],[127.42668,38.0849],[127.42668,38.08478],[127.4268,38.08478],[127.4268,38.08467],[127.42676,38.08463],[127.4266,38.08461],[127.42639,38.08445],[127.4263,38.08441],[127.42628,38.08434],[127.42624,38.08432],[127.42629,38.0842],[127.42622,38.08416],[127.42613,38.08416],[127.42608,38.08408],[127.42599,38.08408],[127.42597,38.08403],[127.4259,38.08401],[127.4259,38.08387],[127.42586,38.08381],[127.42586,38.08374],[127.42595,38.08374],[127.42602,38.08387],[127.42622,38.08387],[127.42624,38.08398],[127.4264,38.084],[127.42661,38.08415],[127.4269,38.08415],[127.4269,38.08433],[127.42699,38.08438],[127.42699,38.08442],[127.42715,38.08442],[127.42719,38.08448],[127.42724,38.08448],[127.42723,38.08477],[127.42732,38.08489],[127.42737,38.08489],[127.42739,38.08497],[127.42745,38.08497],[127.42752,38.08511],[127.42757,38.08511],[127.42758,38.08564],[127.42769,38.08566],[127.42769,38.08569],[127.4278,38.08571],[127.42785,38.08577],[127.42824,38.08579],[127.42823,38.08595],[127.42835,38.08595],[127.42832,38.08608],[127.42841,38.0861],[127.42838,38.08631],[127.42859,38.08648],[127.42897,38.08652],[127.42895,38.08665],[127.42917,38.0867],[127.42926,38.08678],[127.42926,38.08683],[127.42915,38.08687],[127.42915,38.08694],[127.42921,38.08699],[127.42942,38.08701],[127.42955,38.0871],[127.4296,38.08711],[127.4296,38.08714],[127.42964,38.08716],[127.42992,38.08716],[127.42991,38.08727],[127.43005,38.08736],[127.43005,38.08749],[127.43,38.08753],[127.43,38.08758],[127.42984,38.08758]],[[127.42724,38.08531],[127.42733,38.08531],[127.42733,38.08525],[127.42724,38.08524],[127.42724,38.08531]],[[127.42708,38.08523],[127.42715,38.08523],[127.42715,38.08514],[127.42706,38.08514],[127.42708,38.08523]],[[127.42662,38.08445],[127.42669,38.08445],[127.42667,38.08434],[127.42658,38.08431],[127.42654,38.08425],[127.42642,38.08425],[127.42642,38.08431],[127.42651,38.08432],[127.42662,38.08445]]]}},{"type":"Feature","properties":{"valleyId":"baegun-pocheon","layer":"shadow","date":"2026-08-01","timeLocal":"18:00"},"geometry":{"type":"Polygon","coordinates":[[[127.42545,38.0837],[127.42543,38.08366],[127.42523,38.0836],[127.42523,38.08355],[127.42539,38.08357],[127.42545,38.08363],[127.42554,38.08364],[127.42554,38.0837],[127.42545,38.0837]]]}},{"type":"Feature","properties":{"valleyId":"baegun-pocheon","layer":"shadow","date":"2026-08-01","timeLocal":"18:00"},"geometry":{"type":"Polygon","coordinates":[[[127.42855,38.08365],[127.42856,38.08358],[127.42865,38.08356],[127.42865,38.08363],[127.42855,38.08365]]]}},{"type":"Feature","properties":{"valleyId":"baegun-pocheon","layer":"shadow","date":"2026-08-01","timeLocal":"18:00"},"geometry":{"type":"Polygon","coordinates":[[[127.42498,38.08356],[127.4248,38.08349],[127.4248,38.08344],[127.42498,38.08346],[127.42502,38.08351],[127.42511,38.08351],[127.42511,38.08357],[127.42498,38.08356]]]}},{"type":"Feature","properties":{"valleyId":"baegun-pocheon","layer":"shadow","date":"2026-08-01","timeLocal":"18:00"},"geometry":{"type":"Polygon","coordinates":[[[127.42512,38.08317],[127.42512,38.0831],[127.42526,38.0831],[127.42526,38.08317],[127.42512,38.08317]]]}},{"type":"Feature","properties":{"valleyId":"baegun-pocheon","layer":"shadow","date":"2026-08-01","timeLocal":"18:00"},"geometry":{"type":"Polygon","coordinates":[[[127.42517,38.08288],[127.42517,38.08283],[127.42524,38.08283],[127.42524,38.08288],[127.42517,38.08288]]]}},{"type":"Feature","properties":{"valleyId":"baegun-pocheon","layer":"shadow","date":"2026-08-01","timeLocal":"18:00"},"geometry":{"type":"Polygon","coordinates":[[[127.4278,38.08267],[127.4278,38.08261],[127.42787,38.08261],[127.42787,38.08267],[127.4278,38.08267]]]}},{"type":"Feature","properties":{"valleyId":"baegun-pocheon","layer":"shadow","date":"2026-08-01","timeLocal":"18:00"},"geometry":{"type":"Polygon","coordinates":[[[127.42347,38.08268],[127.42347,38.08264],[127.42342,38.08264],[127.42342,38.08261],[127.42338,38.08261],[127.42331,38.08255],[127.42329,38.08246],[127.4234,38.08246],[127.42345,38.0825],[127.42345,38.08259],[127.42356,38.08261],[127.42356,38.08268],[127.42347,38.08268]]]}},{"type":"Feature","properties":{"valleyId":"baegun-pocheon","layer":"shadow","date":"2026-08-01","timeLocal":"18:00"},"geometry":{"type":"Polygon","coordinates":[[[127.42297,38.08246],[127.42297,38.0824],[127.42302,38.08237],[127.42311,38.08237],[127.42311,38.08244],[127.42297,38.08246]]]}},{"type":"Feature","properties":{"valleyId":"baegun-pocheon","layer":"shadow","date":"2026-08-01","timeLocal":"18:00"},"geometry":{"type":"Polygon","coordinates":[[[127.42311,38.08231],[127.42311,38.08226],[127.42318,38.08226],[127.42318,38.08232],[127.42311,38.08231]]]}},{"type":"Feature","properties":{"valleyId":"baegun-pocheon","layer":"shadow","date":"2026-08-01","timeLocal":"18:00"},"geometry":{"type":"Polygon","coordinates":[[[127.42468,38.08345],[127.42446,38.08341],[127.4242,38.08341],[127.42416,38.08337],[127.42409,38.08337],[127.42407,38.08334],[127.42357,38.08335],[127.42345,38.08333],[127.42339,38.08327],[127.42327,38.08327],[127.42327,38.08318],[127.42323,38.08314],[127.42307,38.08311],[127.423,38.08305],[127.42298,38.08294],[127.42294,38.08294],[127.42289,38.08287],[127.42278,38.08283],[127.42244,38.08256],[127.42233,38.08256],[127.42233,38.08266],[127.4224,38.08268],[127.42242,38.08274],[127.42242,38.08279],[127.42233,38.08279],[127.42228,38.08274],[127.42224,38.08274],[127.42221,38.08264],[127.42212,38.08264],[127.42212,38.08257],[127.42217,38.08257],[127.42222,38.08243],[127.42208,38.08232],[127.4219,38.08232],[127.42174,38.08237],[127.42165,38.08237],[127.42151,38.08231],[127.4215,38.08211],[127.42164,38.08188],[127.42182,38.08192],[127.42182,38.08206],[127.42188,38.08214],[127.422,38.08216],[127.42202,38.08219],[127.42216,38.08219],[127.42218,38.0823],[127.42227,38.0823],[127.42231,38.08234],[127.42243,38.08236],[127.42242,38.08241],[127.42247,38.08241],[127.42247,38.08245],[127.42254,38.08247],[127.42258,38.08252],[127.42274,38.08254],[127.42277,38.08245],[127.42286,38.08244],[127.4229,38.0826],[127.42278,38.08262],[127.42278,38.08272],[127.42323,38.083],[127.42337,38.083],[127.42339,38.08291],[127.42333,38.08284],[127.42317,38.0828],[127.42308,38.08273],[127.42308,38.08267],[127.42329,38.08266],[127.42328,38.0827],[127.42335,38.08271],[127.42351,38.08272],[127.42351,38.08281],[127.42367,38.08288],[127.42369,38.08295],[127.4238,38.08297],[127.4238,38.08301],[127.42385,38.08303],[127.42419,38.08303],[127.42419,38.08319],[127.42425,38.08319],[127.42428,38.08323],[127.42437,38.08323],[127.42441,38.08327],[127.42455,38.08327],[127.42459,38.08331],[127.42466,38.08331],[127.42468,38.08336],[127.42477,38.0834],[127.42477,38.08345],[127.42468,38.08345]]]}},{"type":"Feature","properties":{"valleyId":"baegun-pocheon","layer":"shadow","date":"2026-08-01","timeLocal":"18:00"},"geometry":{"type":"Polygon","coordinates":[[[127.42477,38.08235],[127.42475,38.08228],[127.42471,38.08226],[127.42474,38.08194],[127.42478,38.0819],[127.42488,38.08191],[127.42487,38.082],[127.4248,38.08199],[127.4248,38.08212],[127.42485,38.08212],[127.42485,38.08219],[127.42491,38.08223],[127.42491,38.08236],[127.42477,38.08235]]]}},{"type":"Feature","properties":{"valleyId":"baegun-pocheon","layer":"shadow","date":"2026-08-01","timeLocal":"18:00"},"geometry":{"type":"Polygon","coordinates":[[[127.42526,38.08209],[127.42524,38.08198],[127.42515,38.08193],[127.42517,38.08178],[127.42513,38.08171],[127.42514,38.08148],[127.42523,38.08148],[127.42538,38.08157],[127.42538,38.08188],[127.42533,38.08189],[127.42533,38.08195],[127.42538,38.08195],[127.42537,38.08207],[127.42526,38.08209]]]}}]}
