{"type":"FeatureCollection","metadata":{"description":"개방지(CHM ≤ 2 m)에 드리운 나무·지형 그림자, 2026-08-01 16:00 KST. canopy 위에 겹쳐 그린다","source":"위성 기반 추정 — Copernicus GLO-30 지형(30 m) + Meta/WRI 수관 높이(1 m CHM, 2019 촬영). 그늘 = 수관(CHM > 2 m) ∪ 나무·지형 그림자 ∪ 원거리 지형 마스크. 현장과 다를 수 있음.","datasetVersion":"2026-09-06.0","collectedAt":"2026-09-06","coordinateOrder":"[longitude, latitude]","crs":"EPSG:4326","representativeDate":"2026-08-01","hours":["10:00","11:00","12:00","13:00","14:00","15:00","16:00","17:00","18:00"],"chmAcquisition":["2019-03"],"assets":{"glo30":{"dataset":"Copernicus DEM GLO-30 (COG, s3://copernicus-dem-30m)","tiles":["Copernicus_DSM_COG_10_N37_00_E126_00_DEM","Copernicus_DSM_COG_10_N37_00_E127_00_DEM"]},"chm":{"dataset":"Meta/WRI Global Canopy Height Map v1 (alsgedi_global_v6_float, 1 m, CC-BY 4.0)","quadkeys":["132110302","132110320"],"acquisition":["2019-03"]}},"method":{"gridResM":2,"canopyThresholdM":2,"bufferHalfM":25,"corridorHalfM":200,"simplifyTolM":2,"minAreaM2":25,"coordDecimals":5},"generator":"scripts/shade 0.1.0","builtAt":"2026-09-06T06:04:41Z","layer":"shadow","timeLocal":"16:00"},"features":[{"type":"Feature","properties":{"valleyId":"songchu","layer":"shadow","date":"2026-08-01","timeLocal":"16:00"},"geometry":{"type":"Polygon","coordinates":[[[126.97662,37.72081],[126.97662,37.72074],[126.97671,37.72074],[126.97671,37.72081],[126.97662,37.72081]]]}},{"type":"Feature","properties":{"valleyId":"songchu","layer":"shadow","date":"2026-08-01","timeLocal":"16:00"},"geometry":{"type":"Polygon","coordinates":[[[126.97624,37.72062],[126.97624,37.72057],[126.97631,37.72057],[126.97631,37.72062],[126.97624,37.72062]]]}},{"type":"Feature","properties":{"valleyId":"songchu","layer":"shadow","date":"2026-08-01","timeLocal":"16:00"},"geometry":{"type":"Polygon","coordinates":[[[126.97348,37.72036],[126.97348,37.72031],[126.97355,37.72031],[126.97355,37.72036],[126.97348,37.72036]]]}},{"type":"Feature","properties":{"valleyId":"songchu","layer":"shadow","date":"2026-08-01","timeLocal":"16:00"},"geometry":{"type":"Polygon","coordinates":[[[126.97351,37.72014],[126.97354,37.71995],[126.9736,37.71995],[126.9736,37.72011],[126.97358,37.72015],[126.97351,37.72014]]]}},{"type":"Feature","properties":{"valleyId":"songchu","layer":"shadow","date":"2026-08-01","timeLocal":"16:00"},"geometry":{"type":"Polygon","coordinates":[[[126.97881,37.71881],[126.97883,37.71869],[126.9789,37.71869],[126.97895,37.71872],[126.97895,37.7188],[126.97881,37.71881]]]}},{"type":"Feature","properties":{"valleyId":"songchu","layer":"shadow","date":"2026-08-01","timeLocal":"16:00"},"geometry":{"type":"Polygon","coordinates":[[[126.97025,37.71816],[126.97025,37.71809],[126.97032,37.71809],[126.97032,37.71816],[126.97025,37.71816]]]}},{"type":"Feature","properties":{"valleyId":"songchu","layer":"shadow","date":"2026-08-01","timeLocal":"16:00"},"geometry":{"type":"Polygon","coordinates":[[[126.97414,37.71792],[126.97416,37.71785],[126.97425,37.71785],[126.97425,37.7179],[126.97414,37.71792]]]}},{"type":"Feature","properties":{"valleyId":"songchu","layer":"shadow","date":"2026-08-01","timeLocal":"16:00"},"geometry":{"type":"Polygon","coordinates":[[[126.97795,37.71784],[126.97795,37.71779],[126.97802,37.71779],[126.97802,37.71784],[126.97795,37.71784]]]}},{"type":"Feature","properties":{"valleyId":"songchu","layer":"shadow","date":"2026-08-01","timeLocal":"16:00"},"geometry":{"type":"Polygon","coordinates":[[[126.97947,37.71789],[126.97945,37.71779],[126.97952,37.7178],[126.97954,37.71789],[126.97947,37.71789]]]}},{"type":"Feature","properties":{"valleyId":"songchu","layer":"shadow","date":"2026-08-01","timeLocal":"16:00"},"geometry":{"type":"Polygon","coordinates":[[[126.96992,37.71769],[126.96992,37.71759],[126.96999,37.7176],[126.97001,37.71767],[126.96992,37.71769]]]}},{"type":"Feature","properties":{"valleyId":"songchu","layer":"shadow","date":"2026-08-01","timeLocal":"16:00"},"geometry":{"type":"Polygon","coordinates":[[[126.96995,37.71743],[126.96995,37.71738],[126.97002,37.71738],[126.97002,37.71743],[126.96995,37.71743]]]}},{"type":"Feature","properties":{"valleyId":"songchu","layer":"shadow","date":"2026-08-01","timeLocal":"16:00"},"geometry":{"type":"Polygon","coordinates":[[[126.97862,37.71758],[126.97862,37.71751],[126.97869,37.71751],[126.97868,37.71758],[126.97862,37.71758]]]}},{"type":"Feature","properties":{"valleyId":"songchu","layer":"shadow","date":"2026-08-01","timeLocal":"16:00"},"geometry":{"type":"Polygon","coordinates":[[[126.98094,37.71706],[126.98097,37.71694],[126.98104,37.71694],[126.98101,37.71706],[126.98094,37.71706]]]}},{"type":"Feature","properties":{"valleyId":"songchu","layer":"shadow","date":"2026-08-01","timeLocal":"16:00"},"geometry":{"type":"Polygon","coordinates":[[[126.96943,37.71667],[126.96943,37.71661],[126.9695,37.71661],[126.9695,37.71667],[126.96943,37.71667]]]}},{"type":"Feature","properties":{"valleyId":"songchu","layer":"shadow","date":"2026-08-01","timeLocal":"16:00"},"geometry":{"type":"Polygon","coordinates":[[[126.97048,37.71393],[126.97048,37.71387],[126.97055,37.71387],[126.97055,37.71393],[126.97048,37.71393]]]}},{"type":"Feature","properties":{"valleyId":"songchu","layer":"shadow","date":"2026-08-01","timeLocal":"16:00"},"geometry":{"type":"Polygon","coordinates":[[[126.9701,37.71378],[126.9701,37.71372],[126.97017,37.71372],[126.97017,37.71378],[126.9701,37.71378]]]}},{"type":"Feature","properties":{"valleyId":"songchu","layer":"shadow","date":"2026-08-01","timeLocal":"16:00"},"geometry":{"type":"Polygon","coordinates":[[[126.96768,37.71341],[126.96768,37.71334],[126.96775,37.71334],[126.96775,37.71341],[126.96768,37.71341]]]}},{"type":"Feature","properties":{"valleyId":"songchu","layer":"shadow","date":"2026-08-01","timeLocal":"16:00"},"geometry":{"type":"Polygon","coordinates":[[[126.96726,37.71303],[126.96726,37.71297],[126.96733,37.71297],[126.96733,37.71303],[126.96726,37.71303]]]}},{"type":"Feature","properties":{"valleyId":"songchu","layer":"shadow","date":"2026-08-01","timeLocal":"16:00"},"geometry":{"type":"Polygon","coordinates":[[[126.98642,37.71097],[126.98642,37.71092],[126.98649,37.71092],[126.98649,37.71098],[126.98642,37.71097]]]}},{"type":"Feature","properties":{"valleyId":"songchu","layer":"shadow","date":"2026-08-01","timeLocal":"16:00"},"geometry":{"type":"Polygon","coordinates":[[[126.9864,37.71079],[126.9864,37.71074],[126.98647,37.71074],[126.98647,37.7108],[126.9864,37.71079]]]}},{"type":"Feature","properties":{"valleyId":"songchu","layer":"shadow","date":"2026-08-01","timeLocal":"16:00"},"geometry":{"type":"Polygon","coordinates":[[[127.00162,37.71091],[127.0016,37.7108],[127.00167,37.7108],[127.00169,37.71091],[127.00162,37.71091]]]}},{"type":"Feature","properties":{"valleyId":"songchu","layer":"shadow","date":"2026-08-01","timeLocal":"16:00"},"geometry":{"type":"Polygon","coordinates":[[[126.98597,37.71082],[126.98598,37.71039],[126.98605,37.71032],[126.9861,37.71032],[126.9861,37.71028],[126.98616,37.71029],[126.98616,37.71034],[126.98614,37.71038],[126.98609,37.71037],[126.98607,37.71046],[126.98609,37.71064],[126.98604,37.71066],[126.98604,37.71082],[126.98597,37.71082]]]}},{"type":"Feature","properties":{"valleyId":"songchu","layer":"shadow","date":"2026-08-01","timeLocal":"16:00"},"geometry":{"type":"Polygon","coordinates":[[[127.00196,37.71019],[127.00196,37.71007],[127.00205,37.71005],[127.00205,37.71016],[127.00203,37.71019],[127.00196,37.71019]]]}},{"type":"Feature","properties":{"valleyId":"songchu","layer":"shadow","date":"2026-08-01","timeLocal":"16:00"},"geometry":{"type":"Polygon","coordinates":[[[126.99695,37.70989],[126.99695,37.7098],[126.99702,37.7098],[126.99702,37.70989],[126.99695,37.70989]]]}},{"type":"Feature","properties":{"valleyId":"songchu","layer":"shadow","date":"2026-08-01","timeLocal":"16:00"},"geometry":{"type":"Polygon","coordinates":[[[126.99693,37.70968],[126.99699,37.70942],[126.99705,37.70943],[126.99707,37.70955],[126.99703,37.70957],[126.997,37.70968],[126.99693,37.70968]]]}},{"type":"Feature","properties":{"valleyId":"songchu","layer":"shadow","date":"2026-08-01","timeLocal":"16:00"},"geometry":{"type":"Polygon","coordinates":[[[126.9861,37.70931],[126.9861,37.70917],[126.98617,37.70917],[126.98619,37.70931],[126.9861,37.70931]]]}},{"type":"Feature","properties":{"valleyId":"songchu","layer":"shadow","date":"2026-08-01","timeLocal":"16:00"},"geometry":{"type":"Polygon","coordinates":[[[126.98608,37.70909],[126.98609,37.70897],[126.98618,37.70897],[126.98617,37.7091],[126.98608,37.70909]]]}},{"type":"Feature","properties":{"valleyId":"songchu","layer":"shadow","date":"2026-08-01","timeLocal":"16:00"},"geometry":{"type":"Polygon","coordinates":[[[127.00216,37.70935],[127.00217,37.70921],[127.00223,37.70919],[127.00223,37.70915],[127.00235,37.70916],[127.00235,37.70926],[127.00223,37.70926],[127.00223,37.70935],[127.00216,37.70935]]]}},{"type":"Feature","properties":{"valleyId":"songchu","layer":"shadow","date":"2026-08-01","timeLocal":"16:00"},"geometry":{"type":"Polygon","coordinates":[[[126.96984,37.70734],[126.96982,37.70723],[126.96989,37.70723],[126.96991,37.70734],[126.96984,37.70734]]]}},{"type":"Feature","properties":{"valleyId":"songchu","layer":"shadow","date":"2026-08-01","timeLocal":"16:00"},"geometry":{"type":"Polygon","coordinates":[[[126.96976,37.70714],[126.96976,37.70707],[126.96983,37.70707],[126.96982,37.70714],[126.96976,37.70714]]]}},{"type":"Feature","properties":{"valleyId":"songchu","layer":"shadow","date":"2026-08-01","timeLocal":"16:00"},"geometry":{"type":"Polygon","coordinates":[[[126.97924,37.70716],[126.97924,37.70707],[126.97931,37.70707],[126.97931,37.70716],[126.97924,37.70716]]]}},{"type":"Feature","properties":{"valleyId":"songchu","layer":"shadow","date":"2026-08-01","timeLocal":"16:00"},"geometry":{"type":"Polygon","coordinates":[[[126.9702,37.70684],[126.9702,37.70679],[126.97027,37.70679],[126.97026,37.70684],[126.9702,37.70684]]]}},{"type":"Feature","properties":{"valleyId":"songchu","layer":"shadow","date":"2026-08-01","timeLocal":"16:00"},"geometry":{"type":"Polygon","coordinates":[[[126.97416,37.70624],[126.97419,37.70611],[126.97425,37.70612],[126.97423,37.70624],[126.97416,37.70624]]]}},{"type":"Feature","properties":{"valleyId":"songchu","layer":"shadow","date":"2026-08-01","timeLocal":"16:00"},"geometry":{"type":"Polygon","coordinates":[[[126.97396,37.706],[126.97396,37.70591],[126.97403,37.70591],[126.97403,37.706],[126.97396,37.706]]]}},{"type":"Feature","properties":{"valleyId":"songchu","layer":"shadow","date":"2026-08-01","timeLocal":"16:00"},"geometry":{"type":"Polygon","coordinates":[[[126.97417,37.70599],[126.97419,37.70588],[126.97431,37.70588],[126.9743,37.70597],[126.97417,37.70599]]]}},{"type":"Feature","properties":{"valleyId":"songchu","layer":"shadow","date":"2026-08-01","timeLocal":"16:00"},"geometry":{"type":"Polygon","coordinates":[[[126.97433,37.70587],[126.97433,37.70578],[126.9744,37.70578],[126.9744,37.70587],[126.97433,37.70587]]]}},{"type":"Feature","properties":{"valleyId":"songchu","layer":"shadow","date":"2026-08-01","timeLocal":"16:00"},"geometry":{"type":"Polygon","coordinates":[[[126.97465,37.70555],[126.97466,37.70549],[126.97472,37.70549],[126.97472,37.70555],[126.97465,37.70555]]]}},{"type":"Feature","properties":{"valleyId":"songchu","layer":"shadow","date":"2026-08-01","timeLocal":"16:00"},"geometry":{"type":"Polygon","coordinates":[[[126.97475,37.70549],[126.97475,37.70544],[126.97486,37.70542],[126.97491,37.70533],[126.97507,37.70536],[126.97504,37.70543],[126.97486,37.70544],[126.97486,37.7055],[126.97475,37.70549]]]}},{"type":"Feature","properties":{"valleyId":"songchu","layer":"shadow","date":"2026-08-01","timeLocal":"16:00"},"geometry":{"type":"Polygon","coordinates":[[[126.97344,37.70535],[126.97344,37.70522],[126.97351,37.70522],[126.9735,37.70535],[126.97344,37.70535]]]}},{"type":"Feature","properties":{"valleyId":"songchu","layer":"shadow","date":"2026-08-01","timeLocal":"16:00"},"geometry":{"type":"Polygon","coordinates":[[[126.97359,37.70482],[126.97359,37.70473],[126.97366,37.70474],[126.97365,37.70483],[126.97359,37.70482]]]}},{"type":"Feature","properties":{"valleyId":"songchu","layer":"shadow","date":"2026-08-01","timeLocal":"16:00"},"geometry":{"type":"Polygon","coordinates":[[[126.97278,37.70431],[126.97278,37.70425],[126.97285,37.70425],[126.97285,37.70431],[126.97278,37.70431]]]}},{"type":"Feature","properties":{"valleyId":"songchu","layer":"shadow","date":"2026-08-01","timeLocal":"16:00"},"geometry":{"type":"Polygon","coordinates":[[[126.97349,37.70349],[126.97349,37.70342],[126.9736,37.70342],[126.9736,37.70349],[126.97349,37.70349]]]}}]}
