{"type":"FeatureCollection","metadata":{"description":"개방지(CHM ≤ 2 m)에 드리운 나무·지형 그림자, 2026-08-01 17:00 KST. canopy 위에 겹쳐 그린다","source":"위성 기반 추정 — Copernicus GLO-30 지형(30 m) + Meta/WRI 수관 높이(1 m CHM, 2019 촬영). 그늘 = 수관(CHM > 2 m) ∪ 나무·지형 그림자 ∪ 원거리 지형 마스크. 현장과 다를 수 있음.","datasetVersion":"2026-09-06.0","collectedAt":"2026-09-06","coordinateOrder":"[longitude, latitude]","crs":"EPSG:4326","representativeDate":"2026-08-01","hours":["10:00","11:00","12:00","13:00","14:00","15:00","16:00","17:00","18:00"],"chmAcquisition":["2019-03"],"assets":{"glo30":{"dataset":"Copernicus DEM GLO-30 (COG, s3://copernicus-dem-30m)","tiles":["Copernicus_DSM_COG_10_N37_00_E126_00_DEM","Copernicus_DSM_COG_10_N37_00_E127_00_DEM"]},"chm":{"dataset":"Meta/WRI Global Canopy Height Map v1 (alsgedi_global_v6_float, 1 m, CC-BY 4.0)","quadkeys":["132110302","132110320"],"acquisition":["2019-03"]}},"method":{"gridResM":2,"canopyThresholdM":2,"bufferHalfM":25,"corridorHalfM":200,"simplifyTolM":2,"minAreaM2":25,"coordDecimals":5},"generator":"scripts/shade 0.1.0","builtAt":"2026-09-06T06:04:41Z","layer":"shadow","timeLocal":"17:00"},"features":[{"type":"Feature","properties":{"valleyId":"songchu","layer":"shadow","date":"2026-08-01","timeLocal":"17:00"},"geometry":{"type":"Polygon","coordinates":[[[126.97662,37.72081],[126.97662,37.7207],[126.97678,37.72072],[126.97678,37.72079],[126.97662,37.72081]]]}},{"type":"Feature","properties":{"valleyId":"songchu","layer":"shadow","date":"2026-08-01","timeLocal":"17:00"},"geometry":{"type":"Polygon","coordinates":[[[126.97404,37.72068],[126.97404,37.72053],[126.97413,37.72053],[126.97411,37.72068],[126.97404,37.72068]]]}},{"type":"Feature","properties":{"valleyId":"songchu","layer":"shadow","date":"2026-08-01","timeLocal":"17:00"},"geometry":{"type":"Polygon","coordinates":[[[126.97624,37.72062],[126.97624,37.72055],[126.97638,37.72055],[126.97635,37.72063],[126.97624,37.72062]]]}},{"type":"Feature","properties":{"valleyId":"songchu","layer":"shadow","date":"2026-08-01","timeLocal":"17:00"},"geometry":{"type":"Polygon","coordinates":[[[126.97453,37.72023],[126.97453,37.72016],[126.97462,37.72016],[126.97462,37.72022],[126.97453,37.72023]]]}},{"type":"Feature","properties":{"valleyId":"songchu","layer":"shadow","date":"2026-08-01","timeLocal":"17:00"},"geometry":{"type":"Polygon","coordinates":[[[126.97294,37.72012],[126.97294,37.72006],[126.97301,37.72006],[126.97301,37.72012],[126.97294,37.72012]]]}},{"type":"Feature","properties":{"valleyId":"songchu","layer":"shadow","date":"2026-08-01","timeLocal":"17:00"},"geometry":{"type":"Polygon","coordinates":[[[126.9735,37.72038],[126.97348,37.72027],[126.97344,37.72025],[126.97344,37.72018],[126.97351,37.72014],[126.97354,37.71989],[126.97363,37.71989],[126.97367,37.71995],[126.97369,37.72007],[126.97365,37.72009],[126.97362,37.72016],[126.97355,37.72018],[126.97355,37.72023],[126.9736,37.72025],[126.9736,37.72029],[126.97364,37.72029],[126.97364,37.72038],[126.9735,37.72038]]]}},{"type":"Feature","properties":{"valleyId":"songchu","layer":"shadow","date":"2026-08-01","timeLocal":"17:00"},"geometry":{"type":"Polygon","coordinates":[[[126.97436,37.71958],[126.97436,37.71953],[126.97443,37.71953],[126.97443,37.71958],[126.97436,37.71958]]]}},{"type":"Feature","properties":{"valleyId":"songchu","layer":"shadow","date":"2026-08-01","timeLocal":"17:00"},"geometry":{"type":"Polygon","coordinates":[[[126.97112,37.7194],[126.97113,37.71935],[126.97119,37.71935],[126.97119,37.7194],[126.97112,37.7194]]]}},{"type":"Feature","properties":{"valleyId":"songchu","layer":"shadow","date":"2026-08-01","timeLocal":"17:00"},"geometry":{"type":"Polygon","coordinates":[[[126.9724,37.71931],[126.9724,37.71926],[126.97247,37.71926],[126.97246,37.71931],[126.9724,37.71931]]]}},{"type":"Feature","properties":{"valleyId":"songchu","layer":"shadow","date":"2026-08-01","timeLocal":"17:00"},"geometry":{"type":"Polygon","coordinates":[[[126.97154,37.71924],[126.97154,37.71919],[126.97161,37.71919],[126.9716,37.71925],[126.97154,37.71924]]]}},{"type":"Feature","properties":{"valleyId":"songchu","layer":"shadow","date":"2026-08-01","timeLocal":"17:00"},"geometry":{"type":"Polygon","coordinates":[[[126.96966,37.71914],[126.96966,37.71909],[126.96973,37.71909],[126.96972,37.71914],[126.96966,37.71914]]]}},{"type":"Feature","properties":{"valleyId":"songchu","layer":"shadow","date":"2026-08-01","timeLocal":"17:00"},"geometry":{"type":"Polygon","coordinates":[[[126.97102,37.71911],[126.97102,37.71906],[126.97109,37.71906],[126.97109,37.71911],[126.97102,37.71911]]]}},{"type":"Feature","properties":{"valleyId":"songchu","layer":"shadow","date":"2026-08-01","timeLocal":"17:00"},"geometry":{"type":"Polygon","coordinates":[[[126.97354,37.71912],[126.97356,37.71903],[126.97363,37.71903],[126.97363,37.7191],[126.97354,37.71912]]]}},{"type":"Feature","properties":{"valleyId":"songchu","layer":"shadow","date":"2026-08-01","timeLocal":"17:00"},"geometry":{"type":"Polygon","coordinates":[[[126.97011,37.71899],[126.97012,37.71891],[126.97018,37.71892],[126.97018,37.71899],[126.97011,37.71899]]]}},{"type":"Feature","properties":{"valleyId":"songchu","layer":"shadow","date":"2026-08-01","timeLocal":"17:00"},"geometry":{"type":"Polygon","coordinates":[[[126.97145,37.71894],[126.97146,37.71888],[126.97152,37.71888],[126.97152,37.71894],[126.97145,37.71894]]]}},{"type":"Feature","properties":{"valleyId":"songchu","layer":"shadow","date":"2026-08-01","timeLocal":"17:00"},"geometry":{"type":"Polygon","coordinates":[[[126.97016,37.7189],[126.97017,37.71877],[126.97021,37.7187],[126.97028,37.7187],[126.97028,37.71884],[126.97023,37.7189],[126.97016,37.7189]]]}},{"type":"Feature","properties":{"valleyId":"songchu","layer":"shadow","date":"2026-08-01","timeLocal":"17:00"},"geometry":{"type":"Polygon","coordinates":[[[126.97153,37.71878],[126.97153,37.71872],[126.9716,37.71872],[126.97159,37.71878],[126.97153,37.71878]]]}},{"type":"Feature","properties":{"valleyId":"songchu","layer":"shadow","date":"2026-08-01","timeLocal":"17:00"},"geometry":{"type":"Polygon","coordinates":[[[126.98081,37.71883],[126.98081,37.71872],[126.98088,37.71872],[126.98087,37.71883],[126.98081,37.71883]]]}},{"type":"Feature","properties":{"valleyId":"songchu","layer":"shadow","date":"2026-08-01","timeLocal":"17:00"},"geometry":{"type":"Polygon","coordinates":[[[126.96985,37.71882],[126.9699,37.71868],[126.96996,37.71866],[126.96997,37.71859],[126.97001,37.71859],[126.97006,37.7185],[126.97013,37.7185],[126.97013,37.71857],[126.97006,37.71861],[126.97003,37.71866],[126.96999,37.71866],[126.96996,37.7188],[126.96985,37.71882]]]}},{"type":"Feature","properties":{"valleyId":"songchu","layer":"shadow","date":"2026-08-01","timeLocal":"17:00"},"geometry":{"type":"Polygon","coordinates":[[[126.97881,37.71879],[126.97884,37.71865],[126.97904,37.71869],[126.97904,37.71874],[126.97899,37.71874],[126.97897,37.71878],[126.97881,37.71879]]]}},{"type":"Feature","properties":{"valleyId":"songchu","layer":"shadow","date":"2026-08-01","timeLocal":"17:00"},"geometry":{"type":"Polygon","coordinates":[[[126.97223,37.71859],[126.97224,37.71854],[126.9723,37.71854],[126.9723,37.71859],[126.97223,37.71859]]]}},{"type":"Feature","properties":{"valleyId":"songchu","layer":"shadow","date":"2026-08-01","timeLocal":"17:00"},"geometry":{"type":"Polygon","coordinates":[[[126.97775,37.71849],[126.97775,37.71838],[126.97782,37.71838],[126.97782,37.71849],[126.97775,37.71849]]]}},{"type":"Feature","properties":{"valleyId":"songchu","layer":"shadow","date":"2026-08-01","timeLocal":"17:00"},"geometry":{"type":"Polygon","coordinates":[[[126.97823,37.71837],[126.97823,37.71828],[126.97832,37.71828],[126.97834,37.71835],[126.97823,37.71837]]]}},{"type":"Feature","properties":{"valleyId":"songchu","layer":"shadow","date":"2026-08-01","timeLocal":"17:00"},"geometry":{"type":"Polygon","coordinates":[[[126.97084,37.71826],[126.97086,37.7181],[126.97093,37.7181],[126.97091,37.71826],[126.97084,37.71826]]]}},{"type":"Feature","properties":{"valleyId":"songchu","layer":"shadow","date":"2026-08-01","timeLocal":"17:00"},"geometry":{"type":"Polygon","coordinates":[[[126.97025,37.71816],[126.97025,37.71807],[126.97032,37.71807],[126.97032,37.71811],[126.97036,37.71811],[126.97036,37.71816],[126.97025,37.71816]]]}},{"type":"Feature","properties":{"valleyId":"songchu","layer":"shadow","date":"2026-08-01","timeLocal":"17:00"},"geometry":{"type":"Polygon","coordinates":[[[126.97522,37.71817],[126.97522,37.71812],[126.97529,37.71812],[126.97529,37.71817],[126.97522,37.71817]]]}},{"type":"Feature","properties":{"valleyId":"songchu","layer":"shadow","date":"2026-08-01","timeLocal":"17:00"},"geometry":{"type":"Polygon","coordinates":[[[126.97774,37.7182],[126.97774,37.71811],[126.97783,37.71811],[126.97783,37.71818],[126.97774,37.7182]]]}},{"type":"Feature","properties":{"valleyId":"songchu","layer":"shadow","date":"2026-08-01","timeLocal":"17:00"},"geometry":{"type":"Polygon","coordinates":[[[126.98089,37.71822],[126.98087,37.71813],[126.98094,37.71813],[126.98096,37.71822],[126.98089,37.71822]]]}},{"type":"Feature","properties":{"valleyId":"songchu","layer":"shadow","date":"2026-08-01","timeLocal":"17:00"},"geometry":{"type":"Polygon","coordinates":[[[126.96925,37.71803],[126.96921,37.718],[126.96921,37.71793],[126.9693,37.71791],[126.96932,37.71804],[126.96925,37.71803]]]}},{"type":"Feature","properties":{"valleyId":"songchu","layer":"shadow","date":"2026-08-01","timeLocal":"17:00"},"geometry":{"type":"Polygon","coordinates":[[[126.97416,37.7179],[126.97416,37.71785],[126.97432,37.71783],[126.97432,37.71789],[126.97416,37.7179]]]}},{"type":"Feature","properties":{"valleyId":"songchu","layer":"shadow","date":"2026-08-01","timeLocal":"17:00"},"geometry":{"type":"Polygon","coordinates":[[[126.97795,37.71784],[126.97795,37.71777],[126.97802,37.71777],[126.97804,37.71784],[126.97795,37.71784]]]}},{"type":"Feature","properties":{"valleyId":"songchu","layer":"shadow","date":"2026-08-01","timeLocal":"17:00"},"geometry":{"type":"Polygon","coordinates":[[[126.97949,37.71796],[126.97945,37.71778],[126.97963,37.7178],[126.9796,37.71794],[126.97949,37.71796]]]}},{"type":"Feature","properties":{"valleyId":"songchu","layer":"shadow","date":"2026-08-01","timeLocal":"17:00"},"geometry":{"type":"Polygon","coordinates":[[[126.97478,37.71779],[126.97478,37.71768],[126.97485,37.71768],[126.97484,37.71779],[126.97478,37.71779]]]}},{"type":"Feature","properties":{"valleyId":"songchu","layer":"shadow","date":"2026-08-01","timeLocal":"17:00"},"geometry":{"type":"Polygon","coordinates":[[[126.97997,37.71782],[126.97997,37.71777],[126.98004,37.71777],[126.98004,37.71782],[126.97997,37.71782]]]}},{"type":"Feature","properties":{"valleyId":"songchu","layer":"shadow","date":"2026-08-01","timeLocal":"17:00"},"geometry":{"type":"Polygon","coordinates":[[[126.97172,37.71748],[126.97172,37.71743],[126.97188,37.71739],[126.97188,37.71747],[126.97172,37.71748]]]}},{"type":"Feature","properties":{"valleyId":"songchu","layer":"shadow","date":"2026-08-01","timeLocal":"17:00"},"geometry":{"type":"Polygon","coordinates":[[[126.97862,37.71758],[126.97862,37.71749],[126.97873,37.71751],[126.97871,37.71758],[126.97862,37.71758]]]}},{"type":"Feature","properties":{"valleyId":"songchu","layer":"shadow","date":"2026-08-01","timeLocal":"17:00"},"geometry":{"type":"Polygon","coordinates":[[[126.97417,37.71756],[126.97417,37.71745],[126.97422,37.71742],[126.97422,37.71736],[126.97429,37.71736],[126.97424,37.71756],[126.97417,37.71756]]]}},{"type":"Feature","properties":{"valleyId":"songchu","layer":"shadow","date":"2026-08-01","timeLocal":"17:00"},"geometry":{"type":"Polygon","coordinates":[[[126.969,37.71736],[126.969,37.71722],[126.96912,37.7172],[126.96912,37.71729],[126.96907,37.71736],[126.969,37.71736]]]}},{"type":"Feature","properties":{"valleyId":"songchu","layer":"shadow","date":"2026-08-01","timeLocal":"17:00"},"geometry":{"type":"Polygon","coordinates":[[[126.97483,37.71757],[126.97481,37.71734],[126.97483,37.71728],[126.97488,37.71728],[126.97488,37.71718],[126.97495,37.71718],[126.97497,37.71725],[126.97495,37.71728],[126.9749,37.71728],[126.97494,37.71756],[126.97483,37.71757]]]}},{"type":"Feature","properties":{"valleyId":"songchu","layer":"shadow","date":"2026-08-01","timeLocal":"17:00"},"geometry":{"type":"Polygon","coordinates":[[[126.98114,37.71723],[126.98114,37.71717],[126.98121,37.71718],[126.98121,37.71723],[126.98114,37.71723]]]}},{"type":"Feature","properties":{"valleyId":"songchu","layer":"shadow","date":"2026-08-01","timeLocal":"17:00"},"geometry":{"type":"Polygon","coordinates":[[[126.97427,37.71707],[126.97427,37.71702],[126.97434,37.71702],[126.97434,37.71708],[126.97427,37.71707]]]}},{"type":"Feature","properties":{"valleyId":"songchu","layer":"shadow","date":"2026-08-01","timeLocal":"17:00"},"geometry":{"type":"Polygon","coordinates":[[[126.97672,37.71712],[126.97672,37.71704],[126.97679,37.71705],[126.97679,37.71712],[126.97672,37.71712]]]}},{"type":"Feature","properties":{"valleyId":"songchu","layer":"shadow","date":"2026-08-01","timeLocal":"17:00"},"geometry":{"type":"Polygon","coordinates":[[[126.97813,37.71707],[126.97813,37.717],[126.97822,37.717],[126.97822,37.71707],[126.97813,37.71707]]]}},{"type":"Feature","properties":{"valleyId":"songchu","layer":"shadow","date":"2026-08-01","timeLocal":"17:00"},"geometry":{"type":"Polygon","coordinates":[[[126.97457,37.71704],[126.97457,37.71692],[126.97464,37.71692],[126.97464,37.71705],[126.97457,37.71704]]]}},{"type":"Feature","properties":{"valleyId":"songchu","layer":"shadow","date":"2026-08-01","timeLocal":"17:00"},"geometry":{"type":"Polygon","coordinates":[[[126.96933,37.7169],[126.96933,37.71683],[126.9694,37.71683],[126.9694,37.7169],[126.96933,37.7169]]]}},{"type":"Feature","properties":{"valleyId":"songchu","layer":"shadow","date":"2026-08-01","timeLocal":"17:00"},"geometry":{"type":"Polygon","coordinates":[[[126.9698,37.71786],[126.96983,37.71772],[126.96992,37.71767],[126.96995,37.71736],[126.96978,37.71721],[126.96978,37.71714],[126.96967,37.71712],[126.96958,37.71703],[126.96956,37.71692],[126.96963,37.7169],[126.96963,37.71681],[126.96976,37.71684],[126.96976,37.71689],[126.96969,37.71691],[126.96969,37.71696],[126.96974,37.71696],[126.9698,37.71714],[126.96989,37.71714],[126.96991,37.71722],[126.96996,37.71725],[126.97002,37.71725],[126.97002,37.71729],[126.97009,37.71731],[126.97011,37.71736],[126.97008,37.71756],[126.97013,37.7176],[126.97013,37.71765],[126.96999,37.71772],[126.96994,37.71785],[126.9698,37.71786]]]}},{"type":"Feature","properties":{"valleyId":"songchu","layer":"shadow","date":"2026-08-01","timeLocal":"17:00"},"geometry":{"type":"Polygon","coordinates":[[[126.98094,37.71706],[126.98097,37.71694],[126.98106,37.71694],[126.9811,37.71698],[126.9811,37.71705],[126.98094,37.71706]]]}},{"type":"Feature","properties":{"valleyId":"songchu","layer":"shadow","date":"2026-08-01","timeLocal":"17:00"},"geometry":{"type":"Polygon","coordinates":[[[126.96943,37.71667],[126.96943,37.71661],[126.96952,37.71661],[126.96952,37.71667],[126.96943,37.71667]]]}},{"type":"Feature","properties":{"valleyId":"songchu","layer":"shadow","date":"2026-08-01","timeLocal":"17:00"},"geometry":{"type":"Polygon","coordinates":[[[126.97517,37.71677],[126.97517,37.71671],[126.97524,37.71671],[126.97523,37.71677],[126.97517,37.71677]]]}},{"type":"Feature","properties":{"valleyId":"songchu","layer":"shadow","date":"2026-08-01","timeLocal":"17:00"},"geometry":{"type":"Polygon","coordinates":[[[126.9691,37.71636],[126.9691,37.71626],[126.96917,37.71627],[126.96919,37.71636],[126.9691,37.71636]]]}},{"type":"Feature","properties":{"valleyId":"songchu","layer":"shadow","date":"2026-08-01","timeLocal":"17:00"},"geometry":{"type":"Polygon","coordinates":[[[126.97577,37.71642],[126.97577,37.71629],[126.97584,37.71629],[126.97586,37.71638],[126.97583,37.71642],[126.97577,37.71642]]]}},{"type":"Feature","properties":{"valleyId":"songchu","layer":"shadow","date":"2026-08-01","timeLocal":"17:00"},"geometry":{"type":"Polygon","coordinates":[[[126.98046,37.71642],[126.98046,37.71637],[126.98053,37.71637],[126.98053,37.71643],[126.98046,37.71642]]]}},{"type":"Feature","properties":{"valleyId":"songchu","layer":"shadow","date":"2026-08-01","timeLocal":"17:00"},"geometry":{"type":"Polygon","coordinates":[[[126.97577,37.71624],[126.97577,37.71613],[126.9758,37.71609],[126.97587,37.71609],[126.97584,37.71624],[126.97577,37.71624]]]}},{"type":"Feature","properties":{"valleyId":"songchu","layer":"shadow","date":"2026-08-01","timeLocal":"17:00"},"geometry":{"type":"Polygon","coordinates":[[[126.97802,37.71626],[126.97802,37.71615],[126.97797,37.71613],[126.97798,37.71608],[126.97804,37.71608],[126.97813,37.71613],[126.97813,37.71622],[126.97808,37.71626],[126.97802,37.71626]]]}},{"type":"Feature","properties":{"valleyId":"songchu","layer":"shadow","date":"2026-08-01","timeLocal":"17:00"},"geometry":{"type":"Polygon","coordinates":[[[126.97598,37.71608],[126.97598,37.71602],[126.97605,37.71602],[126.97605,37.71608],[126.97598,37.71608]]]}},{"type":"Feature","properties":{"valleyId":"songchu","layer":"shadow","date":"2026-08-01","timeLocal":"17:00"},"geometry":{"type":"Polygon","coordinates":[[[126.96821,37.71569],[126.96821,37.71562],[126.96832,37.71562],[126.96832,37.71569],[126.96821,37.71569]]]}},{"type":"Feature","properties":{"valleyId":"songchu","layer":"shadow","date":"2026-08-01","timeLocal":"17:00"},"geometry":{"type":"Polygon","coordinates":[[[126.97998,37.71586],[126.97998,37.71579],[126.98005,37.71579],[126.98005,37.71586],[126.97998,37.71586]]]}},{"type":"Feature","properties":{"valleyId":"songchu","layer":"shadow","date":"2026-08-01","timeLocal":"17:00"},"geometry":{"type":"Polygon","coordinates":[[[126.97144,37.7153],[126.97144,37.71524],[126.97151,37.71524],[126.97151,37.7153],[126.97144,37.7153]]]}},{"type":"Feature","properties":{"valleyId":"songchu","layer":"shadow","date":"2026-08-01","timeLocal":"17:00"},"geometry":{"type":"Polygon","coordinates":[[[126.97878,37.71562],[126.97878,37.71557],[126.9789,37.71539],[126.9789,37.71532],[126.97897,37.71532],[126.9789,37.71555],[126.97885,37.71562],[126.97878,37.71562]]]}},{"type":"Feature","properties":{"valleyId":"songchu","layer":"shadow","date":"2026-08-01","timeLocal":"17:00"},"geometry":{"type":"Polygon","coordinates":[[[126.96738,37.71514],[126.96738,37.71508],[126.96745,37.71508],[126.96745,37.71514],[126.96738,37.71514]]]}},{"type":"Feature","properties":{"valleyId":"songchu","layer":"shadow","date":"2026-08-01","timeLocal":"17:00"},"geometry":{"type":"Polygon","coordinates":[[[126.97125,37.71493],[126.97125,37.71486],[126.97134,37.71486],[126.97134,37.71492],[126.97125,37.71493]]]}},{"type":"Feature","properties":{"valleyId":"songchu","layer":"shadow","date":"2026-08-01","timeLocal":"17:00"},"geometry":{"type":"Polygon","coordinates":[[[126.97954,37.71527],[126.97954,37.7152],[126.97959,37.7152],[126.97961,37.71511],[126.97975,37.71501],[126.97978,37.71483],[126.97989,37.71476],[126.9799,37.7147],[126.97994,37.71467],[126.97994,37.71459],[126.97988,37.71456],[126.97986,37.7145],[126.97986,37.71441],[126.9799,37.7144],[126.97991,37.71436],[126.97995,37.71436],[126.97998,37.71427],[126.98007,37.71425],[126.98004,37.71438],[126.98,37.7144],[126.97999,37.71456],[126.98006,37.7146],[126.98006,37.71467],[126.98001,37.7147],[126.98001,37.71476],[126.97992,37.71481],[126.97984,37.71501],[126.97973,37.71511],[126.9797,37.71522],[126.97963,37.71527],[126.97954,37.71527]]]}},{"type":"Feature","properties":{"valleyId":"songchu","layer":"shadow","date":"2026-08-01","timeLocal":"17:00"},"geometry":{"type":"Polygon","coordinates":[[[126.97891,37.71425],[126.97891,37.71418],[126.979,37.71418],[126.979,37.71425],[126.97891,37.71425]]]}},{"type":"Feature","properties":{"valleyId":"songchu","layer":"shadow","date":"2026-08-01","timeLocal":"17:00"},"geometry":{"type":"Polygon","coordinates":[[[126.98213,37.71422],[126.98213,37.71416],[126.98222,37.71417],[126.98222,37.71422],[126.98213,37.71422]]]}},{"type":"Feature","properties":{"valleyId":"songchu","layer":"shadow","date":"2026-08-01","timeLocal":"17:00"},"geometry":{"type":"Polygon","coordinates":[[[126.98009,37.71424],[126.98009,37.71418],[126.98016,37.71417],[126.98018,37.71411],[126.98025,37.71411],[126.98025,37.7142],[126.9802,37.71424],[126.98009,37.71424]]]}},{"type":"Feature","properties":{"valleyId":"songchu","layer":"shadow","date":"2026-08-01","timeLocal":"17:00"},"geometry":{"type":"Polygon","coordinates":[[[126.98032,37.71417],[126.98032,37.7141],[126.98039,37.7141],[126.98039,37.71417],[126.98032,37.71417]]]}},{"type":"Feature","properties":{"valleyId":"songchu","layer":"shadow","date":"2026-08-01","timeLocal":"17:00"},"geometry":{"type":"Polygon","coordinates":[[[126.97048,37.71393],[126.97048,37.71386],[126.97057,37.71386],[126.97057,37.71391],[126.97048,37.71393]]]}},{"type":"Feature","properties":{"valleyId":"songchu","layer":"shadow","date":"2026-08-01","timeLocal":"17:00"},"geometry":{"type":"Polygon","coordinates":[[[126.96982,37.71388],[126.96982,37.71383],[126.96991,37.71383],[126.96991,37.71388],[126.96982,37.71388]]]}},{"type":"Feature","properties":{"valleyId":"songchu","layer":"shadow","date":"2026-08-01","timeLocal":"17:00"},"geometry":{"type":"Polygon","coordinates":[[[126.9722,37.71407],[126.9722,37.71399],[126.97211,37.7139],[126.97211,37.71385],[126.97218,37.71385],[126.97227,37.71398],[126.97227,37.71407],[126.9722,37.71407]]]}},{"type":"Feature","properties":{"valleyId":"songchu","layer":"shadow","date":"2026-08-01","timeLocal":"17:00"},"geometry":{"type":"Polygon","coordinates":[[[126.97239,37.71387],[126.97239,37.71382],[126.97246,37.71382],[126.97245,37.71387],[126.97239,37.71387]]]}},{"type":"Feature","properties":{"valleyId":"songchu","layer":"shadow","date":"2026-08-01","timeLocal":"17:00"},"geometry":{"type":"Polygon","coordinates":[[[126.97926,37.71392],[126.97924,37.71384],[126.97931,37.71385],[126.97933,37.71392],[126.97926,37.71392]]]}},{"type":"Feature","properties":{"valleyId":"songchu","layer":"shadow","date":"2026-08-01","timeLocal":"17:00"},"geometry":{"type":"Polygon","coordinates":[[[126.9701,37.71378],[126.97012,37.71365],[126.97019,37.71365],[126.97019,37.71378],[126.9701,37.71378]]]}},{"type":"Feature","properties":{"valleyId":"songchu","layer":"shadow","date":"2026-08-01","timeLocal":"17:00"},"geometry":{"type":"Polygon","coordinates":[[[126.97345,37.71389],[126.97346,37.71369],[126.97353,37.71369],[126.97352,37.71389],[126.97345,37.71389]]]}},{"type":"Feature","properties":{"valleyId":"songchu","layer":"shadow","date":"2026-08-01","timeLocal":"17:00"},"geometry":{"type":"Polygon","coordinates":[[[126.97032,37.71383],[126.97031,37.71364],[126.97037,37.71364],[126.97037,37.71367],[126.97042,37.71369],[126.97041,37.71382],[126.97032,37.71383]]]}},{"type":"Feature","properties":{"valleyId":"songchu","layer":"shadow","date":"2026-08-01","timeLocal":"17:00"},"geometry":{"type":"Polygon","coordinates":[[[126.98039,37.71408],[126.98042,37.71388],[126.98049,37.71388],[126.98049,37.71378],[126.9806,37.71378],[126.9806,37.71387],[126.98053,37.7139],[126.98048,37.71408],[126.98039,37.71408]]]}},{"type":"Feature","properties":{"valleyId":"songchu","layer":"shadow","date":"2026-08-01","timeLocal":"17:00"},"geometry":{"type":"Polygon","coordinates":[[[126.9704,37.7136],[126.9704,37.71351],[126.97047,37.71351],[126.97046,37.7136],[126.9704,37.7136]]]}},{"type":"Feature","properties":{"valleyId":"songchu","layer":"shadow","date":"2026-08-01","timeLocal":"17:00"},"geometry":{"type":"Polygon","coordinates":[[[126.98035,37.71374],[126.98036,37.71366],[126.98045,37.71367],[126.98044,37.71374],[126.98035,37.71374]]]}},{"type":"Feature","properties":{"valleyId":"songchu","layer":"shadow","date":"2026-08-01","timeLocal":"17:00"},"geometry":{"type":"Polygon","coordinates":[[[126.97012,37.7136],[126.97011,37.71347],[126.9702,37.71347],[126.97019,37.7136],[126.97012,37.7136]]]}},{"type":"Feature","properties":{"valleyId":"songchu","layer":"shadow","date":"2026-08-01","timeLocal":"17:00"},"geometry":{"type":"Polygon","coordinates":[[[126.97042,37.71344],[126.97043,37.71339],[126.97049,37.71339],[126.97049,37.71344],[126.97042,37.71344]]]}},{"type":"Feature","properties":{"valleyId":"songchu","layer":"shadow","date":"2026-08-01","timeLocal":"17:00"},"geometry":{"type":"Polygon","coordinates":[[[126.96768,37.71341],[126.96768,37.71332],[126.96784,37.71334],[126.96784,37.7134],[126.96768,37.71341]]]}},{"type":"Feature","properties":{"valleyId":"songchu","layer":"shadow","date":"2026-08-01","timeLocal":"17:00"},"geometry":{"type":"Polygon","coordinates":[[[126.96995,37.71336],[126.96995,37.71331],[126.97002,37.71331],[126.97002,37.71336],[126.96995,37.71336]]]}},{"type":"Feature","properties":{"valleyId":"songchu","layer":"shadow","date":"2026-08-01","timeLocal":"17:00"},"geometry":{"type":"Polygon","coordinates":[[[126.97009,37.71329],[126.97009,37.7132],[126.97016,37.7132],[126.97016,37.71329],[126.97009,37.71329]]]}},{"type":"Feature","properties":{"valleyId":"songchu","layer":"shadow","date":"2026-08-01","timeLocal":"17:00"},"geometry":{"type":"Polygon","coordinates":[[[126.97041,37.71326],[126.97041,37.71321],[126.97048,37.71321],[126.97047,37.71326],[126.97041,37.71326]]]}},{"type":"Feature","properties":{"valleyId":"songchu","layer":"shadow","date":"2026-08-01","timeLocal":"17:00"},"geometry":{"type":"Polygon","coordinates":[[[126.96757,37.71328],[126.96753,37.71314],[126.96762,37.71314],[126.96773,37.7132],[126.96771,37.71327],[126.96757,37.71328]]]}},{"type":"Feature","properties":{"valleyId":"songchu","layer":"shadow","date":"2026-08-01","timeLocal":"17:00"},"geometry":{"type":"Polygon","coordinates":[[[126.98023,37.71339],[126.98023,37.71334],[126.9803,37.71334],[126.98029,37.71339],[126.98023,37.71339]]]}},{"type":"Feature","properties":{"valleyId":"songchu","layer":"shadow","date":"2026-08-01","timeLocal":"17:00"},"geometry":{"type":"Polygon","coordinates":[[[126.98058,37.71374],[126.98058,37.71363],[126.98049,37.71363],[126.98049,37.71356],[126.98052,37.71352],[126.98056,37.71352],[126.98057,37.71342],[126.98052,37.71334],[126.98055,37.71322],[126.98062,37.71322],[126.98059,37.71334],[126.98068,37.71344],[126.98068,37.71351],[126.98061,37.71352],[126.98065,37.71374],[126.98058,37.71374]]]}},{"type":"Feature","properties":{"valleyId":"songchu","layer":"shadow","date":"2026-08-01","timeLocal":"17:00"},"geometry":{"type":"Polygon","coordinates":[[[126.96726,37.71303],[126.96724,37.71293],[126.96744,37.71294],[126.96744,37.71301],[126.96726,37.71303]]]}},{"type":"Feature","properties":{"valleyId":"songchu","layer":"shadow","date":"2026-08-01","timeLocal":"17:00"},"geometry":{"type":"Polygon","coordinates":[[[126.9805,37.7132],[126.98051,37.71314],[126.98057,37.71315],[126.98057,37.7132],[126.9805,37.7132]]]}},{"type":"Feature","properties":{"valleyId":"songchu","layer":"shadow","date":"2026-08-01","timeLocal":"17:00"},"geometry":{"type":"Polygon","coordinates":[[[126.96756,37.71287],[126.96756,37.71276],[126.96763,37.71276],[126.96765,37.71287],[126.96756,37.71287]]]}},{"type":"Feature","properties":{"valleyId":"songchu","layer":"shadow","date":"2026-08-01","timeLocal":"17:00"},"geometry":{"type":"Polygon","coordinates":[[[126.98379,37.71264],[126.98379,37.71252],[126.98386,37.71246],[126.98393,37.71246],[126.98388,37.71264],[126.98379,37.71264]]]}},{"type":"Feature","properties":{"valleyId":"songchu","layer":"shadow","date":"2026-08-01","timeLocal":"17:00"},"geometry":{"type":"Polygon","coordinates":[[[126.98026,37.71318],[126.98026,37.71312],[126.98017,37.7131],[126.98017,37.71307],[126.9801,37.71305],[126.9801,37.71301],[126.98003,37.71297],[126.98004,37.7129],[126.98008,37.7129],[126.98008,37.71276],[126.98004,37.71274],[126.98002,37.71267],[126.97995,37.71267],[126.97995,37.71263],[126.97984,37.71263],[126.97991,37.71234],[126.97998,37.71234],[126.98003,37.71245],[126.98002,37.71251],[126.97995,37.71254],[126.97995,37.71261],[126.98004,37.71261],[126.98011,37.71267],[126.9802,37.71267],[126.98024,37.71274],[126.98024,37.71282],[126.98015,37.71281],[126.98015,37.71289],[126.98019,37.71289],[126.98019,37.71296],[126.98021,37.71301],[126.98028,37.71305],[126.98028,37.7131],[126.98035,37.71312],[126.98035,37.71318],[126.98026,37.71318]]]}},{"type":"Feature","properties":{"valleyId":"songchu","layer":"shadow","date":"2026-08-01","timeLocal":"17:00"},"geometry":{"type":"Polygon","coordinates":[[[126.96971,37.71211],[126.96971,37.71206],[126.96978,37.71206],[126.96978,37.71211],[126.96971,37.71211]]]}},{"type":"Feature","properties":{"valleyId":"songchu","layer":"shadow","date":"2026-08-01","timeLocal":"17:00"},"geometry":{"type":"Polygon","coordinates":[[[126.98155,37.71235],[126.98157,37.71224],[126.98164,37.71224],[126.98164,37.71233],[126.98155,37.71235]]]}},{"type":"Feature","properties":{"valleyId":"songchu","layer":"shadow","date":"2026-08-01","timeLocal":"17:00"},"geometry":{"type":"Polygon","coordinates":[[[126.98987,37.71235],[126.98988,37.7123],[126.98994,37.7123],[126.98994,37.71235],[126.98987,37.71235]]]}},{"type":"Feature","properties":{"valleyId":"songchu","layer":"shadow","date":"2026-08-01","timeLocal":"17:00"},"geometry":{"type":"Polygon","coordinates":[[[126.96999,37.71203],[126.96999,37.71194],[126.97006,37.71194],[126.97008,37.71201],[126.96999,37.71203]]]}},{"type":"Feature","properties":{"valleyId":"songchu","layer":"shadow","date":"2026-08-01","timeLocal":"17:00"},"geometry":{"type":"Polygon","coordinates":[[[126.98418,37.71223],[126.98419,37.71211],[126.98425,37.71211],[126.98425,37.71224],[126.98418,37.71223]]]}},{"type":"Feature","properties":{"valleyId":"songchu","layer":"shadow","date":"2026-08-01","timeLocal":"17:00"},"geometry":{"type":"Polygon","coordinates":[[[126.96988,37.71184],[126.96988,37.71179],[126.96995,37.71179],[126.96995,37.71185],[126.96988,37.71184]]]}},{"type":"Feature","properties":{"valleyId":"songchu","layer":"shadow","date":"2026-08-01","timeLocal":"17:00"},"geometry":{"type":"Polygon","coordinates":[[[126.98388,37.71181],[126.98388,37.71176],[126.98395,37.71176],[126.98394,37.71182],[126.98388,37.71181]]]}},{"type":"Feature","properties":{"valleyId":"songchu","layer":"shadow","date":"2026-08-01","timeLocal":"17:00"},"geometry":{"type":"Polygon","coordinates":[[[126.98812,37.71172],[126.98812,37.71167],[126.98819,37.71167],[126.98819,37.71173],[126.98812,37.71172]]]}},{"type":"Feature","properties":{"valleyId":"songchu","layer":"shadow","date":"2026-08-01","timeLocal":"17:00"},"geometry":{"type":"Polygon","coordinates":[[[126.98839,37.71171],[126.9884,37.71166],[126.98846,37.71166],[126.98846,37.71171],[126.98839,37.71171]]]}},{"type":"Feature","properties":{"valleyId":"songchu","layer":"shadow","date":"2026-08-01","timeLocal":"17:00"},"geometry":{"type":"Polygon","coordinates":[[[126.98595,37.7116],[126.98595,37.71154],[126.98602,37.71154],[126.98602,37.7116],[126.98595,37.7116]]]}},{"type":"Feature","properties":{"valleyId":"songchu","layer":"shadow","date":"2026-08-01","timeLocal":"17:00"},"geometry":{"type":"Polygon","coordinates":[[[126.98765,37.71146],[126.98765,37.71141],[126.98772,37.71141],[126.98772,37.71147],[126.98765,37.71146]]]}},{"type":"Feature","properties":{"valleyId":"songchu","layer":"shadow","date":"2026-08-01","timeLocal":"17:00"},"geometry":{"type":"Polygon","coordinates":[[[126.99904,37.71162],[126.99906,37.7115],[126.99913,37.7115],[126.99913,37.71162],[126.99904,37.71162]]]}},{"type":"Feature","properties":{"valleyId":"songchu","layer":"shadow","date":"2026-08-01","timeLocal":"17:00"},"geometry":{"type":"Polygon","coordinates":[[[126.99874,37.71156],[126.9987,37.71149],[126.99866,37.71149],[126.99866,37.71138],[126.99873,37.71138],[126.99872,37.71145],[126.99881,37.71146],[126.99884,37.71149],[126.99883,37.71156],[126.99874,37.71156]]]}},{"type":"Feature","properties":{"valleyId":"songchu","layer":"shadow","date":"2026-08-01","timeLocal":"17:00"},"geometry":{"type":"Polygon","coordinates":[[[126.99371,37.71133],[126.99371,37.71128],[126.99378,37.71128],[126.99378,37.71133],[126.99371,37.71133]]]}},{"type":"Feature","properties":{"valleyId":"songchu","layer":"shadow","date":"2026-08-01","timeLocal":"17:00"},"geometry":{"type":"Polygon","coordinates":[[[126.99843,37.71141],[126.99843,37.71136],[126.9985,37.71136],[126.9985,37.71141],[126.99843,37.71141]]]}},{"type":"Feature","properties":{"valleyId":"songchu","layer":"shadow","date":"2026-08-01","timeLocal":"17:00"},"geometry":{"type":"Polygon","coordinates":[[[126.99834,37.7113],[126.99834,37.71123],[126.99841,37.71123],[126.99841,37.71131],[126.99834,37.7113]]]}},{"type":"Feature","properties":{"valleyId":"songchu","layer":"shadow","date":"2026-08-01","timeLocal":"17:00"},"geometry":{"type":"Polygon","coordinates":[[[126.99347,37.71117],[126.99347,37.71111],[126.99354,37.71111],[126.99354,37.71117],[126.99347,37.71117]]]}},{"type":"Feature","properties":{"valleyId":"songchu","layer":"shadow","date":"2026-08-01","timeLocal":"17:00"},"geometry":{"type":"Polygon","coordinates":[[[126.99782,37.71124],[126.99782,37.71121],[126.99778,37.7112],[126.99778,37.7111],[126.99785,37.7111],[126.99787,37.71117],[126.99794,37.71117],[126.99791,37.71124],[126.99782,37.71124]]]}},{"type":"Feature","properties":{"valleyId":"songchu","layer":"shadow","date":"2026-08-01","timeLocal":"17:00"},"geometry":{"type":"Polygon","coordinates":[[[127.0017,37.71118],[127.00168,37.71111],[127.00175,37.71111],[127.00177,37.71118],[127.0017,37.71118]]]}},{"type":"Feature","properties":{"valleyId":"songchu","layer":"shadow","date":"2026-08-01","timeLocal":"17:00"},"geometry":{"type":"Polygon","coordinates":[[[126.98935,37.71092],[126.98935,37.71086],[126.98942,37.71086],[126.98941,37.71092],[126.98935,37.71092]]]}},{"type":"Feature","properties":{"valleyId":"songchu","layer":"shadow","date":"2026-08-01","timeLocal":"17:00"},"geometry":{"type":"Polygon","coordinates":[[[126.98642,37.71099],[126.98642,37.7109],[126.98637,37.7109],[126.98635,37.71081],[126.9864,37.71079],[126.98642,37.71072],[126.98649,37.71072],[126.98644,37.7109],[126.98651,37.7109],[126.98653,37.71098],[126.98642,37.71099]]]}},{"type":"Feature","properties":{"valleyId":"songchu","layer":"shadow","date":"2026-08-01","timeLocal":"17:00"},"geometry":{"type":"Polygon","coordinates":[[[126.98985,37.71082],[126.98985,37.71069],[126.98978,37.71069],[126.98981,37.71062],[126.98988,37.71062],[126.98994,37.71073],[126.98994,37.7108],[126.98985,37.71082]]]}},{"type":"Feature","properties":{"valleyId":"songchu","layer":"shadow","date":"2026-08-01","timeLocal":"17:00"},"geometry":{"type":"Polygon","coordinates":[[[126.99182,37.71071],[126.99183,37.71062],[126.9919,37.71062],[126.99189,37.71071],[126.99182,37.71071]]]}},{"type":"Feature","properties":{"valleyId":"songchu","layer":"shadow","date":"2026-08-01","timeLocal":"17:00"},"geometry":{"type":"Polygon","coordinates":[[[127.00164,37.71093],[127.0016,37.71087],[127.0016,37.7108],[127.00162,37.71076],[127.00167,37.71077],[127.00169,37.71071],[127.00176,37.71071],[127.00173,37.71091],[127.00164,37.71093]]]}},{"type":"Feature","properties":{"valleyId":"songchu","layer":"shadow","date":"2026-08-01","timeLocal":"17:00"},"geometry":{"type":"Polygon","coordinates":[[[126.9899,37.71058],[126.98988,37.71049],[126.98981,37.71049],[126.98979,37.71042],[126.98988,37.71042],[126.98988,37.71048],[126.98997,37.71048],[126.98997,37.71058],[126.9899,37.71058]]]}},{"type":"Feature","properties":{"valleyId":"songchu","layer":"shadow","date":"2026-08-01","timeLocal":"17:00"},"geometry":{"type":"Polygon","coordinates":[[[126.99727,37.71056],[126.99727,37.71051],[126.99734,37.71051],[126.99734,37.71057],[126.99727,37.71056]]]}},{"type":"Feature","properties":{"valleyId":"songchu","layer":"shadow","date":"2026-08-01","timeLocal":"17:00"},"geometry":{"type":"Polygon","coordinates":[[[126.99548,37.71066],[126.99548,37.71046],[126.99557,37.71046],[126.99557,37.71063],[126.99555,37.71066],[126.99548,37.71066]]]}},{"type":"Feature","properties":{"valleyId":"songchu","layer":"shadow","date":"2026-08-01","timeLocal":"17:00"},"geometry":{"type":"Polygon","coordinates":[[[126.98602,37.71144],[126.986,37.71135],[126.98602,37.71126],[126.98609,37.71119],[126.9861,37.71101],[126.98606,37.7109],[126.98601,37.7109],[126.98601,37.71084],[126.98595,37.71079],[126.98595,37.7107],[126.986,37.71063],[126.98598,37.71039],[126.98605,37.71032],[126.9861,37.71032],[126.9861,37.71028],[126.98619,37.71021],[126.98628,37.71018],[126.98628,37.71013],[126.98635,37.71013],[126.98642,37.71015],[126.98642,37.7102],[126.98648,37.7102],[126.98648,37.71029],[126.98664,37.71029],[126.98663,37.71056],[126.98645,37.71056],[126.98645,37.71061],[126.98634,37.71061],[126.98634,37.71067],[126.98627,37.71072],[126.98626,37.71083],[126.98617,37.71083],[126.98615,37.71092],[126.98621,37.71095],[126.98621,37.71101],[126.98612,37.71126],[126.98611,37.71138],[126.98609,37.71144],[126.98602,37.71144]]]}},{"type":"Feature","properties":{"valleyId":"songchu","layer":"shadow","date":"2026-08-01","timeLocal":"17:00"},"geometry":{"type":"Polygon","coordinates":[[[126.98991,37.71024],[126.98991,37.71017],[126.98998,37.71017],[126.98998,37.71024],[126.98991,37.71024]]]}},{"type":"Feature","properties":{"valleyId":"songchu","layer":"shadow","date":"2026-08-01","timeLocal":"17:00"},"geometry":{"type":"Polygon","coordinates":[[[126.98993,37.71015],[126.98994,37.71008],[126.99,37.71008],[126.99,37.71015],[126.98993,37.71015]]]}},{"type":"Feature","properties":{"valleyId":"songchu","layer":"shadow","date":"2026-08-01","timeLocal":"17:00"},"geometry":{"type":"Polygon","coordinates":[[[126.99538,37.71021],[126.99536,37.7101],[126.99547,37.71008],[126.99547,37.71019],[126.99538,37.71021]]]}},{"type":"Feature","properties":{"valleyId":"songchu","layer":"shadow","date":"2026-08-01","timeLocal":"17:00"},"geometry":{"type":"Polygon","coordinates":[[[127.00146,37.7102],[127.00146,37.71011],[127.00153,37.71011],[127.00153,37.7102],[127.00146,37.7102]]]}},{"type":"Feature","properties":{"valleyId":"songchu","layer":"shadow","date":"2026-08-01","timeLocal":"17:00"},"geometry":{"type":"Polygon","coordinates":[[[126.99103,37.70999],[126.99103,37.70994],[126.9911,37.70994],[126.9911,37.70999],[126.99103,37.70999]]]}},{"type":"Feature","properties":{"valleyId":"songchu","layer":"shadow","date":"2026-08-01","timeLocal":"17:00"},"geometry":{"type":"Polygon","coordinates":[[[126.99066,37.70997],[126.99067,37.70991],[126.99073,37.70991],[126.99073,37.70997],[126.99066,37.70997]]]}},{"type":"Feature","properties":{"valleyId":"songchu","layer":"shadow","date":"2026-08-01","timeLocal":"17:00"},"geometry":{"type":"Polygon","coordinates":[[[126.97885,37.70976],[126.97885,37.70967],[126.97892,37.70967],[126.97894,37.70977],[126.97885,37.70976]]]}},{"type":"Feature","properties":{"valleyId":"songchu","layer":"shadow","date":"2026-08-01","timeLocal":"17:00"},"geometry":{"type":"Polygon","coordinates":[[[127.00184,37.71048],[127.00184,37.71043],[127.00191,37.71037],[127.00191,37.71025],[127.00196,37.71023],[127.00196,37.71007],[127.00203,37.71],[127.00212,37.71],[127.00197,37.71045],[127.00184,37.71048]]]}},{"type":"Feature","properties":{"valleyId":"songchu","layer":"shadow","date":"2026-08-01","timeLocal":"17:00"},"geometry":{"type":"Polygon","coordinates":[[[126.97844,37.70976],[126.97847,37.70965],[126.97851,37.70963],[126.97856,37.70954],[126.97863,37.70954],[126.97865,37.70963],[126.97851,37.70976],[126.97844,37.70976]]]}},{"type":"Feature","properties":{"valleyId":"songchu","layer":"shadow","date":"2026-08-01","timeLocal":"17:00"},"geometry":{"type":"Polygon","coordinates":[[[126.99536,37.70983],[126.99537,37.70978],[126.99543,37.70978],[126.99543,37.70983],[126.99536,37.70983]]]}},{"type":"Feature","properties":{"valleyId":"songchu","layer":"shadow","date":"2026-08-01","timeLocal":"17:00"},"geometry":{"type":"Polygon","coordinates":[[[127.00212,37.70989],[127.0021,37.7098],[127.00222,37.70978],[127.00219,37.70989],[127.00212,37.70989]]]}},{"type":"Feature","properties":{"valleyId":"songchu","layer":"shadow","date":"2026-08-01","timeLocal":"17:00"},"geometry":{"type":"Polygon","coordinates":[[[126.9787,37.70954],[126.97875,37.70935],[126.97882,37.70935],[126.97884,37.70942],[126.97879,37.70944],[126.97879,37.70953],[126.9787,37.70954]]]}},{"type":"Feature","properties":{"valleyId":"songchu","layer":"shadow","date":"2026-08-01","timeLocal":"17:00"},"geometry":{"type":"Polygon","coordinates":[[[126.99546,37.70974],[126.99546,37.70954],[126.99553,37.70954],[126.99553,37.70974],[126.99546,37.70974]]]}},{"type":"Feature","properties":{"valleyId":"songchu","layer":"shadow","date":"2026-08-01","timeLocal":"17:00"},"geometry":{"type":"Polygon","coordinates":[[[127.00195,37.70963],[127.00195,37.70956],[127.00206,37.70958],[127.00206,37.70964],[127.00195,37.70963]]]}},{"type":"Feature","properties":{"valleyId":"songchu","layer":"shadow","date":"2026-08-01","timeLocal":"17:00"},"geometry":{"type":"Polygon","coordinates":[[[126.96986,37.70907],[126.96986,37.70901],[126.96995,37.70902],[126.96995,37.70907],[126.96986,37.70907]]]}},{"type":"Feature","properties":{"valleyId":"songchu","layer":"shadow","date":"2026-08-01","timeLocal":"17:00"},"geometry":{"type":"Polygon","coordinates":[[[126.99697,37.70991],[126.99693,37.70978],[126.99696,37.70948],[126.99699,37.70942],[126.99706,37.70941],[126.99708,37.70934],[126.99715,37.70934],[126.99714,37.70948],[126.99702,37.7097],[126.99702,37.70975],[126.99709,37.70979],[126.99709,37.70986],[126.99704,37.70988],[126.99704,37.70991],[126.99697,37.70991]]]}},{"type":"Feature","properties":{"valleyId":"songchu","layer":"shadow","date":"2026-08-01","timeLocal":"17:00"},"geometry":{"type":"Polygon","coordinates":[[[126.99558,37.7094],[126.99556,37.70929],[126.99558,37.70926],[126.99565,37.70926],[126.99565,37.7094],[126.99558,37.7094]]]}},{"type":"Feature","properties":{"valleyId":"songchu","layer":"shadow","date":"2026-08-01","timeLocal":"17:00"},"geometry":{"type":"Polygon","coordinates":[[[127.00191,37.70944],[127.00191,37.70936],[127.002,37.70937],[127.002,37.70944],[127.00191,37.70944]]]}},{"type":"Feature","properties":{"valleyId":"songchu","layer":"shadow","date":"2026-08-01","timeLocal":"17:00"},"geometry":{"type":"Polygon","coordinates":[[[126.96969,37.70892],[126.96964,37.7089],[126.96964,37.70885],[126.96976,37.70885],[126.96976,37.7088],[126.96982,37.7088],[126.96982,37.70887],[126.96975,37.70887],[126.96975,37.70892],[126.96969,37.70892]]]}},{"type":"Feature","properties":{"valleyId":"songchu","layer":"shadow","date":"2026-08-01","timeLocal":"17:00"},"geometry":{"type":"Polygon","coordinates":[[[126.97683,37.70897],[126.97683,37.70886],[126.97692,37.70887],[126.97692,37.70896],[126.97683,37.70897]]]}},{"type":"Feature","properties":{"valleyId":"songchu","layer":"shadow","date":"2026-08-01","timeLocal":"17:00"},"geometry":{"type":"Polygon","coordinates":[[[126.97379,37.70887],[126.97379,37.70881],[126.97386,37.70881],[126.97386,37.70887],[126.97379,37.70887]]]}},{"type":"Feature","properties":{"valleyId":"songchu","layer":"shadow","date":"2026-08-01","timeLocal":"17:00"},"geometry":{"type":"Polygon","coordinates":[[[126.99719,37.70928],[126.9972,37.70923],[126.99724,37.70919],[126.99731,37.7092],[126.99731,37.70925],[126.99726,37.70929],[126.99719,37.70928]]]}},{"type":"Feature","properties":{"valleyId":"songchu","layer":"shadow","date":"2026-08-01","timeLocal":"17:00"},"geometry":{"type":"Polygon","coordinates":[[[127.00261,37.70938],[127.00266,37.70921],[127.00273,37.70922],[127.00271,37.70936],[127.00261,37.70938]]]}},{"type":"Feature","properties":{"valleyId":"songchu","layer":"shadow","date":"2026-08-01","timeLocal":"17:00"},"geometry":{"type":"Polygon","coordinates":[[[126.98511,37.70892],[126.98509,37.70884],[126.98516,37.70884],[126.98518,37.70892],[126.98511,37.70892]]]}},{"type":"Feature","properties":{"valleyId":"songchu","layer":"shadow","date":"2026-08-01","timeLocal":"17:00"},"geometry":{"type":"Polygon","coordinates":[[[126.98628,37.70946],[126.98619,37.70935],[126.9861,37.70933],[126.98609,37.70897],[126.9862,37.70895],[126.9862,37.7089],[126.98616,37.7089],[126.98616,37.70883],[126.98629,37.70883],[126.98627,37.70894],[126.98636,37.70896],[126.98636,37.70905],[126.98622,37.70908],[126.98622,37.70915],[126.98633,37.70921],[126.98633,37.70928],[126.98628,37.70928],[126.9863,37.70939],[126.98637,37.70939],[126.98637,37.70946],[126.98628,37.70946]]]}},{"type":"Feature","properties":{"valleyId":"songchu","layer":"shadow","date":"2026-08-01","timeLocal":"17:00"},"geometry":{"type":"Polygon","coordinates":[[[126.9975,37.70907],[126.9975,37.709],[126.99757,37.709],[126.99756,37.70907],[126.9975,37.70907]]]}},{"type":"Feature","properties":{"valleyId":"songchu","layer":"shadow","date":"2026-08-01","timeLocal":"17:00"},"geometry":{"type":"Polygon","coordinates":[[[127.00117,37.70926],[127.00117,37.70908],[127.00119,37.70905],[127.00128,37.70905],[127.00128,37.70914],[127.00124,37.70914],[127.00123,37.70926],[127.00117,37.70926]]]}},{"type":"Feature","properties":{"valleyId":"songchu","layer":"shadow","date":"2026-08-01","timeLocal":"17:00"},"geometry":{"type":"Polygon","coordinates":[[[126.98648,37.70883],[126.98648,37.70878],[126.98655,37.70878],[126.98654,37.70883],[126.98648,37.70883]]]}},{"type":"Feature","properties":{"valleyId":"songchu","layer":"shadow","date":"2026-08-01","timeLocal":"17:00"},"geometry":{"type":"Polygon","coordinates":[[[127.00196,37.70909],[127.00194,37.70902],[127.00206,37.70902],[127.00205,37.7091],[127.00196,37.70909]]]}},{"type":"Feature","properties":{"valleyId":"songchu","layer":"shadow","date":"2026-08-01","timeLocal":"17:00"},"geometry":{"type":"Polygon","coordinates":[[[127.00216,37.70937],[127.00219,37.70913],[127.00228,37.70914],[127.00231,37.70896],[127.00247,37.70896],[127.00244,37.70908],[127.0024,37.70908],[127.00244,37.70925],[127.0023,37.70928],[127.00225,37.70937],[127.00216,37.70937]]]}},{"type":"Feature","properties":{"valleyId":"songchu","layer":"shadow","date":"2026-08-01","timeLocal":"17:00"},"geometry":{"type":"Polygon","coordinates":[[[126.97393,37.70872],[126.97396,37.70847],[126.97405,37.70846],[126.97407,37.70865],[126.974,37.70873],[126.97393,37.70872]]]}},{"type":"Feature","properties":{"valleyId":"songchu","layer":"shadow","date":"2026-08-01","timeLocal":"17:00"},"geometry":{"type":"Polygon","coordinates":[[[126.97235,37.70848],[126.97235,37.70843],[126.97242,37.70843],[126.97242,37.70848],[126.97235,37.70848]]]}},{"type":"Feature","properties":{"valleyId":"songchu","layer":"shadow","date":"2026-08-01","timeLocal":"17:00"},"geometry":{"type":"Polygon","coordinates":[[[126.9772,37.7088],[126.9772,37.70864],[126.97711,37.70856],[126.97712,37.70851],[126.97721,37.70851],[126.97723,37.70858],[126.97729,37.7086],[126.97729,37.7088],[126.9772,37.7088]]]}},{"type":"Feature","properties":{"valleyId":"songchu","layer":"shadow","date":"2026-08-01","timeLocal":"17:00"},"geometry":{"type":"Polygon","coordinates":[[[126.97703,37.70847],[126.97703,37.70842],[126.97709,37.70842],[126.97709,37.70847],[126.97703,37.70847]]]}},{"type":"Feature","properties":{"valleyId":"songchu","layer":"shadow","date":"2026-08-01","timeLocal":"17:00"},"geometry":{"type":"Polygon","coordinates":[[[126.97405,37.70844],[126.97406,37.70833],[126.97413,37.70833],[126.97414,37.70844],[126.97405,37.70844]]]}},{"type":"Feature","properties":{"valleyId":"songchu","layer":"shadow","date":"2026-08-01","timeLocal":"17:00"},"geometry":{"type":"Polygon","coordinates":[[[126.97086,37.70833],[126.97086,37.70824],[126.97095,37.70824],[126.97095,37.70831],[126.97086,37.70833]]]}},{"type":"Feature","properties":{"valleyId":"songchu","layer":"shadow","date":"2026-08-01","timeLocal":"17:00"},"geometry":{"type":"Polygon","coordinates":[[[126.97667,37.70825],[126.97667,37.70816],[126.97674,37.70816],[126.97674,37.70825],[126.97667,37.70825]]]}},{"type":"Feature","properties":{"valleyId":"songchu","layer":"shadow","date":"2026-08-01","timeLocal":"17:00"},"geometry":{"type":"Polygon","coordinates":[[[126.97654,37.70812],[126.97654,37.70807],[126.97661,37.70807],[126.9766,37.70812],[126.97654,37.70812]]]}},{"type":"Feature","properties":{"valleyId":"songchu","layer":"shadow","date":"2026-08-01","timeLocal":"17:00"},"geometry":{"type":"Polygon","coordinates":[[[126.97624,37.70801],[126.97625,37.70795],[126.97631,37.70795],[126.97631,37.70801],[126.97624,37.70801]]]}},{"type":"Feature","properties":{"valleyId":"songchu","layer":"shadow","date":"2026-08-01","timeLocal":"17:00"},"geometry":{"type":"Polygon","coordinates":[[[126.96939,37.70811],[126.96942,37.70793],[126.96949,37.70791],[126.96949,37.70785],[126.96953,37.70782],[126.9696,37.70782],[126.9696,37.70789],[126.96951,37.70791],[126.9695,37.70807],[126.96946,37.70807],[126.96946,37.70811],[126.96939,37.70811]]]}},{"type":"Feature","properties":{"valleyId":"songchu","layer":"shadow","date":"2026-08-01","timeLocal":"17:00"},"geometry":{"type":"Polygon","coordinates":[[[126.98025,37.70826],[126.98026,37.70802],[126.98028,37.70799],[126.98035,37.70799],[126.98034,37.7082],[126.98032,37.70826],[126.98025,37.70826]]]}},{"type":"Feature","properties":{"valleyId":"songchu","layer":"shadow","date":"2026-08-01","timeLocal":"17:00"},"geometry":{"type":"Polygon","coordinates":[[[126.97601,37.70815],[126.97602,37.70798],[126.97606,37.70799],[126.97606,37.70793],[126.97613,37.70791],[126.97613,37.70784],[126.97618,37.70781],[126.97618,37.70774],[126.9761,37.70759],[126.9761,37.7075],[126.97617,37.7075],[126.97621,37.70754],[126.97623,37.70768],[126.9763,37.70774],[126.97629,37.70781],[126.97623,37.70786],[126.97622,37.70792],[126.97616,37.70792],[126.97615,37.70799],[126.97609,37.70799],[126.9761,37.70815],[126.97601,37.70815]]]}},{"type":"Feature","properties":{"valleyId":"songchu","layer":"shadow","date":"2026-08-01","timeLocal":"17:00"},"geometry":{"type":"Polygon","coordinates":[[[126.98004,37.70757],[126.97998,37.70751],[126.97998,37.70744],[126.98007,37.70744],[126.98011,37.7075],[126.98011,37.70757],[126.98004,37.70757]]]}},{"type":"Feature","properties":{"valleyId":"songchu","layer":"shadow","date":"2026-08-01","timeLocal":"17:00"},"geometry":{"type":"Polygon","coordinates":[[[126.97048,37.70717],[126.97048,37.70711],[126.97057,37.70712],[126.97057,37.70717],[126.97048,37.70717]]]}},{"type":"Feature","properties":{"valleyId":"songchu","layer":"shadow","date":"2026-08-01","timeLocal":"17:00"},"geometry":{"type":"Polygon","coordinates":[[[126.97366,37.70724],[126.97368,37.70713],[126.97375,37.70713],[126.97372,37.70724],[126.97366,37.70724]]]}},{"type":"Feature","properties":{"valleyId":"songchu","layer":"shadow","date":"2026-08-01","timeLocal":"17:00"},"geometry":{"type":"Polygon","coordinates":[[[126.96984,37.70748],[126.96982,37.70723],[126.96976,37.70714],[126.96978,37.70703],[126.96992,37.70707],[126.96989,37.70719],[126.96994,37.7072],[126.96998,37.70725],[126.96995,37.70747],[126.96984,37.70748]]]}},{"type":"Feature","properties":{"valleyId":"songchu","layer":"shadow","date":"2026-08-01","timeLocal":"17:00"},"geometry":{"type":"Polygon","coordinates":[[[126.98083,37.70718],[126.98083,37.70713],[126.9809,37.70713],[126.98089,37.70719],[126.98083,37.70718]]]}},{"type":"Feature","properties":{"valleyId":"songchu","layer":"shadow","date":"2026-08-01","timeLocal":"17:00"},"geometry":{"type":"Polygon","coordinates":[[[126.97924,37.70718],[126.97924,37.70705],[126.97933,37.70703],[126.97938,37.70707],[126.97938,37.70712],[126.97931,37.70718],[126.97924,37.70718]]]}},{"type":"Feature","properties":{"valleyId":"songchu","layer":"shadow","date":"2026-08-01","timeLocal":"17:00"},"geometry":{"type":"Polygon","coordinates":[[[126.98208,37.70713],[126.98208,37.70708],[126.98214,37.70708],[126.98214,37.70713],[126.98208,37.70713]]]}},{"type":"Feature","properties":{"valleyId":"songchu","layer":"shadow","date":"2026-08-01","timeLocal":"17:00"},"geometry":{"type":"Polygon","coordinates":[[[126.97981,37.70711],[126.97983,37.70702],[126.9799,37.70702],[126.97988,37.70711],[126.97981,37.70711]]]}},{"type":"Feature","properties":{"valleyId":"songchu","layer":"shadow","date":"2026-08-01","timeLocal":"17:00"},"geometry":{"type":"Polygon","coordinates":[[[126.97255,37.70693],[126.97255,37.70688],[126.97262,37.70688],[126.97262,37.70694],[126.97255,37.70693]]]}},{"type":"Feature","properties":{"valleyId":"songchu","layer":"shadow","date":"2026-08-01","timeLocal":"17:00"},"geometry":{"type":"Polygon","coordinates":[[[126.97997,37.70697],[126.97997,37.7069],[126.98004,37.7069],[126.98006,37.70697],[126.97997,37.70697]]]}},{"type":"Feature","properties":{"valleyId":"songchu","layer":"shadow","date":"2026-08-01","timeLocal":"17:00"},"geometry":{"type":"Polygon","coordinates":[[[126.98074,37.70698],[126.98074,37.70691],[126.98081,37.70691],[126.98081,37.70699],[126.98074,37.70698]]]}},{"type":"Feature","properties":{"valleyId":"songchu","layer":"shadow","date":"2026-08-01","timeLocal":"17:00"},"geometry":{"type":"Polygon","coordinates":[[[126.9702,37.70686],[126.9702,37.70671],[126.97027,37.70671],[126.97031,37.70682],[126.97026,37.70686],[126.9702,37.70686]]]}},{"type":"Feature","properties":{"valleyId":"songchu","layer":"shadow","date":"2026-08-01","timeLocal":"17:00"},"geometry":{"type":"Polygon","coordinates":[[[126.97294,37.70678],[126.97294,37.70672],[126.97304,37.70671],[126.97303,37.70676],[126.97294,37.70678]]]}},{"type":"Feature","properties":{"valleyId":"songchu","layer":"shadow","date":"2026-08-01","timeLocal":"17:00"},"geometry":{"type":"Polygon","coordinates":[[[126.97499,37.70669],[126.97499,37.70663],[126.97506,37.70663],[126.97505,37.70669],[126.97499,37.70669]]]}},{"type":"Feature","properties":{"valleyId":"songchu","layer":"shadow","date":"2026-08-01","timeLocal":"17:00"},"geometry":{"type":"Polygon","coordinates":[[[126.98118,37.70678],[126.98118,37.7067],[126.98125,37.7067],[126.98125,37.70678],[126.98118,37.70678]]]}},{"type":"Feature","properties":{"valleyId":"songchu","layer":"shadow","date":"2026-08-01","timeLocal":"17:00"},"geometry":{"type":"Polygon","coordinates":[[[126.97481,37.70652],[126.97481,37.70647],[126.97488,37.70647],[126.97488,37.70652],[126.97481,37.70652]]]}},{"type":"Feature","properties":{"valleyId":"songchu","layer":"shadow","date":"2026-08-01","timeLocal":"17:00"},"geometry":{"type":"Polygon","coordinates":[[[126.98085,37.70621],[126.98085,37.70616],[126.98092,37.70616],[126.98092,37.70621],[126.98085,37.70621]]]}},{"type":"Feature","properties":{"valleyId":"songchu","layer":"shadow","date":"2026-08-01","timeLocal":"17:00"},"geometry":{"type":"Polygon","coordinates":[[[126.97299,37.70584],[126.97299,37.70577],[126.97308,37.70577],[126.97308,37.70584],[126.97299,37.70584]]]}},{"type":"Feature","properties":{"valleyId":"songchu","layer":"shadow","date":"2026-08-01","timeLocal":"17:00"},"geometry":{"type":"Polygon","coordinates":[[[126.97418,37.70635],[126.97419,37.70611],[126.9741,37.70602],[126.97396,37.706],[126.97396,37.70589],[126.97408,37.7059],[126.9741,37.70597],[126.97417,37.70597],[126.97419,37.70584],[126.97433,37.70587],[126.97433,37.70576],[126.9744,37.70576],[126.97447,37.70578],[126.97442,37.70594],[126.97419,37.70599],[126.97419,37.70604],[126.97437,37.70606],[126.97437,37.70614],[126.97423,37.70624],[126.97425,37.70635],[126.97418,37.70635]]]}},{"type":"Feature","properties":{"valleyId":"songchu","layer":"shadow","date":"2026-08-01","timeLocal":"17:00"},"geometry":{"type":"Polygon","coordinates":[[[126.97998,37.70591],[126.97998,37.70585],[126.98002,37.70582],[126.98009,37.70582],[126.98009,37.70587],[126.98004,37.70591],[126.97998,37.70591]]]}},{"type":"Feature","properties":{"valleyId":"songchu","layer":"shadow","date":"2026-08-01","timeLocal":"17:00"},"geometry":{"type":"Polygon","coordinates":[[[126.97714,37.70582],[126.97714,37.70575],[126.97721,37.70575],[126.97721,37.70582],[126.97714,37.70582]]]}},{"type":"Feature","properties":{"valleyId":"songchu","layer":"shadow","date":"2026-08-01","timeLocal":"17:00"},"geometry":{"type":"Polygon","coordinates":[[[126.97383,37.70593],[126.97379,37.70582],[126.97374,37.70582],[126.97374,37.70564],[126.9737,37.70562],[126.9737,37.70557],[126.97384,37.70559],[126.97393,37.70564],[126.9739,37.70593],[126.97383,37.70593]]]}},{"type":"Feature","properties":{"valleyId":"songchu","layer":"shadow","date":"2026-08-01","timeLocal":"17:00"},"geometry":{"type":"Polygon","coordinates":[[[126.9747,37.70553],[126.9747,37.70548],[126.97484,37.70542],[126.97491,37.70537],[126.97491,37.70532],[126.97518,37.70534],[126.97518,37.70539],[126.975,37.70541],[126.975,37.70544],[126.97482,37.70548],[126.97479,37.70553],[126.9747,37.70553]]]}},{"type":"Feature","properties":{"valleyId":"songchu","layer":"shadow","date":"2026-08-01","timeLocal":"17:00"},"geometry":{"type":"Polygon","coordinates":[[[126.97682,37.70528],[126.97682,37.70522],[126.97689,37.70522],[126.97689,37.70528],[126.97682,37.70528]]]}},{"type":"Feature","properties":{"valleyId":"songchu","layer":"shadow","date":"2026-08-01","timeLocal":"17:00"},"geometry":{"type":"Polygon","coordinates":[[[126.97352,37.70554],[126.97352,37.70545],[126.97348,37.70542],[126.97348,37.70536],[126.97344,37.70535],[126.97344,37.70515],[126.97355,37.70515],[126.97364,37.70522],[126.97359,37.70537],[126.97361,37.70555],[126.97352,37.70554]]]}},{"type":"Feature","properties":{"valleyId":"songchu","layer":"shadow","date":"2026-08-01","timeLocal":"17:00"},"geometry":{"type":"Polygon","coordinates":[[[126.97324,37.70509],[126.97324,37.70502],[126.97331,37.70502],[126.97331,37.70509],[126.97324,37.70509]]]}},{"type":"Feature","properties":{"valleyId":"songchu","layer":"shadow","date":"2026-08-01","timeLocal":"17:00"},"geometry":{"type":"Polygon","coordinates":[[[126.97997,37.70526],[126.98,37.70512],[126.98007,37.70512],[126.98006,37.70524],[126.97997,37.70526]]]}},{"type":"Feature","properties":{"valleyId":"songchu","layer":"shadow","date":"2026-08-01","timeLocal":"17:00"},"geometry":{"type":"Polygon","coordinates":[[[126.97338,37.70493],[126.9734,37.70486],[126.97349,37.70486],[126.97347,37.70493],[126.97338,37.70493]]]}},{"type":"Feature","properties":{"valleyId":"songchu","layer":"shadow","date":"2026-08-01","timeLocal":"17:00"},"geometry":{"type":"Polygon","coordinates":[[[126.97533,37.70487],[126.97533,37.70478],[126.9754,37.70478],[126.97542,37.70486],[126.97533,37.70487]]]}},{"type":"Feature","properties":{"valleyId":"songchu","layer":"shadow","date":"2026-08-01","timeLocal":"17:00"},"geometry":{"type":"Polygon","coordinates":[[[126.97305,37.70464],[126.97305,37.70458],[126.97314,37.70458],[126.97314,37.70464],[126.97305,37.70464]]]}},{"type":"Feature","properties":{"valleyId":"songchu","layer":"shadow","date":"2026-08-01","timeLocal":"17:00"},"geometry":{"type":"Polygon","coordinates":[[[126.97953,37.70478],[126.97946,37.70476],[126.97944,37.70467],[126.97962,37.70471],[126.97962,37.70477],[126.97953,37.70478]]]}},{"type":"Feature","properties":{"valleyId":"songchu","layer":"shadow","date":"2026-08-01","timeLocal":"17:00"},"geometry":{"type":"Polygon","coordinates":[[[126.97358,37.70486],[126.97362,37.70456],[126.97368,37.70456],[126.97368,37.70459],[126.97373,37.70461],[126.97372,37.70485],[126.97358,37.70486]]]}},{"type":"Feature","properties":{"valleyId":"songchu","layer":"shadow","date":"2026-08-01","timeLocal":"17:00"},"geometry":{"type":"Polygon","coordinates":[[[126.97527,37.70476],[126.97529,37.70457],[126.97536,37.70457],[126.97538,37.70473],[126.97536,37.70477],[126.97527,37.70476]]]}},{"type":"Feature","properties":{"valleyId":"songchu","layer":"shadow","date":"2026-08-01","timeLocal":"17:00"},"geometry":{"type":"Polygon","coordinates":[[[126.97502,37.70454],[126.97502,37.70447],[126.97509,37.70447],[126.97509,37.70454],[126.97502,37.70454]]]}},{"type":"Feature","properties":{"valleyId":"songchu","layer":"shadow","date":"2026-08-01","timeLocal":"17:00"},"geometry":{"type":"Polygon","coordinates":[[[126.97473,37.70443],[126.97473,37.70436],[126.97482,37.70436],[126.97482,37.70441],[126.97473,37.70443]]]}},{"type":"Feature","properties":{"valleyId":"songchu","layer":"shadow","date":"2026-08-01","timeLocal":"17:00"},"geometry":{"type":"Polygon","coordinates":[[[126.97686,37.70443],[126.97687,37.70434],[126.97693,37.70434],[126.97693,37.70443],[126.97686,37.70443]]]}},{"type":"Feature","properties":{"valleyId":"songchu","layer":"shadow","date":"2026-08-01","timeLocal":"17:00"},"geometry":{"type":"Polygon","coordinates":[[[126.97278,37.70431],[126.97278,37.70425],[126.97292,37.70425],[126.97292,37.70431],[126.97278,37.70431]]]}},{"type":"Feature","properties":{"valleyId":"songchu","layer":"shadow","date":"2026-08-01","timeLocal":"17:00"},"geometry":{"type":"Polygon","coordinates":[[[126.97487,37.70434],[126.97487,37.70429],[126.97483,37.70429],[126.97485,37.70411],[126.97497,37.70411],[126.97496,37.70416],[126.97492,37.70418],[126.97494,37.70434],[126.97487,37.70434]]]}},{"type":"Feature","properties":{"valleyId":"songchu","layer":"shadow","date":"2026-08-01","timeLocal":"17:00"},"geometry":{"type":"Polygon","coordinates":[[[126.97474,37.70411],[126.97477,37.70394],[126.97483,37.70395],[126.97481,37.70411],[126.97474,37.70411]]]}},{"type":"Feature","properties":{"valleyId":"songchu","layer":"shadow","date":"2026-08-01","timeLocal":"17:00"},"geometry":{"type":"Polygon","coordinates":[[[126.97421,37.70366],[126.97423,37.70352],[126.9743,37.70352],[126.9743,37.70363],[126.97427,37.70367],[126.97421,37.70366]]]}},{"type":"Feature","properties":{"valleyId":"songchu","layer":"shadow","date":"2026-08-01","timeLocal":"17:00"},"geometry":{"type":"Polygon","coordinates":[[[126.97349,37.70351],[126.97349,37.70342],[126.97371,37.7034],[126.97369,37.70347],[126.97349,37.70351]]]}}]}
