{"type":"FeatureCollection","metadata":{"description":"개방지(CHM ≤ 2 m)에 드리운 나무·지형 그림자, 2026-08-01 16:00 KST. canopy 위에 겹쳐 그린다","source":"위성 기반 추정 — Copernicus GLO-30 지형(30 m) + Meta/WRI 수관 높이(1 m CHM, 2015 촬영). 그늘 = 수관(CHM > 2 m) ∪ 나무·지형 그림자 ∪ 원거리 지형 마스크. 현장과 다를 수 있음.","datasetVersion":"2026-09-06.0","collectedAt":"2026-09-06","coordinateOrder":"[longitude, latitude]","crs":"EPSG:4326","representativeDate":"2026-08-01","hours":["10:00","11:00","12:00","13:00","14:00","15:00","16:00","17:00","18:00"],"chmAcquisition":["2015-04"],"assets":{"glo30":{"dataset":"Copernicus DEM GLO-30 (COG, s3://copernicus-dem-30m)","tiles":["Copernicus_DSM_COG_10_N37_00_E126_00_DEM"]},"chm":{"dataset":"Meta/WRI Global Canopy Height Map v1 (alsgedi_global_v6_float, 1 m, CC-BY 4.0)","quadkeys":["132110231"],"acquisition":["2015-04"]}},"method":{"gridResM":2,"canopyThresholdM":2,"bufferHalfM":25,"corridorHalfM":200,"simplifyTolM":2,"minAreaM2":25,"coordDecimals":5},"generator":"scripts/shade 0.1.0","builtAt":"2026-09-06T06:10:51Z","layer":"shadow","timeLocal":"16:00"},"features":[{"type":"Feature","properties":{"valleyId":"hamheodongcheon","layer":"shadow","date":"2026-08-01","timeLocal":"16:00"},"geometry":{"type":"Polygon","coordinates":[[[126.45478,37.61505],[126.45478,37.61494],[126.45485,37.61494],[126.45484,37.61505],[126.45478,37.61505]]]}},{"type":"Feature","properties":{"valleyId":"hamheodongcheon","layer":"shadow","date":"2026-08-01","timeLocal":"16:00"},"geometry":{"type":"Polygon","coordinates":[[[126.45503,37.61495],[126.45503,37.61489],[126.4551,37.61489],[126.4551,37.61495],[126.45503,37.61495]]]}},{"type":"Feature","properties":{"valleyId":"hamheodongcheon","layer":"shadow","date":"2026-08-01","timeLocal":"16:00"},"geometry":{"type":"Polygon","coordinates":[[[126.45478,37.61422],[126.45478,37.61417],[126.45485,37.61417],[126.45485,37.61422],[126.45478,37.61422]]]}},{"type":"Feature","properties":{"valleyId":"hamheodongcheon","layer":"shadow","date":"2026-08-01","timeLocal":"16:00"},"geometry":{"type":"Polygon","coordinates":[[[126.45485,37.6141],[126.45485,37.61404],[126.45492,37.61404],[126.45492,37.6141],[126.45485,37.6141]]]}},{"type":"Feature","properties":{"valleyId":"hamheodongcheon","layer":"shadow","date":"2026-08-01","timeLocal":"16:00"},"geometry":{"type":"Polygon","coordinates":[[[126.45693,37.61046],[126.45693,37.61041],[126.45699,37.61041],[126.45699,37.61047],[126.45693,37.61046]]]}},{"type":"Feature","properties":{"valleyId":"hamheodongcheon","layer":"shadow","date":"2026-08-01","timeLocal":"16:00"},"geometry":{"type":"Polygon","coordinates":[[[126.45702,37.61041],[126.45702,37.61034],[126.45709,37.61034],[126.45709,37.61041],[126.45702,37.61041]]]}}]}
