{"type":"FeatureCollection","metadata":{"description":"개방지(CHM ≤ 2 m)에 드리운 나무·지형 그림자, 2026-08-01 17:00 KST. canopy 위에 겹쳐 그린다","source":"위성 기반 추정 — Copernicus GLO-30 지형(30 m) + Meta/WRI 수관 높이(1 m CHM, 2015 촬영). 그늘 = 수관(CHM > 2 m) ∪ 나무·지형 그림자 ∪ 원거리 지형 마스크. 현장과 다를 수 있음.","datasetVersion":"2026-09-06.0","collectedAt":"2026-09-06","coordinateOrder":"[longitude, latitude]","crs":"EPSG:4326","representativeDate":"2026-08-01","hours":["10:00","11:00","12:00","13:00","14:00","15:00","16:00","17:00","18:00"],"chmAcquisition":["2015-04"],"assets":{"glo30":{"dataset":"Copernicus DEM GLO-30 (COG, s3://copernicus-dem-30m)","tiles":["Copernicus_DSM_COG_10_N37_00_E126_00_DEM"]},"chm":{"dataset":"Meta/WRI Global Canopy Height Map v1 (alsgedi_global_v6_float, 1 m, CC-BY 4.0)","quadkeys":["132110231"],"acquisition":["2015-04"]}},"method":{"gridResM":2,"canopyThresholdM":2,"bufferHalfM":25,"corridorHalfM":200,"simplifyTolM":2,"minAreaM2":25,"coordDecimals":5},"generator":"scripts/shade 0.1.0","builtAt":"2026-09-06T06:10:51Z","layer":"shadow","timeLocal":"17:00"},"features":[{"type":"Feature","properties":{"valleyId":"hamheodongcheon","layer":"shadow","date":"2026-08-01","timeLocal":"17:00"},"geometry":{"type":"Polygon","coordinates":[[[126.45335,37.61617],[126.45336,37.61612],[126.4534,37.61608],[126.45347,37.61608],[126.45347,37.61616],[126.45335,37.61617]]]}},{"type":"Feature","properties":{"valleyId":"hamheodongcheon","layer":"shadow","date":"2026-08-01","timeLocal":"17:00"},"geometry":{"type":"Polygon","coordinates":[[[126.45391,37.61579],[126.45391,37.61572],[126.45398,37.61572],[126.45398,37.61579],[126.45391,37.61579]]]}},{"type":"Feature","properties":{"valleyId":"hamheodongcheon","layer":"shadow","date":"2026-08-01","timeLocal":"17:00"},"geometry":{"type":"Polygon","coordinates":[[[126.45401,37.61566],[126.45401,37.61554],[126.45408,37.61554],[126.45407,37.61567],[126.45401,37.61566]]]}},{"type":"Feature","properties":{"valleyId":"hamheodongcheon","layer":"shadow","date":"2026-08-01","timeLocal":"17:00"},"geometry":{"type":"Polygon","coordinates":[[[126.45417,37.61556],[126.4542,37.61538],[126.45415,37.61536],[126.45416,37.61529],[126.4542,37.61522],[126.45427,37.61522],[126.45428,37.61553],[126.45424,37.61556],[126.45417,37.61556]]]}},{"type":"Feature","properties":{"valleyId":"hamheodongcheon","layer":"shadow","date":"2026-08-01","timeLocal":"17:00"},"geometry":{"type":"Polygon","coordinates":[[[126.45395,37.61527],[126.45386,37.61517],[126.45385,37.61505],[126.45394,37.61505],[126.45393,37.61512],[126.45402,37.61512],[126.45402,37.61527],[126.45395,37.61527]]]}},{"type":"Feature","properties":{"valleyId":"hamheodongcheon","layer":"shadow","date":"2026-08-01","timeLocal":"17:00"},"geometry":{"type":"Polygon","coordinates":[[[126.45407,37.61503],[126.45408,37.61498],[126.45414,37.61498],[126.45414,37.61504],[126.45407,37.61503]]]}},{"type":"Feature","properties":{"valleyId":"hamheodongcheon","layer":"shadow","date":"2026-08-01","timeLocal":"17:00"},"geometry":{"type":"Polygon","coordinates":[[[126.45373,37.61506],[126.45367,37.61501],[126.45367,37.61492],[126.45383,37.61492],[126.45382,37.61507],[126.45373,37.61506]]]}},{"type":"Feature","properties":{"valleyId":"hamheodongcheon","layer":"shadow","date":"2026-08-01","timeLocal":"17:00"},"geometry":{"type":"Polygon","coordinates":[[[126.45432,37.61508],[126.45432,37.61502],[126.45439,37.61501],[126.45442,37.61492],[126.45451,37.61492],[126.45448,37.61504],[126.45432,37.61508]]]}},{"type":"Feature","properties":{"valleyId":"hamheodongcheon","layer":"shadow","date":"2026-08-01","timeLocal":"17:00"},"geometry":{"type":"Polygon","coordinates":[[[126.45475,37.61507],[126.45478,37.61491],[126.45485,37.61491],[126.45489,37.61496],[126.45494,37.61496],[126.45493,37.61504],[126.45475,37.61507]]]}},{"type":"Feature","properties":{"valleyId":"hamheodongcheon","layer":"shadow","date":"2026-08-01","timeLocal":"17:00"},"geometry":{"type":"Polygon","coordinates":[[[126.45455,37.61488],[126.45456,37.61483],[126.45462,37.61483],[126.45462,37.61488],[126.45455,37.61488]]]}},{"type":"Feature","properties":{"valleyId":"hamheodongcheon","layer":"shadow","date":"2026-08-01","timeLocal":"17:00"},"geometry":{"type":"Polygon","coordinates":[[[126.45392,37.61494],[126.45392,37.61489],[126.45401,37.61478],[126.45402,37.61471],[126.45413,37.61469],[126.45417,37.6148],[126.4541,37.61482],[126.4541,37.61495],[126.45392,37.61494]]]}},{"type":"Feature","properties":{"valleyId":"hamheodongcheon","layer":"shadow","date":"2026-08-01","timeLocal":"17:00"},"geometry":{"type":"Polygon","coordinates":[[[126.45503,37.61497],[126.45504,37.6147],[126.4551,37.6147],[126.45514,37.61495],[126.45503,37.61497]]]}},{"type":"Feature","properties":{"valleyId":"hamheodongcheon","layer":"shadow","date":"2026-08-01","timeLocal":"17:00"},"geometry":{"type":"Polygon","coordinates":[[[126.45351,37.61488],[126.4534,37.6148],[126.45346,37.61455],[126.45355,37.61455],[126.45355,37.61448],[126.45371,37.61447],[126.45371,37.61452],[126.45366,37.61452],[126.45363,37.61461],[126.45359,37.61461],[126.45359,37.61468],[126.45354,37.61472],[126.45354,37.61481],[126.45358,37.61483],[126.45358,37.61488],[126.45351,37.61488]]]}},{"type":"Feature","properties":{"valleyId":"hamheodongcheon","layer":"shadow","date":"2026-08-01","timeLocal":"17:00"},"geometry":{"type":"Polygon","coordinates":[[[126.45364,37.61439],[126.45364,37.61432],[126.45358,37.61432],[126.45358,37.61427],[126.45371,37.61425],[126.45371,37.6144],[126.45364,37.61439]]]}},{"type":"Feature","properties":{"valleyId":"hamheodongcheon","layer":"shadow","date":"2026-08-01","timeLocal":"17:00"},"geometry":{"type":"Polygon","coordinates":[[[126.45312,37.61442],[126.45313,37.61424],[126.45319,37.61424],[126.45319,37.61442],[126.45312,37.61442]]]}},{"type":"Feature","properties":{"valleyId":"hamheodongcheon","layer":"shadow","date":"2026-08-01","timeLocal":"17:00"},"geometry":{"type":"Polygon","coordinates":[[[126.45388,37.61462],[126.45391,37.61451],[126.45387,37.61445],[126.45382,37.61445],[126.45383,37.61431],[126.45394,37.61431],[126.45394,37.61422],[126.45406,37.61422],[126.45406,37.61415],[126.45417,37.61415],[126.45419,37.61423],[126.45412,37.61424],[126.4541,37.6143],[126.45401,37.61431],[126.45398,37.61438],[126.45398,37.61446],[126.45409,37.61448],[126.45411,37.61457],[126.454,37.61462],[126.45388,37.61462]]]}},{"type":"Feature","properties":{"valleyId":"hamheodongcheon","layer":"shadow","date":"2026-08-01","timeLocal":"17:00"},"geometry":{"type":"Polygon","coordinates":[[[126.45369,37.61423],[126.45374,37.61409],[126.45381,37.61409],[126.45386,37.61413],[126.45385,37.6142],[126.45369,37.61423]]]}},{"type":"Feature","properties":{"valleyId":"hamheodongcheon","layer":"shadow","date":"2026-08-01","timeLocal":"17:00"},"geometry":{"type":"Polygon","coordinates":[[[126.4534,37.6141],[126.4534,37.61405],[126.45347,37.61405],[126.45347,37.6141],[126.4534,37.6141]]]}},{"type":"Feature","properties":{"valleyId":"hamheodongcheon","layer":"shadow","date":"2026-08-01","timeLocal":"17:00"},"geometry":{"type":"Polygon","coordinates":[[[126.44847,37.61401],[126.44849,37.6139],[126.44856,37.61391],[126.44856,37.61401],[126.44847,37.61401]]]}},{"type":"Feature","properties":{"valleyId":"hamheodongcheon","layer":"shadow","date":"2026-08-01","timeLocal":"17:00"},"geometry":{"type":"Polygon","coordinates":[[[126.45408,37.6141],[126.45409,37.61403],[126.45418,37.61403],[126.45417,37.6141],[126.45408,37.6141]]]}},{"type":"Feature","properties":{"valleyId":"hamheodongcheon","layer":"shadow","date":"2026-08-01","timeLocal":"17:00"},"geometry":{"type":"Polygon","coordinates":[[[126.44879,37.61398],[126.44881,37.61384],[126.44888,37.61384],[126.44888,37.61388],[126.44892,37.61388],[126.44892,37.61395],[126.44888,37.61399],[126.44879,37.61398]]]}},{"type":"Feature","properties":{"valleyId":"hamheodongcheon","layer":"shadow","date":"2026-08-01","timeLocal":"17:00"},"geometry":{"type":"Polygon","coordinates":[[[126.44895,37.61388],[126.44895,37.61382],[126.44902,37.61383],[126.44902,37.61388],[126.44895,37.61388]]]}},{"type":"Feature","properties":{"valleyId":"hamheodongcheon","layer":"shadow","date":"2026-08-01","timeLocal":"17:00"},"geometry":{"type":"Polygon","coordinates":[[[126.45339,37.61435],[126.45328,37.61431],[126.45329,37.61421],[126.45324,37.61421],[126.45325,37.61401],[126.45327,37.61395],[126.45332,37.61396],[126.45332,37.61386],[126.45339,37.61387],[126.45338,37.61401],[126.45332,37.61401],[126.45331,37.61412],[126.45342,37.61412],[126.45342,37.61417],[126.45349,37.61421],[126.45346,37.61435],[126.45339,37.61435]]]}},{"type":"Feature","properties":{"valleyId":"hamheodongcheon","layer":"shadow","date":"2026-08-01","timeLocal":"17:00"},"geometry":{"type":"Polygon","coordinates":[[[126.45393,37.61397],[126.45388,37.61395],[126.45386,37.61386],[126.45389,37.61382],[126.45402,37.61383],[126.454,37.61397],[126.45393,37.61397]]]}},{"type":"Feature","properties":{"valleyId":"hamheodongcheon","layer":"shadow","date":"2026-08-01","timeLocal":"17:00"},"geometry":{"type":"Polygon","coordinates":[[[126.45478,37.61426],[126.45478,37.61417],[126.45485,37.6141],[126.45486,37.61393],[126.45493,37.61394],[126.45493,37.61388],[126.45486,37.61388],[126.45484,37.61375],[126.45491,37.61376],[126.455,37.61387],[126.45497,37.61406],[126.4549,37.61412],[126.45489,37.61421],[126.45485,37.61422],[126.45485,37.61426],[126.45478,37.61426]]]}},{"type":"Feature","properties":{"valleyId":"hamheodongcheon","layer":"shadow","date":"2026-08-01","timeLocal":"17:00"},"geometry":{"type":"Polygon","coordinates":[[[126.46231,37.61397],[126.46231,37.6139],[126.46238,37.6139],[126.46238,37.61397],[126.46231,37.61397]]]}},{"type":"Feature","properties":{"valleyId":"hamheodongcheon","layer":"shadow","date":"2026-08-01","timeLocal":"17:00"},"geometry":{"type":"Polygon","coordinates":[[[126.46018,37.61392],[126.46019,37.61381],[126.46025,37.61382],[126.46025,37.61392],[126.46018,37.61392]]]}},{"type":"Feature","properties":{"valleyId":"hamheodongcheon","layer":"shadow","date":"2026-08-01","timeLocal":"17:00"},"geometry":{"type":"Polygon","coordinates":[[[126.46277,37.61394],[126.46277,37.61385],[126.46284,37.61385],[126.46283,37.61394],[126.46277,37.61394]]]}},{"type":"Feature","properties":{"valleyId":"hamheodongcheon","layer":"shadow","date":"2026-08-01","timeLocal":"17:00"},"geometry":{"type":"Polygon","coordinates":[[[126.45551,37.61406],[126.45551,37.61398],[126.45556,37.61399],[126.45559,37.61368],[126.45566,37.61368],[126.4557,37.61372],[126.45567,37.61395],[126.45565,37.61399],[126.45558,37.61399],[126.45558,37.61406],[126.45551,37.61406]]]}},{"type":"Feature","properties":{"valleyId":"hamheodongcheon","layer":"shadow","date":"2026-08-01","timeLocal":"17:00"},"geometry":{"type":"Polygon","coordinates":[[[126.45471,37.61375],[126.45469,37.61364],[126.45473,37.61364],[126.45473,37.61361],[126.45482,37.61361],[126.4548,37.61375],[126.45471,37.61375]]]}},{"type":"Feature","properties":{"valleyId":"hamheodongcheon","layer":"shadow","date":"2026-08-01","timeLocal":"17:00"},"geometry":{"type":"Polygon","coordinates":[[[126.46008,37.61372],[126.46008,37.61363],[126.46019,37.61363],[126.46019,37.61371],[126.46008,37.61372]]]}},{"type":"Feature","properties":{"valleyId":"hamheodongcheon","layer":"shadow","date":"2026-08-01","timeLocal":"17:00"},"geometry":{"type":"Polygon","coordinates":[[[126.45485,37.61357],[126.45485,37.61347],[126.45499,37.61349],[126.45499,37.61354],[126.45485,37.61357]]]}},{"type":"Feature","properties":{"valleyId":"hamheodongcheon","layer":"shadow","date":"2026-08-01","timeLocal":"17:00"},"geometry":{"type":"Polygon","coordinates":[[[126.44629,37.61333],[126.4463,37.61326],[126.44636,37.61326],[126.44636,37.61334],[126.44629,37.61333]]]}},{"type":"Feature","properties":{"valleyId":"hamheodongcheon","layer":"shadow","date":"2026-08-01","timeLocal":"17:00"},"geometry":{"type":"Polygon","coordinates":[[[126.44634,37.61325],[126.44634,37.61317],[126.44643,37.61316],[126.44641,37.61325],[126.44634,37.61325]]]}},{"type":"Feature","properties":{"valleyId":"hamheodongcheon","layer":"shadow","date":"2026-08-01","timeLocal":"17:00"},"geometry":{"type":"Polygon","coordinates":[[[126.44981,37.61328],[126.44981,37.61318],[126.44988,37.61318],[126.44987,37.61329],[126.44981,37.61328]]]}},{"type":"Feature","properties":{"valleyId":"hamheodongcheon","layer":"shadow","date":"2026-08-01","timeLocal":"17:00"},"geometry":{"type":"Polygon","coordinates":[[[126.45555,37.61364],[126.45555,37.61357],[126.45562,37.61345],[126.45558,37.6133],[126.45565,37.6133],[126.45565,37.61337],[126.45572,37.61338],[126.45571,37.61352],[126.45566,37.61363],[126.45555,37.61364]]]}},{"type":"Feature","properties":{"valleyId":"hamheodongcheon","layer":"shadow","date":"2026-08-01","timeLocal":"17:00"},"geometry":{"type":"Polygon","coordinates":[[[126.45574,37.61338],[126.45574,37.6132],[126.45584,37.6132],[126.45581,37.61338],[126.45574,37.61338]]]}},{"type":"Feature","properties":{"valleyId":"hamheodongcheon","layer":"shadow","date":"2026-08-01","timeLocal":"17:00"},"geometry":{"type":"Polygon","coordinates":[[[126.46286,37.61378],[126.46289,37.6136],[126.46298,37.6136],[126.46296,37.61341],[126.46299,37.61335],[126.46306,37.61335],[126.46307,37.61364],[126.46293,37.61378],[126.46286,37.61378]]]}},{"type":"Feature","properties":{"valleyId":"hamheodongcheon","layer":"shadow","date":"2026-08-01","timeLocal":"17:00"},"geometry":{"type":"Polygon","coordinates":[[[126.45989,37.61334],[126.45989,37.61325],[126.45996,37.61325],[126.45995,37.61334],[126.45989,37.61334]]]}},{"type":"Feature","properties":{"valleyId":"hamheodongcheon","layer":"shadow","date":"2026-08-01","timeLocal":"17:00"},"geometry":{"type":"Polygon","coordinates":[[[126.44646,37.6131],[126.44646,37.61305],[126.44653,37.61303],[126.44653,37.61294],[126.4466,37.61294],[126.4466,37.61303],[126.44655,37.61303],[126.44653,37.61311],[126.44646,37.6131]]]}},{"type":"Feature","properties":{"valleyId":"hamheodongcheon","layer":"shadow","date":"2026-08-01","timeLocal":"17:00"},"geometry":{"type":"Polygon","coordinates":[[[126.44624,37.61295],[126.44624,37.61288],[126.44631,37.61288],[126.44631,37.61296],[126.44624,37.61295]]]}},{"type":"Feature","properties":{"valleyId":"hamheodongcheon","layer":"shadow","date":"2026-08-01","timeLocal":"17:00"},"geometry":{"type":"Polygon","coordinates":[[[126.45559,37.61316],[126.45557,37.61307],[126.45568,37.61309],[126.45568,37.61314],[126.45559,37.61316]]]}},{"type":"Feature","properties":{"valleyId":"hamheodongcheon","layer":"shadow","date":"2026-08-01","timeLocal":"17:00"},"geometry":{"type":"Polygon","coordinates":[[[126.45437,37.61309],[126.45437,37.61304],[126.45444,37.61304],[126.45443,37.6131],[126.45437,37.61309]]]}},{"type":"Feature","properties":{"valleyId":"hamheodongcheon","layer":"shadow","date":"2026-08-01","timeLocal":"17:00"},"geometry":{"type":"Polygon","coordinates":[[[126.45455,37.61313],[126.45453,37.61301],[126.4546,37.61301],[126.45461,37.61314],[126.45455,37.61313]]]}},{"type":"Feature","properties":{"valleyId":"hamheodongcheon","layer":"shadow","date":"2026-08-01","timeLocal":"17:00"},"geometry":{"type":"Polygon","coordinates":[[[126.44665,37.61291],[126.44665,37.61284],[126.44672,37.61284],[126.44671,37.61291],[126.44665,37.61291]]]}},{"type":"Feature","properties":{"valleyId":"hamheodongcheon","layer":"shadow","date":"2026-08-01","timeLocal":"17:00"},"geometry":{"type":"Polygon","coordinates":[[[126.46268,37.61322],[126.46268,37.61317],[126.46275,37.61317],[126.46274,37.61322],[126.46268,37.61322]]]}},{"type":"Feature","properties":{"valleyId":"hamheodongcheon","layer":"shadow","date":"2026-08-01","timeLocal":"17:00"},"geometry":{"type":"Polygon","coordinates":[[[126.44676,37.61282],[126.44677,37.61271],[126.44683,37.61272],[126.44683,37.61282],[126.44676,37.61282]]]}},{"type":"Feature","properties":{"valleyId":"hamheodongcheon","layer":"shadow","date":"2026-08-01","timeLocal":"17:00"},"geometry":{"type":"Polygon","coordinates":[[[126.45492,37.61334],[126.45493,37.61327],[126.455,37.61323],[126.45496,37.613],[126.45503,37.613],[126.45503,37.61295],[126.45498,37.61293],[126.45499,37.61287],[126.45505,37.61288],[126.45514,37.61293],[126.45513,37.61322],[126.45506,37.61325],[126.45506,37.61334],[126.45492,37.61334]]]}},{"type":"Feature","properties":{"valleyId":"hamheodongcheon","layer":"shadow","date":"2026-08-01","timeLocal":"17:00"},"geometry":{"type":"Polygon","coordinates":[[[126.4543,37.61289],[126.45431,37.6128],[126.4544,37.61281],[126.45442,37.6129],[126.4543,37.61289]]]}},{"type":"Feature","properties":{"valleyId":"hamheodongcheon","layer":"shadow","date":"2026-08-01","timeLocal":"17:00"},"geometry":{"type":"Polygon","coordinates":[[[126.45467,37.61285],[126.45467,37.61279],[126.45474,37.6128],[126.45474,37.61285],[126.45467,37.61285]]]}},{"type":"Feature","properties":{"valleyId":"hamheodongcheon","layer":"shadow","date":"2026-08-01","timeLocal":"17:00"},"geometry":{"type":"Polygon","coordinates":[[[126.4544,37.61266],[126.45441,37.61261],[126.45447,37.61261],[126.45447,37.61266],[126.4544,37.61266]]]}},{"type":"Feature","properties":{"valleyId":"hamheodongcheon","layer":"shadow","date":"2026-08-01","timeLocal":"17:00"},"geometry":{"type":"Polygon","coordinates":[[[126.4547,37.61269],[126.45468,37.61252],[126.45475,37.61253],[126.45479,37.61269],[126.4547,37.61269]]]}},{"type":"Feature","properties":{"valleyId":"hamheodongcheon","layer":"shadow","date":"2026-08-01","timeLocal":"17:00"},"geometry":{"type":"Polygon","coordinates":[[[126.45445,37.61257],[126.45445,37.61252],[126.45452,37.61252],[126.45452,37.61258],[126.45445,37.61257]]]}},{"type":"Feature","properties":{"valleyId":"hamheodongcheon","layer":"shadow","date":"2026-08-01","timeLocal":"17:00"},"geometry":{"type":"Polygon","coordinates":[[[126.44755,37.61241],[126.44755,37.61233],[126.44771,37.61232],[126.44771,37.61237],[126.44755,37.61241]]]}},{"type":"Feature","properties":{"valleyId":"hamheodongcheon","layer":"shadow","date":"2026-08-01","timeLocal":"17:00"},"geometry":{"type":"Polygon","coordinates":[[[126.45491,37.61255],[126.45493,37.61244],[126.455,37.61244],[126.45497,37.61255],[126.45491,37.61255]]]}},{"type":"Feature","properties":{"valleyId":"hamheodongcheon","layer":"shadow","date":"2026-08-01","timeLocal":"17:00"},"geometry":{"type":"Polygon","coordinates":[[[126.44554,37.61229],[126.44554,37.61222],[126.44561,37.61222],[126.4456,37.61229],[126.44554,37.61229]]]}},{"type":"Feature","properties":{"valleyId":"hamheodongcheon","layer":"shadow","date":"2026-08-01","timeLocal":"17:00"},"geometry":{"type":"Polygon","coordinates":[[[126.45187,37.61246],[126.45185,37.61236],[126.45192,37.61236],[126.45196,37.61247],[126.45187,37.61246]]]}},{"type":"Feature","properties":{"valleyId":"hamheodongcheon","layer":"shadow","date":"2026-08-01","timeLocal":"17:00"},"geometry":{"type":"Polygon","coordinates":[[[126.44785,37.61232],[126.44785,37.61223],[126.44794,37.61223],[126.44791,37.61232],[126.44785,37.61232]]]}},{"type":"Feature","properties":{"valleyId":"hamheodongcheon","layer":"shadow","date":"2026-08-01","timeLocal":"17:00"},"geometry":{"type":"Polygon","coordinates":[[[126.4516,37.61237],[126.45161,37.61221],[126.45168,37.61221],[126.45172,37.61224],[126.45172,37.61233],[126.45169,37.61237],[126.4516,37.61237]]]}},{"type":"Feature","properties":{"valleyId":"hamheodongcheon","layer":"shadow","date":"2026-08-01","timeLocal":"17:00"},"geometry":{"type":"Polygon","coordinates":[[[126.44683,37.61212],[126.44683,37.61207],[126.4469,37.61207],[126.4469,37.61212],[126.44683,37.61212]]]}},{"type":"Feature","properties":{"valleyId":"hamheodongcheon","layer":"shadow","date":"2026-08-01","timeLocal":"17:00"},"geometry":{"type":"Polygon","coordinates":[[[126.44805,37.61218],[126.44806,37.61206],[126.44813,37.61206],[126.44812,37.61218],[126.44805,37.61218]]]}},{"type":"Feature","properties":{"valleyId":"hamheodongcheon","layer":"shadow","date":"2026-08-01","timeLocal":"17:00"},"geometry":{"type":"Polygon","coordinates":[[[126.45143,37.61218],[126.45143,37.61213],[126.45152,37.61213],[126.45152,37.61219],[126.45143,37.61218]]]}},{"type":"Feature","properties":{"valleyId":"hamheodongcheon","layer":"shadow","date":"2026-08-01","timeLocal":"17:00"},"geometry":{"type":"Polygon","coordinates":[[[126.44835,37.6121],[126.44835,37.61205],[126.44842,37.61205],[126.44842,37.6121],[126.44835,37.6121]]]}},{"type":"Feature","properties":{"valleyId":"hamheodongcheon","layer":"shadow","date":"2026-08-01","timeLocal":"17:00"},"geometry":{"type":"Polygon","coordinates":[[[126.45085,37.61205],[126.45085,37.61199],[126.45091,37.61199],[126.45091,37.61205],[126.45085,37.61205]]]}},{"type":"Feature","properties":{"valleyId":"hamheodongcheon","layer":"shadow","date":"2026-08-01","timeLocal":"17:00"},"geometry":{"type":"Polygon","coordinates":[[[126.45485,37.61219],[126.45478,37.61213],[126.45479,37.61208],[126.45488,37.61208],[126.45488,37.61211],[126.45492,37.61213],[126.45492,37.61219],[126.45485,37.61219]]]}},{"type":"Feature","properties":{"valleyId":"hamheodongcheon","layer":"shadow","date":"2026-08-01","timeLocal":"17:00"},"geometry":{"type":"Polygon","coordinates":[[[126.45154,37.61213],[126.45162,37.61197],[126.45169,37.61192],[126.45176,37.61192],[126.45175,37.61199],[126.45171,37.61199],[126.45171,37.61205],[126.45164,37.6121],[126.45163,37.61213],[126.45154,37.61213]]]}},{"type":"Feature","properties":{"valleyId":"hamheodongcheon","layer":"shadow","date":"2026-08-01","timeLocal":"17:00"},"geometry":{"type":"Polygon","coordinates":[[[126.44894,37.61199],[126.44893,37.61186],[126.44902,37.61186],[126.44904,37.61197],[126.44894,37.61199]]]}},{"type":"Feature","properties":{"valleyId":"hamheodongcheon","layer":"shadow","date":"2026-08-01","timeLocal":"17:00"},"geometry":{"type":"Polygon","coordinates":[[[126.44824,37.61199],[126.44825,37.61183],[126.44832,37.61183],[126.44833,37.61199],[126.44824,37.61199]]]}},{"type":"Feature","properties":{"valleyId":"hamheodongcheon","layer":"shadow","date":"2026-08-01","timeLocal":"17:00"},"geometry":{"type":"Polygon","coordinates":[[[126.44578,37.61185],[126.44578,37.61179],[126.44587,37.61178],[126.44587,37.61183],[126.44578,37.61185]]]}},{"type":"Feature","properties":{"valleyId":"hamheodongcheon","layer":"shadow","date":"2026-08-01","timeLocal":"17:00"},"geometry":{"type":"Polygon","coordinates":[[[126.44644,37.61236],[126.44647,37.61218],[126.44642,37.61217],[126.44642,37.61211],[126.44638,37.61211],[126.44641,37.61177],[126.44653,37.61179],[126.44649,37.6121],[126.44653,37.61224],[126.44651,37.61237],[126.44644,37.61236]]]}},{"type":"Feature","properties":{"valleyId":"hamheodongcheon","layer":"shadow","date":"2026-08-01","timeLocal":"17:00"},"geometry":{"type":"Polygon","coordinates":[[[126.45191,37.61194],[126.45192,37.61189],[126.45198,37.61189],[126.45198,37.61194],[126.45191,37.61194]]]}},{"type":"Feature","properties":{"valleyId":"hamheodongcheon","layer":"shadow","date":"2026-08-01","timeLocal":"17:00"},"geometry":{"type":"Polygon","coordinates":[[[126.45243,37.61203],[126.45244,37.61188],[126.45253,37.61188],[126.45252,37.61203],[126.45243,37.61203]]]}},{"type":"Feature","properties":{"valleyId":"hamheodongcheon","layer":"shadow","date":"2026-08-01","timeLocal":"17:00"},"geometry":{"type":"Polygon","coordinates":[[[126.44854,37.61196],[126.44857,37.61176],[126.44868,37.61176],[126.44865,37.61193],[126.44861,37.61192],[126.44861,37.61196],[126.44854,37.61196]]]}},{"type":"Feature","properties":{"valleyId":"hamheodongcheon","layer":"shadow","date":"2026-08-01","timeLocal":"17:00"},"geometry":{"type":"Polygon","coordinates":[[[126.45207,37.61189],[126.45212,37.61178],[126.45221,37.61177],[126.45216,37.61189],[126.45207,37.61189]]]}},{"type":"Feature","properties":{"valleyId":"hamheodongcheon","layer":"shadow","date":"2026-08-01","timeLocal":"17:00"},"geometry":{"type":"Polygon","coordinates":[[[126.45265,37.61174],[126.45263,37.6116],[126.4527,37.6116],[126.45271,37.61174],[126.45265,37.61174]]]}},{"type":"Feature","properties":{"valleyId":"hamheodongcheon","layer":"shadow","date":"2026-08-01","timeLocal":"17:00"},"geometry":{"type":"Polygon","coordinates":[[[126.45018,37.61147],[126.45019,37.61142],[126.45028,37.6114],[126.45028,37.61146],[126.45018,37.61147]]]}},{"type":"Feature","properties":{"valleyId":"hamheodongcheon","layer":"shadow","date":"2026-08-01","timeLocal":"17:00"},"geometry":{"type":"Polygon","coordinates":[[[126.45315,37.61154],[126.45315,37.61146],[126.45322,37.61147],[126.45322,37.61154],[126.45315,37.61154]]]}},{"type":"Feature","properties":{"valleyId":"hamheodongcheon","layer":"shadow","date":"2026-08-01","timeLocal":"17:00"},"geometry":{"type":"Polygon","coordinates":[[[126.45076,37.61127],[126.45076,37.61114],[126.45083,37.61114],[126.45083,37.61127],[126.45076,37.61127]]]}},{"type":"Feature","properties":{"valleyId":"hamheodongcheon","layer":"shadow","date":"2026-08-01","timeLocal":"17:00"},"geometry":{"type":"Polygon","coordinates":[[[126.45336,37.61125],[126.45337,37.6112],[126.45343,37.6112],[126.45343,37.61125],[126.45336,37.61125]]]}},{"type":"Feature","properties":{"valleyId":"hamheodongcheon","layer":"shadow","date":"2026-08-01","timeLocal":"17:00"},"geometry":{"type":"Polygon","coordinates":[[[126.45204,37.61167],[126.452,37.61144],[126.45207,37.61142],[126.45207,37.61133],[126.45214,37.61124],[126.45214,37.61119],[126.45228,37.61119],[126.45228,37.61114],[126.45235,37.61114],[126.45235,37.61123],[126.45221,37.61126],[126.45214,37.61133],[126.4521,37.61168],[126.45204,37.61167]]]}},{"type":"Feature","properties":{"valleyId":"hamheodongcheon","layer":"shadow","date":"2026-08-01","timeLocal":"17:00"},"geometry":{"type":"Polygon","coordinates":[[[126.45276,37.61115],[126.45276,37.61108],[126.45283,37.61108],[126.45282,37.61115],[126.45276,37.61115]]]}},{"type":"Feature","properties":{"valleyId":"hamheodongcheon","layer":"shadow","date":"2026-08-01","timeLocal":"17:00"},"geometry":{"type":"Polygon","coordinates":[[[126.45156,37.61098],[126.45156,37.61089],[126.45161,37.61089],[126.45161,37.61085],[126.45168,37.61086],[126.45165,37.61096],[126.45156,37.61098]]]}},{"type":"Feature","properties":{"valleyId":"hamheodongcheon","layer":"shadow","date":"2026-08-01","timeLocal":"17:00"},"geometry":{"type":"Polygon","coordinates":[[[126.45045,37.61088],[126.45046,37.61083],[126.45055,37.61083],[126.45054,37.61089],[126.45045,37.61088]]]}},{"type":"Feature","properties":{"valleyId":"hamheodongcheon","layer":"shadow","date":"2026-08-01","timeLocal":"17:00"},"geometry":{"type":"Polygon","coordinates":[[[126.45096,37.61064],[126.45096,37.61057],[126.45105,37.61057],[126.45105,37.61063],[126.45096,37.61064]]]}},{"type":"Feature","properties":{"valleyId":"hamheodongcheon","layer":"shadow","date":"2026-08-01","timeLocal":"17:00"},"geometry":{"type":"Polygon","coordinates":[[[126.45307,37.61051],[126.45307,37.61045],[126.45314,37.61045],[126.45314,37.61051],[126.45307,37.61051]]]}},{"type":"Feature","properties":{"valleyId":"hamheodongcheon","layer":"shadow","date":"2026-08-01","timeLocal":"17:00"},"geometry":{"type":"Polygon","coordinates":[[[126.45441,37.6105],[126.45441,37.61039],[126.45448,37.61039],[126.45448,37.6105],[126.45441,37.6105]]]}},{"type":"Feature","properties":{"valleyId":"hamheodongcheon","layer":"shadow","date":"2026-08-01","timeLocal":"17:00"},"geometry":{"type":"Polygon","coordinates":[[[126.45693,37.61046],[126.45693,37.61041],[126.45702,37.61039],[126.45702,37.61032],[126.45716,37.61034],[126.45715,37.6104],[126.45711,37.6104],[126.45706,37.61045],[126.45693,37.61046]]]}},{"type":"Feature","properties":{"valleyId":"hamheodongcheon","layer":"shadow","date":"2026-08-01","timeLocal":"17:00"},"geometry":{"type":"Polygon","coordinates":[[[126.45444,37.6103],[126.45444,37.61023],[126.45451,37.61023],[126.45451,37.6103],[126.45444,37.6103]]]}},{"type":"Feature","properties":{"valleyId":"hamheodongcheon","layer":"shadow","date":"2026-08-01","timeLocal":"17:00"},"geometry":{"type":"Polygon","coordinates":[[[126.45296,37.61047],[126.45287,37.61038],[126.45285,37.61029],[126.45289,37.60991],[126.45296,37.60991],[126.45298,37.61002],[126.45302,37.61006],[126.45302,37.61018],[126.45297,37.61029],[126.45299,37.61038],[126.45303,37.6104],[126.45303,37.61047],[126.45296,37.61047]]]}},{"type":"Feature","properties":{"valleyId":"hamheodongcheon","layer":"shadow","date":"2026-08-01","timeLocal":"17:00"},"geometry":{"type":"Polygon","coordinates":[[[126.45282,37.60984],[126.45283,37.60978],[126.45292,37.60978],[126.45291,37.60984],[126.45282,37.60984]]]}},{"type":"Feature","properties":{"valleyId":"hamheodongcheon","layer":"shadow","date":"2026-08-01","timeLocal":"17:00"},"geometry":{"type":"Polygon","coordinates":[[[126.45507,37.60978],[126.45507,37.60972],[126.45512,37.60972],[126.45512,37.60969],[126.45518,37.60969],[126.45518,37.60978],[126.45507,37.60978]]]}},{"type":"Feature","properties":{"valleyId":"hamheodongcheon","layer":"shadow","date":"2026-08-01","timeLocal":"17:00"},"geometry":{"type":"Polygon","coordinates":[[[126.4526,37.60969],[126.4526,37.60963],[126.45267,37.60963],[126.45267,37.60969],[126.4526,37.60969]]]}},{"type":"Feature","properties":{"valleyId":"hamheodongcheon","layer":"shadow","date":"2026-08-01","timeLocal":"17:00"},"geometry":{"type":"Polygon","coordinates":[[[126.45636,37.60966],[126.45637,37.60961],[126.45643,37.60961],[126.45643,37.60966],[126.45636,37.60966]]]}},{"type":"Feature","properties":{"valleyId":"hamheodongcheon","layer":"shadow","date":"2026-08-01","timeLocal":"17:00"},"geometry":{"type":"Polygon","coordinates":[[[126.45521,37.60969],[126.45528,37.60953],[126.45528,37.60944],[126.45537,37.60944],[126.45537,37.6096],[126.4553,37.60965],[126.4553,37.60969],[126.45521,37.60969]]]}},{"type":"Feature","properties":{"valleyId":"hamheodongcheon","layer":"shadow","date":"2026-08-01","timeLocal":"17:00"},"geometry":{"type":"Polygon","coordinates":[[[126.44325,37.60896],[126.44325,37.60891],[126.44332,37.60891],[126.44332,37.60896],[126.44325,37.60896]]]}},{"type":"Feature","properties":{"valleyId":"hamheodongcheon","layer":"shadow","date":"2026-08-01","timeLocal":"17:00"},"geometry":{"type":"Polygon","coordinates":[[[126.44277,37.60895],[126.44271,37.60891],[126.44271,37.60886],[126.44287,37.60883],[126.44286,37.60895],[126.44277,37.60895]]]}},{"type":"Feature","properties":{"valleyId":"hamheodongcheon","layer":"shadow","date":"2026-08-01","timeLocal":"17:00"},"geometry":{"type":"Polygon","coordinates":[[[126.44262,37.60888],[126.44257,37.60884],[126.44257,37.60877],[126.44269,37.60875],[126.44268,37.60888],[126.44262,37.60888]]]}},{"type":"Feature","properties":{"valleyId":"hamheodongcheon","layer":"shadow","date":"2026-08-01","timeLocal":"17:00"},"geometry":{"type":"Polygon","coordinates":[[[126.44278,37.60877],[126.44278,37.60872],[126.44287,37.60872],[126.44287,37.60877],[126.44278,37.60877]]]}},{"type":"Feature","properties":{"valleyId":"hamheodongcheon","layer":"shadow","date":"2026-08-01","timeLocal":"17:00"},"geometry":{"type":"Polygon","coordinates":[[[126.45515,37.60942],[126.45504,37.60932],[126.45504,37.60927],[126.45509,37.60925],[126.45509,37.60915],[126.45511,37.60911],[126.45527,37.60908],[126.4553,37.60893],[126.45541,37.60894],[126.45539,37.60906],[126.45534,37.6091],[126.45527,37.6091],[126.45527,37.60924],[126.45522,37.60927],[126.45524,37.60942],[126.45515,37.60942]]]}},{"type":"Feature","properties":{"valleyId":"hamheodongcheon","layer":"shadow","date":"2026-08-01","timeLocal":"17:00"},"geometry":{"type":"Polygon","coordinates":[[[126.44337,37.60871],[126.44335,37.60864],[126.44344,37.60864],[126.44346,37.60871],[126.44337,37.60871]]]}},{"type":"Feature","properties":{"valleyId":"hamheodongcheon","layer":"shadow","date":"2026-08-01","timeLocal":"17:00"},"geometry":{"type":"Polygon","coordinates":[[[126.44309,37.60896],[126.44308,37.60869],[126.44292,37.60868],[126.44292,37.60861],[126.44297,37.60861],[126.44299,37.60851],[126.44313,37.60851],[126.44314,37.60867],[126.44323,37.60869],[126.44326,37.60873],[126.44325,37.60884],[126.44316,37.60883],[126.44316,37.60896],[126.44309,37.60896]]]}},{"type":"Feature","properties":{"valleyId":"hamheodongcheon","layer":"shadow","date":"2026-08-01","timeLocal":"17:00"},"geometry":{"type":"Polygon","coordinates":[[[126.44503,37.6085],[126.44503,37.60841],[126.4451,37.60841],[126.4451,37.6085],[126.44503,37.6085]]]}},{"type":"Feature","properties":{"valleyId":"hamheodongcheon","layer":"shadow","date":"2026-08-01","timeLocal":"17:00"},"geometry":{"type":"Polygon","coordinates":[[[126.44528,37.60843],[126.44529,37.60827],[126.44536,37.60827],[126.44535,37.60843],[126.44528,37.60843]]]}},{"type":"Feature","properties":{"valleyId":"hamheodongcheon","layer":"shadow","date":"2026-08-01","timeLocal":"17:00"},"geometry":{"type":"Polygon","coordinates":[[[126.45504,37.60862],[126.45502,37.60857],[126.45495,37.60857],[126.45498,37.60848],[126.45507,37.60848],[126.45506,37.60855],[126.45511,37.60857],[126.45511,37.60862],[126.45504,37.60862]]]}},{"type":"Feature","properties":{"valleyId":"hamheodongcheon","layer":"shadow","date":"2026-08-01","timeLocal":"17:00"},"geometry":{"type":"Polygon","coordinates":[[[126.44497,37.60826],[126.44497,37.60821],[126.44504,37.60821],[126.44504,37.60826],[126.44497,37.60826]]]}},{"type":"Feature","properties":{"valleyId":"hamheodongcheon","layer":"shadow","date":"2026-08-01","timeLocal":"17:00"},"geometry":{"type":"Polygon","coordinates":[[[126.45509,37.60839],[126.45509,37.60833],[126.45521,37.60834],[126.45521,37.60839],[126.45509,37.60839]]]}},{"type":"Feature","properties":{"valleyId":"hamheodongcheon","layer":"shadow","date":"2026-08-01","timeLocal":"17:00"},"geometry":{"type":"Polygon","coordinates":[[[126.44297,37.60838],[126.443,37.6082],[126.44314,37.6082],[126.44312,37.60809],[126.44305,37.60809],[126.44303,37.60806],[126.44303,37.608],[126.44312,37.60799],[126.44312,37.60808],[126.44326,37.60808],[126.44327,37.60822],[126.44316,37.60822],[126.44316,37.60827],[126.44307,37.60833],[126.44306,37.60838],[126.44297,37.60838]]]}},{"type":"Feature","properties":{"valleyId":"hamheodongcheon","layer":"shadow","date":"2026-08-01","timeLocal":"17:00"},"geometry":{"type":"Polygon","coordinates":[[[126.44521,37.60799],[126.44521,37.60794],[126.44528,37.60794],[126.44527,37.608],[126.44521,37.60799]]]}},{"type":"Feature","properties":{"valleyId":"hamheodongcheon","layer":"shadow","date":"2026-08-01","timeLocal":"17:00"},"geometry":{"type":"Polygon","coordinates":[[[126.45643,37.60829],[126.45646,37.60815],[126.45653,37.60815],[126.45653,37.6082],[126.45659,37.60822],[126.45659,37.60828],[126.45643,37.60829]]]}},{"type":"Feature","properties":{"valleyId":"hamheodongcheon","layer":"shadow","date":"2026-08-01","timeLocal":"17:00"},"geometry":{"type":"Polygon","coordinates":[[[126.45639,37.60813],[126.4564,37.60804],[126.45646,37.60804],[126.45646,37.60813],[126.45639,37.60813]]]}},{"type":"Feature","properties":{"valleyId":"hamheodongcheon","layer":"shadow","date":"2026-08-01","timeLocal":"17:00"},"geometry":{"type":"Polygon","coordinates":[[[126.44311,37.60782],[126.44311,37.60768],[126.44318,37.60768],[126.44317,37.60782],[126.44311,37.60782]]]}},{"type":"Feature","properties":{"valleyId":"hamheodongcheon","layer":"shadow","date":"2026-08-01","timeLocal":"17:00"},"geometry":{"type":"Polygon","coordinates":[[[126.45703,37.60796],[126.45703,37.60791],[126.4571,37.60791],[126.4571,37.60796],[126.45703,37.60796]]]}},{"type":"Feature","properties":{"valleyId":"hamheodongcheon","layer":"shadow","date":"2026-08-01","timeLocal":"17:00"},"geometry":{"type":"Polygon","coordinates":[[[126.4435,37.60767],[126.44348,37.60758],[126.44359,37.60758],[126.44359,37.60767],[126.4435,37.60767]]]}},{"type":"Feature","properties":{"valleyId":"hamheodongcheon","layer":"shadow","date":"2026-08-01","timeLocal":"17:00"},"geometry":{"type":"Polygon","coordinates":[[[126.44246,37.60754],[126.44246,37.60748],[126.44253,37.60749],[126.44253,37.60754],[126.44246,37.60754]]]}},{"type":"Feature","properties":{"valleyId":"hamheodongcheon","layer":"shadow","date":"2026-08-01","timeLocal":"17:00"},"geometry":{"type":"Polygon","coordinates":[[[126.44363,37.60758],[126.44364,37.60747],[126.44371,37.60748],[126.44373,37.60758],[126.44363,37.60758]]]}},{"type":"Feature","properties":{"valleyId":"hamheodongcheon","layer":"shadow","date":"2026-08-01","timeLocal":"17:00"},"geometry":{"type":"Polygon","coordinates":[[[126.44353,37.60744],[126.44353,37.60738],[126.4436,37.60738],[126.44359,37.60744],[126.44353,37.60744]]]}},{"type":"Feature","properties":{"valleyId":"hamheodongcheon","layer":"shadow","date":"2026-08-01","timeLocal":"17:00"},"geometry":{"type":"Polygon","coordinates":[[[126.45658,37.60799],[126.45658,37.60793],[126.45647,37.60793],[126.45647,37.60782],[126.45659,37.60777],[126.45665,37.60777],[126.45668,37.60767],[126.45679,37.60765],[126.45674,37.60781],[126.45663,37.60784],[126.45665,37.60799],[126.45658,37.60799]]]}},{"type":"Feature","properties":{"valleyId":"hamheodongcheon","layer":"shadow","date":"2026-08-01","timeLocal":"17:00"},"geometry":{"type":"Polygon","coordinates":[[[126.44579,37.60747],[126.44579,37.60741],[126.44586,37.60741],[126.44586,37.60747],[126.44579,37.60747]]]}},{"type":"Feature","properties":{"valleyId":"hamheodongcheon","layer":"shadow","date":"2026-08-01","timeLocal":"17:00"},"geometry":{"type":"Polygon","coordinates":[[[126.44172,37.6074],[126.44174,37.60731],[126.44183,37.60729],[126.44181,37.6074],[126.44172,37.6074]]]}},{"type":"Feature","properties":{"valleyId":"hamheodongcheon","layer":"shadow","date":"2026-08-01","timeLocal":"17:00"},"geometry":{"type":"Polygon","coordinates":[[[126.44342,37.60716],[126.44342,37.60711],[126.44349,37.60711],[126.44349,37.60716],[126.44342,37.60716]]]}},{"type":"Feature","properties":{"valleyId":"hamheodongcheon","layer":"shadow","date":"2026-08-01","timeLocal":"17:00"},"geometry":{"type":"Polygon","coordinates":[[[126.44578,37.60709],[126.44576,37.60702],[126.44585,37.607],[126.44585,37.60709],[126.44578,37.60709]]]}},{"type":"Feature","properties":{"valleyId":"hamheodongcheon","layer":"shadow","date":"2026-08-01","timeLocal":"17:00"},"geometry":{"type":"Polygon","coordinates":[[[126.4435,37.60702],[126.4435,37.60697],[126.4437,37.60692],[126.4437,37.60697],[126.44366,37.60697],[126.44363,37.60702],[126.4435,37.60702]]]}},{"type":"Feature","properties":{"valleyId":"hamheodongcheon","layer":"shadow","date":"2026-08-01","timeLocal":"17:00"},"geometry":{"type":"Polygon","coordinates":[[[126.44404,37.60692],[126.44402,37.6068],[126.44407,37.60678],[126.44407,37.60673],[126.44412,37.60669],[126.44408,37.60651],[126.44417,37.60651],[126.44419,37.60673],[126.44414,37.60682],[126.44413,37.60693],[126.44404,37.60692]]]}},{"type":"Feature","properties":{"valleyId":"hamheodongcheon","layer":"shadow","date":"2026-08-01","timeLocal":"17:00"},"geometry":{"type":"Polygon","coordinates":[[[126.44227,37.60643],[126.44227,37.60633],[126.44241,37.60635],[126.44238,37.60644],[126.44227,37.60643]]]}},{"type":"Feature","properties":{"valleyId":"hamheodongcheon","layer":"shadow","date":"2026-08-01","timeLocal":"17:00"},"geometry":{"type":"Polygon","coordinates":[[[126.44338,37.6064],[126.44338,37.60635],[126.44345,37.60635],[126.44345,37.60641],[126.44338,37.6064]]]}},{"type":"Feature","properties":{"valleyId":"hamheodongcheon","layer":"shadow","date":"2026-08-01","timeLocal":"17:00"},"geometry":{"type":"Polygon","coordinates":[[[126.44257,37.60633],[126.44257,37.60624],[126.44264,37.60624],[126.44264,37.60633],[126.44257,37.60633]]]}},{"type":"Feature","properties":{"valleyId":"hamheodongcheon","layer":"shadow","date":"2026-08-01","timeLocal":"17:00"},"geometry":{"type":"Polygon","coordinates":[[[126.44533,37.60643],[126.44526,37.60641],[126.44522,37.60635],[126.44515,37.60635],[126.44515,37.6063],[126.44526,37.6063],[126.44529,37.60634],[126.44542,37.60638],[126.44542,37.60643],[126.44533,37.60643]]]}},{"type":"Feature","properties":{"valleyId":"hamheodongcheon","layer":"shadow","date":"2026-08-01","timeLocal":"17:00"},"geometry":{"type":"Polygon","coordinates":[[[126.44336,37.6063],[126.44336,37.60624],[126.44345,37.60623],[126.44345,37.6063],[126.44336,37.6063]]]}},{"type":"Feature","properties":{"valleyId":"hamheodongcheon","layer":"shadow","date":"2026-08-01","timeLocal":"17:00"},"geometry":{"type":"Polygon","coordinates":[[[126.44228,37.60618],[126.44228,37.60609],[126.44237,37.60608],[126.44239,37.60617],[126.44228,37.60618]]]}},{"type":"Feature","properties":{"valleyId":"hamheodongcheon","layer":"shadow","date":"2026-08-01","timeLocal":"17:00"},"geometry":{"type":"Polygon","coordinates":[[[126.44411,37.60617],[126.44412,37.60611],[126.44418,37.60612],[126.44418,37.60617],[126.44411,37.60617]]]}},{"type":"Feature","properties":{"valleyId":"hamheodongcheon","layer":"shadow","date":"2026-08-01","timeLocal":"17:00"},"geometry":{"type":"Polygon","coordinates":[[[126.44454,37.60616],[126.44455,37.60609],[126.44461,37.60609],[126.44461,37.60616],[126.44454,37.60616]]]}},{"type":"Feature","properties":{"valleyId":"hamheodongcheon","layer":"shadow","date":"2026-08-01","timeLocal":"17:00"},"geometry":{"type":"Polygon","coordinates":[[[126.4424,37.60604],[126.4424,37.60599],[126.44251,37.60599],[126.44251,37.60604],[126.4424,37.60604]]]}},{"type":"Feature","properties":{"valleyId":"hamheodongcheon","layer":"shadow","date":"2026-08-01","timeLocal":"17:00"},"geometry":{"type":"Polygon","coordinates":[[[126.44373,37.60607],[126.44373,37.60602],[126.4438,37.60602],[126.4438,37.60607],[126.44373,37.60607]]]}},{"type":"Feature","properties":{"valleyId":"hamheodongcheon","layer":"shadow","date":"2026-08-01","timeLocal":"17:00"},"geometry":{"type":"Polygon","coordinates":[[[126.44312,37.60602],[126.44312,37.60595],[126.44322,37.60595],[126.44321,37.60602],[126.44312,37.60602]]]}},{"type":"Feature","properties":{"valleyId":"hamheodongcheon","layer":"shadow","date":"2026-08-01","timeLocal":"17:00"},"geometry":{"type":"Polygon","coordinates":[[[126.44371,37.60596],[126.44371,37.60591],[126.44381,37.60591],[126.4438,37.60596],[126.44371,37.60596]]]}},{"type":"Feature","properties":{"valleyId":"hamheodongcheon","layer":"shadow","date":"2026-08-01","timeLocal":"17:00"},"geometry":{"type":"Polygon","coordinates":[[[126.44511,37.60614],[126.44511,37.60606],[126.44507,37.60606],[126.44508,37.60588],[126.44516,37.6059],[126.44516,37.60603],[126.44521,37.60603],[126.4452,37.60612],[126.44511,37.60614]]]}},{"type":"Feature","properties":{"valleyId":"hamheodongcheon","layer":"shadow","date":"2026-08-01","timeLocal":"17:00"},"geometry":{"type":"Polygon","coordinates":[[[126.44421,37.60594],[126.44417,37.60592],[126.44417,37.60586],[126.44421,37.60586],[126.44422,37.60583],[126.44428,37.60583],[126.44428,37.60594],[126.44421,37.60594]]]}},{"type":"Feature","properties":{"valleyId":"hamheodongcheon","layer":"shadow","date":"2026-08-01","timeLocal":"17:00"},"geometry":{"type":"Polygon","coordinates":[[[126.44334,37.60574],[126.44334,37.60568],[126.44343,37.60569],[126.44343,37.60574],[126.44334,37.60574]]]}}]}
