{"type":"FeatureCollection","metadata":{"description":"수관 아래(CHM > 2 m) — 시각 무관. 구간 회랑 ±200 m 절단","source":"위성 기반 추정 — Copernicus GLO-30 지형(30 m) + Meta/WRI 수관 높이(1 m CHM, 2019 촬영). 그늘 = 수관(CHM > 2 m) ∪ 나무·지형 그림자 ∪ 원거리 지형 마스크. 현장과 다를 수 있음.","datasetVersion":"2026-09-08.0","collectedAt":"2026-09-08","coordinateOrder":"[longitude, latitude]","crs":"EPSG:4326","representativeDate":"2026-08-01","hours":["10:00","11:00","12:00","13:00","14:00","15:00","16:00","17:00","18:00"],"chmAcquisition":["2019-03"],"assets":{"glo30":{"dataset":"Copernicus DEM GLO-30 (COG, s3://copernicus-dem-30m)","tiles":["Copernicus_DSM_COG_10_N37_00_E127_00_DEM"]},"chm":{"dataset":"Meta/WRI Global Canopy Height Map v1 (alsgedi_global_v6_float, 1 m, CC-BY 4.0)","quadkeys":["132110320"],"acquisition":["2019-03"]}},"method":{"gridResM":2,"canopyThresholdM":2,"bufferHalfM":25,"corridorHalfM":200,"simplifyTolM":2,"minAreaM2":25,"coordDecimals":5},"generator":"scripts/shade 0.1.0","builtAt":"2026-09-08T06:12:11Z","layer":"canopy"},"features":[{"type":"Feature","properties":{"valleyId":"gingorang","layer":"canopy","date":"2026-08-01"},"geometry":{"type":"Polygon","coordinates":[[[127.09494,37.5706],[127.09494,37.57053],[127.09503,37.57053],[127.09503,37.57059],[127.09494,37.5706]]]}},{"type":"Feature","properties":{"valleyId":"gingorang","layer":"canopy","date":"2026-08-01"},"geometry":{"type":"Polygon","coordinates":[[[127.098,37.56759],[127.098,37.56753],[127.09809,37.56754],[127.09809,37.56759],[127.098,37.56759]]]}},{"type":"Feature","properties":{"valleyId":"gingorang","layer":"canopy","date":"2026-08-01"},"geometry":{"type":"Polygon","coordinates":[[[127.0965,37.56425],[127.09651,37.56416],[127.09657,37.56416],[127.09657,37.56425],[127.0965,37.56425]]]}},{"type":"Feature","properties":{"valleyId":"gingorang","layer":"canopy","date":"2026-08-01"},"geometry":{"type":"Polygon","coordinates":[[[127.09447,37.56394],[127.09448,37.56385],[127.09457,37.56386],[127.09454,37.56395],[127.09447,37.56394]]]}},{"type":"Feature","properties":{"valleyId":"gingorang","layer":"canopy","date":"2026-08-01"},"geometry":{"type":"Polygon","coordinates":[[[127.09674,37.56367],[127.09675,37.56362],[127.09684,37.56362],[127.09683,37.56368],[127.09674,37.56367]]]}},{"type":"Feature","properties":{"valleyId":"gingorang","layer":"canopy","date":"2026-08-01"},"geometry":{"type":"Polygon","coordinates":[[[127.09759,37.56153],[127.09759,37.56147],[127.09766,37.56147],[127.09766,37.56153],[127.09759,37.56153]]]}},{"type":"Feature","properties":{"valleyId":"gingorang","layer":"canopy","date":"2026-08-01"},"geometry":{"type":"Polygon","coordinates":[[[127.0975,37.56136],[127.09748,37.56133],[127.09744,37.56132],[127.09744,37.56127],[127.0976,37.56125],[127.09762,37.56129],[127.09766,37.56129],[127.09766,37.56135],[127.0975,37.56136]]]}},{"type":"Feature","properties":{"valleyId":"gingorang","layer":"canopy","date":"2026-08-01"},"geometry":{"type":"Polygon","coordinates":[[[127.09576,37.57298],[127.09574,37.57287],[127.09558,37.57285],[127.09553,37.57294],[127.09535,37.57292],[127.09535,37.57295],[127.09524,37.57295],[127.09515,37.57293],[127.09513,37.57289],[127.09499,37.57289],[127.09481,37.57282],[127.09474,37.57282],[127.09439,37.57265],[127.09434,37.57259],[127.09425,37.57256],[127.09426,37.57245],[127.09421,37.57245],[127.09421,37.57241],[127.09417,37.57239],[127.09419,37.57225],[127.09437,37.57223],[127.0944,37.57214],[127.09431,37.57214],[127.09426,37.57218],[127.09404,37.57217],[127.09404,37.57223],[127.0941,37.57223],[127.0941,37.5723],[127.0939,37.57224],[127.09368,37.57197],[127.09368,37.57186],[127.09375,37.57186],[127.09375,37.57179],[127.09362,37.57183],[127.09362,37.57172],[127.09355,37.5717],[127.09351,37.57159],[127.09351,37.57154],[127.09358,37.57152],[127.09356,37.57136],[127.09351,37.57134],[127.09352,37.57119],[127.09368,37.57118],[127.0937,37.57129],[127.09374,37.57129],[127.09376,37.57134],[127.09388,37.57134],[127.09388,37.57116],[127.09393,37.57116],[127.09398,37.57098],[127.09402,37.57098],[127.09405,37.57093],[127.0942,37.57095],[127.09423,37.57088],[127.09409,37.57081],[127.09398,37.5708],[127.09389,37.57087],[127.09382,37.57087],[127.09382,37.57098],[127.09373,37.57098],[127.09375,37.57112],[127.09359,37.57114],[127.09352,37.57098],[127.09355,37.57087],[127.09359,37.57087],[127.09362,37.57083],[127.09362,37.57074],[127.09369,37.57074],[127.09369,37.57069],[127.09346,37.57067],[127.09345,37.56928],[127.09354,37.56928],[127.09356,37.56937],[127.09363,37.56937],[127.09366,37.5693],[127.09359,37.56923],[127.0935,37.56923],[127.09346,37.56919],[127.09346,37.56914],[127.09382,37.56916],[127.09387,37.56911],[127.094,37.56909],[127.094,37.56904],[127.09389,37.56891],[127.0938,37.56891],[127.0938,37.56896],[127.09371,37.56896],[127.09369,37.5688],[127.09374,37.56867],[127.09383,37.56864],[127.09384,37.56849],[127.09397,37.56848],[127.09397,37.56842],[127.09391,37.56841],[127.09391,37.56835],[127.09404,37.56834],[127.09405,37.56828],[127.09398,37.56814],[127.09385,37.56812],[127.09382,37.56819],[127.09378,37.56819],[127.09375,37.56824],[127.09377,37.5684],[127.09365,37.56849],[127.09362,37.56883],[127.0936,37.56887],[127.09351,37.56887],[127.0935,37.56737],[127.09359,37.56737],[127.09362,37.5673],[127.0935,37.56728],[127.09351,37.56723],[127.0936,37.56723],[127.09362,37.56712],[127.09371,37.5671],[127.09371,37.56736],[127.0938,37.56738],[127.09386,37.56738],[127.09389,37.56732],[127.09398,37.56732],[127.09398,37.56723],[127.09389,37.56723],[127.09389,37.56713],[127.09367,37.56703],[127.09367,37.56698],[127.09372,37.56696],[127.09372,37.56691],[127.09367,37.56689],[127.09372,37.56676],[127.09363,37.56674],[127.09363,37.56663],[127.09368,37.5666],[127.09367,37.56593],[127.09374,37.56593],[127.09374,37.56586],[127.09368,37.56581],[127.09366,37.56552],[127.09368,37.56472],[127.09371,37.56463],[127.09378,37.56462],[127.09378,37.56455],[127.09376,37.56451],[127.09371,37.56451],[127.09367,37.56429],[127.09385,37.56429],[127.09385,37.5642],[127.09379,37.56415],[127.09368,37.56415],[127.09371,37.56381],[127.09366,37.56371],[127.09367,37.56346],[127.09363,37.56334],[127.09365,37.56265],[127.09369,37.56263],[127.09372,37.56251],[127.0937,37.56231],[127.0938,37.56208],[127.09389,37.56197],[127.09389,37.56192],[127.09394,37.5619],[127.09396,37.56183],[127.09401,37.56181],[127.0941,37.56167],[127.09417,37.56163],[127.09417,37.5616],[127.09459,37.56128],[127.09465,37.56128],[127.09463,37.56139],[127.09472,37.56142],[127.09472,37.56148],[127.09488,37.56146],[127.09487,37.56157],[127.09494,37.56161],[127.09494,37.56177],[127.09532,37.56181],[127.09532,37.56187],[127.09527,37.56187],[127.09527,37.56197],[127.09534,37.56203],[127.09533,37.56219],[127.09529,37.56221],[127.09528,37.56239],[127.09524,37.56241],[127.09521,37.56251],[127.09526,37.56255],[127.09537,37.56257],[127.09541,37.56263],[127.09561,37.56268],[127.09564,37.56276],[127.09572,37.56279],[127.09575,37.56287],[127.0959,37.5629],[127.09592,37.56299],[127.09579,37.56301],[127.09579,37.56308],[127.09587,37.56314],[127.09587,37.56319],[127.09596,37.56323],[127.09596,37.56334],[127.09589,37.56335],[127.09589,37.56341],[127.09598,37.56341],[127.09598,37.56332],[127.09605,37.56332],[127.09609,37.56338],[127.09614,37.56338],[127.09616,37.5635],[127.09629,37.56352],[127.09625,37.56365],[127.09631,37.56365],[127.09631,37.56374],[127.09624,37.56374],[127.0962,37.56379],[127.0962,37.56386],[127.09624,37.56388],[127.09628,37.56406],[127.09617,37.56406],[127.09614,37.5641],[127.0961,37.5641],[127.0961,37.56415],[127.09601,37.56419],[127.09598,37.56429],[127.09587,37.56438],[127.09586,37.56447],[127.09595,37.56447],[127.09598,37.56438],[127.09609,37.56437],[127.09612,37.56431],[127.09628,37.5643],[127.0963,37.56439],[127.09636,37.56443],[127.09636,37.56452],[127.0964,37.56455],[127.09636,37.5647],[127.09658,37.56468],[127.09656,37.5645],[127.09647,37.56446],[127.09646,37.56434],[127.09659,37.56436],[127.09668,37.56447],[127.09675,37.56447],[127.09675,37.56443],[127.09684,37.5644],[127.09684,37.5642],[127.09691,37.56416],[127.09687,37.56393],[127.09665,37.56391],[127.09665,37.56382],[127.09683,37.5638],[127.09685,37.56384],[127.09692,37.56384],[127.09694,37.5638],[127.09695,37.56373],[127.09686,37.56371],[127.09686,37.56364],[127.0969,37.56364],[127.09693,37.56357],[127.09691,37.56335],[127.09684,37.56335],[127.0968,37.5633],[127.09673,37.56328],[127.09673,37.56319],[127.09669,37.56311],[127.0966,37.56308],[127.09653,37.563],[127.09654,37.56295],[127.09645,37.56291],[127.09645,37.56282],[127.09649,37.56281],[127.09648,37.56262],[127.09655,37.56259],[127.09655,37.56254],[127.09643,37.56252],[127.09634,37.56246],[127.0963,37.56232],[127.09624,37.5623],[127.09619,37.56224],[127.09622,37.5621],[127.09615,37.56208],[127.09608,37.56201],[127.09604,37.562],[127.09604,37.56195],[127.09598,37.56186],[127.09598,37.56173],[127.09591,37.56168],[127.09594,37.56152],[127.09598,37.5615],[127.09599,37.56145],[127.09594,37.56144],[127.09587,37.56139],[127.09585,37.56132],[127.09579,37.56128],[127.09579,37.56123],[127.09583,37.56121],[127.09579,37.56105],[127.09584,37.56103],[127.09584,37.56096],[127.09591,37.56092],[127.09591,37.56089],[127.09605,37.56089],[127.09602,37.56101],[127.09613,37.56101],[127.0962,37.56094],[127.09634,37.56093],[127.09638,37.56089],[127.09661,37.5609],[127.09697,37.56097],[127.0974,37.56114],[127.09742,37.56122],[127.09724,37.56121],[127.09719,37.56127],[127.09712,37.56127],[127.09712,37.56132],[127.09719,37.56132],[127.0975,37.56158],[127.09759,37.56158],[127.09763,37.56162],[127.09779,37.56162],[127.09781,37.56167],[127.0979,37.56167],[127.09791,37.5616],[127.09777,37.5616],[127.09775,37.56153],[127.09768,37.56151],[127.09771,37.56138],[127.09778,37.56138],[127.09798,37.56155],[127.09797,37.56159],[127.09815,37.56175],[127.09822,37.56191],[127.09826,37.56193],[127.09833,37.56204],[127.09832,37.56211],[127.09839,37.5622],[127.09845,37.56246],[127.09847,37.56275],[127.09837,37.56278],[127.09837,37.56284],[127.09844,37.56287],[127.09839,37.56316],[127.09824,37.56346],[127.0982,37.5635],[127.0982,37.56355],[127.09811,37.56357],[127.09797,37.56369],[127.09796,37.56375],[127.09808,37.56375],[127.09808,37.56384],[127.09821,37.56384],[127.09821,37.56399],[127.09818,37.56404],[127.09812,37.56404],[127.09812,37.56399],[127.098,37.56398],[127.098,37.56404],[127.09807,37.56404],[127.09807,37.56409],[127.098,37.56411],[127.098,37.56418],[127.09795,37.56418],[127.09793,37.56422],[127.09795,37.56429],[127.09804,37.56429],[127.09807,37.56425],[127.0982,37.56427],[127.09821,37.56581],[127.09816,37.56582],[127.09813,37.56604],[127.0982,37.56606],[127.09821,37.56667],[127.09814,37.56667],[127.09814,37.56656],[127.09805,37.56656],[127.09805,37.56662],[127.098,37.56663],[127.09791,37.56663],[127.09785,37.56658],[127.09776,37.56657],[127.09778,37.56668],[127.09789,37.56669],[127.09811,37.56687],[127.09811,37.56692],[127.09779,37.56688],[127.09779,37.56695],[127.09786,37.56699],[127.09786,37.56708],[127.09779,37.56712],[127.0978,37.56737],[127.09789,37.56746],[127.09796,37.56748],[127.09796,37.56755],[127.09789,37.56755],[127.09784,37.56766],[127.09791,37.56766],[127.09791,37.5676],[127.09798,37.56761],[127.09798,37.56775],[127.09791,37.56775],[127.09788,37.56782],[127.09802,37.56784],[127.09804,37.5679],[127.09804,37.56799],[127.09797,37.568],[127.09795,37.56807],[127.09796,37.56825],[127.09783,37.56823],[127.09783,37.56829],[127.09792,37.56831],[127.09794,37.56838],[127.09803,37.56842],[127.09797,37.57143],[127.0979,37.57171],[127.09783,37.57188],[127.09773,37.57198],[127.09773,37.57204],[127.09769,37.57205],[127.09754,37.57227],[127.09734,37.57243],[127.09729,37.5725],[127.09724,37.5725],[127.09711,37.57262],[127.09706,37.57262],[127.09688,37.57274],[127.09656,37.57286],[127.09621,37.57295],[127.09576,37.57298]],[[127.09518,37.57277],[127.09527,37.57277],[127.09527,37.57274],[127.09534,37.57268],[127.09534,37.57263],[127.09523,37.57261],[127.09522,37.57264],[127.09513,37.57268],[127.09513,37.57275],[127.09518,37.57277]],[[127.09493,37.57264],[127.095,37.57264],[127.09502,37.57257],[127.09509,37.57257],[127.09509,37.57253],[127.09516,37.57248],[127.09525,37.57246],[127.0953,37.57225],[127.09521,37.57225],[127.09521,37.5723],[127.09517,37.5723],[127.09516,37.57241],[127.09509,37.57241],[127.0951,37.57234],[127.09503,37.57233],[127.095,37.57244],[127.09489,37.57246],[127.09486,37.5726],[127.09493,37.57264]],[[127.09453,37.57242],[127.0946,37.57242],[127.0946,37.57238],[127.09474,37.57231],[127.09476,37.57217],[127.09463,37.57217],[127.09458,37.57224],[127.09449,37.57224],[127.09453,37.57242]],[[127.09697,37.5724],[127.09704,37.5724],[127.09704,37.57235],[127.09698,37.57235],[127.09697,37.5724]],[[127.09533,37.57225],[127.09551,37.57222],[127.09551,37.57216],[127.09555,37.57214],[127.09558,37.57197],[127.09565,37.57189],[127.09564,37.57157],[127.09555,37.57157],[127.09555,37.57162],[127.09545,37.57167],[127.09542,37.572],[127.09546,37.57214],[127.09542,37.57218],[127.09535,37.57218],[127.09533,37.57225]],[[127.09415,37.57201],[127.09424,37.57202],[127.09429,37.57198],[127.09429,37.57191],[127.09425,37.57189],[127.09425,37.57185],[127.09418,37.57185],[127.09411,37.57191],[127.09411,37.57198],[127.09415,37.57201]],[[127.09461,37.572],[127.09474,37.57199],[127.09477,37.57188],[127.09481,37.57188],[127.09482,37.57179],[127.09473,37.57179],[127.09472,37.57188],[127.09461,37.5719],[127.09461,37.572]],[[127.09412,37.57145],[127.09421,37.57146],[127.09422,37.57138],[127.09431,37.57139],[127.09431,37.57135],[127.0944,37.57132],[127.0944,37.57122],[127.09431,37.57122],[127.09429,37.5713],[127.09417,37.57129],[127.09417,37.57137],[127.09413,37.57136],[127.09412,37.57145]],[[127.09721,37.57132],[127.09727,37.57133],[127.09728,37.57125],[127.09721,37.57125],[127.09721,37.57132]],[[127.09569,37.57128],[127.09585,37.57127],[127.09587,37.57121],[127.09594,37.57121],[127.09594,37.57118],[127.09605,37.57118],[127.09606,37.57111],[127.09599,37.571],[127.0957,37.57101],[127.09569,37.57128]],[[127.0963,37.57126],[127.09648,37.57124],[127.09646,37.57111],[127.09642,37.57111],[127.09633,37.571],[127.0962,37.571],[127.09617,37.57107],[127.09613,37.57107],[127.09612,37.5712],[127.09626,37.57122],[127.0963,37.57126]],[[127.09442,37.57115],[127.09449,37.57115],[127.09449,37.5711],[127.09443,37.5711],[127.09442,37.57115]],[[127.09445,37.57103],[127.09454,37.57103],[127.09454,37.57094],[127.09448,37.57088],[127.09436,37.57088],[127.09436,37.57099],[127.09445,37.57103]],[[127.09493,37.57098],[127.095,37.57098],[127.095,37.57095],[127.09511,37.57091],[127.09514,37.5707],[127.09527,37.5707],[127.09528,37.57064],[127.09534,37.57061],[127.09562,37.57063],[127.09561,37.5707],[127.0957,37.57071],[127.09571,37.57065],[127.09566,37.57063],[127.09567,37.57043],[127.0956,37.57042],[127.09562,37.57027],[127.09556,37.57022],[127.09542,37.57021],[127.0954,37.57012],[127.09513,37.57017],[127.0951,37.57025],[127.09506,37.57026],[127.09499,37.57026],[127.09499,37.57023],[127.09492,37.57022],[127.09488,37.57021],[127.09488,37.57017],[127.09481,37.57017],[127.09481,37.57026],[127.09465,37.57027],[127.09465,37.57033],[127.09476,37.57035],[127.09474,37.57053],[127.09464,37.57054],[127.09464,37.57062],[127.09476,37.57062],[127.09482,37.57071],[127.09489,37.57071],[127.09493,37.57098]],[[127.09683,37.57101],[127.0969,37.57101],[127.0969,37.5709],[127.09683,37.5709],[127.09683,37.57101]],[[127.09735,37.57088],[127.09742,37.57088],[127.09743,37.57072],[127.09731,37.57073],[127.09731,37.57082],[127.09735,37.57088]],[[127.0967,37.57076],[127.09702,37.57074],[127.097,37.57062],[127.09709,37.57062],[127.09709,37.57057],[127.09698,37.57056],[127.09698,37.57051],[127.09709,37.57048],[127.09707,37.5704],[127.09689,37.57038],[127.09678,37.57045],[127.09675,37.57051],[127.09671,37.57051],[127.09664,37.57056],[127.09663,37.5707],[127.0967,37.57076]],[[127.09417,37.57046],[127.09426,37.57047],[127.09426,37.57041],[127.09417,37.57041],[127.09417,37.57046]],[[127.09628,37.57039],[127.09648,37.57038],[127.09648,37.5703],[127.09642,37.57027],[127.09642,37.57023],[127.09626,37.57021],[127.09629,37.5701],[127.09622,37.57003],[127.09604,37.56999],[127.09601,37.57017],[127.09619,37.57019],[127.09617,37.5703],[127.09628,37.57039]],[[127.09542,37.57012],[127.09554,37.57013],[127.09554,37.57007],[127.09552,37.56996],[127.09545,37.56996],[127.09545,37.56991],[127.09539,37.56991],[127.09542,37.57012]],[[127.09715,37.56999],[127.09735,37.56999],[127.09738,37.56981],[127.09731,37.56981],[127.09731,37.56978],[127.09718,37.56981],[127.09716,37.56972],[127.09709,37.56972],[127.09706,37.5699],[127.09715,37.56999]],[[127.09498,37.56988],[127.09505,37.56988],[127.09509,37.56985],[127.09509,37.56974],[127.09503,37.56974],[127.09503,37.56969],[127.09512,37.56969],[127.09523,37.56962],[127.09524,37.56954],[127.09517,37.56953],[127.09515,37.56938],[127.09511,37.56934],[127.09504,37.56934],[127.09499,37.56952],[127.09515,37.56951],[127.09514,37.5696],[127.09489,37.56961],[127.09487,37.56975],[127.09478,37.56975],[127.0948,37.56984],[127.09498,37.56988]],[[127.09384,37.56931],[127.09391,37.56931],[127.09391,37.56925],[127.09384,37.56925],[127.09384,37.56931]],[[127.09499,37.56929],[127.09506,37.56929],[127.09506,37.56923],[127.09499,37.56923],[127.09499,37.56929]],[[127.09439,37.56903],[127.09448,37.56903],[127.09448,37.56897],[127.09439,37.56897],[127.09439,37.56903]],[[127.09466,37.56885],[127.09473,37.56885],[127.09473,37.5688],[127.09467,37.5688],[127.09466,37.56885]],[[127.09609,37.56876],[127.09621,37.56877],[127.09621,37.56871],[127.09609,37.56871],[127.09609,37.56876]],[[127.09456,37.5687],[127.09465,37.56871],[127.09465,37.56865],[127.09453,37.56863],[127.09456,37.5687]],[[127.09667,37.56847],[127.09676,37.56847],[127.0968,37.56843],[127.09683,37.56831],[127.09688,37.56831],[127.0969,37.56824],[127.09697,37.56822],[127.09697,37.56817],[127.09676,37.5682],[127.09676,37.56824],[127.09672,37.56825],[127.09667,37.56847]],[[127.0947,37.56836],[127.09481,37.56837],[127.09481,37.56831],[127.09472,37.56829],[127.0947,37.56836]],[[127.09618,37.5681],[127.09629,37.5681],[127.09629,37.56805],[127.09618,37.56805],[127.09618,37.5681]],[[127.09389,37.56804],[127.09396,37.56805],[127.09401,37.56801],[127.09397,37.56778],[127.09388,37.56777],[127.09383,37.56785],[127.09372,37.5679],[127.09374,37.56801],[127.09389,37.56804]],[[127.09392,37.56768],[127.09413,37.56765],[127.09413,37.56758],[127.09402,37.56758],[127.094,37.56754],[127.09393,37.56754],[127.09393,37.56758],[127.09388,37.56759],[127.09388,37.56765],[127.09392,37.56768]],[[127.09756,37.56735],[127.09762,37.56735],[127.09763,37.56724],[127.09756,37.56724],[127.09756,37.56735]],[[127.09588,37.56728],[127.09595,37.56728],[127.09595,37.56723],[127.09588,37.56723],[127.09588,37.56728]],[[127.09394,37.567],[127.09408,37.567],[127.09408,37.56695],[127.09397,37.56693],[127.09394,37.567]],[[127.09716,37.56703],[127.09722,37.56703],[127.09723,37.56698],[127.09716,37.56698],[127.09716,37.56703]],[[127.09621,37.56695],[127.09628,37.56695],[127.09628,37.56689],[127.09621,37.56689],[127.09621,37.56695]],[[127.09532,37.56641],[127.09545,37.56641],[127.09561,37.56636],[127.09561,37.56631],[127.09552,37.56625],[127.09552,37.5662],[127.09548,37.56618],[127.09548,37.56609],[127.09537,37.56609],[127.09539,37.56625],[127.09532,37.5663],[127.09532,37.56641]],[[127.0974,37.56644],[127.09749,37.56644],[127.09751,37.56639],[127.09751,37.56632],[127.09745,37.56632],[127.09748,37.5659],[127.09746,37.56587],[127.09739,37.56587],[127.09735,37.56581],[127.09728,37.56579],[127.09726,37.56568],[127.09719,37.56568],[127.09726,37.56552],[127.0974,37.56556],[127.09744,37.56563],[127.09755,37.56565],[127.09754,37.56549],[127.09751,37.56545],[127.09747,37.56545],[127.09747,37.56542],[127.0974,37.5654],[127.09743,37.56518],[127.09734,37.56511],[127.0973,37.56511],[127.09723,37.56505],[127.09723,37.56502],[127.09705,37.56501],[127.09698,37.5649],[127.09689,37.56488],[127.0969,37.56485],[127.09681,37.56477],[127.09669,37.56477],[127.09667,37.56474],[127.0966,37.56474],[127.0966,37.56484],[127.09642,37.5648],[127.09637,37.56484],[127.09637,37.56489],[127.09651,37.56493],[127.09655,37.56488],[127.09665,37.56488],[127.09664,37.56504],[127.09657,37.56511],[127.09659,37.56519],[127.09675,37.56517],[127.09673,37.56504],[127.09689,37.56506],[127.09693,37.5651],[127.09691,37.56521],[127.09704,37.56528],[127.09711,37.56548],[127.09695,37.5655],[127.09692,37.56555],[127.09685,37.56555],[127.09676,37.56562],[127.0966,37.56565],[127.09658,37.56578],[127.09646,37.56583],[127.09648,37.56598],[127.09635,37.56598],[127.09632,37.56601],[127.09632,37.56616],[127.09639,37.56616],[127.09643,37.56621],[127.09663,37.56621],[127.09666,37.56611],[127.09661,37.56609],[127.09662,37.566],[127.09666,37.56598],[127.09666,37.56589],[127.09673,37.56589],[127.09675,37.56598],[127.09682,37.566],[127.09682,37.56607],[127.09675,37.56609],[127.09677,37.56623],[127.09697,37.56624],[127.09702,37.56627],[127.09722,37.5663],[127.0974,37.56644]],[[127.09391,37.56635],[127.09403,37.56635],[127.09403,37.56626],[127.09399,37.56617],[127.09387,37.56615],[127.09387,37.56622],[127.09392,37.56624],[127.09391,37.56635]],[[127.09793,37.56593],[127.09802,37.56593],[127.09803,37.56582],[127.09789,37.56577],[127.09778,37.56576],[127.09771,37.56571],[127.09771,37.56567],[127.09758,37.56567],[127.09762,37.5658],[127.09769,37.5658],[127.09777,37.56589],[127.09793,37.56593]],[[127.0954,37.56587],[127.09547,37.56587],[127.09547,37.56583],[127.09558,37.56582],[127.09558,37.56578],[127.09563,37.56577],[127.09561,37.56567],[127.0954,37.56567],[127.0954,37.56587]],[[127.09597,37.5655],[127.09604,37.5655],[127.09604,37.56545],[127.09597,37.56545],[127.09597,37.5655]],[[127.09645,37.56536],[127.09654,37.56537],[127.09654,37.56531],[127.09645,37.56531],[127.09645,37.56536]],[[127.09439,37.56528],[127.09446,37.56528],[127.09446,37.56522],[127.09437,37.56522],[127.09435,37.56515],[127.09426,37.56513],[127.09426,37.56524],[127.09439,37.56524],[127.09439,37.56528]],[[127.09589,37.5653],[127.09596,37.5653],[127.09598,37.56525],[127.09602,37.56525],[127.09603,37.56519],[127.09587,37.56521],[127.09589,37.5653]],[[127.09805,37.56499],[127.09814,37.56499],[127.09814,37.56494],[127.09807,37.5649],[127.09807,37.56487],[127.09796,37.56485],[127.09796,37.56492],[127.09805,37.56499]],[[127.09567,37.56492],[127.09574,37.56492],[127.09574,37.56487],[127.09567,37.56486],[127.09567,37.56492]],[[127.09462,37.56451],[127.09468,37.56451],[127.09469,37.56445],[127.09462,37.56445],[127.09462,37.56451]],[[127.09415,37.56417],[127.09435,37.56414],[127.09436,37.564],[127.09445,37.56396],[127.09452,37.56396],[127.09452,37.564],[127.09461,37.564],[127.09477,37.56391],[127.09477,37.56386],[127.09481,37.56386],[127.09482,37.56382],[127.09488,37.56377],[127.09502,37.56375],[127.09502,37.56366],[127.09491,37.56364],[127.09491,37.56352],[127.09496,37.5635],[127.09496,37.56341],[127.09474,37.56337],[127.09463,37.56324],[127.09445,37.56324],[127.0944,37.56328],[127.0944,37.5634],[127.09448,37.56349],[127.09446,37.56366],[127.09437,37.56371],[127.09432,37.56383],[127.09427,37.56383],[127.0942,37.5639],[127.09409,37.5639],[127.09404,37.5641],[127.09411,37.56412],[127.09415,37.56417]],[[127.09767,37.56396],[127.09785,37.56394],[127.09785,37.56389],[127.0978,37.56385],[127.09786,37.5636],[127.09758,37.56365],[127.09754,37.56369],[127.09753,37.56378],[127.0976,37.56383],[127.0976,37.56392],[127.09764,37.56392],[127.09767,37.56396]],[[127.09734,37.56345],[127.09747,37.56345],[127.09752,37.56342],[127.09759,37.56342],[127.09759,37.56333],[127.09755,37.56327],[127.09746,37.56324],[127.09746,37.5632],[127.09728,37.56318],[127.0973,37.56332],[127.09734,37.56334],[127.09734,37.56345]],[[127.09744,37.56309],[127.09753,37.56309],[127.09753,37.56304],[127.09767,37.56302],[127.09767,37.56293],[127.09753,37.56291],[127.09751,37.56298],[127.09737,37.56296],[127.09735,37.56305],[127.09744,37.56309]],[[127.09742,37.56282],[127.09754,37.56282],[127.09754,37.56264],[127.09759,37.56264],[127.09761,37.56259],[127.09765,37.56259],[127.09766,37.56255],[127.0977,37.56254],[127.0977,37.56248],[127.09777,37.56247],[127.09778,37.56225],[127.09766,37.56223],[127.09766,37.56219],[127.09762,37.56217],[127.09762,37.56205],[127.09749,37.56205],[127.09749,37.56214],[127.09739,37.56215],[127.09737,37.56219],[127.09717,37.56219],[127.09717,37.56224],[127.09762,37.56225],[127.09762,37.56234],[127.09757,37.56241],[127.0975,37.56241],[127.09748,37.56232],[127.09739,37.56232],[127.09732,37.56237],[127.09732,37.56244],[127.09725,37.56247],[127.09725,37.5626],[127.09731,37.56267],[127.09731,37.56273],[127.09742,37.56282]],[[127.09707,37.56159],[127.09718,37.56159],[127.09721,37.56156],[127.09727,37.56156],[127.09728,37.56148],[127.09716,37.56148],[127.09714,37.56154],[127.09707,37.56153],[127.09707,37.56159]]]}}]}
