{"type":"FeatureCollection","metadata":{"description":"개방지(CHM ≤ 2 m)에 드리운 나무·지형 그림자, 2026-08-01 10:00 KST. canopy 위에 겹쳐 그린다","source":"위성 기반 추정 — Copernicus GLO-30 지형(30 m) + Meta/WRI 수관 높이(1 m CHM, 2019 촬영). 그늘 = 수관(CHM > 2 m) ∪ 나무·지형 그림자 ∪ 원거리 지형 마스크. 현장과 다를 수 있음.","datasetVersion":"2026-09-08.0","collectedAt":"2026-09-08","coordinateOrder":"[longitude, latitude]","crs":"EPSG:4326","representativeDate":"2026-08-01","hours":["10:00","11:00","12:00","13:00","14:00","15:00","16:00","17:00","18:00"],"chmAcquisition":["2019-03"],"assets":{"glo30":{"dataset":"Copernicus DEM GLO-30 (COG, s3://copernicus-dem-30m)","tiles":["Copernicus_DSM_COG_10_N37_00_E127_00_DEM"]},"chm":{"dataset":"Meta/WRI Global Canopy Height Map v1 (alsgedi_global_v6_float, 1 m, CC-BY 4.0)","quadkeys":["132110320"],"acquisition":["2019-03"]}},"method":{"gridResM":2,"canopyThresholdM":2,"bufferHalfM":25,"corridorHalfM":200,"simplifyTolM":2,"minAreaM2":25,"coordDecimals":5},"generator":"scripts/shade 0.1.0","builtAt":"2026-09-08T06:12:11Z","layer":"shadow","timeLocal":"10:00"},"features":[{"type":"Feature","properties":{"valleyId":"gingorang","layer":"shadow","date":"2026-08-01","timeLocal":"10:00"},"geometry":{"type":"Polygon","coordinates":[[[127.09467,37.57227],[127.09467,37.57217],[127.09476,37.57217],[127.09474,37.57228],[127.09467,37.57227]]]}},{"type":"Feature","properties":{"valleyId":"gingorang","layer":"shadow","date":"2026-08-01","timeLocal":"10:00"},"geometry":{"type":"Polygon","coordinates":[[[127.09502,37.57093],[127.09502,37.57087],[127.09511,37.57086],[127.09511,37.57091],[127.09502,37.57093]]]}},{"type":"Feature","properties":{"valleyId":"gingorang","layer":"shadow","date":"2026-08-01","timeLocal":"10:00"},"geometry":{"type":"Polygon","coordinates":[[[127.09387,37.56905],[127.09387,37.569],[127.0938,37.569],[127.0938,37.56891],[127.09389,37.56891],[127.09391,37.56896],[127.09398,37.569],[127.09398,37.56906],[127.09387,37.56905]]]}},{"type":"Feature","properties":{"valleyId":"gingorang","layer":"shadow","date":"2026-08-01","timeLocal":"10:00"},"geometry":{"type":"Polygon","coordinates":[[[127.09362,37.56896],[127.09362,37.56889],[127.09369,37.56889],[127.09369,37.56896],[127.09362,37.56896]]]}},{"type":"Feature","properties":{"valleyId":"gingorang","layer":"shadow","date":"2026-08-01","timeLocal":"10:00"},"geometry":{"type":"Polygon","coordinates":[[[127.09367,37.56876],[127.09367,37.56871],[127.09374,37.56871],[127.09374,37.56876],[127.09367,37.56876]]]}},{"type":"Feature","properties":{"valleyId":"gingorang","layer":"shadow","date":"2026-08-01","timeLocal":"10:00"},"geometry":{"type":"Polygon","coordinates":[[[127.09376,37.56864],[127.09377,37.56855],[127.09383,37.56855],[127.09383,37.56864],[127.09376,37.56864]]]}},{"type":"Feature","properties":{"valleyId":"gingorang","layer":"shadow","date":"2026-08-01","timeLocal":"10:00"},"geometry":{"type":"Polygon","coordinates":[[[127.09776,37.56376],[127.09774,37.56364],[127.09785,37.56362],[127.09783,37.56376],[127.09776,37.56376]]]}},{"type":"Feature","properties":{"valleyId":"gingorang","layer":"shadow","date":"2026-08-01","timeLocal":"10:00"},"geometry":{"type":"Polygon","coordinates":[[[127.09684,37.5635],[127.09684,37.56344],[127.09691,37.56344],[127.09691,37.5635],[127.09684,37.5635]]]}},{"type":"Feature","properties":{"valleyId":"gingorang","layer":"shadow","date":"2026-08-01","timeLocal":"10:00"},"geometry":{"type":"Polygon","coordinates":[[[127.09758,37.56302],[127.09758,37.56291],[127.09765,37.56291],[127.09767,37.56302],[127.09758,37.56302]]]}},{"type":"Feature","properties":{"valleyId":"gingorang","layer":"shadow","date":"2026-08-01","timeLocal":"10:00"},"geometry":{"type":"Polygon","coordinates":[[[127.09747,37.56282],[127.09747,37.56268],[127.09754,37.56268],[127.09754,37.56282],[127.09747,37.56282]]]}},{"type":"Feature","properties":{"valleyId":"gingorang","layer":"shadow","date":"2026-08-01","timeLocal":"10:00"},"geometry":{"type":"Polygon","coordinates":[[[127.09751,37.56223],[127.09749,37.56214],[127.09755,37.56212],[127.09756,37.56205],[127.09762,37.56205],[127.09764,37.56223],[127.09751,37.56223]]]}},{"type":"Feature","properties":{"valleyId":"gingorang","layer":"shadow","date":"2026-08-01","timeLocal":"10:00"},"geometry":{"type":"Polygon","coordinates":[[[127.09716,37.56155],[127.09716,37.56148],[127.09728,37.56148],[127.09727,37.56156],[127.09716,37.56155]]]}},{"type":"Feature","properties":{"valleyId":"gingorang","layer":"shadow","date":"2026-08-01","timeLocal":"10:00"},"geometry":{"type":"Polygon","coordinates":[[[127.09759,37.56144],[127.09757,37.56134],[127.09769,37.56135],[127.09771,37.56144],[127.09759,37.56144]]]}},{"type":"Feature","properties":{"valleyId":"gingorang","layer":"shadow","date":"2026-08-01","timeLocal":"10:00"},"geometry":{"type":"Polygon","coordinates":[[[127.0973,37.56138],[127.0973,37.56132],[127.09735,37.56132],[127.09735,37.56129],[127.09744,37.56129],[127.09741,37.56138],[127.0973,37.56138]]]}},{"type":"Feature","properties":{"valleyId":"gingorang","layer":"shadow","date":"2026-08-01","timeLocal":"10:00"},"geometry":{"type":"Polygon","coordinates":[[[127.09572,37.56112],[127.09572,37.56106],[127.09579,37.56106],[127.09579,37.56112],[127.09572,37.56112]]]}}]}
