{"type":"FeatureCollection","metadata":{"description":"개방지(CHM ≤ 2 m)에 드리운 나무·지형 그림자, 2026-08-01 17:00 KST. canopy 위에 겹쳐 그린다","source":"위성 기반 추정 — Copernicus GLO-30 지형(30 m) + Meta/WRI 수관 높이(1 m CHM, 2019 촬영). 그늘 = 수관(CHM > 2 m) ∪ 나무·지형 그림자 ∪ 원거리 지형 마스크. 현장과 다를 수 있음.","datasetVersion":"2026-09-08.0","collectedAt":"2026-09-08","coordinateOrder":"[longitude, latitude]","crs":"EPSG:4326","representativeDate":"2026-08-01","hours":["10:00","11:00","12:00","13:00","14:00","15:00","16:00","17:00","18:00"],"chmAcquisition":["2019-03"],"assets":{"glo30":{"dataset":"Copernicus DEM GLO-30 (COG, s3://copernicus-dem-30m)","tiles":["Copernicus_DSM_COG_10_N37_00_E127_00_DEM"]},"chm":{"dataset":"Meta/WRI Global Canopy Height Map v1 (alsgedi_global_v6_float, 1 m, CC-BY 4.0)","quadkeys":["132110320"],"acquisition":["2019-03"]}},"method":{"gridResM":2,"canopyThresholdM":2,"bufferHalfM":25,"corridorHalfM":200,"simplifyTolM":2,"minAreaM2":25,"coordDecimals":5},"generator":"scripts/shade 0.1.0","builtAt":"2026-09-08T06:12:11Z","layer":"shadow","timeLocal":"17:00"},"features":[{"type":"Feature","properties":{"valleyId":"gingorang","layer":"shadow","date":"2026-08-01","timeLocal":"17:00"},"geometry":{"type":"Polygon","coordinates":[[[127.09721,37.57132],[127.09721,37.57125],[127.09728,37.57125],[127.09727,37.57133],[127.09721,37.57132]]]}},{"type":"Feature","properties":{"valleyId":"gingorang","layer":"shadow","date":"2026-08-01","timeLocal":"17:00"},"geometry":{"type":"Polygon","coordinates":[[[127.09612,37.5712],[127.09613,37.57107],[127.09619,37.57107],[127.0962,37.571],[127.09626,37.571],[127.09626,37.57107],[127.09622,37.57107],[127.09621,37.5712],[127.09612,37.5712]]]}},{"type":"Feature","properties":{"valleyId":"gingorang","layer":"shadow","date":"2026-08-01","timeLocal":"17:00"},"geometry":{"type":"Polygon","coordinates":[[[127.09683,37.57101],[127.09683,37.57094],[127.0969,37.57094],[127.0969,37.57101],[127.09683,37.57101]]]}},{"type":"Feature","properties":{"valleyId":"gingorang","layer":"shadow","date":"2026-08-01","timeLocal":"17:00"},"geometry":{"type":"Polygon","coordinates":[[[127.09735,37.57088],[127.09731,37.57082],[127.09731,37.57073],[127.09743,37.57072],[127.09742,37.57088],[127.09735,37.57088]]]}},{"type":"Feature","properties":{"valleyId":"gingorang","layer":"shadow","date":"2026-08-01","timeLocal":"17:00"},"geometry":{"type":"Polygon","coordinates":[[[127.0967,37.57076],[127.0967,37.5707],[127.09679,37.5707],[127.09679,37.57076],[127.0967,37.57076]]]}},{"type":"Feature","properties":{"valleyId":"gingorang","layer":"shadow","date":"2026-08-01","timeLocal":"17:00"},"geometry":{"type":"Polygon","coordinates":[[[127.09702,37.57062],[127.09702,37.57056],[127.09709,37.57057],[127.09709,37.57062],[127.09702,37.57062]]]}},{"type":"Feature","properties":{"valleyId":"gingorang","layer":"shadow","date":"2026-08-01","timeLocal":"17:00"},"geometry":{"type":"Polygon","coordinates":[[[127.09663,37.57063],[127.09664,37.57056],[127.09671,37.57051],[127.0968,37.57051],[127.0968,37.57056],[127.09673,37.57058],[127.09673,37.57063],[127.09663,37.57063]]]}},{"type":"Feature","properties":{"valleyId":"gingorang","layer":"shadow","date":"2026-08-01","timeLocal":"17:00"},"geometry":{"type":"Polygon","coordinates":[[[127.09682,37.57047],[127.09682,37.57042],[127.09691,37.5704],[127.09691,37.57045],[127.09682,37.57047]]]}},{"type":"Feature","properties":{"valleyId":"gingorang","layer":"shadow","date":"2026-08-01","timeLocal":"17:00"},"geometry":{"type":"Polygon","coordinates":[[[127.09594,37.57028],[127.09594,37.57022],[127.09601,37.57022],[127.09601,37.57028],[127.09594,37.57028]]]}},{"type":"Feature","properties":{"valleyId":"gingorang","layer":"shadow","date":"2026-08-01","timeLocal":"17:00"},"geometry":{"type":"Polygon","coordinates":[[[127.09628,37.57039],[127.09617,37.5703],[127.09619,37.57019],[127.09601,37.57017],[127.09604,37.56999],[127.09622,37.57003],[127.09626,37.57008],[127.09626,37.57023],[127.0964,37.57025],[127.09639,37.57036],[127.09635,37.57039],[127.09628,37.57039]]]}},{"type":"Feature","properties":{"valleyId":"gingorang","layer":"shadow","date":"2026-08-01","timeLocal":"17:00"},"geometry":{"type":"Polygon","coordinates":[[[127.0971,37.56995],[127.09706,37.56984],[127.09709,37.56975],[127.09716,37.56976],[127.09717,37.56995],[127.0971,37.56995]]]}},{"type":"Feature","properties":{"valleyId":"gingorang","layer":"shadow","date":"2026-08-01","timeLocal":"17:00"},"geometry":{"type":"Polygon","coordinates":[[[127.0936,37.56876],[127.09361,37.56867],[127.09367,37.56867],[127.09367,37.56876],[127.0936,37.56876]]]}},{"type":"Feature","properties":{"valleyId":"gingorang","layer":"shadow","date":"2026-08-01","timeLocal":"17:00"},"geometry":{"type":"Polygon","coordinates":[[[127.09667,37.56847],[127.09672,37.56825],[127.09676,37.56824],[127.09676,37.5682],[127.09697,37.56817],[127.09697,37.56822],[127.09692,37.56822],[127.09688,37.56831],[127.09683,37.56831],[127.0968,37.56843],[127.09676,37.56847],[127.09667,37.56847]]]}},{"type":"Feature","properties":{"valleyId":"gingorang","layer":"shadow","date":"2026-08-01","timeLocal":"17:00"},"geometry":{"type":"Polygon","coordinates":[[[127.09756,37.56735],[127.09756,37.56724],[127.09763,37.56724],[127.09762,37.56735],[127.09756,37.56735]]]}},{"type":"Feature","properties":{"valleyId":"gingorang","layer":"shadow","date":"2026-08-01","timeLocal":"17:00"},"geometry":{"type":"Polygon","coordinates":[[[127.09394,37.567],[127.09397,37.56693],[127.09406,37.56693],[127.09406,37.56698],[127.09394,37.567]]]}},{"type":"Feature","properties":{"valleyId":"gingorang","layer":"shadow","date":"2026-08-01","timeLocal":"17:00"},"geometry":{"type":"Polygon","coordinates":[[[127.09716,37.56703],[127.09716,37.56698],[127.09723,37.56698],[127.09722,37.56703],[127.09716,37.56703]]]}},{"type":"Feature","properties":{"valleyId":"gingorang","layer":"shadow","date":"2026-08-01","timeLocal":"17:00"},"geometry":{"type":"Polygon","coordinates":[[[127.09786,37.56706],[127.09786,37.56697],[127.09793,37.56697],[127.09793,37.56706],[127.09786,37.56706]]]}},{"type":"Feature","properties":{"valleyId":"gingorang","layer":"shadow","date":"2026-08-01","timeLocal":"17:00"},"geometry":{"type":"Polygon","coordinates":[[[127.09811,37.5669],[127.09811,37.56685],[127.09818,37.56685],[127.09818,37.56691],[127.09811,37.5669]]]}},{"type":"Feature","properties":{"valleyId":"gingorang","layer":"shadow","date":"2026-08-01","timeLocal":"17:00"},"geometry":{"type":"Polygon","coordinates":[[[127.09804,37.56683],[127.09789,37.56669],[127.09778,37.56668],[127.09776,37.56657],[127.09785,37.56658],[127.09791,37.56663],[127.09805,37.56663],[127.09805,37.56672],[127.09812,37.56674],[127.09811,37.56683],[127.09804,37.56683]]]}},{"type":"Feature","properties":{"valleyId":"gingorang","layer":"shadow","date":"2026-08-01","timeLocal":"17:00"},"geometry":{"type":"Polygon","coordinates":[[[127.09805,37.56662],[127.09805,37.56656],[127.09812,37.56656],[127.09812,37.56662],[127.09805,37.56662]]]}},{"type":"Feature","properties":{"valleyId":"gingorang","layer":"shadow","date":"2026-08-01","timeLocal":"17:00"},"geometry":{"type":"Polygon","coordinates":[[[127.09391,37.56635],[127.09392,37.56626],[127.09403,37.56626],[127.09403,37.56633],[127.09391,37.56635]]]}},{"type":"Feature","properties":{"valleyId":"gingorang","layer":"shadow","date":"2026-08-01","timeLocal":"17:00"},"geometry":{"type":"Polygon","coordinates":[[[127.0974,37.56644],[127.09735,37.56639],[127.09731,37.56639],[127.09731,37.56633],[127.09747,37.56632],[127.09751,37.56643],[127.0974,37.56644]]]}},{"type":"Feature","properties":{"valleyId":"gingorang","layer":"shadow","date":"2026-08-01","timeLocal":"17:00"},"geometry":{"type":"Polygon","coordinates":[[[127.09721,37.56601],[127.09721,37.56594],[127.0973,37.56594],[127.0973,37.56601],[127.09721,37.56601]]]}},{"type":"Feature","properties":{"valleyId":"gingorang","layer":"shadow","date":"2026-08-01","timeLocal":"17:00"},"geometry":{"type":"Polygon","coordinates":[[[127.09679,37.56625],[127.09675,37.56609],[127.09682,37.56607],[127.09682,37.566],[127.09675,37.56598],[127.09673,37.56586],[127.09685,37.56586],[127.09687,37.56595],[127.09696,37.56595],[127.09696,37.56604],[127.09689,37.56607],[127.09686,37.56625],[127.09679,37.56625]]]}},{"type":"Feature","properties":{"valleyId":"gingorang","layer":"shadow","date":"2026-08-01","timeLocal":"17:00"},"geometry":{"type":"Polygon","coordinates":[[[127.0954,37.56574],[127.0954,37.56567],[127.09552,37.56567],[127.09551,37.56575],[127.0954,37.56574]]]}},{"type":"Feature","properties":{"valleyId":"gingorang","layer":"shadow","date":"2026-08-01","timeLocal":"17:00"},"geometry":{"type":"Polygon","coordinates":[[[127.09762,37.5658],[127.0976,37.56569],[127.09767,37.56569],[127.09769,37.5658],[127.09762,37.5658]]]}},{"type":"Feature","properties":{"valleyId":"gingorang","layer":"shadow","date":"2026-08-01","timeLocal":"17:00"},"geometry":{"type":"Polygon","coordinates":[[[127.09658,37.56578],[127.0966,37.56565],[127.09667,37.56566],[127.09667,37.56578],[127.09658,37.56578]]]}},{"type":"Feature","properties":{"valleyId":"gingorang","layer":"shadow","date":"2026-08-01","timeLocal":"17:00"},"geometry":{"type":"Polygon","coordinates":[[[127.09687,37.56566],[127.09688,37.56555],[127.09692,37.56555],[127.09695,37.5655],[127.09701,37.5655],[127.09701,37.56557],[127.09694,37.56561],[127.09694,37.56566],[127.09687,37.56566]]]}},{"type":"Feature","properties":{"valleyId":"gingorang","layer":"shadow","date":"2026-08-01","timeLocal":"17:00"},"geometry":{"type":"Polygon","coordinates":[[[127.09645,37.56536],[127.09645,37.56531],[127.09654,37.56531],[127.09654,37.56537],[127.09645,37.56536]]]}},{"type":"Feature","properties":{"valleyId":"gingorang","layer":"shadow","date":"2026-08-01","timeLocal":"17:00"},"geometry":{"type":"Polygon","coordinates":[[[127.09706,37.56539],[127.09704,37.56528],[127.09711,37.56528],[127.09713,37.56539],[127.09706,37.56539]]]}},{"type":"Feature","properties":{"valleyId":"gingorang","layer":"shadow","date":"2026-08-01","timeLocal":"17:00"},"geometry":{"type":"Polygon","coordinates":[[[127.09439,37.56528],[127.09439,37.56522],[127.09446,37.56522],[127.09446,37.56528],[127.09439,37.56528]]]}},{"type":"Feature","properties":{"valleyId":"gingorang","layer":"shadow","date":"2026-08-01","timeLocal":"17:00"},"geometry":{"type":"Polygon","coordinates":[[[127.09587,37.56526],[127.09587,37.56519],[127.09594,37.56519],[127.09593,37.56527],[127.09587,37.56526]]]}},{"type":"Feature","properties":{"valleyId":"gingorang","layer":"shadow","date":"2026-08-01","timeLocal":"17:00"},"geometry":{"type":"Polygon","coordinates":[[[127.09426,37.56524],[127.09426,37.56513],[127.09433,37.56513],[127.09437,37.56524],[127.09426,37.56524]]]}},{"type":"Feature","properties":{"valleyId":"gingorang","layer":"shadow","date":"2026-08-01","timeLocal":"17:00"},"geometry":{"type":"Polygon","coordinates":[[[127.09693,37.56523],[127.09693,37.56517],[127.097,37.56517],[127.097,37.56523],[127.09693,37.56523]]]}},{"type":"Feature","properties":{"valleyId":"gingorang","layer":"shadow","date":"2026-08-01","timeLocal":"17:00"},"geometry":{"type":"Polygon","coordinates":[[[127.09659,37.56519],[127.09657,37.56511],[127.09664,37.56504],[127.09665,37.56488],[127.09671,37.56488],[127.09671,37.56517],[127.09659,37.56519]]]}},{"type":"Feature","properties":{"valleyId":"gingorang","layer":"shadow","date":"2026-08-01","timeLocal":"17:00"},"geometry":{"type":"Polygon","coordinates":[[[127.09567,37.56492],[127.09567,37.56486],[127.09574,37.56487],[127.09574,37.56492],[127.09567,37.56492]]]}},{"type":"Feature","properties":{"valleyId":"gingorang","layer":"shadow","date":"2026-08-01","timeLocal":"17:00"},"geometry":{"type":"Polygon","coordinates":[[[127.09637,37.56489],[127.09637,37.56484],[127.09644,37.56484],[127.09644,37.5649],[127.09637,37.56489]]]}},{"type":"Feature","properties":{"valleyId":"gingorang","layer":"shadow","date":"2026-08-01","timeLocal":"17:00"},"geometry":{"type":"Polygon","coordinates":[[[127.0966,37.56486],[127.0966,37.56479],[127.09667,37.56479],[127.09667,37.56486],[127.0966,37.56486]]]}},{"type":"Feature","properties":{"valleyId":"gingorang","layer":"shadow","date":"2026-08-01","timeLocal":"17:00"},"geometry":{"type":"Polygon","coordinates":[[[127.0964,37.56462],[127.09641,37.56453],[127.09647,37.56454],[127.09647,37.56463],[127.0964,37.56462]]]}},{"type":"Feature","properties":{"valleyId":"gingorang","layer":"shadow","date":"2026-08-01","timeLocal":"17:00"},"geometry":{"type":"Polygon","coordinates":[[[127.09462,37.56451],[127.09462,37.56445],[127.09469,37.56445],[127.09468,37.56451],[127.09462,37.56451]]]}},{"type":"Feature","properties":{"valleyId":"gingorang","layer":"shadow","date":"2026-08-01","timeLocal":"17:00"},"geometry":{"type":"Polygon","coordinates":[[[127.09636,37.56452],[127.09636,37.56443],[127.09643,37.56443],[127.09643,37.56452],[127.09636,37.56452]]]}},{"type":"Feature","properties":{"valleyId":"gingorang","layer":"shadow","date":"2026-08-01","timeLocal":"17:00"},"geometry":{"type":"Polygon","coordinates":[[[127.09632,37.56441],[127.0963,37.5643],[127.09637,37.5643],[127.09639,37.56441],[127.09632,37.56441]]]}},{"type":"Feature","properties":{"valleyId":"gingorang","layer":"shadow","date":"2026-08-01","timeLocal":"17:00"},"geometry":{"type":"Polygon","coordinates":[[[127.09586,37.56447],[127.09587,37.56438],[127.09593,37.56436],[127.09601,37.56419],[127.0961,37.56419],[127.09607,37.56435],[127.09596,37.56436],[127.09595,37.56447],[127.09586,37.56447]]]}},{"type":"Feature","properties":{"valleyId":"gingorang","layer":"shadow","date":"2026-08-01","timeLocal":"17:00"},"geometry":{"type":"Polygon","coordinates":[[[127.09411,37.56414],[127.09404,37.5641],[127.09409,37.5639],[127.09422,37.5639],[127.09417,37.56414],[127.09411,37.56414]]]}},{"type":"Feature","properties":{"valleyId":"gingorang","layer":"shadow","date":"2026-08-01","timeLocal":"17:00"},"geometry":{"type":"Polygon","coordinates":[[[127.09454,37.56398],[127.09457,37.56386],[127.09463,37.56386],[127.09461,37.56398],[127.09454,37.56398]]]}},{"type":"Feature","properties":{"valleyId":"gingorang","layer":"shadow","date":"2026-08-01","timeLocal":"17:00"},"geometry":{"type":"Polygon","coordinates":[[[127.09623,37.56422],[127.09624,37.5641],[127.09628,37.56406],[127.09628,37.56399],[127.09622,37.56395],[127.09622,37.56386],[127.09635,37.56387],[127.09635,37.56419],[127.09632,37.56423],[127.09623,37.56422]]]}},{"type":"Feature","properties":{"valleyId":"gingorang","layer":"shadow","date":"2026-08-01","timeLocal":"17:00"},"geometry":{"type":"Polygon","coordinates":[[[127.09427,37.56389],[127.09427,37.56383],[127.09432,37.56383],[127.09434,37.56374],[127.09441,37.56374],[127.09441,37.56385],[127.09427,37.56389]]]}},{"type":"Feature","properties":{"valleyId":"gingorang","layer":"shadow","date":"2026-08-01","timeLocal":"17:00"},"geometry":{"type":"Polygon","coordinates":[[[127.09443,37.56373],[127.09446,37.56355],[127.09453,37.56355],[127.09455,37.56364],[127.0945,37.56367],[127.0945,37.56373],[127.09443,37.56373]]]}},{"type":"Feature","properties":{"valleyId":"gingorang","layer":"shadow","date":"2026-08-01","timeLocal":"17:00"},"geometry":{"type":"Polygon","coordinates":[[[127.09631,37.56374],[127.09631,37.56367],[127.09625,37.56367],[127.09625,37.56359],[127.09629,37.56358],[127.0963,37.56349],[127.09639,37.56349],[127.0964,37.56372],[127.09631,37.56374]]]}},{"type":"Feature","properties":{"valleyId":"gingorang","layer":"shadow","date":"2026-08-01","timeLocal":"17:00"},"geometry":{"type":"Polygon","coordinates":[[[127.09589,37.56341],[127.09589,37.56335],[127.09596,37.56336],[127.09596,37.56341],[127.09589,37.56341]]]}},{"type":"Feature","properties":{"valleyId":"gingorang","layer":"shadow","date":"2026-08-01","timeLocal":"17:00"},"geometry":{"type":"Polygon","coordinates":[[[127.09614,37.56341],[127.09614,37.56336],[127.09621,37.56336],[127.09621,37.56341],[127.09614,37.56341]]]}},{"type":"Feature","properties":{"valleyId":"gingorang","layer":"shadow","date":"2026-08-01","timeLocal":"17:00"},"geometry":{"type":"Polygon","coordinates":[[[127.09451,37.56351],[127.09444,37.56348],[127.0944,37.5634],[127.0944,37.56328],[127.09445,37.56324],[127.09463,37.56324],[127.09465,37.56335],[127.09458,37.56339],[127.09457,37.56351],[127.09451,37.56351]]]}},{"type":"Feature","properties":{"valleyId":"gingorang","layer":"shadow","date":"2026-08-01","timeLocal":"17:00"},"geometry":{"type":"Polygon","coordinates":[[[127.09592,37.56299],[127.0959,37.5629],[127.09575,37.56287],[127.09572,37.56279],[127.09564,37.56276],[127.09564,37.56268],[127.09575,37.5627],[127.09582,37.56279],[127.09588,37.5628],[127.09599,37.56289],[127.09601,37.56298],[127.09592,37.56299]]]}},{"type":"Feature","properties":{"valleyId":"gingorang","layer":"shadow","date":"2026-08-01","timeLocal":"17:00"},"geometry":{"type":"Polygon","coordinates":[[[127.0955,37.56266],[127.09546,37.56264],[127.09546,37.56259],[127.0955,37.56259],[127.09551,37.56252],[127.09557,37.56252],[127.09557,37.56266],[127.0955,37.56266]]]}},{"type":"Feature","properties":{"valleyId":"gingorang","layer":"shadow","date":"2026-08-01","timeLocal":"17:00"},"geometry":{"type":"Polygon","coordinates":[[[127.09532,37.56257],[127.09521,37.56251],[127.09528,37.56235],[127.09535,37.56235],[127.09535,37.56243],[127.09539,37.56243],[127.09542,37.56246],[127.09541,37.56257],[127.09532,37.56257]]]}},{"type":"Feature","properties":{"valleyId":"gingorang","layer":"shadow","date":"2026-08-01","timeLocal":"17:00"},"geometry":{"type":"Polygon","coordinates":[[[127.09533,37.56219],[127.09534,37.56199],[127.09547,37.562],[127.09547,37.56219],[127.09533,37.56219]]]}},{"type":"Feature","properties":{"valleyId":"gingorang","layer":"shadow","date":"2026-08-01","timeLocal":"17:00"},"geometry":{"type":"Polygon","coordinates":[[[127.09527,37.56197],[127.09525,37.56185],[127.09532,37.56185],[127.09532,37.56179],[127.09539,37.5618],[127.09541,37.56189],[127.09534,37.56189],[127.09534,37.56198],[127.09527,37.56197]]]}},{"type":"Feature","properties":{"valleyId":"gingorang","layer":"shadow","date":"2026-08-01","timeLocal":"17:00"},"geometry":{"type":"Polygon","coordinates":[[[127.09498,37.56179],[127.09491,37.56175],[127.09494,37.56161],[127.09487,37.56157],[127.09488,37.56146],[127.09472,37.56148],[127.09472,37.56142],[127.09463,37.56139],[127.09465,37.56124],[127.09479,37.56117],[127.09486,37.56117],[127.09486,37.56125],[127.09502,37.56132],[127.09501,37.56147],[127.09508,37.56147],[127.0951,37.5615],[127.09526,37.56151],[127.09527,37.56179],[127.09498,37.56179]]]}},{"type":"Feature","properties":{"valleyId":"gingorang","layer":"shadow","date":"2026-08-01","timeLocal":"17:00"},"geometry":{"type":"Polygon","coordinates":[[[127.09602,37.56101],[127.09605,37.56089],[127.09611,37.56089],[127.09609,37.56101],[127.09602,37.56101]]]}}]}
