{"type":"FeatureCollection","metadata":{"description":"개방지(CHM ≤ 2 m)에 드리운 나무·지형 그림자, 2026-08-01 16:00 KST. canopy 위에 겹쳐 그린다","source":"위성 기반 추정 — Copernicus GLO-30 지형(30 m) + Meta/WRI 수관 높이(1 m CHM, 2019 촬영). 그늘 = 수관(CHM > 2 m) ∪ 나무·지형 그림자 ∪ 원거리 지형 마스크. 현장과 다를 수 있음.","datasetVersion":"2026-09-08.0","collectedAt":"2026-09-08","coordinateOrder":"[longitude, latitude]","crs":"EPSG:4326","representativeDate":"2026-08-01","hours":["10:00","11:00","12:00","13:00","14:00","15:00","16:00","17:00","18:00"],"chmAcquisition":["2019-03"],"assets":{"glo30":{"dataset":"Copernicus DEM GLO-30 (COG, s3://copernicus-dem-30m)","tiles":["Copernicus_DSM_COG_10_N37_00_E127_00_DEM"]},"chm":{"dataset":"Meta/WRI Global Canopy Height Map v1 (alsgedi_global_v6_float, 1 m, CC-BY 4.0)","quadkeys":["132110320"],"acquisition":["2019-03"]}},"method":{"gridResM":2,"canopyThresholdM":2,"bufferHalfM":25,"corridorHalfM":200,"simplifyTolM":2,"minAreaM2":25,"coordDecimals":5},"generator":"scripts/shade 0.1.0","builtAt":"2026-09-08T06:12:11Z","layer":"shadow","timeLocal":"16:00"},"features":[{"type":"Feature","properties":{"valleyId":"gingorang","layer":"shadow","date":"2026-08-01","timeLocal":"16:00"},"geometry":{"type":"Polygon","coordinates":[[[127.09733,37.57086],[127.09731,37.57073],[127.0974,37.57071],[127.0974,37.57086],[127.09733,37.57086]]]}},{"type":"Feature","properties":{"valleyId":"gingorang","layer":"shadow","date":"2026-08-01","timeLocal":"16:00"},"geometry":{"type":"Polygon","coordinates":[[[127.09601,37.57015],[127.09601,37.5701],[127.09608,37.5701],[127.09608,37.57015],[127.09601,37.57015]]]}},{"type":"Feature","properties":{"valleyId":"gingorang","layer":"shadow","date":"2026-08-01","timeLocal":"16:00"},"geometry":{"type":"Polygon","coordinates":[[[127.09667,37.56847],[127.09672,37.56825],[127.09676,37.56824],[127.09676,37.5682],[127.09697,37.56817],[127.09697,37.56822],[127.09692,37.56822],[127.09683,37.56829],[127.0968,37.56843],[127.09676,37.56847],[127.09667,37.56847]]]}},{"type":"Feature","properties":{"valleyId":"gingorang","layer":"shadow","date":"2026-08-01","timeLocal":"16:00"},"geometry":{"type":"Polygon","coordinates":[[[127.09426,37.56524],[127.09426,37.56513],[127.09433,37.56513],[127.09437,37.56524],[127.09426,37.56524]]]}},{"type":"Feature","properties":{"valleyId":"gingorang","layer":"shadow","date":"2026-08-01","timeLocal":"16:00"},"geometry":{"type":"Polygon","coordinates":[[[127.09521,37.56251],[127.09521,37.56246],[127.09528,37.56246],[127.09528,37.56252],[127.09521,37.56251]]]}},{"type":"Feature","properties":{"valleyId":"gingorang","layer":"shadow","date":"2026-08-01","timeLocal":"16:00"},"geometry":{"type":"Polygon","coordinates":[[[127.09604,37.56094],[127.09605,37.56089],[127.09611,37.56089],[127.09611,37.56094],[127.09604,37.56094]]]}}]}
