{"type":"FeatureCollection","metadata":{"description":"수관 아래(CHM > 2 m) — 시각 무관. 구간 회랑 ±200 m 절단","source":"위성 기반 추정 — Copernicus GLO-30 지형(30 m) + Meta/WRI 수관 높이(1 m CHM, 2019 촬영). 그늘 = 수관(CHM > 2 m) ∪ 나무·지형 그림자 ∪ 원거리 지형 마스크. 현장과 다를 수 있음.","datasetVersion":"2026-09-03.0","collectedAt":"2026-09-03","coordinateOrder":"[longitude, latitude]","crs":"EPSG:4326","representativeDate":"2026-08-01","hours":["10:00","11:00","12:00","13:00","14:00","15:00","16:00","17:00","18:00"],"chmAcquisition":["2019-03","2019-05"],"assets":{"glo30":{"dataset":"Copernicus DEM GLO-30 (COG, s3://copernicus-dem-30m)","tiles":["Copernicus_DSM_COG_10_N37_00_E127_00_DEM"]},"chm":{"dataset":"Meta/WRI Global Canopy Height Map v1 (alsgedi_global_v6_float, 1 m, CC-BY 4.0)","quadkeys":["132110302","132110303"],"acquisition":["2019-03","2019-05"]}},"method":{"gridResM":2,"canopyThresholdM":2,"bufferHalfM":25,"corridorHalfM":200,"simplifyTolM":2,"minAreaM2":25,"coordDecimals":5},"generator":"scripts/shade 0.1.0","builtAt":"2026-09-03T06:59:47Z","layer":"canopy"},"features":[{"type":"Feature","properties":{"valleyId":"sample","layer":"canopy","date":"2026-08-01"},"geometry":{"type":"Polygon","coordinates":[[[127.26239,37.83508],[127.26237,37.83499],[127.26249,37.83498],[127.26249,37.83507],[127.26239,37.83508]]]}},{"type":"Feature","properties":{"valleyId":"sample","layer":"canopy","date":"2026-08-01"},"geometry":{"type":"Polygon","coordinates":[[[127.26113,37.83458],[127.26114,37.83449],[127.26125,37.83449],[127.26125,37.83456],[127.26113,37.83458]]]}},{"type":"Feature","properties":{"valleyId":"sample","layer":"canopy","date":"2026-08-01"},"geometry":{"type":"Polygon","coordinates":[[[127.26435,37.8341],[127.26435,37.83401],[127.26442,37.83402],[127.26444,37.83409],[127.26435,37.8341]]]}},{"type":"Feature","properties":{"valleyId":"sample","layer":"canopy","date":"2026-08-01"},"geometry":{"type":"Polygon","coordinates":[[[127.26436,37.83378],[127.26436,37.83373],[127.26443,37.83373],[127.26442,37.83378],[127.26436,37.83378]]]}},{"type":"Feature","properties":{"valleyId":"sample","layer":"canopy","date":"2026-08-01"},"geometry":{"type":"Polygon","coordinates":[[[127.26413,37.83378],[127.26413,37.83372],[127.26427,37.83371],[127.26424,37.83378],[127.26413,37.83378]]]}},{"type":"Feature","properties":{"valleyId":"sample","layer":"canopy","date":"2026-08-01"},"geometry":{"type":"Polygon","coordinates":[[[127.26445,37.83376],[127.26445,37.83371],[127.26456,37.83371],[127.26456,37.83376],[127.26445,37.83376]]]}},{"type":"Feature","properties":{"valleyId":"sample","layer":"canopy","date":"2026-08-01"},"geometry":{"type":"Polygon","coordinates":[[[127.2646,37.8333],[127.26451,37.83324],[127.26451,37.83319],[127.26467,37.83321],[127.26466,37.8333],[127.2646,37.8333]]]}},{"type":"Feature","properties":{"valleyId":"sample","layer":"canopy","date":"2026-08-01"},"geometry":{"type":"Polygon","coordinates":[[[127.26493,37.83337],[127.26491,37.83323],[127.26501,37.83318],[127.26514,37.83318],[127.26515,37.83311],[127.26524,37.83309],[127.26533,37.833],[127.26549,37.833],[127.2656,37.83306],[127.2656,37.83319],[127.26541,37.83333],[127.26534,37.83333],[127.26535,37.83329],[127.26525,37.83329],[127.26523,37.83332],[127.26505,37.83329],[127.26503,37.83338],[127.26493,37.83337]]]}},{"type":"Feature","properties":{"valleyId":"sample","layer":"canopy","date":"2026-08-01"},"geometry":{"type":"Polygon","coordinates":[[[127.26385,37.83192],[127.26381,37.83184],[127.26381,37.83179],[127.26388,37.83179],[127.26393,37.83183],[127.26392,37.83192],[127.26385,37.83192]]]}},{"type":"Feature","properties":{"valleyId":"sample","layer":"canopy","date":"2026-08-01"},"geometry":{"type":"Polygon","coordinates":[[[127.26404,37.83185],[127.26402,37.83177],[127.26411,37.83178],[127.26411,37.83185],[127.26404,37.83185]]]}},{"type":"Feature","properties":{"valleyId":"sample","layer":"canopy","date":"2026-08-01"},"geometry":{"type":"Polygon","coordinates":[[[127.26418,37.83183],[127.26418,37.83169],[127.26422,37.83165],[127.26429,37.83165],[127.26429,37.83176],[127.26438,37.83176],[127.2644,37.83183],[127.26418,37.83183]]]}},{"type":"Feature","properties":{"valleyId":"sample","layer":"canopy","date":"2026-08-01"},"geometry":{"type":"Polygon","coordinates":[[[127.26408,37.83123],[127.26408,37.83118],[127.26414,37.83118],[127.26414,37.83124],[127.26408,37.83123]]]}},{"type":"Feature","properties":{"valleyId":"sample","layer":"canopy","date":"2026-08-01"},"geometry":{"type":"Polygon","coordinates":[[[127.26552,37.83282],[127.26549,37.83279],[127.26545,37.83279],[127.26543,37.83268],[127.26527,37.83269],[127.2652,37.83266],[127.26516,37.83235],[127.26512,37.83229],[127.26503,37.83229],[127.26498,37.83226],[127.26499,37.83215],[127.26492,37.83211],[127.26481,37.83193],[127.26476,37.83193],[127.26474,37.83184],[127.26456,37.83176],[127.26452,37.83171],[127.26445,37.83171],[127.26436,37.83163],[127.26429,37.83163],[127.26425,37.83156],[127.26414,37.83156],[127.26409,37.83161],[127.26391,37.83159],[127.26391,37.83163],[127.26382,37.83163],[127.2637,37.83154],[127.26371,37.83148],[127.26377,37.83148],[127.26378,37.83136],[127.26357,37.83135],[127.26353,37.83132],[127.26353,37.83121],[127.26346,37.83119],[127.26342,37.83113],[127.26333,37.83112],[127.26331,37.83101],[127.26344,37.83103],[127.26347,37.83106],[127.26362,37.83112],[127.26383,37.83112],[127.26394,37.83127],[127.26403,37.83127],[127.26405,37.8314],[127.26409,37.83143],[127.26421,37.83143],[127.26421,37.83133],[127.26446,37.8312],[127.26449,37.8311],[127.26456,37.83108],[127.2646,37.83101],[127.26474,37.83103],[127.26474,37.83108],[127.26469,37.8311],[127.26469,37.83121],[127.26471,37.83124],[127.2648,37.83126],[127.26482,37.83155],[127.26502,37.83175],[127.26504,37.8319],[127.2651,37.83195],[127.26517,37.83212],[127.26528,37.83221],[127.26546,37.83226],[127.26543,37.83253],[127.26554,37.83257],[127.26559,37.83264],[127.26558,37.83282],[127.26552,37.83282]]]}},{"type":"Feature","properties":{"valleyId":"sample","layer":"canopy","date":"2026-08-01"},"geometry":{"type":"Polygon","coordinates":[[[127.2618,37.83607],[127.26142,37.83597],[127.26128,37.8359],[127.26088,37.83589],[127.26047,37.83581],[127.26049,37.83571],[127.26045,37.8357],[127.26045,37.83563],[127.2605,37.83556],[127.2605,37.83545],[127.26068,37.83547],[127.2607,37.83542],[127.26107,37.83528],[127.26114,37.83528],[127.26114,37.83525],[127.26121,37.83519],[127.26119,37.83512],[127.26098,37.83514],[127.26092,37.8351],[127.26078,37.8351],[127.26076,37.83513],[127.26067,37.83513],[127.26062,37.83509],[127.26051,37.83509],[127.26053,37.83517],[127.26062,37.83517],[127.26062,37.83526],[127.26057,37.83529],[127.26034,37.83527],[127.26036,37.83543],[127.2603,37.83543],[127.26027,37.83547],[127.26009,37.83547],[127.26009,37.8355],[127.26,37.83554],[127.26,37.83559],[127.25991,37.83559],[127.25989,37.83548],[127.2597,37.83546],[127.25948,37.83529],[127.25948,37.83526],[127.25937,37.83518],[127.25937,37.83515],[127.2593,37.83511],[127.25924,37.83498],[127.25919,37.83497],[127.25908,37.83478],[127.25904,37.83462],[127.259,37.83458],[127.25894,37.83431],[127.25894,37.83419],[127.25898,37.83419],[127.25899,37.83413],[127.25892,37.83408],[127.25897,37.8337],[127.25912,37.83336],[127.25926,37.83315],[127.2593,37.83313],[127.2594,37.83299],[127.25947,37.83295],[127.25947,37.83291],[127.25988,37.8326],[127.26027,37.83262],[127.2603,37.83253],[127.26023,37.83242],[127.26025,37.83231],[127.26042,37.83219],[127.26046,37.83219],[127.26132,37.83154],[127.26137,37.83146],[127.26155,37.83149],[127.26156,37.83183],[127.26161,37.83183],[127.26161,37.83186],[127.26186,37.83187],[127.2619,37.83183],[127.2619,37.83178],[127.26181,37.83172],[127.26177,37.83161],[127.26177,37.83154],[127.26184,37.83147],[127.26198,37.83147],[127.26209,37.83144],[127.26212,37.83139],[127.26221,37.83135],[127.26228,37.83126],[127.26283,37.83125],[127.26287,37.8312],[127.26288,37.83102],[127.26299,37.83095],[127.2632,37.83093],[127.26322,37.83102],[127.26315,37.83104],[127.26315,37.83111],[127.26321,37.83111],[127.2633,37.83117],[127.2633,37.83124],[127.26339,37.83131],[127.26339,37.83142],[127.26343,37.83142],[127.26343,37.8315],[127.26339,37.83151],[127.26338,37.83182],[127.26342,37.83189],[127.26363,37.83193],[127.26363,37.83202],[127.26369,37.83209],[127.26364,37.83224],[127.26369,37.83229],[127.26387,37.83235],[127.26387,37.8324],[127.26382,37.83244],[127.26371,37.83245],[127.26373,37.83256],[127.26359,37.8326],[127.26356,37.83265],[127.26341,37.83263],[127.26341,37.83268],[127.2635,37.83272],[127.26349,37.83278],[127.26338,37.83279],[127.26338,37.83295],[127.26349,37.83296],[127.26353,37.83305],[127.26371,37.83305],[127.26372,37.83301],[127.26383,37.83301],[127.26383,37.83309],[127.26389,37.83314],[127.26389,37.8332],[127.26396,37.83323],[127.264,37.83334],[127.26398,37.83343],[127.26391,37.83347],[127.26386,37.83354],[127.26386,37.83366],[127.26395,37.8337],[127.26395,37.83381],[127.26386,37.83384],[127.26385,37.83388],[127.26374,37.83395],[127.26376,37.83411],[127.26371,37.83417],[127.26362,37.8342],[127.26362,37.83426],[127.26366,37.83429],[127.26364,37.83438],[127.26359,37.83438],[127.2635,37.83445],[127.26336,37.83445],[127.26336,37.83454],[127.2632,37.83459],[127.26318,37.83466],[127.26304,37.8347],[127.26302,37.83473],[127.26281,37.83475],[127.26274,37.83469],[127.26263,37.83471],[127.26249,37.83485],[127.26245,37.83485],[127.26228,37.83496],[127.26224,37.83506],[127.26207,37.83513],[127.26207,37.83521],[127.26221,37.83521],[127.26225,37.83528],[127.26234,37.83528],[127.26241,37.83525],[127.26248,37.83512],[127.26262,37.83511],[127.26259,37.83525],[127.26273,37.83525],[127.26275,37.83536],[127.26282,37.83536],[127.26285,37.83524],[127.26296,37.83524],[127.26301,37.8352],[127.26301,37.83508],[127.26305,37.83506],[127.26308,37.83493],[127.26319,37.8349],[127.26335,37.83492],[127.26335,37.83485],[127.26345,37.83485],[127.26347,37.8349],[127.26358,37.8349],[127.2636,37.83494],[127.26378,37.83492],[127.26385,37.83498],[127.26394,37.835],[127.26421,37.83499],[127.26433,37.83508],[127.26432,37.83513],[127.26416,37.83534],[127.264,37.83538],[127.26388,37.8355],[127.26377,37.8355],[127.26374,37.8357],[127.26331,37.83593],[127.26271,37.83608],[127.26258,37.83608],[127.26258,37.83599],[127.26226,37.83591],[127.2621,37.83593],[127.2621,37.836],[127.26201,37.83602],[127.26196,37.83607],[127.2618,37.83607]],[[127.2635,37.83541],[127.26357,37.83541],[127.26357,37.83534],[127.26348,37.83533],[127.2635,37.83541]],[[127.26337,37.83499],[127.26344,37.83499],[127.26344,37.83492],[127.26338,37.83492],[127.26337,37.83499]],[[127.26097,37.83494],[127.26106,37.83494],[127.26106,37.83488],[127.26128,37.83491],[127.26133,37.83476],[127.2614,37.83476],[127.26147,37.83482],[127.2617,37.8348],[127.26172,37.83477],[127.26177,37.83477],[127.26177,37.83473],[127.26188,37.83464],[127.26191,37.83448],[127.262,37.83443],[127.262,37.83436],[127.26187,37.83434],[127.26187,37.83425],[127.26203,37.83425],[127.26203,37.83416],[127.26205,37.83412],[127.2621,37.83412],[127.2621,37.83405],[127.26221,37.83404],[127.26231,37.83395],[127.26235,37.83395],[127.2624,37.83381],[127.26234,37.83373],[127.26227,37.83373],[127.26227,37.83377],[127.26213,37.83382],[127.26215,37.83396],[127.2621,37.83403],[127.26199,37.83403],[127.26183,37.83408],[127.26157,37.83424],[127.26157,37.83433],[127.26164,37.83439],[127.26161,37.83446],[127.2615,37.83444],[127.2615,37.83431],[127.26141,37.83431],[127.26139,37.8344],[127.2613,37.8344],[127.26132,37.83428],[127.26126,37.83424],[127.2611,37.83424],[127.26107,37.83436],[127.26084,37.83436],[127.2608,37.83439],[127.26062,37.83437],[127.26059,37.83441],[127.26048,37.83441],[127.26039,37.83432],[127.2603,37.83433],[127.26032,37.83448],[127.26043,37.83455],[127.26052,37.83457],[127.26052,37.83462],[127.26056,37.83463],[127.26059,37.83466],[127.26061,37.83477],[127.26079,37.83486],[127.26085,37.83486],[127.26086,37.83477],[127.26095,37.83477],[127.26092,37.8349],[127.26097,37.83494]],[[127.26238,37.83454],[127.26266,37.83451],[127.2627,37.83448],[127.26271,37.83442],[127.26255,37.83433],[127.26246,37.83433],[127.2623,37.83443],[127.26229,37.83449],[127.26234,37.83449],[127.26238,37.83454]],[[127.25928,37.83434],[127.25939,37.83434],[127.25941,37.83427],[127.25921,37.83424],[127.25921,37.8343],[127.25928,37.83434]],[[127.26303,37.83417],[127.26319,37.83416],[127.26319,37.83409],[127.26305,37.8341],[127.26303,37.83417]],[[127.26245,37.8337],[127.26254,37.8337],[127.26254,37.83359],[127.26234,37.83359],[127.26234,37.83364],[127.26241,37.83364],[127.26245,37.8337]],[[127.26252,37.83354],[127.26266,37.83354],[127.26266,37.83348],[127.26261,37.83347],[127.26264,37.83336],[127.26275,37.83338],[127.26277,37.83349],[127.26284,37.83349],[127.26291,37.83343],[127.26291,37.83338],[127.26296,37.83336],[127.26296,37.83327],[127.263,37.83327],[127.26301,37.83322],[127.26287,37.83322],[127.26276,37.83327],[127.26257,37.8333],[127.26257,37.83337],[127.2625,37.83339],[127.26252,37.83354]],[[127.2618,37.83336],[127.26221,37.83335],[127.26221,37.83319],[127.26203,37.83315],[127.26171,37.8332],[127.26167,37.83324],[127.26166,37.83334],[127.2618,37.83336]],[[127.26257,37.83229],[127.26276,37.83226],[127.26276,37.83219],[127.26269,37.83213],[127.26258,37.83213],[127.26251,37.8322],[127.26251,37.83226],[127.26257,37.83229]],[[127.26314,37.83228],[127.26323,37.83229],[127.26323,37.83225],[127.26333,37.83218],[127.26358,37.83216],[127.26358,37.83211],[127.26344,37.83209],[127.2634,37.83213],[127.26333,37.83212],[127.26328,37.83209],[127.26319,37.83209],[127.26312,37.83214],[127.26312,37.83218],[127.26308,37.83217],[127.26307,37.83225],[127.26314,37.83228]],[[127.26219,37.83216],[127.26235,37.83213],[127.26235,37.83207],[127.26217,37.83207],[127.26219,37.83216]],[[127.26206,37.83184],[127.26224,37.83182],[127.26224,37.83177],[127.26231,37.83173],[127.2623,37.83157],[127.26225,37.83153],[127.26214,37.83155],[127.26214,37.8316],[127.26202,37.83173],[127.26202,37.8318],[127.26206,37.83184]]]}},{"type":"Feature","properties":{"valleyId":"sample","layer":"canopy","date":"2026-08-01"},"geometry":{"type":"Polygon","coordinates":[[[127.26347,37.83097],[127.26345,37.83085],[127.26363,37.83085],[127.26363,37.83092],[127.26356,37.83097],[127.26347,37.83097]]]}},{"type":"Feature","properties":{"valleyId":"sample","layer":"canopy","date":"2026-08-01"},"geometry":{"type":"Polygon","coordinates":[[[127.26477,37.83083],[127.26475,37.83065],[127.26484,37.83065],[127.26488,37.8308],[127.26483,37.83083],[127.26477,37.83083]]]}},{"type":"Feature","properties":{"valleyId":"sample","layer":"canopy","date":"2026-08-01"},"geometry":{"type":"Polygon","coordinates":[[[127.26416,37.83064],[127.26416,37.83057],[127.26427,37.83057],[127.26427,37.83053],[127.26436,37.83054],[127.26434,37.83061],[127.26416,37.83064]]]}},{"type":"Feature","properties":{"valleyId":"sample","layer":"canopy","date":"2026-08-01"},"geometry":{"type":"Polygon","coordinates":[[[127.26475,37.8306],[127.26475,37.83052],[127.26484,37.83052],[127.26484,37.8306],[127.26475,37.8306]]]}},{"type":"Feature","properties":{"valleyId":"sample","layer":"canopy","date":"2026-08-01"},"geometry":{"type":"Polygon","coordinates":[[[127.26508,37.83017],[127.26506,37.83006],[127.26513,37.83006],[127.26515,37.83017],[127.26508,37.83017]]]}},{"type":"Feature","properties":{"valleyId":"sample","layer":"canopy","date":"2026-08-01"},"geometry":{"type":"Polygon","coordinates":[[[127.26215,37.83086],[127.26218,37.83077],[127.26236,37.83074],[127.26236,37.83063],[127.26241,37.83061],[127.26241,37.83058],[127.26264,37.83042],[127.26264,37.83038],[127.26287,37.83021],[127.26294,37.83021],[127.26301,37.83026],[127.26314,37.83025],[127.26315,37.83019],[127.26308,37.83012],[127.26308,37.83003],[127.26315,37.82999],[127.2632,37.82992],[127.26333,37.82993],[127.26351,37.83],[127.26353,37.83014],[127.26344,37.83025],[127.26344,37.83034],[127.2633,37.83036],[127.26325,37.83043],[127.26321,37.83043],[127.26314,37.83048],[127.26314,37.83052],[127.26295,37.83062],[127.26293,37.83068],[127.26279,37.83069],[127.2627,37.83078],[127.26265,37.83078],[127.26258,37.83083],[127.26234,37.83081],[127.26224,37.83086],[127.26215,37.83086]]]}},{"type":"Feature","properties":{"valleyId":"sample","layer":"canopy","date":"2026-08-01"},"geometry":{"type":"Polygon","coordinates":[[[127.26442,37.82994],[127.2644,37.82983],[127.26447,37.82983],[127.26452,37.82987],[127.26452,37.82992],[127.26442,37.82994]]]}},{"type":"Feature","properties":{"valleyId":"sample","layer":"canopy","date":"2026-08-01"},"geometry":{"type":"Polygon","coordinates":[[[127.26347,37.8298],[127.26343,37.82978],[127.26343,37.82973],[127.2635,37.82968],[127.26357,37.82968],[127.26359,37.8298],[127.26347,37.8298]]]}},{"type":"Feature","properties":{"valleyId":"sample","layer":"canopy","date":"2026-08-01"},"geometry":{"type":"Polygon","coordinates":[[[127.26366,37.82961],[127.26366,37.82953],[127.26371,37.8295],[127.2638,37.8295],[127.2638,37.82959],[127.26366,37.82961]]]}},{"type":"Feature","properties":{"valleyId":"sample","layer":"canopy","date":"2026-08-01"},"geometry":{"type":"Polygon","coordinates":[[[127.27291,37.82762],[127.27291,37.82756],[127.27298,37.82756],[127.27298,37.82762],[127.27291,37.82762]]]}},{"type":"Feature","properties":{"valleyId":"sample","layer":"canopy","date":"2026-08-01"},"geometry":{"type":"Polygon","coordinates":[[[127.27226,37.82714],[127.27226,37.82701],[127.27235,37.82701],[127.27233,37.82714],[127.27226,37.82714]]]}},{"type":"Feature","properties":{"valleyId":"sample","layer":"canopy","date":"2026-08-01"},"geometry":{"type":"Polygon","coordinates":[[[127.2672,37.83164],[127.26711,37.83157],[127.26693,37.83153],[127.26694,37.83137],[127.26679,37.831],[127.26656,37.83104],[127.26651,37.831],[127.26651,37.83091],[127.26645,37.83089],[127.26645,37.8308],[127.26638,37.83076],[127.26638,37.83073],[127.26627,37.83069],[127.26627,37.83065],[127.26618,37.83058],[127.26614,37.83058],[127.26611,37.83051],[127.26605,37.83045],[127.26598,37.83045],[127.26585,37.83038],[127.26585,37.83032],[127.26576,37.8302],[127.26576,37.83002],[127.26563,37.82994],[127.26563,37.82978],[127.2655,37.82974],[127.26541,37.82965],[127.26541,37.82958],[127.26534,37.82952],[127.26537,37.82941],[127.2653,37.82931],[127.26533,37.82916],[127.26528,37.82909],[127.26529,37.829],[127.26533,37.82898],[127.26533,37.82889],[127.26527,37.82873],[127.26527,37.82857],[127.26537,37.82848],[127.26541,37.82848],[127.26541,37.82841],[127.26521,37.8284],[127.26521,37.82828],[127.26537,37.82815],[127.26542,37.82815],[127.26542,37.82812],[127.26558,37.82801],[127.26558,37.82798],[127.26593,37.82771],[127.26598,37.82771],[127.26607,37.82762],[127.26623,37.82755],[127.26644,37.82739],[127.26662,37.82736],[127.26669,37.82727],[127.26705,37.82724],[127.26704,37.82702],[127.26713,37.82699],[127.2672,37.82692],[127.26724,37.82692],[127.26745,37.82676],[127.2675,37.82676],[127.26771,37.8266],[127.26775,37.8266],[127.2681,37.82635],[127.26814,37.82636],[127.26835,37.8262],[127.2684,37.8262],[127.26854,37.82609],[127.26872,37.82602],[127.26877,37.82597],[127.26881,37.82597],[127.26884,37.82593],[127.26916,37.82579],[127.2692,37.82574],[127.26952,37.8256],[127.26957,37.82555],[127.26962,37.82555],[127.26964,37.82551],[127.26996,37.82537],[127.27001,37.82532],[127.27005,37.82532],[127.27008,37.82528],[127.2704,37.82514],[127.27045,37.82509],[127.27049,37.82509],[127.27051,37.82506],[127.27056,37.82506],[127.27093,37.82485],[127.27102,37.82483],[127.27104,37.82479],[127.27123,37.82472],[127.27139,37.82469],[127.27152,37.8246],[127.27175,37.82452],[127.27223,37.82441],[127.27292,37.82441],[127.27353,37.82454],[127.27386,37.82469],[127.27406,37.82484],[127.27411,37.82484],[127.27438,37.82506],[127.27438,37.8251],[127.27444,37.82513],[127.27444,37.82517],[127.27458,37.8253],[127.2746,37.82537],[127.27464,37.82539],[127.27475,37.82566],[127.27479,37.8257],[127.27488,37.82608],[127.27487,37.8264],[127.27477,37.82676],[127.27456,37.82713],[127.27451,37.82715],[127.27442,37.82729],[127.27435,37.82733],[127.27435,37.82737],[127.27421,37.82745],[127.27416,37.82753],[127.27412,37.82752],[127.27391,37.82768],[127.27368,37.82777],[127.27365,37.82781],[127.27336,37.82789],[127.27313,37.82803],[127.27304,37.82803],[127.27295,37.82783],[127.27295,37.82771],[127.27302,37.82767],[127.27302,37.82762],[127.27307,37.82762],[127.27309,37.82746],[127.27323,37.82742],[127.27326,37.8273],[127.27312,37.82729],[127.27308,37.82718],[127.27265,37.82721],[127.27258,37.8272],[127.27258,37.82714],[127.27274,37.82713],[127.27292,37.82706],[127.27313,37.82706],[127.2732,37.82699],[127.27324,37.82699],[127.27327,37.82685],[127.27334,37.82683],[127.27334,37.82677],[127.27325,37.82677],[127.2732,37.82674],[127.27311,37.82673],[127.27309,37.8267],[127.27295,37.82668],[127.27291,37.82662],[127.27266,37.82655],[127.27264,37.82649],[127.27248,37.82642],[127.27247,37.82618],[127.2724,37.82613],[127.27242,37.82597],[127.27234,37.82589],[127.27234,37.82582],[127.27238,37.8258],[127.27238,37.82577],[127.27291,37.82574],[127.27295,37.82572],[127.27296,37.82563],[127.27293,37.8256],[127.27284,37.82558],[127.27284,37.82549],[127.2728,37.82543],[127.27216,37.82544],[127.27214,37.82539],[127.27205,37.82537],[127.27201,37.82531],[127.27192,37.82531],[127.27187,37.82538],[127.27164,37.82545],[127.27159,37.8255],[127.27157,37.82565],[127.2715,37.82567],[127.2715,37.82572],[127.27163,37.82583],[127.27157,37.82639],[127.2715,37.82644],[127.2715,37.82653],[127.27155,37.82659],[127.27168,37.82659],[127.27168,37.82662],[127.27173,37.82664],[127.27177,37.82684],[127.27183,37.8269],[127.27183,37.82704],[127.27188,37.8271],[127.27182,37.82747],[127.27173,37.82754],[127.27164,37.82756],[127.27164,37.82763],[127.27173,37.82763],[127.27182,37.82758],[127.27182,37.82755],[127.27191,37.82755],[127.27191,37.82765],[127.27202,37.82773],[127.27202,37.82782],[127.27193,37.82785],[127.27192,37.82803],[127.27185,37.82805],[127.27183,37.82814],[127.27178,37.82816],[127.27178,37.82828],[127.27169,37.82835],[127.27159,37.82864],[127.27145,37.82869],[127.2714,37.82884],[127.27133,37.82889],[127.27122,37.82891],[127.2711,37.82905],[127.27099,37.82906],[127.27094,37.82919],[127.27089,37.82923],[127.27085,37.82923],[127.27064,37.82938],[127.27048,37.82945],[127.27039,37.82954],[127.27023,37.82961],[127.27013,37.8297],[127.26997,37.82977],[127.26988,37.82986],[127.26972,37.82993],[127.26963,37.83002],[127.26947,37.83009],[127.26937,37.83018],[127.26921,37.83025],[127.26912,37.83034],[127.26896,37.8304],[127.26854,37.83074],[127.26854,37.83078],[127.26771,37.8314],[127.26771,37.83143],[127.26752,37.83157],[127.26736,37.83159],[127.26729,37.83164],[127.2672,37.83164]],[[127.26725,37.82858],[127.26736,37.82858],[127.26737,37.82852],[127.26728,37.82851],[127.26725,37.82858]],[[127.27072,37.82807],[127.27079,37.82807],[127.27083,37.82795],[127.27077,37.82794],[127.27072,37.82807]],[[127.27145,37.82765],[127.27154,37.82765],[127.27155,37.8276],[127.27146,37.82759],[127.27145,37.82765]],[[127.27332,37.82766],[127.27352,37.82764],[127.27355,37.82759],[127.27364,37.82754],[127.27366,37.82743],[127.27355,37.82741],[127.27348,37.82748],[127.27348,37.82753],[127.27332,37.82757],[127.27332,37.82766]],[[127.26952,37.82672],[127.26959,37.82672],[127.26964,37.82668],[127.2696,37.82645],[127.26953,37.82645],[127.26952,37.82672]],[[127.27461,37.82591],[127.27468,37.82591],[127.27472,37.8258],[127.27466,37.8258],[127.27461,37.82584],[127.27461,37.82591]]]}}]}
