{"type":"FeatureCollection","metadata":{"description":"개방지(CHM ≤ 2 m)에 드리운 나무·지형 그림자, 2026-08-01 17:00 KST. canopy 위에 겹쳐 그린다","source":"위성 기반 추정 — Copernicus GLO-30 지형(30 m) + Meta/WRI 수관 높이(1 m CHM, 2019 촬영). 그늘 = 수관(CHM > 2 m) ∪ 나무·지형 그림자 ∪ 원거리 지형 마스크. 현장과 다를 수 있음.","datasetVersion":"2026-09-03.0","collectedAt":"2026-09-03","coordinateOrder":"[longitude, latitude]","crs":"EPSG:4326","representativeDate":"2026-08-01","hours":["10:00","11:00","12:00","13:00","14:00","15:00","16:00","17:00","18:00"],"chmAcquisition":["2019-03","2019-05"],"assets":{"glo30":{"dataset":"Copernicus DEM GLO-30 (COG, s3://copernicus-dem-30m)","tiles":["Copernicus_DSM_COG_10_N37_00_E127_00_DEM"]},"chm":{"dataset":"Meta/WRI Global Canopy Height Map v1 (alsgedi_global_v6_float, 1 m, CC-BY 4.0)","quadkeys":["132110302","132110303"],"acquisition":["2019-03","2019-05"]}},"method":{"gridResM":2,"canopyThresholdM":2,"bufferHalfM":25,"corridorHalfM":200,"simplifyTolM":2,"minAreaM2":25,"coordDecimals":5},"generator":"scripts/shade 0.1.0","builtAt":"2026-09-03T06:59:47Z","layer":"shadow","timeLocal":"17:00"},"features":[{"type":"Feature","properties":{"valleyId":"sample","layer":"shadow","date":"2026-08-01","timeLocal":"17:00"},"geometry":{"type":"Polygon","coordinates":[[[127.26198,37.83609],[127.26199,37.83603],[127.26205,37.83602],[127.26206,37.83593],[127.26219,37.83595],[127.26219,37.836],[127.26214,37.83604],[127.26208,37.83604],[127.26208,37.83609],[127.26198,37.83609]]]}},{"type":"Feature","properties":{"valleyId":"sample","layer":"shadow","date":"2026-08-01","timeLocal":"17:00"},"geometry":{"type":"Polygon","coordinates":[[[127.26,37.83563],[127.26,37.83554],[127.26009,37.8355],[127.26009,37.83547],[127.26016,37.83547],[127.26011,37.83561],[127.26,37.83563]]]}},{"type":"Feature","properties":{"valleyId":"sample","layer":"shadow","date":"2026-08-01","timeLocal":"17:00"},"geometry":{"type":"Polygon","coordinates":[[[127.26374,37.83565],[127.26377,37.8355],[127.26384,37.8355],[127.26384,37.83563],[127.26374,37.83565]]]}},{"type":"Feature","properties":{"valleyId":"sample","layer":"shadow","date":"2026-08-01","timeLocal":"17:00"},"geometry":{"type":"Polygon","coordinates":[[[127.26391,37.8355],[127.26391,37.83545],[127.264,37.83538],[127.26407,37.83538],[127.26404,37.83547],[127.264,37.83547],[127.264,37.8355],[127.26391,37.8355]]]}},{"type":"Feature","properties":{"valleyId":"sample","layer":"shadow","date":"2026-08-01","timeLocal":"17:00"},"geometry":{"type":"Polygon","coordinates":[[[127.26036,37.83542],[127.26034,37.83527],[127.2605,37.83529],[127.2605,37.83535],[127.26046,37.83534],[127.26045,37.83542],[127.26036,37.83542]]]}},{"type":"Feature","properties":{"valleyId":"sample","layer":"shadow","date":"2026-08-01","timeLocal":"17:00"},"geometry":{"type":"Polygon","coordinates":[[[127.26275,37.83536],[127.26275,37.83525],[127.26284,37.83525],[127.26284,37.83534],[127.26275,37.83536]]]}},{"type":"Feature","properties":{"valleyId":"sample","layer":"shadow","date":"2026-08-01","timeLocal":"17:00"},"geometry":{"type":"Polygon","coordinates":[[[127.26062,37.83526],[127.26062,37.83517],[127.26076,37.83517],[127.26075,37.83522],[127.26071,37.83526],[127.26062,37.83526]]]}},{"type":"Feature","properties":{"valleyId":"sample","layer":"shadow","date":"2026-08-01","timeLocal":"17:00"},"geometry":{"type":"Polygon","coordinates":[[[127.26053,37.83517],[127.26051,37.83509],[127.26058,37.83509],[127.2606,37.83517],[127.26053,37.83517]]]}},{"type":"Feature","properties":{"valleyId":"sample","layer":"shadow","date":"2026-08-01","timeLocal":"17:00"},"geometry":{"type":"Polygon","coordinates":[[[127.26262,37.8352],[127.26262,37.83509],[127.26267,37.83509],[127.26262,37.83498],[127.26276,37.83498],[127.2628,37.83502],[127.26287,37.83502],[127.26287,37.83507],[127.26289,37.83511],[127.26294,37.83511],[127.26294,37.83516],[127.26262,37.8352]]]}},{"type":"Feature","properties":{"valleyId":"sample","layer":"shadow","date":"2026-08-01","timeLocal":"17:00"},"geometry":{"type":"Polygon","coordinates":[[[127.26428,37.83506],[127.26428,37.835],[127.26437,37.83501],[127.26437,37.83506],[127.26428,37.83506]]]}},{"type":"Feature","properties":{"valleyId":"sample","layer":"shadow","date":"2026-08-01","timeLocal":"17:00"},"geometry":{"type":"Polygon","coordinates":[[[127.26249,37.83501],[127.26249,37.83494],[127.26256,37.83494],[127.26258,37.83502],[127.26249,37.83501]]]}},{"type":"Feature","properties":{"valleyId":"sample","layer":"shadow","date":"2026-08-01","timeLocal":"17:00"},"geometry":{"type":"Polygon","coordinates":[[[127.26095,37.83485],[127.26095,37.83477],[127.26102,37.83478],[127.26101,37.83485],[127.26095,37.83485]]]}},{"type":"Feature","properties":{"valleyId":"sample","layer":"shadow","date":"2026-08-01","timeLocal":"17:00"},"geometry":{"type":"Polygon","coordinates":[[[127.26117,37.83478],[127.26118,37.83471],[127.26127,37.83471],[127.26127,37.83478],[127.26117,37.83478]]]}},{"type":"Feature","properties":{"valleyId":"sample","layer":"shadow","date":"2026-08-01","timeLocal":"17:00"},"geometry":{"type":"Polygon","coordinates":[[[127.26265,37.83482],[127.26263,37.83471],[127.26272,37.83471],[127.26272,37.83482],[127.26265,37.83482]]]}},{"type":"Feature","properties":{"valleyId":"sample","layer":"shadow","date":"2026-08-01","timeLocal":"17:00"},"geometry":{"type":"Polygon","coordinates":[[[127.26374,37.83474],[127.26375,37.83465],[127.26381,37.83465],[127.26381,37.83475],[127.26374,37.83474]]]}},{"type":"Feature","properties":{"valleyId":"sample","layer":"shadow","date":"2026-08-01","timeLocal":"17:00"},"geometry":{"type":"Polygon","coordinates":[[[127.26125,37.83453],[127.26125,37.83445],[127.26132,37.83446],[127.26132,37.83453],[127.26125,37.83453]]]}},{"type":"Feature","properties":{"valleyId":"sample","layer":"shadow","date":"2026-08-01","timeLocal":"17:00"},"geometry":{"type":"Polygon","coordinates":[[[127.26234,37.83451],[127.26229,37.83449],[127.2623,37.83443],[127.26234,37.8344],[127.26241,37.8344],[127.26241,37.83451],[127.26234,37.83451]]]}},{"type":"Feature","properties":{"valleyId":"sample","layer":"shadow","date":"2026-08-01","timeLocal":"17:00"},"geometry":{"type":"Polygon","coordinates":[[[127.26061,37.83443],[127.26062,37.83437],[127.26068,37.83437],[127.26068,37.83443],[127.26061,37.83443]]]}},{"type":"Feature","properties":{"valleyId":"sample","layer":"shadow","date":"2026-08-01","timeLocal":"17:00"},"geometry":{"type":"Polygon","coordinates":[[[127.26065,37.83481],[127.26058,37.83473],[127.26056,37.83463],[127.26052,37.83462],[127.26052,37.83457],[127.26043,37.83455],[127.26032,37.83448],[127.26032,37.83432],[127.26039,37.83432],[127.26041,37.83441],[127.2605,37.83448],[127.26054,37.83448],[127.26057,37.83453],[127.26066,37.83455],[127.26068,37.83463],[127.26072,37.83465],[127.26074,37.83481],[127.26065,37.83481]]]}},{"type":"Feature","properties":{"valleyId":"sample","layer":"shadow","date":"2026-08-01","timeLocal":"17:00"},"geometry":{"type":"Polygon","coordinates":[[[127.25928,37.83434],[127.25923,37.83432],[127.25923,37.83426],[127.25935,37.83428],[127.25934,37.83434],[127.25928,37.83434]]]}},{"type":"Feature","properties":{"valleyId":"sample","layer":"shadow","date":"2026-08-01","timeLocal":"17:00"},"geometry":{"type":"Polygon","coordinates":[[[127.26109,37.83436],[127.2611,37.83424],[127.26121,37.83424],[127.26121,37.83435],[127.26109,37.83436]]]}},{"type":"Feature","properties":{"valleyId":"sample","layer":"shadow","date":"2026-08-01","timeLocal":"17:00"},"geometry":{"type":"Polygon","coordinates":[[[127.2616,37.83428],[127.2616,37.83423],[127.26169,37.83415],[127.26173,37.83416],[127.26183,37.83408],[127.26192,37.83409],[127.26192,37.83414],[127.26187,37.83414],[127.2618,37.83419],[127.2618,37.83423],[127.2616,37.83428]]]}},{"type":"Feature","properties":{"valleyId":"sample","layer":"shadow","date":"2026-08-01","timeLocal":"17:00"},"geometry":{"type":"Polygon","coordinates":[[[127.26303,37.83417],[127.26305,37.8341],[127.26317,37.8341],[127.26317,37.83416],[127.26303,37.83417]]]}},{"type":"Feature","properties":{"valleyId":"sample","layer":"shadow","date":"2026-08-01","timeLocal":"17:00"},"geometry":{"type":"Polygon","coordinates":[[[127.26212,37.83402],[127.26213,37.83382],[127.26222,37.8338],[127.26222,37.83377],[127.26229,37.83377],[127.26231,37.83395],[127.26221,37.83402],[127.26212,37.83402]]]}},{"type":"Feature","properties":{"valleyId":"sample","layer":"shadow","date":"2026-08-01","timeLocal":"17:00"},"geometry":{"type":"Polygon","coordinates":[[[127.26444,37.83411],[127.26444,37.83402],[127.26437,37.83401],[127.26438,37.83392],[127.26442,37.83389],[127.26443,37.83374],[127.26449,37.83375],[127.26451,37.83385],[127.26447,37.83389],[127.26447,37.834],[127.26453,37.83402],[127.26453,37.83411],[127.26444,37.83411]]]}},{"type":"Feature","properties":{"valleyId":"sample","layer":"shadow","date":"2026-08-01","timeLocal":"17:00"},"geometry":{"type":"Polygon","coordinates":[[[127.26458,37.8338],[127.26459,37.83369],[127.2647,37.83371],[127.2647,37.83378],[127.26458,37.8338]]]}},{"type":"Feature","properties":{"valleyId":"sample","layer":"shadow","date":"2026-08-01","timeLocal":"17:00"},"geometry":{"type":"Polygon","coordinates":[[[127.26245,37.8337],[127.26245,37.83364],[127.26252,37.83364],[127.26252,37.8337],[127.26245,37.8337]]]}},{"type":"Feature","properties":{"valleyId":"sample","layer":"shadow","date":"2026-08-01","timeLocal":"17:00"},"geometry":{"type":"Polygon","coordinates":[[[127.26252,37.83352],[127.2625,37.83339],[127.26257,37.83339],[127.26259,37.83352],[127.26252,37.83352]]]}},{"type":"Feature","properties":{"valleyId":"sample","layer":"shadow","date":"2026-08-01","timeLocal":"17:00"},"geometry":{"type":"Polygon","coordinates":[[[127.26277,37.83347],[127.26278,37.83338],[127.26289,37.83338],[127.26289,37.83345],[127.26277,37.83347]]]}},{"type":"Feature","properties":{"valleyId":"sample","layer":"shadow","date":"2026-08-01","timeLocal":"17:00"},"geometry":{"type":"Polygon","coordinates":[[[127.26318,37.83468],[127.2632,37.83459],[127.26336,37.83454],[127.26336,37.83445],[127.2635,37.83445],[127.26352,37.83442],[127.26366,37.83436],[127.26362,37.8342],[127.26371,37.83417],[127.26376,37.83411],[127.26374,37.83395],[127.26385,37.83388],[127.26386,37.83384],[127.26395,37.83381],[127.26395,37.8337],[127.26386,37.83366],[127.26386,37.83354],[127.26391,37.83347],[127.26398,37.83345],[127.26398,37.83329],[127.26405,37.83329],[127.26407,37.83343],[127.264,37.83345],[127.264,37.8335],[127.26395,37.83354],[127.26395,37.83365],[127.26404,37.8337],[127.26404,37.83379],[127.26408,37.83379],[127.26406,37.83394],[127.26419,37.83394],[127.26416,37.83421],[127.26391,37.83421],[127.26391,37.83426],[127.26403,37.8343],[127.26403,37.83435],[127.26387,37.83437],[127.2638,37.83442],[127.26366,37.83442],[127.26366,37.8346],[127.26341,37.83459],[127.26336,37.83463],[127.26329,37.83463],[127.26324,37.83468],[127.26318,37.83468]]]}},{"type":"Feature","properties":{"valleyId":"sample","layer":"shadow","date":"2026-08-01","timeLocal":"17:00"},"geometry":{"type":"Polygon","coordinates":[[[127.26271,37.83338],[127.26257,37.83336],[127.26257,37.8333],[127.26294,37.83322],[127.26294,37.83327],[127.26278,37.83331],[127.26278,37.83338],[127.26271,37.83338]]]}},{"type":"Feature","properties":{"valleyId":"sample","layer":"shadow","date":"2026-08-01","timeLocal":"17:00"},"geometry":{"type":"Polygon","coordinates":[[[127.2618,37.83336],[127.26166,37.83334],[127.26167,37.83324],[127.26171,37.8332],[127.2621,37.83315],[127.2621,37.83321],[127.26196,37.83324],[127.26194,37.83335],[127.2618,37.83336]]]}},{"type":"Feature","properties":{"valleyId":"sample","layer":"shadow","date":"2026-08-01","timeLocal":"17:00"},"geometry":{"type":"Polygon","coordinates":[[[127.26466,37.83332],[127.26467,37.83319],[127.26476,37.83317],[127.26473,37.83332],[127.26466,37.83332]]]}},{"type":"Feature","properties":{"valleyId":"sample","layer":"shadow","date":"2026-08-01","timeLocal":"17:00"},"geometry":{"type":"Polygon","coordinates":[[[127.26385,37.83312],[127.26383,37.83301],[127.2639,37.83302],[127.26392,37.83312],[127.26385,37.83312]]]}},{"type":"Feature","properties":{"valleyId":"sample","layer":"shadow","date":"2026-08-01","timeLocal":"17:00"},"geometry":{"type":"Polygon","coordinates":[[[127.2656,37.8331],[127.2656,37.83304],[127.26567,37.83304],[127.26567,37.8331],[127.2656,37.8331]]]}},{"type":"Feature","properties":{"valleyId":"sample","layer":"shadow","date":"2026-08-01","timeLocal":"17:00"},"geometry":{"type":"Polygon","coordinates":[[[127.26353,37.83305],[127.26353,37.83299],[127.2636,37.83299],[127.2636,37.83305],[127.26353,37.83305]]]}},{"type":"Feature","properties":{"valleyId":"sample","layer":"shadow","date":"2026-08-01","timeLocal":"17:00"},"geometry":{"type":"Polygon","coordinates":[[[127.26338,37.83294],[127.26338,37.83281],[127.26347,37.83281],[127.26349,37.83274],[127.26361,37.83274],[127.26361,37.8328],[127.26349,37.83283],[127.26349,37.8329],[127.26344,37.83294],[127.26338,37.83294]]]}},{"type":"Feature","properties":{"valleyId":"sample","layer":"shadow","date":"2026-08-01","timeLocal":"17:00"},"geometry":{"type":"Polygon","coordinates":[[[127.26341,37.83268],[127.26341,37.83263],[127.26347,37.83263],[127.26347,37.83269],[127.26341,37.83268]]]}},{"type":"Feature","properties":{"valleyId":"sample","layer":"shadow","date":"2026-08-01","timeLocal":"17:00"},"geometry":{"type":"Polygon","coordinates":[[[127.26359,37.83269],[127.26359,37.8326],[127.26366,37.8326],[127.26366,37.83269],[127.26359,37.83269]]]}},{"type":"Feature","properties":{"valleyId":"sample","layer":"shadow","date":"2026-08-01","timeLocal":"17:00"},"geometry":{"type":"Polygon","coordinates":[[[127.26561,37.83286],[127.26559,37.83264],[127.26557,37.83259],[127.26566,37.83261],[127.2657,37.83275],[127.2657,37.83286],[127.26561,37.83286]]]}},{"type":"Feature","properties":{"valleyId":"sample","layer":"shadow","date":"2026-08-01","timeLocal":"17:00"},"geometry":{"type":"Polygon","coordinates":[[[127.26373,37.8326],[127.26371,37.83245],[127.26387,37.83244],[127.26379,37.8326],[127.26373,37.8326]]]}},{"type":"Feature","properties":{"valleyId":"sample","layer":"shadow","date":"2026-08-01","timeLocal":"17:00"},"geometry":{"type":"Polygon","coordinates":[[[127.264,37.83239],[127.26401,37.83226],[127.26407,37.83226],[127.26409,37.83237],[127.264,37.83239]]]}},{"type":"Feature","properties":{"valleyId":"sample","layer":"shadow","date":"2026-08-01","timeLocal":"17:00"},"geometry":{"type":"Polygon","coordinates":[[[127.26545,37.83255],[127.26544,37.83232],[127.26546,37.83226],[127.26553,37.83226],[127.26553,37.8323],[127.2656,37.83232],[127.26559,37.83241],[127.26552,37.83245],[127.26552,37.83255],[127.26545,37.83255]]]}},{"type":"Feature","properties":{"valleyId":"sample","layer":"shadow","date":"2026-08-01","timeLocal":"17:00"},"geometry":{"type":"Polygon","coordinates":[[[127.26257,37.83229],[127.26251,37.83226],[127.26251,37.8322],[127.26258,37.83213],[127.26269,37.83213],[127.26273,37.83219],[127.26273,37.83226],[127.26257,37.83229]]]}},{"type":"Feature","properties":{"valleyId":"sample","layer":"shadow","date":"2026-08-01","timeLocal":"17:00"},"geometry":{"type":"Polygon","coordinates":[[[127.26314,37.83228],[127.26307,37.83225],[127.26308,37.83217],[127.26312,37.83218],[127.26312,37.83214],[127.26319,37.83209],[127.26333,37.83211],[127.26333,37.83216],[127.26326,37.83221],[127.26323,37.83229],[127.26314,37.83228]]]}},{"type":"Feature","properties":{"valleyId":"sample","layer":"shadow","date":"2026-08-01","timeLocal":"17:00"},"geometry":{"type":"Polygon","coordinates":[[[127.26219,37.83216],[127.26217,37.83207],[127.26233,37.83207],[127.26233,37.83213],[127.26219,37.83216]]]}},{"type":"Feature","properties":{"valleyId":"sample","layer":"shadow","date":"2026-08-01","timeLocal":"17:00"},"geometry":{"type":"Polygon","coordinates":[[[127.26392,37.8321],[127.26392,37.83202],[127.26403,37.83201],[127.26403,37.83206],[127.26399,37.83206],[127.26399,37.8321],[127.26392,37.8321]]]}},{"type":"Feature","properties":{"valleyId":"sample","layer":"shadow","date":"2026-08-01","timeLocal":"17:00"},"geometry":{"type":"Polygon","coordinates":[[[127.26392,37.83195],[127.26393,37.83183],[127.26399,37.83183],[127.26399,37.83195],[127.26392,37.83195]]]}},{"type":"Feature","properties":{"valleyId":"sample","layer":"shadow","date":"2026-08-01","timeLocal":"17:00"},"geometry":{"type":"Polygon","coordinates":[[[127.2644,37.83187],[127.2644,37.83182],[127.26447,37.83182],[127.26447,37.83187],[127.2644,37.83187]]]}},{"type":"Feature","properties":{"valleyId":"sample","layer":"shadow","date":"2026-08-01","timeLocal":"17:00"},"geometry":{"type":"Polygon","coordinates":[[[127.26429,37.83174],[127.26429,37.83165],[127.26436,37.83165],[127.26436,37.83174],[127.26429,37.83174]]]}},{"type":"Feature","properties":{"valleyId":"sample","layer":"shadow","date":"2026-08-01","timeLocal":"17:00"},"geometry":{"type":"Polygon","coordinates":[[[127.26391,37.83165],[127.26391,37.83159],[127.26398,37.83159],[127.26397,37.83165],[127.26391,37.83165]]]}},{"type":"Feature","properties":{"valleyId":"sample","layer":"shadow","date":"2026-08-01","timeLocal":"17:00"},"geometry":{"type":"Polygon","coordinates":[[[127.26204,37.83182],[127.26202,37.83173],[127.26209,37.83167],[127.26214,37.83155],[127.2622,37.83155],[127.2622,37.83164],[127.26211,37.83175],[127.26211,37.83182],[127.26204,37.83182]]]}},{"type":"Feature","properties":{"valleyId":"sample","layer":"shadow","date":"2026-08-01","timeLocal":"17:00"},"geometry":{"type":"Polygon","coordinates":[[[127.26532,37.83223],[127.26517,37.83212],[127.26515,37.83203],[127.2651,37.83201],[127.2651,37.83195],[127.26504,37.8319],[127.26502,37.83175],[127.26482,37.83155],[127.2648,37.83126],[127.26489,37.83126],[127.26489,37.83132],[127.26494,37.83134],[127.26493,37.83157],[127.26502,37.83163],[127.26502,37.83166],[127.26511,37.83174],[127.2652,37.83176],[127.26529,37.83185],[127.26545,37.83183],[127.26545,37.83189],[127.26538,37.83194],[127.26539,37.83223],[127.26532,37.83223]]]}},{"type":"Feature","properties":{"valleyId":"sample","layer":"shadow","date":"2026-08-01","timeLocal":"17:00"},"geometry":{"type":"Polygon","coordinates":[[[127.26373,37.83231],[127.26364,37.83224],[127.26369,37.83209],[127.26362,37.83206],[127.26363,37.83195],[127.26351,37.83189],[127.26342,37.83189],[127.26338,37.83182],[127.26339,37.83151],[127.26343,37.8315],[127.26343,37.83142],[127.26339,37.83142],[127.26339,37.8313],[127.26332,37.83128],[127.2633,37.83117],[127.26337,37.83117],[127.26346,37.83132],[127.26353,37.83132],[127.26357,37.83137],[127.26366,37.83137],[127.26368,37.83159],[127.26375,37.83161],[127.2637,37.83186],[127.26381,37.83188],[127.26383,37.83197],[127.2638,37.8322],[127.26385,37.8322],[127.26385,37.83231],[127.26373,37.83231]]]}},{"type":"Feature","properties":{"valleyId":"sample","layer":"shadow","date":"2026-08-01","timeLocal":"17:00"},"geometry":{"type":"Polygon","coordinates":[[[127.26409,37.83143],[127.26405,37.8314],[127.26403,37.83127],[127.26394,37.83127],[127.26387,37.8312],[127.26387,37.83114],[127.26403,37.83116],[127.26405,37.83125],[127.26412,37.83125],[127.26415,37.83106],[127.26424,37.83106],[127.26428,37.83124],[127.26421,37.83125],[127.26421,37.83143],[127.26409,37.83143]]]}},{"type":"Feature","properties":{"valleyId":"sample","layer":"shadow","date":"2026-08-01","timeLocal":"17:00"},"geometry":{"type":"Polygon","coordinates":[[[127.26315,37.83111],[127.26315,37.83104],[127.26322,37.83104],[127.26321,37.83111],[127.26315,37.83111]]]}},{"type":"Feature","properties":{"valleyId":"sample","layer":"shadow","date":"2026-08-01","timeLocal":"17:00"},"geometry":{"type":"Polygon","coordinates":[[[127.26471,37.83124],[127.26469,37.8311],[127.26474,37.83108],[127.26474,37.83105],[127.26481,37.83105],[127.2648,37.83121],[127.26478,37.83124],[127.26471,37.83124]]]}},{"type":"Feature","properties":{"valleyId":"sample","layer":"shadow","date":"2026-08-01","timeLocal":"17:00"},"geometry":{"type":"Polygon","coordinates":[[[127.26161,37.83186],[127.26161,37.83183],[127.26156,37.83183],[127.26155,37.83149],[127.26143,37.83148],[127.26144,37.83141],[127.2615,37.83139],[127.26153,37.83132],[127.26176,37.83115],[127.2619,37.83115],[127.26194,37.83109],[127.26194,37.83102],[127.26199,37.83099],[127.26206,37.83099],[127.2621,37.83101],[127.2621,37.83106],[127.26203,37.83108],[127.26203,37.83115],[127.26192,37.83122],[127.26185,37.83122],[127.26184,37.83147],[127.26177,37.83149],[127.26174,37.83183],[127.26161,37.83186]]]}},{"type":"Feature","properties":{"valleyId":"sample","layer":"shadow","date":"2026-08-01","timeLocal":"17:00"},"geometry":{"type":"Polygon","coordinates":[[[127.26226,37.83101],[127.26226,37.83096],[127.26233,37.83096],[127.26233,37.83101],[127.26226,37.83101]]]}},{"type":"Feature","properties":{"valleyId":"sample","layer":"shadow","date":"2026-08-01","timeLocal":"17:00"},"geometry":{"type":"Polygon","coordinates":[[[127.26322,37.83101],[127.26322,37.83095],[127.26329,37.83095],[127.26329,37.83101],[127.26322,37.83101]]]}},{"type":"Feature","properties":{"valleyId":"sample","layer":"shadow","date":"2026-08-01","timeLocal":"17:00"},"geometry":{"type":"Polygon","coordinates":[[[127.26363,37.83096],[127.26363,37.8309],[127.2637,37.8309],[127.2637,37.83096],[127.26363,37.83096]]]}},{"type":"Feature","properties":{"valleyId":"sample","layer":"shadow","date":"2026-08-01","timeLocal":"17:00"},"geometry":{"type":"Polygon","coordinates":[[[127.26436,37.83059],[127.26436,37.83054],[127.26446,37.83054],[127.26445,37.83059],[127.26436,37.83059]]]}},{"type":"Feature","properties":{"valleyId":"sample","layer":"shadow","date":"2026-08-01","timeLocal":"17:00"},"geometry":{"type":"Polygon","coordinates":[[[127.26515,37.83015],[127.26515,37.83008],[127.26524,37.83008],[127.26524,37.83013],[127.26515,37.83015]]]}},{"type":"Feature","properties":{"valleyId":"sample","layer":"shadow","date":"2026-08-01","timeLocal":"17:00"},"geometry":{"type":"Polygon","coordinates":[[[127.26265,37.83087],[127.26263,37.8308],[127.2627,37.83078],[127.26279,37.83069],[127.26293,37.83068],[127.26295,37.83062],[127.26302,37.83057],[127.26307,37.83057],[127.26314,37.83052],[127.26314,37.83048],[127.26321,37.83043],[127.26325,37.83043],[127.26328,37.83038],[127.26341,37.83038],[127.26344,37.83025],[127.26353,37.83014],[127.26351,37.82998],[127.26374,37.83],[127.26379,37.83004],[127.26378,37.83009],[127.26367,37.8302],[127.26353,37.83025],[127.26353,37.8304],[127.26348,37.83041],[127.26348,37.8305],[127.26343,37.8305],[127.26341,37.83054],[127.26332,37.83054],[127.26323,37.83063],[127.263,37.83068],[127.26297,37.83079],[127.26274,37.83082],[127.26274,37.83087],[127.26265,37.83087]]]}},{"type":"Feature","properties":{"valleyId":"sample","layer":"shadow","date":"2026-08-01","timeLocal":"17:00"},"geometry":{"type":"Polygon","coordinates":[[[127.26451,37.82994],[127.26449,37.82982],[127.26456,37.82982],[127.26465,37.82987],[127.26465,37.82993],[127.26451,37.82994]]]}},{"type":"Feature","properties":{"valleyId":"sample","layer":"shadow","date":"2026-08-01","timeLocal":"17:00"},"geometry":{"type":"Polygon","coordinates":[[[127.26359,37.8298],[127.26359,37.82966],[127.26368,37.82966],[127.26365,37.8298],[127.26359,37.8298]]]}},{"type":"Feature","properties":{"valleyId":"sample","layer":"shadow","date":"2026-08-01","timeLocal":"17:00"},"geometry":{"type":"Polygon","coordinates":[[[127.2638,37.82959],[127.2638,37.8295],[127.26387,37.8295],[127.26389,37.82957],[127.2638,37.82959]]]}},{"type":"Feature","properties":{"valleyId":"sample","layer":"shadow","date":"2026-08-01","timeLocal":"17:00"},"geometry":{"type":"Polygon","coordinates":[[[127.27099,37.82912],[127.27099,37.82906],[127.27106,37.82907],[127.27106,37.82912],[127.27099,37.82912]]]}},{"type":"Feature","properties":{"valleyId":"sample","layer":"shadow","date":"2026-08-01","timeLocal":"17:00"},"geometry":{"type":"Polygon","coordinates":[[[127.27115,37.82903],[127.2712,37.82892],[127.27136,37.82889],[127.2714,37.82878],[127.2715,37.8288],[127.27147,37.82889],[127.27136,37.82891],[127.27131,37.82898],[127.27126,37.82898],[127.27122,37.82903],[127.27115,37.82903]]]}},{"type":"Feature","properties":{"valleyId":"sample","layer":"shadow","date":"2026-08-01","timeLocal":"17:00"},"geometry":{"type":"Polygon","coordinates":[[[127.27332,37.82766],[127.27332,37.82759],[127.27339,37.82759],[127.27341,37.82766],[127.27332,37.82766]]]}},{"type":"Feature","properties":{"valleyId":"sample","layer":"shadow","date":"2026-08-01","timeLocal":"17:00"},"geometry":{"type":"Polygon","coordinates":[[[127.27159,37.82866],[127.27164,37.82844],[127.27169,37.82841],[127.27169,37.82835],[127.27178,37.82828],[127.27178,37.82816],[127.27183,37.82814],[127.27185,37.82805],[127.27192,37.82803],[127.27193,37.82785],[127.27202,37.82782],[127.27202,37.82773],[127.27191,37.82765],[127.27191,37.82755],[127.27198,37.82755],[127.27207,37.82764],[127.27214,37.82764],[127.27216,37.82775],[127.2722,37.82777],[127.2722,37.82784],[127.27215,37.82784],[127.27213,37.82787],[127.27213,37.82796],[127.27204,37.82796],[127.27194,37.82811],[127.27194,37.82818],[127.27199,37.82818],[127.27203,37.82836],[127.27198,37.82838],[127.27196,37.8285],[127.27182,37.82861],[127.27159,37.82866]]]}},{"type":"Feature","properties":{"valleyId":"sample","layer":"shadow","date":"2026-08-01","timeLocal":"17:00"},"geometry":{"type":"Polygon","coordinates":[[[127.27298,37.82762],[127.27298,37.82756],[127.27305,37.82756],[127.27305,37.82762],[127.27298,37.82762]]]}},{"type":"Feature","properties":{"valleyId":"sample","layer":"shadow","date":"2026-08-01","timeLocal":"17:00"},"geometry":{"type":"Polygon","coordinates":[[[127.27235,37.82712],[127.27235,37.82707],[127.27242,37.82707],[127.27242,37.82712],[127.27235,37.82712]]]}},{"type":"Feature","properties":{"valleyId":"sample","layer":"shadow","date":"2026-08-01","timeLocal":"17:00"},"geometry":{"type":"Polygon","coordinates":[[[127.2718,37.82753],[127.27187,37.82728],[127.27188,37.8271],[127.27183,37.82704],[127.27183,37.8269],[127.27177,37.82684],[127.27173,37.82662],[127.27182,37.82663],[127.27195,37.82672],[127.27193,37.8269],[127.27199,37.82692],[127.27199,37.82711],[127.27206,37.82713],[127.27205,37.82724],[127.27201,37.82724],[127.27201,37.8273],[127.27205,37.8273],[127.27205,37.82739],[127.27198,37.8274],[127.27196,37.82753],[127.2718,37.82753]]]}},{"type":"Feature","properties":{"valleyId":"sample","layer":"shadow","date":"2026-08-01","timeLocal":"17:00"},"geometry":{"type":"Polygon","coordinates":[[[127.26952,37.82672],[127.26953,37.82645],[127.2696,37.82645],[127.26964,37.82668],[127.26959,37.82672],[127.26952,37.82672]]]}},{"type":"Feature","properties":{"valleyId":"sample","layer":"shadow","date":"2026-08-01","timeLocal":"17:00"},"geometry":{"type":"Polygon","coordinates":[[[127.27155,37.82659],[127.2715,37.82653],[127.2715,37.82644],[127.27157,37.82639],[127.27163,37.82596],[127.2717,37.82596],[127.27169,37.82625],[127.27178,37.8263],[127.27178,37.82635],[127.27171,37.82641],[127.27162,37.82642],[127.27162,37.82651],[127.27166,37.82653],[127.27166,37.82659],[127.27155,37.82659]]]}},{"type":"Feature","properties":{"valleyId":"sample","layer":"shadow","date":"2026-08-01","timeLocal":"17:00"},"geometry":{"type":"Polygon","coordinates":[[[127.2715,37.82572],[127.2715,37.82567],[127.27157,37.82567],[127.27157,37.82572],[127.2715,37.82572]]]}},{"type":"Feature","properties":{"valleyId":"sample","layer":"shadow","date":"2026-08-01","timeLocal":"17:00"},"geometry":{"type":"Polygon","coordinates":[[[127.27157,37.82563],[127.27157,37.82558],[127.27164,37.82558],[127.27164,37.82563],[127.27157,37.82563]]]}}]}
