{"type":"FeatureCollection","metadata":{"description":"개방지(CHM ≤ 2 m)에 드리운 나무·지형 그림자, 2026-08-01 10:00 KST. canopy 위에 겹쳐 그린다","source":"위성 기반 추정 — Copernicus GLO-30 지형(30 m) + Meta/WRI 수관 높이(1 m CHM, 2019 촬영). 그늘 = 수관(CHM > 2 m) ∪ 나무·지형 그림자 ∪ 원거리 지형 마스크. 현장과 다를 수 있음.","datasetVersion":"2026-09-03.0","collectedAt":"2026-09-03","coordinateOrder":"[longitude, latitude]","crs":"EPSG:4326","representativeDate":"2026-08-01","hours":["10:00","11:00","12:00","13:00","14:00","15:00","16:00","17:00","18:00"],"chmAcquisition":["2019-03","2019-05"],"assets":{"glo30":{"dataset":"Copernicus DEM GLO-30 (COG, s3://copernicus-dem-30m)","tiles":["Copernicus_DSM_COG_10_N37_00_E127_00_DEM"]},"chm":{"dataset":"Meta/WRI Global Canopy Height Map v1 (alsgedi_global_v6_float, 1 m, CC-BY 4.0)","quadkeys":["132110302","132110303"],"acquisition":["2019-03","2019-05"]}},"method":{"gridResM":2,"canopyThresholdM":2,"bufferHalfM":25,"corridorHalfM":200,"simplifyTolM":2,"minAreaM2":25,"coordDecimals":5},"generator":"scripts/shade 0.1.0","builtAt":"2026-09-03T06:59:47Z","layer":"shadow","timeLocal":"10:00"},"features":[{"type":"Feature","properties":{"valleyId":"sample","layer":"shadow","date":"2026-08-01","timeLocal":"10:00"},"geometry":{"type":"Polygon","coordinates":[[[127.2668,37.83124],[127.26671,37.83111],[127.26672,37.831],[127.26679,37.831],[127.26681,37.83109],[127.26687,37.83117],[127.26687,37.83124],[127.2668,37.83124]]]}},{"type":"Feature","properties":{"valleyId":"sample","layer":"shadow","date":"2026-08-01","timeLocal":"10:00"},"geometry":{"type":"Polygon","coordinates":[[[127.26644,37.83105],[127.26642,37.83091],[127.26636,37.83084],[127.26636,37.83078],[127.26643,37.83078],[127.26647,37.83084],[127.26647,37.83091],[127.26651,37.83091],[127.26653,37.83105],[127.26644,37.83105]]]}},{"type":"Feature","properties":{"valleyId":"sample","layer":"shadow","date":"2026-08-01","timeLocal":"10:00"},"geometry":{"type":"Polygon","coordinates":[[[127.27292,37.82796],[127.27288,37.82788],[127.27288,37.82774],[127.27295,37.82774],[127.27295,37.82783],[127.27299,37.82789],[127.27299,37.82796],[127.27292,37.82796]]]}},{"type":"Feature","properties":{"valleyId":"sample","layer":"shadow","date":"2026-08-01","timeLocal":"10:00"},"geometry":{"type":"Polygon","coordinates":[[[127.27291,37.82771],[127.27291,37.82765],[127.27298,37.82765],[127.27298,37.82771],[127.27291,37.82771]]]}},{"type":"Feature","properties":{"valleyId":"sample","layer":"shadow","date":"2026-08-01","timeLocal":"10:00"},"geometry":{"type":"Polygon","coordinates":[[[127.273,37.82762],[127.273,37.82754],[127.27307,37.82755],[127.27307,37.82762],[127.273,37.82762]]]}},{"type":"Feature","properties":{"valleyId":"sample","layer":"shadow","date":"2026-08-01","timeLocal":"10:00"},"geometry":{"type":"Polygon","coordinates":[[[127.27348,37.82762],[127.27348,37.82755],[127.27355,37.82755],[127.27355,37.82762],[127.27348,37.82762]]]}},{"type":"Feature","properties":{"valleyId":"sample","layer":"shadow","date":"2026-08-01","timeLocal":"10:00"},"geometry":{"type":"Polygon","coordinates":[[[127.27357,37.82753],[127.27357,37.82746],[127.27364,37.82746],[127.27364,37.82754],[127.27357,37.82753]]]}},{"type":"Feature","properties":{"valleyId":"sample","layer":"shadow","date":"2026-08-01","timeLocal":"10:00"},"geometry":{"type":"Polygon","coordinates":[[[127.26952,37.82672],[127.26953,37.82645],[127.2696,37.82645],[127.26964,37.82668],[127.26959,37.82672],[127.26952,37.82672]]]}}]}
