{"type":"FeatureCollection","metadata":{"description":"개방지(CHM ≤ 2 m)에 드리운 나무·지형 그림자, 2026-08-01 16:00 KST. canopy 위에 겹쳐 그린다","source":"위성 기반 추정 — Copernicus GLO-30 지형(30 m) + Meta/WRI 수관 높이(1 m CHM, 2019 촬영). 그늘 = 수관(CHM > 2 m) ∪ 나무·지형 그림자 ∪ 원거리 지형 마스크. 현장과 다를 수 있음.","datasetVersion":"2026-09-03.0","collectedAt":"2026-09-03","coordinateOrder":"[longitude, latitude]","crs":"EPSG:4326","representativeDate":"2026-08-01","hours":["10:00","11:00","12:00","13:00","14:00","15:00","16:00","17:00","18:00"],"chmAcquisition":["2019-03","2019-05"],"assets":{"glo30":{"dataset":"Copernicus DEM GLO-30 (COG, s3://copernicus-dem-30m)","tiles":["Copernicus_DSM_COG_10_N37_00_E127_00_DEM"]},"chm":{"dataset":"Meta/WRI Global Canopy Height Map v1 (alsgedi_global_v6_float, 1 m, CC-BY 4.0)","quadkeys":["132110302","132110303"],"acquisition":["2019-03","2019-05"]}},"method":{"gridResM":2,"canopyThresholdM":2,"bufferHalfM":25,"corridorHalfM":200,"simplifyTolM":2,"minAreaM2":25,"coordDecimals":5},"generator":"scripts/shade 0.1.0","builtAt":"2026-09-03T06:59:47Z","layer":"shadow","timeLocal":"16:00"},"features":[{"type":"Feature","properties":{"valleyId":"sample","layer":"shadow","date":"2026-08-01","timeLocal":"16:00"},"geometry":{"type":"Polygon","coordinates":[[[127.26327,37.83461],[127.26327,37.83456],[127.26336,37.83456],[127.26336,37.83461],[127.26327,37.83461]]]}},{"type":"Feature","properties":{"valleyId":"sample","layer":"shadow","date":"2026-08-01","timeLocal":"16:00"},"geometry":{"type":"Polygon","coordinates":[[[127.26229,37.83449],[127.2623,37.83443],[127.26236,37.83444],[127.26236,37.83449],[127.26229,37.83449]]]}},{"type":"Feature","properties":{"valleyId":"sample","layer":"shadow","date":"2026-08-01","timeLocal":"16:00"},"geometry":{"type":"Polygon","coordinates":[[[127.26303,37.83417],[127.26303,37.83412],[127.26312,37.8341],[127.26312,37.83416],[127.26303,37.83417]]]}},{"type":"Feature","properties":{"valleyId":"sample","layer":"shadow","date":"2026-08-01","timeLocal":"16:00"},"geometry":{"type":"Polygon","coordinates":[[[127.26366,37.83436],[127.26362,37.8342],[127.26371,37.83418],[127.26376,37.83404],[127.26385,37.83404],[127.26385,37.83415],[127.26378,37.8342],[127.26371,37.8342],[127.26373,37.83437],[127.26366,37.83436]]]}},{"type":"Feature","properties":{"valleyId":"sample","layer":"shadow","date":"2026-08-01","timeLocal":"16:00"},"geometry":{"type":"Polygon","coordinates":[[[127.26215,37.83398],[127.26215,37.83391],[127.26222,37.83391],[127.26222,37.83398],[127.26215,37.83398]]]}},{"type":"Feature","properties":{"valleyId":"sample","layer":"shadow","date":"2026-08-01","timeLocal":"16:00"},"geometry":{"type":"Polygon","coordinates":[[[127.26374,37.834],[127.26374,37.83395],[127.26383,37.83393],[127.26383,37.83399],[127.26374,37.834]]]}},{"type":"Feature","properties":{"valleyId":"sample","layer":"shadow","date":"2026-08-01","timeLocal":"16:00"},"geometry":{"type":"Polygon","coordinates":[[[127.26277,37.83347],[127.26277,37.83341],[127.26284,37.83341],[127.26284,37.83347],[127.26277,37.83347]]]}},{"type":"Feature","properties":{"valleyId":"sample","layer":"shadow","date":"2026-08-01","timeLocal":"16:00"},"geometry":{"type":"Polygon","coordinates":[[[127.26166,37.83333],[127.26167,37.83324],[127.26171,37.8332],[127.26178,37.8332],[127.26173,37.83333],[127.26166,37.83333]]]}},{"type":"Feature","properties":{"valleyId":"sample","layer":"shadow","date":"2026-08-01","timeLocal":"16:00"},"geometry":{"type":"Polygon","coordinates":[[[127.26253,37.83227],[127.26251,37.8322],[127.26255,37.83219],[127.26255,37.83215],[127.26262,37.83215],[127.26262,37.83228],[127.26253,37.83227]]]}},{"type":"Feature","properties":{"valleyId":"sample","layer":"shadow","date":"2026-08-01","timeLocal":"16:00"},"geometry":{"type":"Polygon","coordinates":[[[127.2631,37.83227],[127.26308,37.83217],[127.26312,37.83218],[127.26317,37.8321],[127.26324,37.83211],[127.26319,37.83225],[127.2631,37.83227]]]}},{"type":"Feature","properties":{"valleyId":"sample","layer":"shadow","date":"2026-08-01","timeLocal":"16:00"},"geometry":{"type":"Polygon","coordinates":[[[127.26217,37.83214],[127.26217,37.83207],[127.26224,37.83207],[127.26224,37.83214],[127.26217,37.83214]]]}},{"type":"Feature","properties":{"valleyId":"sample","layer":"shadow","date":"2026-08-01","timeLocal":"16:00"},"geometry":{"type":"Polygon","coordinates":[[[127.26362,37.83204],[127.26363,37.83198],[127.26369,37.83199],[127.26369,37.83204],[127.26362,37.83204]]]}},{"type":"Feature","properties":{"valleyId":"sample","layer":"shadow","date":"2026-08-01","timeLocal":"16:00"},"geometry":{"type":"Polygon","coordinates":[[[127.26512,37.83202],[127.2651,37.83195],[127.26504,37.8319],[127.26504,37.83181],[127.26511,37.83181],[127.26515,37.83193],[127.26519,37.83197],[127.26519,37.83203],[127.26512,37.83202]]]}},{"type":"Feature","properties":{"valleyId":"sample","layer":"shadow","date":"2026-08-01","timeLocal":"16:00"},"geometry":{"type":"Polygon","coordinates":[[[127.26342,37.83189],[127.26338,37.83182],[127.26339,37.83151],[127.26343,37.83151],[127.26343,37.83144],[127.26353,37.83144],[127.26352,37.8315],[127.26346,37.83151],[127.26345,37.83164],[127.2635,37.83166],[127.26349,37.83189],[127.26342,37.83189]]]}},{"type":"Feature","properties":{"valleyId":"sample","layer":"shadow","date":"2026-08-01","timeLocal":"16:00"},"geometry":{"type":"Polygon","coordinates":[[[127.26339,37.83142],[127.26339,37.83137],[127.26346,37.83137],[127.26346,37.83142],[127.26339,37.83142]]]}},{"type":"Feature","properties":{"valleyId":"sample","layer":"shadow","date":"2026-08-01","timeLocal":"16:00"},"geometry":{"type":"Polygon","coordinates":[[[127.26311,37.83057],[127.26314,37.83048],[127.26318,37.83045],[127.26325,37.83045],[127.26325,37.83054],[127.26311,37.83057]]]}},{"type":"Feature","properties":{"valleyId":"sample","layer":"shadow","date":"2026-08-01","timeLocal":"16:00"},"geometry":{"type":"Polygon","coordinates":[[[127.26353,37.83013],[127.26354,37.83002],[127.2636,37.83002],[127.26362,37.83013],[127.26353,37.83013]]]}},{"type":"Feature","properties":{"valleyId":"sample","layer":"shadow","date":"2026-08-01","timeLocal":"16:00"},"geometry":{"type":"Polygon","coordinates":[[[127.27099,37.82912],[127.27099,37.82906],[127.27106,37.82907],[127.27106,37.82912],[127.27099,37.82912]]]}},{"type":"Feature","properties":{"valleyId":"sample","layer":"shadow","date":"2026-08-01","timeLocal":"16:00"},"geometry":{"type":"Polygon","coordinates":[[[127.27159,37.82864],[127.27164,37.82844],[127.27169,37.82841],[127.27169,37.82835],[127.27178,37.82828],[127.27178,37.82816],[127.27183,37.82814],[127.27183,37.82809],[127.2719,37.82809],[127.27189,37.82839],[127.27182,37.82841],[127.27182,37.82852],[127.27175,37.82863],[127.27159,37.82864]]]}},{"type":"Feature","properties":{"valleyId":"sample","layer":"shadow","date":"2026-08-01","timeLocal":"16:00"},"geometry":{"type":"Polygon","coordinates":[[[127.27192,37.82794],[127.27193,37.82785],[127.27202,37.82784],[127.27202,37.82776],[127.27209,37.82777],[127.27209,37.82784],[127.27204,37.82784],[127.27199,37.82794],[127.27192,37.82794]]]}},{"type":"Feature","properties":{"valleyId":"sample","layer":"shadow","date":"2026-08-01","timeLocal":"16:00"},"geometry":{"type":"Polygon","coordinates":[[[127.2718,37.82753],[127.27187,37.82728],[127.27187,37.82713],[127.27194,37.82713],[127.27191,37.82747],[127.27189,37.82753],[127.2718,37.82753]]]}},{"type":"Feature","properties":{"valleyId":"sample","layer":"shadow","date":"2026-08-01","timeLocal":"16:00"},"geometry":{"type":"Polygon","coordinates":[[[127.27185,37.82709],[127.27183,37.82691],[127.2719,37.82692],[127.27192,37.8271],[127.27185,37.82709]]]}},{"type":"Feature","properties":{"valleyId":"sample","layer":"shadow","date":"2026-08-01","timeLocal":"16:00"},"geometry":{"type":"Polygon","coordinates":[[[127.27179,37.82688],[127.27175,37.82675],[127.27175,37.82666],[127.27182,37.82666],[127.27186,37.82675],[127.27186,37.82688],[127.27179,37.82688]]]}},{"type":"Feature","properties":{"valleyId":"sample","layer":"shadow","date":"2026-08-01","timeLocal":"16:00"},"geometry":{"type":"Polygon","coordinates":[[[127.26952,37.82672],[127.26953,37.82645],[127.2696,37.82645],[127.26961,37.8267],[127.26952,37.82672]]]}},{"type":"Feature","properties":{"valleyId":"sample","layer":"shadow","date":"2026-08-01","timeLocal":"16:00"},"geometry":{"type":"Polygon","coordinates":[[[127.27152,37.82657],[127.2715,37.82644],[127.27155,37.82644],[127.27157,37.82639],[127.27158,37.82617],[127.27165,37.82617],[127.27169,37.82637],[127.27166,37.82641],[127.27162,37.82641],[127.27162,37.82644],[127.27157,37.82644],[127.27159,37.82657],[127.27152,37.82657]]]}},{"type":"Feature","properties":{"valleyId":"sample","layer":"shadow","date":"2026-08-01","timeLocal":"16:00"},"geometry":{"type":"Polygon","coordinates":[[[127.27163,37.82605],[127.27163,37.82599],[127.2717,37.82599],[127.2717,37.82605],[127.27163,37.82605]]]}}]}
