{"type":"FeatureCollection","metadata":{"description":"개방지(CHM ≤ 2 m)에 드리운 나무·지형 그림자, 2026-08-01 18:00 KST. canopy 위에 겹쳐 그린다","source":"위성 기반 추정 — Copernicus GLO-30 지형(30 m) + Meta/WRI 수관 높이(1 m CHM, 2019 촬영). 그늘 = 수관(CHM > 2 m) ∪ 나무·지형 그림자 ∪ 원거리 지형 마스크. 현장과 다를 수 있음.","datasetVersion":"2026-09-03.0","collectedAt":"2026-09-03","coordinateOrder":"[longitude, latitude]","crs":"EPSG:4326","representativeDate":"2026-08-01","hours":["10:00","11:00","12:00","13:00","14:00","15:00","16:00","17:00","18:00"],"chmAcquisition":["2019-03","2019-05"],"assets":{"glo30":{"dataset":"Copernicus DEM GLO-30 (COG, s3://copernicus-dem-30m)","tiles":["Copernicus_DSM_COG_10_N37_00_E127_00_DEM"]},"chm":{"dataset":"Meta/WRI Global Canopy Height Map v1 (alsgedi_global_v6_float, 1 m, CC-BY 4.0)","quadkeys":["132110302","132110303"],"acquisition":["2019-03","2019-05"]}},"method":{"gridResM":2,"canopyThresholdM":2,"bufferHalfM":25,"corridorHalfM":200,"simplifyTolM":2,"minAreaM2":25,"coordDecimals":5},"generator":"scripts/shade 0.1.0","builtAt":"2026-09-03T06:59:47Z","layer":"shadow","timeLocal":"18:00"},"features":[{"type":"Feature","properties":{"valleyId":"sample","layer":"shadow","date":"2026-08-01","timeLocal":"18:00"},"geometry":{"type":"Polygon","coordinates":[[[127.26198,37.83609],[127.26199,37.83603],[127.26205,37.83602],[127.26206,37.83593],[127.26233,37.83591],[127.26233,37.83597],[127.26249,37.83601],[127.26248,37.8361],[127.26198,37.83609]]]}},{"type":"Feature","properties":{"valleyId":"sample","layer":"shadow","date":"2026-08-01","timeLocal":"18:00"},"geometry":{"type":"Polygon","coordinates":[[[127.25982,37.83553],[127.25982,37.83548],[127.25989,37.83548],[127.25988,37.83553],[127.25982,37.83553]]]}},{"type":"Feature","properties":{"valleyId":"sample","layer":"shadow","date":"2026-08-01","timeLocal":"18:00"},"geometry":{"type":"Polygon","coordinates":[[[127.26374,37.83565],[127.26377,37.8355],[127.26388,37.8355],[127.264,37.83538],[127.26407,37.83538],[127.26404,37.83547],[127.26381,37.83565],[127.26374,37.83565]]]}},{"type":"Feature","properties":{"valleyId":"sample","layer":"shadow","date":"2026-08-01","timeLocal":"18:00"},"geometry":{"type":"Polygon","coordinates":[[[127.2635,37.83541],[127.26348,37.83533],[127.26357,37.83534],[127.26357,37.83541],[127.2635,37.83541]]]}},{"type":"Feature","properties":{"valleyId":"sample","layer":"shadow","date":"2026-08-01","timeLocal":"18:00"},"geometry":{"type":"Polygon","coordinates":[[[127.26225,37.83528],[127.26223,37.83521],[127.26239,37.83519],[127.26239,37.83526],[127.26225,37.83528]]]}},{"type":"Feature","properties":{"valleyId":"sample","layer":"shadow","date":"2026-08-01","timeLocal":"18:00"},"geometry":{"type":"Polygon","coordinates":[[[127.26207,37.83521],[127.26207,37.83513],[127.26214,37.83513],[127.26214,37.83521],[127.26207,37.83521]]]}},{"type":"Feature","properties":{"valleyId":"sample","layer":"shadow","date":"2026-08-01","timeLocal":"18:00"},"geometry":{"type":"Polygon","coordinates":[[[127.26033,37.83578],[127.26004,37.83566],[127.26,37.83563],[127.26,37.83554],[127.26009,37.8355],[127.26009,37.83547],[127.26027,37.83547],[127.2603,37.83543],[127.26036,37.83543],[127.26034,37.83527],[127.26057,37.83529],[127.26062,37.83526],[127.26062,37.83517],[127.26053,37.83517],[127.26051,37.83509],[127.26062,37.83509],[127.26067,37.83513],[127.26076,37.83513],[127.26078,37.8351],[127.26092,37.8351],[127.26098,37.83514],[127.26121,37.83514],[127.26121,37.83519],[127.26114,37.83525],[127.26114,37.83528],[127.26107,37.83528],[127.2607,37.83542],[127.26068,37.83547],[127.2605,37.83545],[127.2605,37.83556],[127.26045,37.83563],[127.26045,37.8357],[127.26049,37.83571],[127.26049,37.83576],[127.26033,37.83578]]]}},{"type":"Feature","properties":{"valleyId":"sample","layer":"shadow","date":"2026-08-01","timeLocal":"18:00"},"geometry":{"type":"Polygon","coordinates":[[[127.26233,37.83512],[127.26233,37.83507],[127.26239,37.83507],[127.26239,37.83512],[127.26233,37.83512]]]}},{"type":"Feature","properties":{"valleyId":"sample","layer":"shadow","date":"2026-08-01","timeLocal":"18:00"},"geometry":{"type":"Polygon","coordinates":[[[127.26337,37.83499],[127.26338,37.83492],[127.26344,37.83492],[127.26344,37.83499],[127.26337,37.83499]]]}},{"type":"Feature","properties":{"valleyId":"sample","layer":"shadow","date":"2026-08-01","timeLocal":"18:00"},"geometry":{"type":"Polygon","coordinates":[[[127.26238,37.83454],[127.26234,37.83449],[127.26229,37.83449],[127.2623,37.83443],[127.26241,37.83435],[127.26255,37.83433],[127.26254,37.83453],[127.26238,37.83454]]]}},{"type":"Feature","properties":{"valleyId":"sample","layer":"shadow","date":"2026-08-01","timeLocal":"18:00"},"geometry":{"type":"Polygon","coordinates":[[[127.25928,37.83434],[127.25921,37.8343],[127.25921,37.83424],[127.25941,37.83427],[127.25939,37.83434],[127.25928,37.83434]]]}},{"type":"Feature","properties":{"valleyId":"sample","layer":"shadow","date":"2026-08-01","timeLocal":"18:00"},"geometry":{"type":"Polygon","coordinates":[[[127.26303,37.83417],[127.26305,37.8341],[127.26319,37.83409],[127.26319,37.83416],[127.26303,37.83417]]]}},{"type":"Feature","properties":{"valleyId":"sample","layer":"shadow","date":"2026-08-01","timeLocal":"18:00"},"geometry":{"type":"Polygon","coordinates":[[[127.26097,37.83494],[127.26092,37.8349],[127.26095,37.83477],[127.26086,37.83477],[127.26085,37.83486],[127.26079,37.83486],[127.26061,37.83477],[127.26059,37.83466],[127.26056,37.83463],[127.26052,37.83462],[127.26052,37.83457],[127.26043,37.83455],[127.26032,37.83448],[127.2603,37.83433],[127.26039,37.83432],[127.26048,37.83441],[127.26059,37.83441],[127.26062,37.83437],[127.2608,37.83439],[127.26084,37.83436],[127.26107,37.83436],[127.2611,37.83424],[127.26126,37.83424],[127.26132,37.83428],[127.2613,37.8344],[127.26139,37.8344],[127.26141,37.83431],[127.2615,37.83431],[127.2615,37.83444],[127.26161,37.83446],[127.26164,37.83439],[127.26157,37.83433],[127.26157,37.83424],[127.26183,37.83408],[127.26199,37.83403],[127.2621,37.83403],[127.26215,37.83396],[127.26213,37.83382],[127.26227,37.83377],[127.26227,37.83373],[127.26234,37.83373],[127.2624,37.83381],[127.26235,37.83395],[127.26231,37.83395],[127.26221,37.83404],[127.2621,37.83405],[127.2621,37.83412],[127.26205,37.83412],[127.26203,37.83416],[127.26203,37.83425],[127.26187,37.83425],[127.26187,37.83434],[127.262,37.83436],[127.262,37.83443],[127.26191,37.83448],[127.26188,37.83464],[127.26177,37.83473],[127.26177,37.83477],[127.26172,37.83477],[127.2617,37.8348],[127.26154,37.83482],[127.26133,37.83476],[127.26128,37.83491],[127.26106,37.83488],[127.26106,37.83494],[127.26097,37.83494]],[[127.26113,37.83458],[127.26122,37.83458],[127.26125,37.83449],[127.26114,37.83449],[127.26113,37.83458]]]}},{"type":"Feature","properties":{"valleyId":"sample","layer":"shadow","date":"2026-08-01","timeLocal":"18:00"},"geometry":{"type":"Polygon","coordinates":[[[127.26245,37.8337],[127.26241,37.83364],[127.26231,37.83364],[127.26232,37.83357],[127.26254,37.83359],[127.26254,37.8337],[127.26245,37.8337]]]}},{"type":"Feature","properties":{"valleyId":"sample","layer":"shadow","date":"2026-08-01","timeLocal":"18:00"},"geometry":{"type":"Polygon","coordinates":[[[127.26252,37.83354],[127.2625,37.83339],[127.26257,37.83336],[127.26257,37.8333],[127.26276,37.83327],[127.26287,37.83322],[127.26301,37.83322],[127.263,37.83327],[127.26296,37.83327],[127.26296,37.83336],[127.26291,37.83338],[127.26291,37.83343],[127.26284,37.83349],[127.26277,37.83349],[127.26275,37.83338],[127.26264,37.83336],[127.26261,37.83347],[127.26266,37.83348],[127.26266,37.83354],[127.26252,37.83354]]]}},{"type":"Feature","properties":{"valleyId":"sample","layer":"shadow","date":"2026-08-01","timeLocal":"18:00"},"geometry":{"type":"Polygon","coordinates":[[[127.2618,37.83336],[127.26166,37.83334],[127.26167,37.83324],[127.26171,37.8332],[127.26203,37.83315],[127.26221,37.83319],[127.26221,37.83335],[127.2618,37.83336]]]}},{"type":"Feature","properties":{"valleyId":"sample","layer":"shadow","date":"2026-08-01","timeLocal":"18:00"},"geometry":{"type":"Polygon","coordinates":[[[127.25998,37.83262],[127.25995,37.83254],[127.26016,37.83238],[127.26023,37.83239],[127.26029,37.8326],[127.25998,37.83262]]]}},{"type":"Feature","properties":{"valleyId":"sample","layer":"shadow","date":"2026-08-01","timeLocal":"18:00"},"geometry":{"type":"Polygon","coordinates":[[[127.26507,37.83251],[127.26507,37.83242],[127.26514,37.83242],[127.26514,37.83251],[127.26507,37.83251]]]}},{"type":"Feature","properties":{"valleyId":"sample","layer":"shadow","date":"2026-08-01","timeLocal":"18:00"},"geometry":{"type":"Polygon","coordinates":[[[127.26257,37.83229],[127.26251,37.83226],[127.26251,37.8322],[127.26258,37.83213],[127.26269,37.83213],[127.26276,37.83219],[127.26276,37.83226],[127.26257,37.83229]]]}},{"type":"Feature","properties":{"valleyId":"sample","layer":"shadow","date":"2026-08-01","timeLocal":"18:00"},"geometry":{"type":"Polygon","coordinates":[[[127.26314,37.83228],[127.26307,37.83225],[127.26308,37.83217],[127.26312,37.83218],[127.26312,37.83214],[127.26319,37.83209],[127.26328,37.83209],[127.26333,37.83212],[127.2634,37.83213],[127.26344,37.83209],[127.26358,37.83211],[127.26358,37.83216],[127.26333,37.83218],[127.26323,37.83225],[127.26323,37.83229],[127.26314,37.83228]]]}},{"type":"Feature","properties":{"valleyId":"sample","layer":"shadow","date":"2026-08-01","timeLocal":"18:00"},"geometry":{"type":"Polygon","coordinates":[[[127.26219,37.83216],[127.26217,37.83207],[127.26235,37.83207],[127.26235,37.83213],[127.26219,37.83216]]]}},{"type":"Feature","properties":{"valleyId":"sample","layer":"shadow","date":"2026-08-01","timeLocal":"18:00"},"geometry":{"type":"Polygon","coordinates":[[[127.26483,37.83218],[127.26483,37.83209],[127.2649,37.83209],[127.26489,37.83218],[127.26483,37.83218]]]}},{"type":"Feature","properties":{"valleyId":"sample","layer":"shadow","date":"2026-08-01","timeLocal":"18:00"},"geometry":{"type":"Polygon","coordinates":[[[127.26206,37.83184],[127.26202,37.8318],[127.26202,37.83173],[127.26209,37.83167],[127.26214,37.83155],[127.26225,37.83153],[127.2623,37.83157],[127.26231,37.83173],[127.26224,37.83177],[127.26224,37.83182],[127.26206,37.83184]]]}},{"type":"Feature","properties":{"valleyId":"sample","layer":"shadow","date":"2026-08-01","timeLocal":"18:00"},"geometry":{"type":"Polygon","coordinates":[[[127.2656,37.83311],[127.2656,37.83306],[127.26549,37.833],[127.2654,37.833],[127.26538,37.83293],[127.26538,37.83288],[127.26551,37.83288],[127.2656,37.8329],[127.2656,37.83293],[127.26567,37.83293],[127.26567,37.83286],[127.26561,37.83286],[127.26559,37.83264],[127.26554,37.83257],[127.26543,37.83253],[127.26546,37.83226],[127.26528,37.83221],[127.26517,37.83212],[127.26515,37.83203],[127.2651,37.83201],[127.2651,37.83195],[127.26504,37.8319],[127.26502,37.83175],[127.26482,37.83155],[127.2648,37.83126],[127.26471,37.83124],[127.26469,37.83121],[127.26469,37.8311],[127.26474,37.83108],[127.26474,37.83099],[127.26481,37.83099],[127.26481,37.83094],[127.26488,37.83094],[127.26488,37.83099],[127.26497,37.83103],[127.26497,37.83109],[127.26503,37.8311],[127.2651,37.83123],[127.26526,37.83125],[127.26526,37.83132],[127.26535,37.83134],[127.26539,37.83142],[127.26543,37.83142],[127.26543,37.83152],[127.26559,37.83153],[127.26559,37.83169],[127.26563,37.83169],[127.26563,37.83173],[127.26572,37.83175],[127.26574,37.83178],[127.26571,37.83207],[127.26567,37.83209],[127.26567,37.83214],[127.26585,37.83222],[127.26587,37.83232],[127.26582,37.83232],[127.26582,37.83236],[127.26578,37.83238],[127.26577,37.83243],[127.26582,37.83243],[127.26584,37.83247],[127.26579,37.83268],[127.26581,37.83283],[127.26574,37.83284],[127.26576,37.83304],[127.26567,37.83311],[127.2656,37.83311]]]}},{"type":"Feature","properties":{"valleyId":"sample","layer":"shadow","date":"2026-08-01","timeLocal":"18:00"},"geometry":{"type":"Polygon","coordinates":[[[127.26229,37.83074],[127.26229,37.83069],[127.26236,37.83069],[127.26236,37.83074],[127.26229,37.83074]]]}},{"type":"Feature","properties":{"valleyId":"sample","layer":"shadow","date":"2026-08-01","timeLocal":"18:00"},"geometry":{"type":"Polygon","coordinates":[[[127.26414,37.83057],[127.26414,37.83051],[127.26421,37.83052],[127.2642,37.83057],[127.26414,37.83057]]]}},{"type":"Feature","properties":{"valleyId":"sample","layer":"shadow","date":"2026-08-01","timeLocal":"18:00"},"geometry":{"type":"Polygon","coordinates":[[[127.26488,37.83083],[127.26488,37.83072],[127.26484,37.83069],[127.26484,37.83051],[127.265,37.83051],[127.265,37.83058],[127.26495,37.83058],[127.26495,37.83063],[127.26502,37.83064],[127.26504,37.83076],[127.26497,37.8308],[127.26497,37.83083],[127.26488,37.83083]]]}},{"type":"Feature","properties":{"valleyId":"sample","layer":"shadow","date":"2026-08-01","timeLocal":"18:00"},"geometry":{"type":"Polygon","coordinates":[[[127.26436,37.83061],[127.26436,37.83054],[127.2643,37.83053],[127.26432,37.83044],[127.26439,37.83045],[127.26439,37.8305],[127.26457,37.83052],[127.26457,37.83057],[127.26436,37.83061]]]}},{"type":"Feature","properties":{"valleyId":"sample","layer":"shadow","date":"2026-08-01","timeLocal":"18:00"},"geometry":{"type":"Polygon","coordinates":[[[127.26301,37.83026],[127.26292,37.83021],[127.26292,37.83015],[127.26301,37.83008],[127.26308,37.83008],[127.26314,37.83025],[127.26301,37.83026]]]}},{"type":"Feature","properties":{"valleyId":"sample","layer":"shadow","date":"2026-08-01","timeLocal":"18:00"},"geometry":{"type":"Polygon","coordinates":[[[127.26465,37.83018],[127.26462,37.83011],[127.26458,37.83011],[127.26458,37.83005],[127.26478,37.83007],[127.26474,37.83018],[127.26465,37.83018]]]}},{"type":"Feature","properties":{"valleyId":"sample","layer":"shadow","date":"2026-08-01","timeLocal":"18:00"},"geometry":{"type":"Polygon","coordinates":[[[127.26515,37.83015],[127.26515,37.83004],[127.26531,37.83006],[127.26528,37.83013],[127.26515,37.83015]]]}},{"type":"Feature","properties":{"valleyId":"sample","layer":"shadow","date":"2026-08-01","timeLocal":"18:00"},"geometry":{"type":"Polygon","coordinates":[[[127.27099,37.82912],[127.27099,37.82906],[127.27106,37.82907],[127.27106,37.82912],[127.27099,37.82912]]]}},{"type":"Feature","properties":{"valleyId":"sample","layer":"shadow","date":"2026-08-01","timeLocal":"18:00"},"geometry":{"type":"Polygon","coordinates":[[[127.26275,37.83536],[127.26273,37.83525],[127.26259,37.83525],[127.26262,37.83511],[127.26246,37.83512],[127.26249,37.83498],[127.2624,37.83498],[127.26237,37.83505],[127.26228,37.83505],[127.26228,37.83496],[127.26245,37.83485],[127.26249,37.83485],[127.26263,37.83471],[127.26274,37.83469],[127.26281,37.83475],[127.26302,37.83473],[127.26304,37.8347],[127.26318,37.83466],[127.2632,37.83459],[127.26336,37.83454],[127.26336,37.83445],[127.2635,37.83445],[127.26352,37.83442],[127.26364,37.83438],[127.26366,37.83429],[127.26362,37.83426],[127.26362,37.8342],[127.26371,37.83417],[127.26376,37.83411],[127.26374,37.83395],[127.26385,37.83388],[127.26386,37.83384],[127.26395,37.83381],[127.26395,37.8337],[127.26386,37.83366],[127.26386,37.83354],[127.26391,37.83347],[127.26398,37.83343],[127.264,37.83334],[127.26396,37.83323],[127.26389,37.8332],[127.26389,37.83314],[127.26383,37.83309],[127.26383,37.83301],[127.26372,37.83301],[127.26371,37.83305],[127.26353,37.83305],[127.26349,37.83296],[127.26338,37.83295],[127.26338,37.83279],[127.26349,37.83278],[127.2635,37.83272],[127.26341,37.83268],[127.26341,37.83263],[127.26356,37.83265],[127.26359,37.8326],[127.26373,37.83256],[127.26371,37.83245],[127.26382,37.83244],[127.26387,37.8324],[127.26387,37.83235],[127.26366,37.83227],[127.26364,37.83218],[127.26369,37.83215],[127.26369,37.83209],[127.26362,37.83206],[127.26363,37.83195],[127.26351,37.83189],[127.26342,37.83189],[127.26338,37.83182],[127.26339,37.83151],[127.26343,37.8315],[127.26343,37.83142],[127.26339,37.83142],[127.26339,37.83131],[127.26332,37.83128],[127.2633,37.83117],[127.26321,37.83111],[127.26315,37.83111],[127.26315,37.83104],[127.26322,37.83102],[127.2632,37.83093],[127.26299,37.83095],[127.26288,37.83102],[127.26287,37.8312],[127.26283,37.83125],[127.26228,37.83126],[127.26223,37.83133],[127.26212,37.83139],[127.26209,37.83144],[127.26198,37.83147],[127.26184,37.83147],[127.26177,37.83154],[127.26177,37.83161],[127.26181,37.83172],[127.2619,37.83178],[127.2619,37.83183],[127.26186,37.83187],[127.26161,37.83186],[127.26161,37.83183],[127.26156,37.83183],[127.26155,37.83149],[127.26143,37.83148],[127.26144,37.83141],[127.2615,37.83139],[127.26153,37.83132],[127.26176,37.83116],[127.26176,37.83113],[127.26188,37.83104],[127.26194,37.83104],[127.26208,37.83093],[127.26211,37.83086],[127.26224,37.83086],[127.26234,37.83081],[127.26263,37.83082],[127.26279,37.83069],[127.26293,37.83068],[127.26295,37.83062],[127.26302,37.83057],[127.26307,37.83057],[127.26314,37.83052],[127.26314,37.83048],[127.26321,37.83043],[127.26325,37.83043],[127.2633,37.83036],[127.26344,37.83034],[127.26344,37.83025],[127.26353,37.83014],[127.26354,37.83004],[127.26349,37.82998],[127.26327,37.82992],[127.26327,37.82987],[127.26338,37.82978],[127.26359,37.8298],[127.26357,37.82962],[127.26377,37.82961],[127.26378,37.82945],[127.26456,37.82881],[127.26463,37.82881],[127.26462,37.82931],[127.26466,37.82935],[127.26466,37.82948],[127.26462,37.82951],[127.26461,37.8298],[127.26479,37.82982],[127.26479,37.82989],[127.26474,37.82989],[127.26474,37.82993],[127.26451,37.82994],[127.26452,37.82987],[127.26447,37.82983],[127.2644,37.82983],[127.2644,37.82994],[127.26447,37.82994],[127.26447,37.83003],[127.26431,37.83003],[127.26428,37.83007],[127.26422,37.83006],[127.26415,37.83012],[127.2641,37.83012],[127.2641,37.83015],[127.26396,37.83017],[127.26396,37.83024],[127.26403,37.83024],[127.26403,37.83028],[127.2641,37.8303],[127.26412,37.83039],[127.26403,37.83039],[127.26403,37.83044],[127.26391,37.83049],[127.26395,37.83075],[127.26402,37.83075],[127.26404,37.83078],[127.26413,37.8308],[127.26413,37.83087],[127.26404,37.83091],[127.26404,37.831],[127.26408,37.83104],[127.26415,37.83104],[127.26415,37.831],[127.26442,37.831],[127.26438,37.83086],[127.26456,37.83088],[127.26456,37.83097],[127.26451,37.83097],[127.26453,37.83108],[127.26449,37.8311],[127.26446,37.8312],[127.26421,37.83133],[127.26421,37.83143],[127.26409,37.83143],[127.26405,37.8314],[127.26403,37.83127],[127.26394,37.83127],[127.26383,37.83112],[127.26362,37.83112],[127.26338,37.83101],[127.26331,37.83101],[127.26331,37.83106],[127.26333,37.83112],[127.26342,37.83113],[127.26346,37.83119],[127.26353,37.83121],[127.26353,37.83132],[127.26357,37.83135],[127.26378,37.83136],[127.26377,37.83148],[127.26371,37.83148],[127.2637,37.83154],[127.26382,37.83163],[127.26391,37.83163],[127.26391,37.83159],[127.26409,37.83161],[127.26414,37.83156],[127.26425,37.83156],[127.26429,37.83163],[127.26436,37.83163],[127.26438,37.83167],[127.26452,37.83171],[127.26456,37.83176],[127.26465,37.8318],[127.26465,37.83186],[127.26456,37.83185],[127.26451,37.83196],[127.26447,37.83196],[127.26447,37.832],[127.26442,37.83201],[127.26442,37.83207],[127.26453,37.83211],[127.26453,37.83218],[127.26444,37.83223],[127.26444,37.8323],[127.26439,37.8323],[127.26439,37.83236],[127.26425,37.83237],[127.26425,37.83257],[127.26411,37.83259],[127.26411,37.83262],[127.26404,37.83264],[127.26388,37.83266],[127.26388,37.83271],[127.26404,37.83271],[127.26406,37.83277],[127.26411,37.83277],[127.26411,37.83282],[127.26395,37.83291],[127.26394,37.83296],[127.26417,37.83298],[127.26417,37.83304],[127.2644,37.83308],[127.26442,37.83313],[127.26469,37.83312],[127.26471,37.83315],[127.26485,37.83316],[127.26485,37.83325],[127.26493,37.83337],[127.26503,37.83338],[127.26503,37.83332],[127.26509,37.83332],[127.26509,37.83336],[127.26523,37.83336],[127.26525,37.83347],[127.26474,37.83388],[127.26474,37.83391],[127.26456,37.83404],[127.26457,37.83443],[127.2645,37.83443],[127.2645,37.83448],[127.26434,37.83448],[127.26416,37.83455],[127.26415,37.83482],[127.26422,37.83482],[127.26422,37.8349],[127.26426,37.83493],[127.2644,37.83495],[127.26437,37.83506],[127.26428,37.83506],[127.26428,37.83502],[127.26421,37.83499],[127.26394,37.835],[127.26385,37.83498],[127.26378,37.83492],[127.2636,37.83494],[127.26358,37.8349],[127.26347,37.8349],[127.26345,37.83485],[127.26335,37.83485],[127.26335,37.83492],[127.26319,37.8349],[127.26308,37.83493],[127.26305,37.83506],[127.26301,37.83508],[127.26301,37.8352],[127.26296,37.83524],[127.26287,37.83524],[127.26284,37.83534],[127.26275,37.83536]],[[127.26435,37.8341],[127.26444,37.83409],[127.26442,37.83402],[127.26435,37.83401],[127.26435,37.8341]],[[127.26413,37.83378],[127.26424,37.83378],[127.26427,37.83371],[127.26413,37.83372],[127.26413,37.83378]],[[127.26436,37.83378],[127.26442,37.83378],[127.26443,37.83373],[127.26436,37.83373],[127.26436,37.83378]],[[127.26449,37.83376],[127.26456,37.83376],[127.26456,37.83371],[127.26449,37.83371],[127.26449,37.83376]],[[127.2646,37.8333],[127.26466,37.8333],[127.26467,37.83321],[127.26451,37.83319],[127.26451,37.83324],[127.2646,37.8333]],[[127.26385,37.83192],[127.26392,37.83192],[127.26393,37.83183],[127.26388,37.83179],[127.26381,37.83179],[127.26385,37.83192]],[[127.26404,37.83185],[127.26411,37.83185],[127.26411,37.83181],[127.2644,37.83183],[127.2644,37.83178],[127.26429,37.83178],[127.26429,37.83165],[127.26422,37.83165],[127.2642,37.83176],[127.26415,37.83176],[127.26415,37.83179],[127.26402,37.83177],[127.26404,37.83185]],[[127.26408,37.83123],[127.26414,37.83124],[127.26414,37.83118],[127.26408,37.83118],[127.26408,37.83123]],[[127.26347,37.83097],[127.26356,37.83097],[127.26363,37.83092],[127.26363,37.83085],[127.26347,37.83083],[127.26347,37.83097]]]}},{"type":"Feature","properties":{"valleyId":"sample","layer":"shadow","date":"2026-08-01","timeLocal":"18:00"},"geometry":{"type":"Polygon","coordinates":[[[127.26725,37.82858],[127.26725,37.82852],[127.26734,37.82852],[127.26734,37.82858],[127.26725,37.82858]]]}},{"type":"Feature","properties":{"valleyId":"sample","layer":"shadow","date":"2026-08-01","timeLocal":"18:00"},"geometry":{"type":"Polygon","coordinates":[[[127.27072,37.82807],[127.27077,37.82794],[127.27083,37.82795],[127.27079,37.82807],[127.27072,37.82807]]]}},{"type":"Feature","properties":{"valleyId":"sample","layer":"shadow","date":"2026-08-01","timeLocal":"18:00"},"geometry":{"type":"Polygon","coordinates":[[[127.27145,37.82765],[127.27146,37.82759],[127.27155,37.8276],[127.27154,37.82765],[127.27145,37.82765]]]}},{"type":"Feature","properties":{"valleyId":"sample","layer":"shadow","date":"2026-08-01","timeLocal":"18:00"},"geometry":{"type":"Polygon","coordinates":[[[127.27161,37.82763],[127.27164,37.82756],[127.27175,37.82754],[127.27173,37.82763],[127.27161,37.82763]]]}},{"type":"Feature","properties":{"valleyId":"sample","layer":"shadow","date":"2026-08-01","timeLocal":"18:00"},"geometry":{"type":"Polygon","coordinates":[[[127.27332,37.82766],[127.27332,37.82757],[127.27348,37.82759],[127.27348,37.82766],[127.27332,37.82766]]]}},{"type":"Feature","properties":{"valleyId":"sample","layer":"shadow","date":"2026-08-01","timeLocal":"18:00"},"geometry":{"type":"Polygon","coordinates":[[[127.27298,37.82762],[127.27298,37.82754],[127.27305,37.82754],[127.27307,37.82762],[127.27298,37.82762]]]}},{"type":"Feature","properties":{"valleyId":"sample","layer":"shadow","date":"2026-08-01","timeLocal":"18:00"},"geometry":{"type":"Polygon","coordinates":[[[127.26952,37.82672],[127.26953,37.82645],[127.2696,37.82645],[127.26964,37.82668],[127.26959,37.82672],[127.26952,37.82672]]]}},{"type":"Feature","properties":{"valleyId":"sample","layer":"shadow","date":"2026-08-01","timeLocal":"18:00"},"geometry":{"type":"Polygon","coordinates":[[[127.27461,37.82591],[127.27461,37.82584],[127.2747,37.82582],[127.27468,37.82591],[127.27461,37.82591]]]}},{"type":"Feature","properties":{"valleyId":"sample","layer":"shadow","date":"2026-08-01","timeLocal":"18:00"},"geometry":{"type":"Polygon","coordinates":[[[127.27115,37.82903],[127.2712,37.82892],[127.27133,37.82889],[127.2714,37.82884],[127.27145,37.82869],[127.27159,37.82864],[127.27164,37.82844],[127.27169,37.82841],[127.27169,37.82835],[127.27178,37.82828],[127.27178,37.82816],[127.27183,37.82814],[127.27185,37.82805],[127.27192,37.82803],[127.27193,37.82785],[127.27202,37.82782],[127.27202,37.82773],[127.27191,37.82765],[127.27191,37.82755],[127.27177,37.82754],[127.27187,37.82728],[127.27183,37.8269],[127.27177,37.82684],[127.27177,37.82675],[127.27168,37.82659],[127.27155,37.82659],[127.2715,37.82653],[127.2715,37.82644],[127.27157,37.82639],[127.27163,37.82583],[127.27161,37.82578],[127.27157,37.82577],[127.2715,37.82572],[127.2715,37.82567],[127.27161,37.82565],[127.27163,37.82576],[127.27172,37.8258],[127.27172,37.82594],[127.27181,37.82598],[127.27178,37.82617],[127.27181,37.82621],[127.27194,37.82625],[127.27194,37.8263],[127.27189,37.8263],[127.27182,37.82637],[127.27169,37.82639],[127.27166,37.82646],[127.27187,37.82648],[127.27189,37.82654],[127.27198,37.82654],[127.27198,37.82657],[127.27207,37.82661],[127.27225,37.82661],[127.27225,37.82678],[127.27229,37.82681],[127.27245,37.82685],[127.27245,37.82701],[127.27249,37.82701],[127.27256,37.82707],[127.27256,37.82712],[127.27251,37.82712],[127.27253,37.82729],[127.27242,37.82734],[127.27239,37.82741],[127.27234,37.82744],[127.27216,37.82746],[127.27216,37.82751],[127.27234,37.82752],[127.27243,37.82759],[127.27243,37.82777],[127.27236,37.82786],[127.27236,37.82795],[127.27233,37.828],[127.27226,37.828],[127.27224,37.82804],[127.27226,37.82813],[127.27235,37.8282],[127.27232,37.82836],[127.27228,37.82838],[127.27228,37.82842],[127.27221,37.82843],[127.27221,37.82847],[127.27207,37.8285],[127.27205,37.82856],[127.27177,37.82861],[127.27177,37.82864],[127.2717,37.82868],[127.2717,37.82875],[127.27165,37.8288],[127.27161,37.8288],[127.27159,37.82884],[127.27126,37.82898],[127.27122,37.82903],[127.27115,37.82903]],[[127.27226,37.82714],[127.27233,37.82714],[127.27235,37.82701],[127.27226,37.82701],[127.27226,37.82714]]]}},{"type":"Feature","properties":{"valleyId":"sample","layer":"shadow","date":"2026-08-01","timeLocal":"18:00"},"geometry":{"type":"Polygon","coordinates":[[[127.27157,37.82563],[127.27162,37.82547],[127.27173,37.82545],[127.27173,37.82551],[127.27169,37.82552],[127.27168,37.82561],[127.27157,37.82563]]]}}]}
