{"type":"FeatureCollection","metadata":{"description":"개방지(CHM ≤ 2 m)에 드리운 나무·지형 그림자, 2026-08-01 16:00 KST. canopy 위에 겹쳐 그린다","source":"위성 기반 추정 — Copernicus GLO-30 지형(30 m) + Meta/WRI 수관 높이(1 m CHM, 2019 촬영). 그늘 = 수관(CHM > 2 m) ∪ 나무·지형 그림자 ∪ 원거리 지형 마스크. 현장과 다를 수 있음.","datasetVersion":"2026-09-06.0","collectedAt":"2026-09-06","coordinateOrder":"[longitude, latitude]","crs":"EPSG:4326","representativeDate":"2026-08-01","hours":["10:00","11:00","12:00","13:00","14:00","15:00","16:00","17:00","18:00"],"chmAcquisition":["2019-03"],"assets":{"glo30":{"dataset":"Copernicus DEM GLO-30 (COG, s3://copernicus-dem-30m)","tiles":["Copernicus_DSM_COG_10_N37_00_E126_00_DEM","Copernicus_DSM_COG_10_N37_00_E127_00_DEM","Copernicus_DSM_COG_10_N38_00_E126_00_DEM","Copernicus_DSM_COG_10_N38_00_E127_00_DEM"]},"chm":{"dataset":"Meta/WRI Global Canopy Height Map v1 (alsgedi_global_v6_float, 1 m, CC-BY 4.0)","quadkeys":["132110302"],"acquisition":["2019-03"]}},"method":{"gridResM":2,"canopyThresholdM":2,"bufferHalfM":25,"corridorHalfM":200,"simplifyTolM":2,"minAreaM2":25,"coordDecimals":5},"generator":"scripts/shade 0.1.0","builtAt":"2026-09-06T06:07:02Z","layer":"shadow","timeLocal":"16:00"},"features":[{"type":"Feature","properties":{"valleyId":"soyosan","layer":"shadow","date":"2026-08-01","timeLocal":"16:00"},"geometry":{"type":"Polygon","coordinates":[[[127.06574,37.95972],[127.06574,37.95961],[127.06585,37.95963],[127.06587,37.95972],[127.06574,37.95972]]]}},{"type":"Feature","properties":{"valleyId":"soyosan","layer":"shadow","date":"2026-08-01","timeLocal":"16:00"},"geometry":{"type":"Polygon","coordinates":[[[127.06013,37.95894],[127.06014,37.95888],[127.0602,37.95888],[127.0602,37.95894],[127.06013,37.95894]]]}},{"type":"Feature","properties":{"valleyId":"soyosan","layer":"shadow","date":"2026-08-01","timeLocal":"16:00"},"geometry":{"type":"Polygon","coordinates":[[[127.05907,37.95858],[127.05907,37.95852],[127.05914,37.95853],[127.05914,37.95858],[127.05907,37.95858]]]}},{"type":"Feature","properties":{"valleyId":"soyosan","layer":"shadow","date":"2026-08-01","timeLocal":"16:00"},"geometry":{"type":"Polygon","coordinates":[[[127.0593,37.95858],[127.0593,37.95853],[127.05937,37.95853],[127.05937,37.95858],[127.0593,37.95858]]]}},{"type":"Feature","properties":{"valleyId":"soyosan","layer":"shadow","date":"2026-08-01","timeLocal":"16:00"},"geometry":{"type":"Polygon","coordinates":[[[127.06547,37.95868],[127.06547,37.95863],[127.06556,37.95863],[127.06556,37.95868],[127.06547,37.95868]]]}},{"type":"Feature","properties":{"valleyId":"soyosan","layer":"shadow","date":"2026-08-01","timeLocal":"16:00"},"geometry":{"type":"Polygon","coordinates":[[[127.06397,37.95857],[127.06397,37.95846],[127.06406,37.95846],[127.06406,37.95857],[127.06397,37.95857]]]}},{"type":"Feature","properties":{"valleyId":"soyosan","layer":"shadow","date":"2026-08-01","timeLocal":"16:00"},"geometry":{"type":"Polygon","coordinates":[[[127.0596,37.95842],[127.0596,37.95835],[127.05967,37.95835],[127.05967,37.95843],[127.0596,37.95842]]]}},{"type":"Feature","properties":{"valleyId":"soyosan","layer":"shadow","date":"2026-08-01","timeLocal":"16:00"},"geometry":{"type":"Polygon","coordinates":[[[127.05982,37.95796],[127.05982,37.95789],[127.05989,37.95789],[127.05989,37.95796],[127.05982,37.95796]]]}},{"type":"Feature","properties":{"valleyId":"soyosan","layer":"shadow","date":"2026-08-01","timeLocal":"16:00"},"geometry":{"type":"Polygon","coordinates":[[[127.06462,37.95793],[127.0646,37.95775],[127.06467,37.95775],[127.06467,37.95784],[127.06474,37.95786],[127.06474,37.95791],[127.06462,37.95793]]]}},{"type":"Feature","properties":{"valleyId":"soyosan","layer":"shadow","date":"2026-08-01","timeLocal":"16:00"},"geometry":{"type":"Polygon","coordinates":[[[127.06481,37.9577],[127.06484,37.95761],[127.0649,37.95761],[127.06492,37.95768],[127.06481,37.9577]]]}},{"type":"Feature","properties":{"valleyId":"soyosan","layer":"shadow","date":"2026-08-01","timeLocal":"16:00"},"geometry":{"type":"Polygon","coordinates":[[[127.0574,37.95213],[127.0574,37.95203],[127.05747,37.95203],[127.05749,37.95214],[127.0574,37.95213]]]}},{"type":"Feature","properties":{"valleyId":"soyosan","layer":"shadow","date":"2026-08-01","timeLocal":"16:00"},"geometry":{"type":"Polygon","coordinates":[[[127.05741,37.95179],[127.05741,37.95165],[127.05748,37.95165],[127.0575,37.95178],[127.05741,37.95179]]]}},{"type":"Feature","properties":{"valleyId":"soyosan","layer":"shadow","date":"2026-08-01","timeLocal":"16:00"},"geometry":{"type":"Polygon","coordinates":[[[127.06707,37.95036],[127.06708,37.95031],[127.06714,37.95031],[127.06714,37.95037],[127.06707,37.95036]]]}},{"type":"Feature","properties":{"valleyId":"soyosan","layer":"shadow","date":"2026-08-01","timeLocal":"16:00"},"geometry":{"type":"Polygon","coordinates":[[[127.06706,37.95009],[127.06704,37.94997],[127.06713,37.94997],[127.06713,37.9501],[127.06706,37.95009]]]}},{"type":"Feature","properties":{"valleyId":"soyosan","layer":"shadow","date":"2026-08-01","timeLocal":"16:00"},"geometry":{"type":"Polygon","coordinates":[[[127.06342,37.94899],[127.06342,37.94894],[127.06352,37.94894],[127.06351,37.94899],[127.06342,37.94899]]]}},{"type":"Feature","properties":{"valleyId":"soyosan","layer":"shadow","date":"2026-08-01","timeLocal":"16:00"},"geometry":{"type":"Polygon","coordinates":[[[127.06065,37.94698],[127.06066,37.94691],[127.06072,37.94691],[127.06072,37.94698],[127.06065,37.94698]]]}},{"type":"Feature","properties":{"valleyId":"soyosan","layer":"shadow","date":"2026-08-01","timeLocal":"16:00"},"geometry":{"type":"Polygon","coordinates":[[[127.05813,37.94605],[127.05811,37.94595],[127.05818,37.94595],[127.05822,37.94606],[127.05813,37.94605]]]}},{"type":"Feature","properties":{"valleyId":"soyosan","layer":"shadow","date":"2026-08-01","timeLocal":"16:00"},"geometry":{"type":"Polygon","coordinates":[[[127.05689,37.9456],[127.05689,37.94546],[127.05696,37.94546],[127.05696,37.9456],[127.05689,37.9456]]]}},{"type":"Feature","properties":{"valleyId":"soyosan","layer":"shadow","date":"2026-08-01","timeLocal":"16:00"},"geometry":{"type":"Polygon","coordinates":[[[127.06407,37.94521],[127.06409,37.94511],[127.06416,37.94511],[127.06416,37.94514],[127.06421,37.94514],[127.0642,37.94522],[127.06407,37.94521]]]}},{"type":"Feature","properties":{"valleyId":"soyosan","layer":"shadow","date":"2026-08-01","timeLocal":"16:00"},"geometry":{"type":"Polygon","coordinates":[[[127.06153,37.94497],[127.06153,37.9449],[127.0616,37.9449],[127.06162,37.94498],[127.06153,37.94497]]]}},{"type":"Feature","properties":{"valleyId":"soyosan","layer":"shadow","date":"2026-08-01","timeLocal":"16:00"},"geometry":{"type":"Polygon","coordinates":[[[127.05688,37.94488],[127.05689,37.94483],[127.05695,37.94483],[127.05695,37.94488],[127.05688,37.94488]]]}},{"type":"Feature","properties":{"valleyId":"soyosan","layer":"shadow","date":"2026-08-01","timeLocal":"16:00"},"geometry":{"type":"Polygon","coordinates":[[[127.05627,37.94483],[127.05627,37.94474],[127.05636,37.94475],[127.05636,37.94482],[127.05627,37.94483]]]}},{"type":"Feature","properties":{"valleyId":"soyosan","layer":"shadow","date":"2026-08-01","timeLocal":"16:00"},"geometry":{"type":"Polygon","coordinates":[[[127.05637,37.9446],[127.05637,37.94451],[127.05644,37.94451],[127.05646,37.94458],[127.05637,37.9446]]]}},{"type":"Feature","properties":{"valleyId":"soyosan","layer":"shadow","date":"2026-08-01","timeLocal":"16:00"},"geometry":{"type":"Polygon","coordinates":[[[127.06558,37.9447],[127.06559,37.94463],[127.06565,37.94463],[127.06567,37.9447],[127.06558,37.9447]]]}},{"type":"Feature","properties":{"valleyId":"soyosan","layer":"shadow","date":"2026-08-01","timeLocal":"16:00"},"geometry":{"type":"Polygon","coordinates":[[[127.05573,37.94394],[127.05573,37.94389],[127.05582,37.94389],[127.05582,37.94394],[127.05573,37.94394]]]}},{"type":"Feature","properties":{"valleyId":"soyosan","layer":"shadow","date":"2026-08-01","timeLocal":"16:00"},"geometry":{"type":"Polygon","coordinates":[[[127.05548,37.94378],[127.05548,37.94367],[127.05555,37.94367],[127.05557,37.94376],[127.05548,37.94378]]]}},{"type":"Feature","properties":{"valleyId":"soyosan","layer":"shadow","date":"2026-08-01","timeLocal":"16:00"},"geometry":{"type":"Polygon","coordinates":[[[127.05298,37.94363],[127.05298,37.94357],[127.05305,37.94357],[127.05305,37.94363],[127.05298,37.94363]]]}},{"type":"Feature","properties":{"valleyId":"soyosan","layer":"shadow","date":"2026-08-01","timeLocal":"16:00"},"geometry":{"type":"Polygon","coordinates":[[[127.06154,37.9437],[127.06154,37.94359],[127.06161,37.94359],[127.06163,37.9437],[127.06154,37.9437]]]}},{"type":"Feature","properties":{"valleyId":"soyosan","layer":"shadow","date":"2026-08-01","timeLocal":"16:00"},"geometry":{"type":"Polygon","coordinates":[[[127.05931,37.94341],[127.05932,37.94333],[127.05938,37.94334],[127.05938,37.94341],[127.05931,37.94341]]]}},{"type":"Feature","properties":{"valleyId":"soyosan","layer":"shadow","date":"2026-08-01","timeLocal":"16:00"},"geometry":{"type":"Polygon","coordinates":[[[127.05356,37.94221],[127.05357,37.94214],[127.05363,37.94214],[127.05365,37.94221],[127.05356,37.94221]]]}},{"type":"Feature","properties":{"valleyId":"soyosan","layer":"shadow","date":"2026-08-01","timeLocal":"16:00"},"geometry":{"type":"Polygon","coordinates":[[[127.05027,37.94115],[127.05027,37.94108],[127.05034,37.94104],[127.05037,37.94086],[127.05033,37.94054],[127.05031,37.94045],[127.05027,37.94041],[127.05027,37.94032],[127.05034,37.94032],[127.0504,37.94057],[127.05044,37.94059],[127.05046,37.94088],[127.05041,37.9411],[127.05036,37.9411],[127.05034,37.94115],[127.05027,37.94115]]]}},{"type":"Feature","properties":{"valleyId":"soyosan","layer":"shadow","date":"2026-08-01","timeLocal":"16:00"},"geometry":{"type":"Polygon","coordinates":[[[127.05004,37.94022],[127.05004,37.94017],[127.05014,37.94015],[127.05016,37.94005],[127.05023,37.94005],[127.05023,37.94016],[127.05014,37.94017],[127.05013,37.94023],[127.05004,37.94022]]]}},{"type":"Feature","properties":{"valleyId":"soyosan","layer":"shadow","date":"2026-08-01","timeLocal":"16:00"},"geometry":{"type":"Polygon","coordinates":[[[127.04994,37.93974],[127.04994,37.93968],[127.05001,37.93968],[127.05001,37.93974],[127.04994,37.93974]]]}},{"type":"Feature","properties":{"valleyId":"soyosan","layer":"shadow","date":"2026-08-01","timeLocal":"16:00"},"geometry":{"type":"Polygon","coordinates":[[[127.05277,37.93948],[127.05277,37.93939],[127.05284,37.93939],[127.05284,37.93948],[127.05277,37.93948]]]}},{"type":"Feature","properties":{"valleyId":"soyosan","layer":"shadow","date":"2026-08-01","timeLocal":"16:00"},"geometry":{"type":"Polygon","coordinates":[[[127.0493,37.93919],[127.0493,37.9391],[127.04937,37.9391],[127.04939,37.93919],[127.0493,37.93919]]]}},{"type":"Feature","properties":{"valleyId":"soyosan","layer":"shadow","date":"2026-08-01","timeLocal":"16:00"},"geometry":{"type":"Polygon","coordinates":[[[127.04711,37.9358],[127.04711,37.93574],[127.04718,37.93574],[127.04718,37.9358],[127.04711,37.9358]]]}},{"type":"Feature","properties":{"valleyId":"soyosan","layer":"shadow","date":"2026-08-01","timeLocal":"16:00"},"geometry":{"type":"Polygon","coordinates":[[[127.05597,37.93537],[127.056,37.93526],[127.05607,37.93526],[127.05607,37.93537],[127.05597,37.93537]]]}},{"type":"Feature","properties":{"valleyId":"soyosan","layer":"shadow","date":"2026-08-01","timeLocal":"16:00"},"geometry":{"type":"Polygon","coordinates":[[[127.04982,37.93481],[127.04982,37.93476],[127.04989,37.93476],[127.04989,37.93482],[127.04982,37.93481]]]}}]}
