{"type":"FeatureCollection","metadata":{"description":"개방지(CHM ≤ 2 m)에 드리운 나무·지형 그림자, 2026-08-01 10:00 KST. canopy 위에 겹쳐 그린다","source":"위성 기반 추정 — Copernicus GLO-30 지형(30 m) + Meta/WRI 수관 높이(1 m CHM, 2019 촬영). 그늘 = 수관(CHM > 2 m) ∪ 나무·지형 그림자 ∪ 원거리 지형 마스크. 현장과 다를 수 있음.","datasetVersion":"2026-09-06.0","collectedAt":"2026-09-06","coordinateOrder":"[longitude, latitude]","crs":"EPSG:4326","representativeDate":"2026-08-01","hours":["10:00","11:00","12:00","13:00","14:00","15:00","16:00","17:00","18:00"],"chmAcquisition":["2019-03"],"assets":{"glo30":{"dataset":"Copernicus DEM GLO-30 (COG, s3://copernicus-dem-30m)","tiles":["Copernicus_DSM_COG_10_N37_00_E126_00_DEM","Copernicus_DSM_COG_10_N37_00_E127_00_DEM","Copernicus_DSM_COG_10_N38_00_E126_00_DEM","Copernicus_DSM_COG_10_N38_00_E127_00_DEM"]},"chm":{"dataset":"Meta/WRI Global Canopy Height Map v1 (alsgedi_global_v6_float, 1 m, CC-BY 4.0)","quadkeys":["132110302"],"acquisition":["2019-03"]}},"method":{"gridResM":2,"canopyThresholdM":2,"bufferHalfM":25,"corridorHalfM":200,"simplifyTolM":2,"minAreaM2":25,"coordDecimals":5},"generator":"scripts/shade 0.1.0","builtAt":"2026-09-06T06:07:02Z","layer":"shadow","timeLocal":"10:00"},"features":[{"type":"Feature","properties":{"valleyId":"soyosan","layer":"shadow","date":"2026-08-01","timeLocal":"10:00"},"geometry":{"type":"Polygon","coordinates":[[[127.06585,37.95963],[127.06585,37.95955],[127.06592,37.95956],[127.06592,37.95963],[127.06585,37.95963]]]}},{"type":"Feature","properties":{"valleyId":"soyosan","layer":"shadow","date":"2026-08-01","timeLocal":"10:00"},"geometry":{"type":"Polygon","coordinates":[[[127.06531,37.9587],[127.06531,37.95863],[127.06538,37.95863],[127.06538,37.9587],[127.06531,37.9587]]]}},{"type":"Feature","properties":{"valleyId":"soyosan","layer":"shadow","date":"2026-08-01","timeLocal":"10:00"},"geometry":{"type":"Polygon","coordinates":[[[127.06442,37.95793],[127.06442,37.95787],[127.06449,37.95787],[127.06449,37.95793],[127.06442,37.95793]]]}},{"type":"Feature","properties":{"valleyId":"soyosan","layer":"shadow","date":"2026-08-01","timeLocal":"10:00"},"geometry":{"type":"Polygon","coordinates":[[[127.06444,37.95782],[127.06444,37.95777],[127.06451,37.95777],[127.06451,37.95782],[127.06444,37.95782]]]}},{"type":"Feature","properties":{"valleyId":"soyosan","layer":"shadow","date":"2026-08-01","timeLocal":"10:00"},"geometry":{"type":"Polygon","coordinates":[[[127.06463,37.95771],[127.06461,37.95762],[127.06468,37.95762],[127.0647,37.95772],[127.06463,37.95771]]]}},{"type":"Feature","properties":{"valleyId":"soyosan","layer":"shadow","date":"2026-08-01","timeLocal":"10:00"},"geometry":{"type":"Polygon","coordinates":[[[127.06714,37.95042],[127.06714,37.95031],[127.0671,37.95029],[127.06708,37.9502],[127.06703,37.9502],[127.06706,37.94997],[127.06715,37.94997],[127.06712,37.95017],[127.06719,37.95019],[127.06719,37.95026],[127.06726,37.95028],[127.06723,37.9504],[127.06714,37.95042]]]}},{"type":"Feature","properties":{"valleyId":"soyosan","layer":"shadow","date":"2026-08-01","timeLocal":"10:00"},"geometry":{"type":"Polygon","coordinates":[[[127.06681,37.95],[127.06681,37.94995],[127.06688,37.94995],[127.06688,37.95],[127.06681,37.95]]]}},{"type":"Feature","properties":{"valleyId":"soyosan","layer":"shadow","date":"2026-08-01","timeLocal":"10:00"},"geometry":{"type":"Polygon","coordinates":[[[127.06377,37.94521],[127.06377,37.94516],[127.06387,37.94514],[127.06386,37.94521],[127.06377,37.94521]]]}},{"type":"Feature","properties":{"valleyId":"soyosan","layer":"shadow","date":"2026-08-01","timeLocal":"10:00"},"geometry":{"type":"Polygon","coordinates":[[[127.06133,37.94371],[127.06131,37.9436],[127.0614,37.9436],[127.06142,37.94371],[127.06133,37.94371]]]}},{"type":"Feature","properties":{"valleyId":"soyosan","layer":"shadow","date":"2026-08-01","timeLocal":"10:00"},"geometry":{"type":"Polygon","coordinates":[[[127.06031,37.94203],[127.06031,37.94198],[127.06037,37.94198],[127.06037,37.94204],[127.06031,37.94203]]]}},{"type":"Feature","properties":{"valleyId":"soyosan","layer":"shadow","date":"2026-08-01","timeLocal":"10:00"},"geometry":{"type":"Polygon","coordinates":[[[127.05753,37.9375],[127.05754,37.93743],[127.0576,37.93743],[127.0576,37.9375],[127.05753,37.9375]]]}},{"type":"Feature","properties":{"valleyId":"soyosan","layer":"shadow","date":"2026-08-01","timeLocal":"10:00"},"geometry":{"type":"Polygon","coordinates":[[[127.05742,37.93736],[127.05743,37.93728],[127.05749,37.93728],[127.05749,37.93736],[127.05742,37.93736]]]}},{"type":"Feature","properties":{"valleyId":"soyosan","layer":"shadow","date":"2026-08-01","timeLocal":"10:00"},"geometry":{"type":"Polygon","coordinates":[[[127.05791,37.93623],[127.05791,37.93616],[127.05798,37.93616],[127.05798,37.93623],[127.05791,37.93623]]]}},{"type":"Feature","properties":{"valleyId":"soyosan","layer":"shadow","date":"2026-08-01","timeLocal":"10:00"},"geometry":{"type":"Polygon","coordinates":[[[127.05581,37.93542],[127.05579,37.93533],[127.05588,37.93533],[127.05588,37.93542],[127.05581,37.93542]]]}}]}
