{"type":"FeatureCollection","metadata":{"description":"개방지(CHM ≤ 2 m)에 드리운 나무·지형 그림자, 2026-08-01 18:00 KST. canopy 위에 겹쳐 그린다","source":"위성 기반 추정 — Copernicus GLO-30 지형(30 m) + Meta/WRI 수관 높이(1 m CHM, 2019 촬영). 그늘 = 수관(CHM > 2 m) ∪ 나무·지형 그림자 ∪ 원거리 지형 마스크. 현장과 다를 수 있음.","datasetVersion":"2026-09-06.0","collectedAt":"2026-09-06","coordinateOrder":"[longitude, latitude]","crs":"EPSG:4326","representativeDate":"2026-08-01","hours":["10:00","11:00","12:00","13:00","14:00","15:00","16:00","17:00","18:00"],"chmAcquisition":["2019-03"],"assets":{"glo30":{"dataset":"Copernicus DEM GLO-30 (COG, s3://copernicus-dem-30m)","tiles":["Copernicus_DSM_COG_10_N37_00_E126_00_DEM","Copernicus_DSM_COG_10_N37_00_E127_00_DEM","Copernicus_DSM_COG_10_N38_00_E126_00_DEM","Copernicus_DSM_COG_10_N38_00_E127_00_DEM"]},"chm":{"dataset":"Meta/WRI Global Canopy Height Map v1 (alsgedi_global_v6_float, 1 m, CC-BY 4.0)","quadkeys":["132110302"],"acquisition":["2019-03"]}},"method":{"gridResM":2,"canopyThresholdM":2,"bufferHalfM":25,"corridorHalfM":200,"simplifyTolM":2,"minAreaM2":25,"coordDecimals":5},"generator":"scripts/shade 0.1.0","builtAt":"2026-09-06T06:07:02Z","layer":"shadow","timeLocal":"18:00"},"features":[{"type":"Feature","properties":{"valleyId":"soyosan","layer":"shadow","date":"2026-08-01","timeLocal":"18:00"},"geometry":{"type":"Polygon","coordinates":[[[127.06462,37.96047],[127.06463,37.96033],[127.06479,37.96035],[127.06478,37.9604],[127.06472,37.96042],[127.06471,37.96047],[127.06462,37.96047]]]}},{"type":"Feature","properties":{"valleyId":"soyosan","layer":"shadow","date":"2026-08-01","timeLocal":"18:00"},"geometry":{"type":"Polygon","coordinates":[[[127.06461,37.96022],[127.06461,37.96017],[127.06468,37.96017],[127.06468,37.96022],[127.06461,37.96022]]]}},{"type":"Feature","properties":{"valleyId":"soyosan","layer":"shadow","date":"2026-08-01","timeLocal":"18:00"},"geometry":{"type":"Polygon","coordinates":[[[127.06522,37.96032],[127.06522,37.96016],[127.06531,37.96016],[127.06536,37.96027],[127.06529,37.96032],[127.06522,37.96032]]]}},{"type":"Feature","properties":{"valleyId":"soyosan","layer":"shadow","date":"2026-08-01","timeLocal":"18:00"},"geometry":{"type":"Polygon","coordinates":[[[127.06484,37.96015],[127.06484,37.96006],[127.06491,37.96006],[127.06493,37.96013],[127.06484,37.96015]]]}},{"type":"Feature","properties":{"valleyId":"soyosan","layer":"shadow","date":"2026-08-01","timeLocal":"18:00"},"geometry":{"type":"Polygon","coordinates":[[[127.06516,37.96005],[127.06516,37.95999],[127.06525,37.96],[127.06525,37.96005],[127.06516,37.96005]]]}},{"type":"Feature","properties":{"valleyId":"soyosan","layer":"shadow","date":"2026-08-01","timeLocal":"18:00"},"geometry":{"type":"Polygon","coordinates":[[[127.06595,37.96015],[127.06595,37.9601],[127.06591,37.96006],[127.06591,37.96001],[127.06586,37.96001],[127.06587,37.95995],[127.06593,37.95995],[127.06593,37.96001],[127.066,37.96001],[127.06602,37.96015],[127.06595,37.96015]]]}},{"type":"Feature","properties":{"valleyId":"soyosan","layer":"shadow","date":"2026-08-01","timeLocal":"18:00"},"geometry":{"type":"Polygon","coordinates":[[[127.06541,37.95993],[127.06541,37.95987],[127.06548,37.95987],[127.06548,37.95993],[127.06541,37.95993]]]}},{"type":"Feature","properties":{"valleyId":"soyosan","layer":"shadow","date":"2026-08-01","timeLocal":"18:00"},"geometry":{"type":"Polygon","coordinates":[[[127.06614,37.95994],[127.06614,37.95987],[127.06623,37.95987],[127.06623,37.95992],[127.06614,37.95994]]]}},{"type":"Feature","properties":{"valleyId":"soyosan","layer":"shadow","date":"2026-08-01","timeLocal":"18:00"},"geometry":{"type":"Polygon","coordinates":[[[127.06568,37.95995],[127.06569,37.95991],[127.06564,37.95991],[127.06564,37.95986],[127.06573,37.95986],[127.06575,37.9599],[127.06575,37.95995],[127.06568,37.95995]]]}},{"type":"Feature","properties":{"valleyId":"soyosan","layer":"shadow","date":"2026-08-01","timeLocal":"18:00"},"geometry":{"type":"Polygon","coordinates":[[[127.06574,37.95972],[127.06569,37.95955],[127.06592,37.95956],[127.06592,37.95963],[127.06599,37.95963],[127.06601,37.95952],[127.06615,37.95952],[127.06615,37.95958],[127.06606,37.95959],[127.06606,37.95965],[127.06599,37.95965],[127.06599,37.95968],[127.06585,37.95968],[127.0658,37.95972],[127.06574,37.95972]]]}},{"type":"Feature","properties":{"valleyId":"soyosan","layer":"shadow","date":"2026-08-01","timeLocal":"18:00"},"geometry":{"type":"Polygon","coordinates":[[[127.06565,37.9595],[127.06565,37.95944],[127.06572,37.95944],[127.06572,37.9595],[127.06565,37.9595]]]}},{"type":"Feature","properties":{"valleyId":"soyosan","layer":"shadow","date":"2026-08-01","timeLocal":"18:00"},"geometry":{"type":"Polygon","coordinates":[[[127.06556,37.95944],[127.06556,37.95935],[127.06563,37.95935],[127.06563,37.95944],[127.06556,37.95944]]]}},{"type":"Feature","properties":{"valleyId":"soyosan","layer":"shadow","date":"2026-08-01","timeLocal":"18:00"},"geometry":{"type":"Polygon","coordinates":[[[127.06538,37.95938],[127.06538,37.95933],[127.06545,37.95933],[127.06545,37.95939],[127.06538,37.95938]]]}},{"type":"Feature","properties":{"valleyId":"soyosan","layer":"shadow","date":"2026-08-01","timeLocal":"18:00"},"geometry":{"type":"Polygon","coordinates":[[[127.06404,37.95936],[127.06404,37.95929],[127.06411,37.95929],[127.06411,37.95936],[127.06404,37.95936]]]}},{"type":"Feature","properties":{"valleyId":"soyosan","layer":"shadow","date":"2026-08-01","timeLocal":"18:00"},"geometry":{"type":"Polygon","coordinates":[[[127.06436,37.9594],[127.06434,37.9593],[127.06459,37.95932],[127.06458,37.95937],[127.06436,37.9594]]]}},{"type":"Feature","properties":{"valleyId":"soyosan","layer":"shadow","date":"2026-08-01","timeLocal":"18:00"},"geometry":{"type":"Polygon","coordinates":[[[127.06486,37.95943],[127.06486,37.95936],[127.06474,37.95934],[127.06475,37.95925],[127.06486,37.95925],[127.06488,37.95934],[127.06499,37.95934],[127.065,37.95923],[127.06511,37.95924],[127.06511,37.95938],[127.06486,37.95943]]]}},{"type":"Feature","properties":{"valleyId":"soyosan","layer":"shadow","date":"2026-08-01","timeLocal":"18:00"},"geometry":{"type":"Polygon","coordinates":[[[127.06019,37.95921],[127.06017,37.95914],[127.06027,37.95914],[127.06026,37.95921],[127.06019,37.95921]]]}},{"type":"Feature","properties":{"valleyId":"soyosan","layer":"shadow","date":"2026-08-01","timeLocal":"18:00"},"geometry":{"type":"Polygon","coordinates":[[[127.0657,37.95925],[127.06573,37.95908],[127.0658,37.95909],[127.06579,37.95925],[127.0657,37.95925]]]}},{"type":"Feature","properties":{"valleyId":"soyosan","layer":"shadow","date":"2026-08-01","timeLocal":"18:00"},"geometry":{"type":"Polygon","coordinates":[[[127.06548,37.95919],[127.06546,37.95904],[127.06555,37.95905],[127.06555,37.95908],[127.06562,37.9591],[127.06561,37.95915],[127.06548,37.95919]]]}},{"type":"Feature","properties":{"valleyId":"soyosan","layer":"shadow","date":"2026-08-01","timeLocal":"18:00"},"geometry":{"type":"Polygon","coordinates":[[[127.05885,37.9593],[127.05883,37.95922],[127.05874,37.9592],[127.05867,37.95915],[127.05867,37.95911],[127.05858,37.95906],[127.05858,37.95902],[127.05849,37.95895],[127.0585,37.95887],[127.05875,37.95888],[127.05876,37.95911],[127.05881,37.95911],[127.05881,37.95917],[127.05901,37.95921],[127.05901,37.95928],[127.05885,37.9593]]]}},{"type":"Feature","properties":{"valleyId":"soyosan","layer":"shadow","date":"2026-08-01","timeLocal":"18:00"},"geometry":{"type":"Polygon","coordinates":[[[127.06013,37.95892],[127.06014,37.95883],[127.06048,37.95882],[127.06048,37.95889],[127.06013,37.95892]]]}},{"type":"Feature","properties":{"valleyId":"soyosan","layer":"shadow","date":"2026-08-01","timeLocal":"18:00"},"geometry":{"type":"Polygon","coordinates":[[[127.06373,37.95887],[127.06373,37.95878],[127.0638,37.95878],[127.06382,37.95887],[127.06373,37.95887]]]}},{"type":"Feature","properties":{"valleyId":"soyosan","layer":"shadow","date":"2026-08-01","timeLocal":"18:00"},"geometry":{"type":"Polygon","coordinates":[[[127.05834,37.95871],[127.05832,37.9586],[127.05841,37.9586],[127.05841,37.95871],[127.05834,37.95871]]]}},{"type":"Feature","properties":{"valleyId":"soyosan","layer":"shadow","date":"2026-08-01","timeLocal":"18:00"},"geometry":{"type":"Polygon","coordinates":[[[127.06663,37.95879],[127.06663,37.95863],[127.06672,37.95863],[127.06669,37.95879],[127.06663,37.95879]]]}},{"type":"Feature","properties":{"valleyId":"soyosan","layer":"shadow","date":"2026-08-01","timeLocal":"18:00"},"geometry":{"type":"Polygon","coordinates":[[[127.06547,37.95868],[127.06547,37.95858],[127.06572,37.95858],[127.06572,37.95865],[127.06558,37.95865],[127.06558,37.95869],[127.06547,37.95868]]]}},{"type":"Feature","properties":{"valleyId":"soyosan","layer":"shadow","date":"2026-08-01","timeLocal":"18:00"},"geometry":{"type":"Polygon","coordinates":[[[127.05934,37.95869],[127.05928,37.95847],[127.05921,37.95847],[127.05923,37.95858],[127.05907,37.95861],[127.05912,37.95843],[127.05937,37.95842],[127.0594,37.95846],[127.05949,37.95846],[127.05955,37.9585],[127.05955,37.95855],[127.05948,37.95857],[127.0595,37.95868],[127.05934,37.95869]]]}},{"type":"Feature","properties":{"valleyId":"soyosan","layer":"shadow","date":"2026-08-01","timeLocal":"18:00"},"geometry":{"type":"Polygon","coordinates":[[[127.05851,37.95846],[127.05851,37.95841],[127.05858,37.95841],[127.05858,37.95846],[127.05851,37.95846]]]}},{"type":"Feature","properties":{"valleyId":"soyosan","layer":"shadow","date":"2026-08-01","timeLocal":"18:00"},"geometry":{"type":"Polygon","coordinates":[[[127.06397,37.95857],[127.06397,37.95841],[127.06406,37.95841],[127.06408,37.9585],[127.06413,37.9585],[127.06413,37.95855],[127.06397,37.95857]]]}},{"type":"Feature","properties":{"valleyId":"soyosan","layer":"shadow","date":"2026-08-01","timeLocal":"18:00"},"geometry":{"type":"Polygon","coordinates":[[[127.0644,37.9585],[127.0644,37.95847],[127.06427,37.95847],[127.06427,37.95841],[127.06445,37.95841],[127.06447,37.9585],[127.0644,37.9585]]]}},{"type":"Feature","properties":{"valleyId":"soyosan","layer":"shadow","date":"2026-08-01","timeLocal":"18:00"},"geometry":{"type":"Polygon","coordinates":[[[127.06568,37.95849],[127.06568,37.95843],[127.06577,37.95844],[127.06577,37.95849],[127.06568,37.95849]]]}},{"type":"Feature","properties":{"valleyId":"soyosan","layer":"shadow","date":"2026-08-01","timeLocal":"18:00"},"geometry":{"type":"Polygon","coordinates":[[[127.06492,37.95853],[127.06493,37.9584],[127.06502,37.95841],[127.06499,37.95853],[127.06492,37.95853]]]}},{"type":"Feature","properties":{"valleyId":"soyosan","layer":"shadow","date":"2026-08-01","timeLocal":"18:00"},"geometry":{"type":"Polygon","coordinates":[[[127.06536,37.9585],[127.06536,37.95841],[127.06554,37.95841],[127.06552,37.95849],[127.06536,37.9585]]]}},{"type":"Feature","properties":{"valleyId":"soyosan","layer":"shadow","date":"2026-08-01","timeLocal":"18:00"},"geometry":{"type":"Polygon","coordinates":[[[127.0596,37.95841],[127.0596,37.95832],[127.0602,37.95831],[127.06019,37.95836],[127.06008,37.95836],[127.06003,37.9584],[127.0596,37.95841]]]}},{"type":"Feature","properties":{"valleyId":"soyosan","layer":"shadow","date":"2026-08-01","timeLocal":"18:00"},"geometry":{"type":"Polygon","coordinates":[[[127.06468,37.95844],[127.06466,37.95836],[127.06479,37.95838],[127.06479,37.95844],[127.06468,37.95844]]]}},{"type":"Feature","properties":{"valleyId":"soyosan","layer":"shadow","date":"2026-08-01","timeLocal":"18:00"},"geometry":{"type":"Polygon","coordinates":[[[127.06654,37.9585],[127.06654,37.95843],[127.06648,37.95834],[127.06648,37.95823],[127.06655,37.95823],[127.06659,37.95827],[127.06659,37.95836],[127.0667,37.9584],[127.0667,37.95847],[127.06654,37.9585]]]}},{"type":"Feature","properties":{"valleyId":"soyosan","layer":"shadow","date":"2026-08-01","timeLocal":"18:00"},"geometry":{"type":"Polygon","coordinates":[[[127.05851,37.95819],[127.05852,37.95808],[127.05861,37.95808],[127.05861,37.95819],[127.05851,37.95819]]]}},{"type":"Feature","properties":{"valleyId":"soyosan","layer":"shadow","date":"2026-08-01","timeLocal":"18:00"},"geometry":{"type":"Polygon","coordinates":[[[127.05938,37.9581],[127.05938,37.95802],[127.05954,37.95803],[127.05954,37.95808],[127.05938,37.9581]]]}},{"type":"Feature","properties":{"valleyId":"soyosan","layer":"shadow","date":"2026-08-01","timeLocal":"18:00"},"geometry":{"type":"Polygon","coordinates":[[[127.0627,37.95815],[127.06268,37.95802],[127.06278,37.95803],[127.06279,37.95815],[127.0627,37.95815]]]}},{"type":"Feature","properties":{"valleyId":"soyosan","layer":"shadow","date":"2026-08-01","timeLocal":"18:00"},"geometry":{"type":"Polygon","coordinates":[[[127.06669,37.95814],[127.06667,37.95805],[127.06674,37.95806],[127.06678,37.95809],[127.06678,37.95815],[127.06669,37.95814]]]}},{"type":"Feature","properties":{"valleyId":"soyosan","layer":"shadow","date":"2026-08-01","timeLocal":"18:00"},"geometry":{"type":"Polygon","coordinates":[[[127.05982,37.95798],[127.05982,37.95785],[127.06014,37.95786],[127.06014,37.95791],[127.06005,37.95791],[127.06005,37.95795],[127.05991,37.95794],[127.05989,37.95798],[127.05982,37.95798]]]}},{"type":"Feature","properties":{"valleyId":"soyosan","layer":"shadow","date":"2026-08-01","timeLocal":"18:00"},"geometry":{"type":"Polygon","coordinates":[[[127.06569,37.95793],[127.06569,37.95788],[127.06576,37.95788],[127.06576,37.95793],[127.06569,37.95793]]]}},{"type":"Feature","properties":{"valleyId":"soyosan","layer":"shadow","date":"2026-08-01","timeLocal":"18:00"},"geometry":{"type":"Polygon","coordinates":[[[127.06317,37.9578],[127.06317,37.95773],[127.06324,37.95773],[127.06324,37.9578],[127.06317,37.9578]]]}},{"type":"Feature","properties":{"valleyId":"soyosan","layer":"shadow","date":"2026-08-01","timeLocal":"18:00"},"geometry":{"type":"Polygon","coordinates":[[[127.0644,37.95767],[127.0644,37.95762],[127.06449,37.95762],[127.06449,37.95768],[127.0644,37.95767]]]}},{"type":"Feature","properties":{"valleyId":"soyosan","layer":"shadow","date":"2026-08-01","timeLocal":"18:00"},"geometry":{"type":"Polygon","coordinates":[[[127.06461,37.95761],[127.06461,37.95755],[127.06468,37.95755],[127.06468,37.95761],[127.06461,37.95761]]]}},{"type":"Feature","properties":{"valleyId":"soyosan","layer":"shadow","date":"2026-08-01","timeLocal":"18:00"},"geometry":{"type":"Polygon","coordinates":[[[127.06462,37.95795],[127.0646,37.95773],[127.06458,37.9577],[127.06454,37.95769],[127.06454,37.95764],[127.06465,37.95764],[127.06465,37.9577],[127.06476,37.9577],[127.06481,37.95768],[127.06484,37.95756],[127.06488,37.95754],[127.06525,37.95754],[127.06525,37.9576],[127.06518,37.9576],[127.06518,37.95763],[127.06488,37.95766],[127.06488,37.9577],[127.06483,37.9577],[127.06483,37.95777],[127.06499,37.95779],[127.06499,37.95785],[127.06487,37.95786],[127.06487,37.9579],[127.06474,37.95791],[127.06471,37.95795],[127.06462,37.95795]]]}},{"type":"Feature","properties":{"valleyId":"soyosan","layer":"shadow","date":"2026-08-01","timeLocal":"18:00"},"geometry":{"type":"Polygon","coordinates":[[[127.06071,37.95599],[127.06071,37.95594],[127.06078,37.95594],[127.06078,37.95599],[127.06071,37.95599]]]}},{"type":"Feature","properties":{"valleyId":"soyosan","layer":"shadow","date":"2026-08-01","timeLocal":"18:00"},"geometry":{"type":"Polygon","coordinates":[[[127.06145,37.95546],[127.06146,37.95539],[127.06162,37.95538],[127.06159,37.95547],[127.06145,37.95546]]]}},{"type":"Feature","properties":{"valleyId":"soyosan","layer":"shadow","date":"2026-08-01","timeLocal":"18:00"},"geometry":{"type":"Polygon","coordinates":[[[127.05811,37.95817],[127.05751,37.95643],[127.05752,37.95634],[127.05743,37.95612],[127.05729,37.95545],[127.05725,37.95538],[127.05717,37.95474],[127.05724,37.95474],[127.05724,37.95478],[127.05731,37.95484],[127.05728,37.95496],[127.05735,37.95502],[127.05744,37.95502],[127.05746,37.95505],[127.0575,37.95506],[127.05757,37.95513],[127.05766,37.95515],[127.05766,37.95518],[127.05779,37.95529],[127.05779,37.95533],[127.05816,37.95535],[127.05818,37.95546],[127.0584,37.95548],[127.05849,37.95554],[127.05861,37.95556],[127.05861,37.9556],[127.05867,37.9556],[127.05867,37.95574],[127.05874,37.95576],[127.05878,37.95582],[127.0589,37.95584],[127.05892,37.95587],[127.05892,37.95593],[127.05882,37.95594],[127.0588,37.95672],[127.05862,37.95671],[127.05855,37.95682],[127.05855,37.95693],[127.05845,37.957],[127.05843,37.95779],[127.05832,37.95779],[127.05827,37.95793],[127.05822,37.95795],[127.05822,37.9581],[127.05817,37.95817],[127.05811,37.95817]]]}},{"type":"Feature","properties":{"valleyId":"soyosan","layer":"shadow","date":"2026-08-01","timeLocal":"18:00"},"geometry":{"type":"Polygon","coordinates":[[[127.0618,37.9535],[127.06178,37.95341],[127.06185,37.95341],[127.06187,37.95351],[127.0618,37.9535]]]}},{"type":"Feature","properties":{"valleyId":"soyosan","layer":"shadow","date":"2026-08-01","timeLocal":"18:00"},"geometry":{"type":"Polygon","coordinates":[[[127.06167,37.9524],[127.06167,37.95235],[127.06174,37.95235],[127.06174,37.9524],[127.06167,37.9524]]]}},{"type":"Feature","properties":{"valleyId":"soyosan","layer":"shadow","date":"2026-08-01","timeLocal":"18:00"},"geometry":{"type":"Polygon","coordinates":[[[127.06161,37.95228],[127.06161,37.95217],[127.06168,37.95217],[127.06167,37.95228],[127.06161,37.95228]]]}},{"type":"Feature","properties":{"valleyId":"soyosan","layer":"shadow","date":"2026-08-01","timeLocal":"18:00"},"geometry":{"type":"Polygon","coordinates":[[[127.06163,37.95215],[127.06168,37.95201],[127.06175,37.95201],[127.06172,37.95213],[127.06163,37.95215]]]}},{"type":"Feature","properties":{"valleyId":"soyosan","layer":"shadow","date":"2026-08-01","timeLocal":"18:00"},"geometry":{"type":"Polygon","coordinates":[[[127.06168,37.9519],[127.06169,37.95179],[127.06176,37.95179],[127.06175,37.9519],[127.06168,37.9519]]]}},{"type":"Feature","properties":{"valleyId":"soyosan","layer":"shadow","date":"2026-08-01","timeLocal":"18:00"},"geometry":{"type":"Polygon","coordinates":[[[127.06413,37.95156],[127.06413,37.95149],[127.06424,37.95149],[127.06422,37.95156],[127.06413,37.95156]]]}},{"type":"Feature","properties":{"valleyId":"soyosan","layer":"shadow","date":"2026-08-01","timeLocal":"18:00"},"geometry":{"type":"Polygon","coordinates":[[[127.06031,37.95132],[127.06031,37.95126],[127.06038,37.95126],[127.06038,37.95132],[127.06031,37.95132]]]}},{"type":"Feature","properties":{"valleyId":"soyosan","layer":"shadow","date":"2026-08-01","timeLocal":"18:00"},"geometry":{"type":"Polygon","coordinates":[[[127.0609,37.95134],[127.0609,37.95125],[127.06104,37.95126],[127.06104,37.95131],[127.0609,37.95134]]]}},{"type":"Feature","properties":{"valleyId":"soyosan","layer":"shadow","date":"2026-08-01","timeLocal":"18:00"},"geometry":{"type":"Polygon","coordinates":[[[127.05753,37.95307],[127.05754,37.95298],[127.05742,37.95296],[127.05741,37.95262],[127.05734,37.95253],[127.05733,37.95226],[127.05737,37.95224],[127.0574,37.95204],[127.05733,37.95201],[127.05731,37.95195],[127.05732,37.95177],[127.05741,37.95177],[127.05741,37.95165],[127.05737,37.95161],[127.05737,37.95148],[127.05733,37.95145],[127.05731,37.95136],[127.05731,37.95116],[127.05792,37.95124],[127.05797,37.9513],[127.05826,37.9513],[127.05826,37.95143],[127.05842,37.9515],[127.05846,37.95157],[127.0586,37.95158],[127.05858,37.95212],[127.05847,37.95212],[127.05847,37.95217],[127.0584,37.95217],[127.0584,37.9522],[127.05835,37.95222],[127.05823,37.95265],[127.05816,37.95265],[127.05816,37.95271],[127.05811,37.95274],[127.058,37.95276],[127.05797,37.95279],[127.05788,37.95279],[127.05785,37.95302],[127.05772,37.95304],[127.05769,37.95308],[127.05753,37.95307]],[[127.05812,37.95245],[127.05819,37.95245],[127.05819,37.95238],[127.05812,37.95238],[127.05812,37.95245]]]}},{"type":"Feature","properties":{"valleyId":"soyosan","layer":"shadow","date":"2026-08-01","timeLocal":"18:00"},"geometry":{"type":"Polygon","coordinates":[[[127.06059,37.95123],[127.06059,37.95114],[127.06073,37.95114],[127.06072,37.9512],[127.06068,37.95123],[127.06059,37.95123]]]}},{"type":"Feature","properties":{"valleyId":"soyosan","layer":"shadow","date":"2026-08-01","timeLocal":"18:00"},"geometry":{"type":"Polygon","coordinates":[[[127.06568,37.95137],[127.06564,37.95122],[127.06578,37.95123],[127.06577,37.95135],[127.06568,37.95137]]]}},{"type":"Feature","properties":{"valleyId":"soyosan","layer":"shadow","date":"2026-08-01","timeLocal":"18:00"},"geometry":{"type":"Polygon","coordinates":[[[127.06555,37.9512],[127.06555,37.95115],[127.06562,37.95115],[127.06562,37.95121],[127.06555,37.9512]]]}},{"type":"Feature","properties":{"valleyId":"soyosan","layer":"shadow","date":"2026-08-01","timeLocal":"18:00"},"geometry":{"type":"Polygon","coordinates":[[[127.06145,37.95112],[127.06146,37.95105],[127.06162,37.95105],[127.06161,37.9511],[127.06145,37.95112]]]}},{"type":"Feature","properties":{"valleyId":"soyosan","layer":"shadow","date":"2026-08-01","timeLocal":"18:00"},"geometry":{"type":"Polygon","coordinates":[[[127.06598,37.95119],[127.06598,37.95112],[127.06605,37.95112],[127.06605,37.9512],[127.06598,37.95119]]]}},{"type":"Feature","properties":{"valleyId":"soyosan","layer":"shadow","date":"2026-08-01","timeLocal":"18:00"},"geometry":{"type":"Polygon","coordinates":[[[127.06637,37.9512],[127.06637,37.95113],[127.06648,37.95115],[127.06648,37.9512],[127.06637,37.9512]]]}},{"type":"Feature","properties":{"valleyId":"soyosan","layer":"shadow","date":"2026-08-01","timeLocal":"18:00"},"geometry":{"type":"Polygon","coordinates":[[[127.0605,37.95112],[127.0605,37.95101],[127.06059,37.95102],[127.06059,37.95112],[127.0605,37.95112]]]}},{"type":"Feature","properties":{"valleyId":"soyosan","layer":"shadow","date":"2026-08-01","timeLocal":"18:00"},"geometry":{"type":"Polygon","coordinates":[[[127.06061,37.95103],[127.06062,37.95096],[127.06068,37.95096],[127.06068,37.95103],[127.06061,37.95103]]]}},{"type":"Feature","properties":{"valleyId":"soyosan","layer":"shadow","date":"2026-08-01","timeLocal":"18:00"},"geometry":{"type":"Polygon","coordinates":[[[127.05748,37.95084],[127.05748,37.95078],[127.05755,37.95078],[127.05755,37.95084],[127.05748,37.95084]]]}},{"type":"Feature","properties":{"valleyId":"soyosan","layer":"shadow","date":"2026-08-01","timeLocal":"18:00"},"geometry":{"type":"Polygon","coordinates":[[[127.06661,37.95074],[127.06661,37.95066],[127.06668,37.95066],[127.06668,37.95074],[127.06661,37.95074]]]}},{"type":"Feature","properties":{"valleyId":"soyosan","layer":"shadow","date":"2026-08-01","timeLocal":"18:00"},"geometry":{"type":"Polygon","coordinates":[[[127.05807,37.95085],[127.05801,37.95061],[127.05796,37.95061],[127.05794,37.95057],[127.05794,37.9505],[127.05801,37.9505],[127.05803,37.95058],[127.05812,37.95061],[127.05812,37.95069],[127.05817,37.9507],[127.05816,37.95083],[127.05807,37.95085]]]}},{"type":"Feature","properties":{"valleyId":"soyosan","layer":"shadow","date":"2026-08-01","timeLocal":"18:00"},"geometry":{"type":"Polygon","coordinates":[[[127.06033,37.95058],[127.06033,37.95047],[127.06042,37.95047],[127.0604,37.95058],[127.06033,37.95058]]]}},{"type":"Feature","properties":{"valleyId":"soyosan","layer":"shadow","date":"2026-08-01","timeLocal":"18:00"},"geometry":{"type":"Polygon","coordinates":[[[127.06052,37.95046],[127.06052,37.95038],[127.06059,37.95038],[127.06058,37.95046],[127.06052,37.95046]]]}},{"type":"Feature","properties":{"valleyId":"soyosan","layer":"shadow","date":"2026-08-01","timeLocal":"18:00"},"geometry":{"type":"Polygon","coordinates":[[[127.0614,37.95049],[127.06141,37.95038],[127.06156,37.9504],[127.06154,37.95047],[127.0614,37.95049]]]}},{"type":"Feature","properties":{"valleyId":"soyosan","layer":"shadow","date":"2026-08-01","timeLocal":"18:00"},"geometry":{"type":"Polygon","coordinates":[[[127.06368,37.95033],[127.06368,37.95027],[127.06375,37.95027],[127.06375,37.95033],[127.06368,37.95033]]]}},{"type":"Feature","properties":{"valleyId":"soyosan","layer":"shadow","date":"2026-08-01","timeLocal":"18:00"},"geometry":{"type":"Polygon","coordinates":[[[127.06382,37.95024],[127.06382,37.95017],[127.06396,37.95019],[127.06396,37.95024],[127.06382,37.95024]]]}},{"type":"Feature","properties":{"valleyId":"soyosan","layer":"shadow","date":"2026-08-01","timeLocal":"18:00"},"geometry":{"type":"Polygon","coordinates":[[[127.06178,37.95019],[127.06178,37.95013],[127.06184,37.95013],[127.06184,37.95019],[127.06178,37.95019]]]}},{"type":"Feature","properties":{"valleyId":"soyosan","layer":"shadow","date":"2026-08-01","timeLocal":"18:00"},"geometry":{"type":"Polygon","coordinates":[[[127.06148,37.95029],[127.06146,37.95002],[127.06153,37.95002],[127.06155,37.95009],[127.06164,37.95015],[127.06164,37.95026],[127.06157,37.95026],[127.06157,37.95029],[127.06148,37.95029]]]}},{"type":"Feature","properties":{"valleyId":"soyosan","layer":"shadow","date":"2026-08-01","timeLocal":"18:00"},"geometry":{"type":"Polygon","coordinates":[[[127.06366,37.95016],[127.06369,37.94995],[127.06378,37.94995],[127.06378,37.95002],[127.06374,37.95004],[127.06376,37.95015],[127.06366,37.95016]]]}},{"type":"Feature","properties":{"valleyId":"soyosan","layer":"shadow","date":"2026-08-01","timeLocal":"18:00"},"geometry":{"type":"Polygon","coordinates":[[[127.06758,37.95012],[127.06758,37.95001],[127.06765,37.95001],[127.06765,37.95012],[127.06758,37.95012]]]}},{"type":"Feature","properties":{"valleyId":"soyosan","layer":"shadow","date":"2026-08-01","timeLocal":"18:00"},"geometry":{"type":"Polygon","coordinates":[[[127.06712,37.95042],[127.06707,37.95036],[127.0671,37.95026],[127.06703,37.95024],[127.06701,37.95017],[127.06701,37.95011],[127.06706,37.95009],[127.06704,37.94997],[127.06715,37.94997],[127.06712,37.95017],[127.06717,37.95024],[127.06724,37.95028],[127.06723,37.9504],[127.06712,37.95042]]]}},{"type":"Feature","properties":{"valleyId":"soyosan","layer":"shadow","date":"2026-08-01","timeLocal":"18:00"},"geometry":{"type":"Polygon","coordinates":[[[127.06676,37.95],[127.06677,37.94995],[127.06683,37.94995],[127.06683,37.95],[127.06676,37.95]]]}},{"type":"Feature","properties":{"valleyId":"soyosan","layer":"shadow","date":"2026-08-01","timeLocal":"18:00"},"geometry":{"type":"Polygon","coordinates":[[[127.06001,37.94987],[127.06001,37.9498],[127.06012,37.9498],[127.0601,37.94987],[127.06001,37.94987]]]}},{"type":"Feature","properties":{"valleyId":"soyosan","layer":"shadow","date":"2026-08-01","timeLocal":"18:00"},"geometry":{"type":"Polygon","coordinates":[[[127.06331,37.94998],[127.06331,37.94982],[127.0634,37.94982],[127.0634,37.94985],[127.06347,37.94985],[127.06347,37.94991],[127.06338,37.94993],[127.06337,37.94998],[127.06331,37.94998]]]}},{"type":"Feature","properties":{"valleyId":"soyosan","layer":"shadow","date":"2026-08-01","timeLocal":"18:00"},"geometry":{"type":"Polygon","coordinates":[[[127.0675,37.94987],[127.0675,37.94981],[127.06757,37.94981],[127.06756,37.94987],[127.0675,37.94987]]]}},{"type":"Feature","properties":{"valleyId":"soyosan","layer":"shadow","date":"2026-08-01","timeLocal":"18:00"},"geometry":{"type":"Polygon","coordinates":[[[127.0665,37.94974],[127.0665,37.94969],[127.06659,37.94969],[127.06659,37.94974],[127.0665,37.94974]]]}},{"type":"Feature","properties":{"valleyId":"soyosan","layer":"shadow","date":"2026-08-01","timeLocal":"18:00"},"geometry":{"type":"Polygon","coordinates":[[[127.06641,37.94945],[127.06642,37.9494],[127.06648,37.9494],[127.06648,37.94945],[127.06641,37.94945]]]}},{"type":"Feature","properties":{"valleyId":"soyosan","layer":"shadow","date":"2026-08-01","timeLocal":"18:00"},"geometry":{"type":"Polygon","coordinates":[[[127.06333,37.94911],[127.06333,37.94906],[127.06342,37.94906],[127.06342,37.94912],[127.06333,37.94911]]]}},{"type":"Feature","properties":{"valleyId":"soyosan","layer":"shadow","date":"2026-08-01","timeLocal":"18:00"},"geometry":{"type":"Polygon","coordinates":[[[127.06342,37.94899],[127.06342,37.9489],[127.06361,37.9489],[127.06361,37.94896],[127.06342,37.94899]]]}},{"type":"Feature","properties":{"valleyId":"soyosan","layer":"shadow","date":"2026-08-01","timeLocal":"18:00"},"geometry":{"type":"Polygon","coordinates":[[[127.06099,37.94812],[127.06099,37.94807],[127.06106,37.94807],[127.06106,37.94812],[127.06099,37.94812]]]}},{"type":"Feature","properties":{"valleyId":"soyosan","layer":"shadow","date":"2026-08-01","timeLocal":"18:00"},"geometry":{"type":"Polygon","coordinates":[[[127.05826,37.94804],[127.05826,37.94798],[127.05837,37.94799],[127.05837,37.94804],[127.05826,37.94804]]]}},{"type":"Feature","properties":{"valleyId":"soyosan","layer":"shadow","date":"2026-08-01","timeLocal":"18:00"},"geometry":{"type":"Polygon","coordinates":[[[127.06142,37.94802],[127.06142,37.94796],[127.06149,37.94797],[127.06149,37.94802],[127.06142,37.94802]]]}},{"type":"Feature","properties":{"valleyId":"soyosan","layer":"shadow","date":"2026-08-01","timeLocal":"18:00"},"geometry":{"type":"Polygon","coordinates":[[[127.06138,37.94787],[127.06138,37.94782],[127.06147,37.94782],[127.06147,37.94788],[127.06138,37.94787]]]}},{"type":"Feature","properties":{"valleyId":"soyosan","layer":"shadow","date":"2026-08-01","timeLocal":"18:00"},"geometry":{"type":"Polygon","coordinates":[[[127.05818,37.94757],[127.05818,37.94748],[127.05825,37.94748],[127.05825,37.94757],[127.05818,37.94757]]]}},{"type":"Feature","properties":{"valleyId":"soyosan","layer":"shadow","date":"2026-08-01","timeLocal":"18:00"},"geometry":{"type":"Polygon","coordinates":[[[127.05779,37.94753],[127.0578,37.94745],[127.05786,37.94746],[127.05786,37.94753],[127.05779,37.94753]]]}},{"type":"Feature","properties":{"valleyId":"soyosan","layer":"shadow","date":"2026-08-01","timeLocal":"18:00"},"geometry":{"type":"Polygon","coordinates":[[[127.05766,37.94738],[127.05766,37.94731],[127.05769,37.94727],[127.05773,37.94727],[127.05778,37.94715],[127.05787,37.94715],[127.05789,37.94733],[127.05766,37.94738]]]}},{"type":"Feature","properties":{"valleyId":"soyosan","layer":"shadow","date":"2026-08-01","timeLocal":"18:00"},"geometry":{"type":"Polygon","coordinates":[[[127.06071,37.94739],[127.06069,37.94718],[127.06078,37.94718],[127.06078,37.9474],[127.06071,37.94739]]]}},{"type":"Feature","properties":{"valleyId":"soyosan","layer":"shadow","date":"2026-08-01","timeLocal":"18:00"},"geometry":{"type":"Polygon","coordinates":[[[127.06762,37.94699],[127.06764,37.9469],[127.06773,37.9469],[127.06773,37.94697],[127.06762,37.94699]]]}},{"type":"Feature","properties":{"valleyId":"soyosan","layer":"shadow","date":"2026-08-01","timeLocal":"18:00"},"geometry":{"type":"Polygon","coordinates":[[[127.0633,37.94681],[127.0633,37.9467],[127.06344,37.9467],[127.06341,37.94679],[127.0633,37.94681]]]}},{"type":"Feature","properties":{"valleyId":"soyosan","layer":"shadow","date":"2026-08-01","timeLocal":"18:00"},"geometry":{"type":"Polygon","coordinates":[[[127.06065,37.94711],[127.06066,37.94691],[127.06062,37.94665],[127.06068,37.94666],[127.06073,37.94669],[127.06072,37.94685],[127.06088,37.94687],[127.06086,37.94695],[127.0607,37.947],[127.06072,37.94711],[127.06065,37.94711]]]}},{"type":"Feature","properties":{"valleyId":"soyosan","layer":"shadow","date":"2026-08-01","timeLocal":"18:00"},"geometry":{"type":"Polygon","coordinates":[[[127.0641,37.9466],[127.0641,37.94655],[127.06417,37.94655],[127.06417,37.9466],[127.0641,37.9466]]]}},{"type":"Feature","properties":{"valleyId":"soyosan","layer":"shadow","date":"2026-08-01","timeLocal":"18:00"},"geometry":{"type":"Polygon","coordinates":[[[127.06444,37.94659],[127.06442,37.9465],[127.06449,37.9465],[127.06451,37.94659],[127.06444,37.94659]]]}},{"type":"Feature","properties":{"valleyId":"soyosan","layer":"shadow","date":"2026-08-01","timeLocal":"18:00"},"geometry":{"type":"Polygon","coordinates":[[[127.05755,37.94642],[127.05755,37.94635],[127.05764,37.94635],[127.05764,37.94641],[127.05755,37.94642]]]}},{"type":"Feature","properties":{"valleyId":"soyosan","layer":"shadow","date":"2026-08-01","timeLocal":"18:00"},"geometry":{"type":"Polygon","coordinates":[[[127.05689,37.94629],[127.05689,37.94623],[127.05696,37.94623],[127.05696,37.94629],[127.05689,37.94629]]]}},{"type":"Feature","properties":{"valleyId":"soyosan","layer":"shadow","date":"2026-08-01","timeLocal":"18:00"},"geometry":{"type":"Polygon","coordinates":[[[127.06899,37.94659],[127.06895,37.94654],[127.06888,37.94652],[127.06888,37.94648],[127.06884,37.94648],[127.06884,37.94643],[127.06911,37.94645],[127.06906,37.94659],[127.06899,37.94659]]]}},{"type":"Feature","properties":{"valleyId":"soyosan","layer":"shadow","date":"2026-08-01","timeLocal":"18:00"},"geometry":{"type":"Polygon","coordinates":[[[127.0568,37.94625],[127.05674,37.94621],[127.05674,37.94616],[127.05687,37.9462],[127.05687,37.94625],[127.0568,37.94625]]]}},{"type":"Feature","properties":{"valleyId":"soyosan","layer":"shadow","date":"2026-08-01","timeLocal":"18:00"},"geometry":{"type":"Polygon","coordinates":[[[127.05789,37.94648],[127.05787,37.94634],[127.05776,37.94628],[127.05772,37.94617],[127.05799,37.94621],[127.05798,37.94634],[127.05803,37.94636],[127.05803,37.94645],[127.05789,37.94648]]]}},{"type":"Feature","properties":{"valleyId":"soyosan","layer":"shadow","date":"2026-08-01","timeLocal":"18:00"},"geometry":{"type":"Polygon","coordinates":[[[127.05842,37.9464],[127.05842,37.94629],[127.05835,37.94624],[127.05828,37.94624],[127.05822,37.94618],[127.05822,37.94613],[127.05854,37.94611],[127.05865,37.94615],[127.05864,37.94631],[127.05851,37.94637],[127.05848,37.9464],[127.05842,37.9464]]]}},{"type":"Feature","properties":{"valleyId":"soyosan","layer":"shadow","date":"2026-08-01","timeLocal":"18:00"},"geometry":{"type":"Polygon","coordinates":[[[127.06909,37.94636],[127.06909,37.94629],[127.06916,37.94629],[127.06916,37.94636],[127.06909,37.94636]]]}},{"type":"Feature","properties":{"valleyId":"soyosan","layer":"shadow","date":"2026-08-01","timeLocal":"18:00"},"geometry":{"type":"Polygon","coordinates":[[[127.06898,37.94632],[127.06898,37.94627],[127.06905,37.94627],[127.06905,37.94632],[127.06898,37.94632]]]}},{"type":"Feature","properties":{"valleyId":"soyosan","layer":"shadow","date":"2026-08-01","timeLocal":"18:00"},"geometry":{"type":"Polygon","coordinates":[[[127.06875,37.94634],[127.06873,37.94625],[127.06884,37.94625],[127.06886,37.94632],[127.06875,37.94634]]]}},{"type":"Feature","properties":{"valleyId":"soyosan","layer":"shadow","date":"2026-08-01","timeLocal":"18:00"},"geometry":{"type":"Polygon","coordinates":[[[127.0566,37.94616],[127.05658,37.94603],[127.05676,37.94605],[127.05674,37.94616],[127.0566,37.94616]]]}},{"type":"Feature","properties":{"valleyId":"soyosan","layer":"shadow","date":"2026-08-01","timeLocal":"18:00"},"geometry":{"type":"Polygon","coordinates":[[[127.06834,37.9462],[127.06835,37.94613],[127.06841,37.94613],[127.06841,37.94621],[127.06834,37.9462]]]}},{"type":"Feature","properties":{"valleyId":"soyosan","layer":"shadow","date":"2026-08-01","timeLocal":"18:00"},"geometry":{"type":"Polygon","coordinates":[[[127.06852,37.94626],[127.06857,37.94612],[127.06864,37.94612],[127.06866,37.94626],[127.06852,37.94626]]]}},{"type":"Feature","properties":{"valleyId":"soyosan","layer":"shadow","date":"2026-08-01","timeLocal":"18:00"},"geometry":{"type":"Polygon","coordinates":[[[127.06819,37.94617],[127.06819,37.94611],[127.06828,37.94611],[127.06828,37.94617],[127.06819,37.94617]]]}},{"type":"Feature","properties":{"valleyId":"soyosan","layer":"shadow","date":"2026-08-01","timeLocal":"18:00"},"geometry":{"type":"Polygon","coordinates":[[[127.05754,37.94601],[127.05752,37.94594],[127.05745,37.94593],[127.05745,37.94586],[127.05754,37.94586],[127.05754,37.94594],[127.05761,37.94594],[127.05761,37.94601],[127.05754,37.94601]]]}},{"type":"Feature","properties":{"valleyId":"soyosan","layer":"shadow","date":"2026-08-01","timeLocal":"18:00"},"geometry":{"type":"Polygon","coordinates":[[[127.06787,37.94611],[127.06787,37.94603],[127.06798,37.94604],[127.06798,37.94611],[127.06787,37.94611]]]}},{"type":"Feature","properties":{"valleyId":"soyosan","layer":"shadow","date":"2026-08-01","timeLocal":"18:00"},"geometry":{"type":"Polygon","coordinates":[[[127.06753,37.94606],[127.06735,37.94603],[127.06735,37.94597],[127.06755,37.94598],[127.06764,37.94601],[127.06764,37.94607],[127.06753,37.94606]]]}},{"type":"Feature","properties":{"valleyId":"soyosan","layer":"shadow","date":"2026-08-01","timeLocal":"18:00"},"geometry":{"type":"Polygon","coordinates":[[[127.05813,37.94609],[127.05811,37.94595],[127.05793,37.94582],[127.05793,37.94576],[127.05823,37.94577],[127.05825,37.9458],[127.05839,37.94581],[127.05841,37.94586],[127.05852,37.94586],[127.05854,37.94592],[127.05861,37.94592],[127.05859,37.94599],[127.05847,37.94599],[127.05847,37.94602],[127.05833,37.94602],[127.0582,37.94606],[127.0582,37.94609],[127.05813,37.94609]]]}},{"type":"Feature","properties":{"valleyId":"soyosan","layer":"shadow","date":"2026-08-01","timeLocal":"18:00"},"geometry":{"type":"Polygon","coordinates":[[[127.0572,37.94595],[127.0572,37.94591],[127.05704,37.94578],[127.05704,37.94573],[127.0572,37.94573],[127.05723,37.94577],[127.05727,37.94577],[127.05729,37.94595],[127.0572,37.94595]]]}},{"type":"Feature","properties":{"valleyId":"soyosan","layer":"shadow","date":"2026-08-01","timeLocal":"18:00"},"geometry":{"type":"Polygon","coordinates":[[[127.06698,37.94597],[127.06694,37.94595],[127.06694,37.94589],[127.06701,37.94589],[127.06701,37.94584],[127.06717,37.94586],[127.06717,37.94597],[127.06698,37.94597]]]}},{"type":"Feature","properties":{"valleyId":"soyosan","layer":"shadow","date":"2026-08-01","timeLocal":"18:00"},"geometry":{"type":"Polygon","coordinates":[[[127.05784,37.94569],[127.05782,37.94558],[127.05803,37.9456],[127.058,37.94567],[127.05784,37.94569]]]}},{"type":"Feature","properties":{"valleyId":"soyosan","layer":"shadow","date":"2026-08-01","timeLocal":"18:00"},"geometry":{"type":"Polygon","coordinates":[[[127.06289,37.94586],[127.06289,37.94577],[127.06296,37.94576],[127.06296,37.94563],[127.06306,37.94561],[127.0631,37.94565],[127.0631,37.9457],[127.06305,37.9457],[127.06305,37.94577],[127.06301,37.94579],[127.063,37.94583],[127.06296,37.94586],[127.06289,37.94586]]]}},{"type":"Feature","properties":{"valleyId":"soyosan","layer":"shadow","date":"2026-08-01","timeLocal":"18:00"},"geometry":{"type":"Polygon","coordinates":[[[127.06578,37.94571],[127.06579,37.94566],[127.06585,37.94566],[127.06585,37.94571],[127.06578,37.94571]]]}},{"type":"Feature","properties":{"valleyId":"soyosan","layer":"shadow","date":"2026-08-01","timeLocal":"18:00"},"geometry":{"type":"Polygon","coordinates":[[[127.05755,37.94568],[127.05755,37.94559],[127.05762,37.94558],[127.0576,37.94543],[127.05778,37.94545],[127.05778,37.94556],[127.05769,37.94556],[127.05769,37.9456],[127.05764,37.9456],[127.05764,37.94567],[127.05755,37.94568]]]}},{"type":"Feature","properties":{"valleyId":"soyosan","layer":"shadow","date":"2026-08-01","timeLocal":"18:00"},"geometry":{"type":"Polygon","coordinates":[[[127.06542,37.9456],[127.06545,37.94553],[127.06554,37.94553],[127.06554,37.94558],[127.06542,37.9456]]]}},{"type":"Feature","properties":{"valleyId":"soyosan","layer":"shadow","date":"2026-08-01","timeLocal":"18:00"},"geometry":{"type":"Polygon","coordinates":[[[127.05682,37.94569],[127.05682,37.94564],[127.05689,37.94562],[127.05689,37.94546],[127.05696,37.94539],[127.05697,37.94522],[127.05708,37.94523],[127.05715,37.94526],[127.05712,37.94541],[127.05708,37.94541],[127.05709,37.94555],[127.05691,37.94562],[127.05691,37.94569],[127.05682,37.94569]]]}},{"type":"Feature","properties":{"valleyId":"soyosan","layer":"shadow","date":"2026-08-01","timeLocal":"18:00"},"geometry":{"type":"Polygon","coordinates":[[[127.06308,37.94556],[127.06309,37.94532],[127.06318,37.94533],[127.06322,37.94551],[127.06317,37.94551],[127.06315,37.94556],[127.06308,37.94556]]]}},{"type":"Feature","properties":{"valleyId":"soyosan","layer":"shadow","date":"2026-08-01","timeLocal":"18:00"},"geometry":{"type":"Polygon","coordinates":[[[127.06611,37.94546],[127.06611,37.94537],[127.06604,37.94537],[127.06602,37.9453],[127.06611,37.9453],[127.06611,37.94536],[127.06627,37.94536],[127.06627,37.94541],[127.0662,37.94547],[127.06611,37.94546]]]}},{"type":"Feature","properties":{"valleyId":"soyosan","layer":"shadow","date":"2026-08-01","timeLocal":"18:00"},"geometry":{"type":"Polygon","coordinates":[[[127.06625,37.94534],[127.06625,37.94525],[127.06621,37.94523],[127.06619,37.94514],[127.06628,37.94514],[127.06641,37.9452],[127.06636,37.94531],[127.06632,37.94534],[127.06625,37.94534]]]}},{"type":"Feature","properties":{"valleyId":"soyosan","layer":"shadow","date":"2026-08-01","timeLocal":"18:00"},"geometry":{"type":"Polygon","coordinates":[[[127.06129,37.94508],[127.0613,37.94501],[127.06141,37.94501],[127.06141,37.94506],[127.06129,37.94508]]]}},{"type":"Feature","properties":{"valleyId":"soyosan","layer":"shadow","date":"2026-08-01","timeLocal":"18:00"},"geometry":{"type":"Polygon","coordinates":[[[127.05663,37.94502],[127.05661,37.94493],[127.05672,37.94495],[127.05672,37.94502],[127.05663,37.94502]]]}},{"type":"Feature","properties":{"valleyId":"soyosan","layer":"shadow","date":"2026-08-01","timeLocal":"18:00"},"geometry":{"type":"Polygon","coordinates":[[[127.06409,37.94518],[127.06407,37.94505],[127.0645,37.94506],[127.06448,37.94513],[127.06434,37.94513],[127.06434,37.94517],[127.06409,37.94518]]]}},{"type":"Feature","properties":{"valleyId":"soyosan","layer":"shadow","date":"2026-08-01","timeLocal":"18:00"},"geometry":{"type":"Polygon","coordinates":[[[127.06607,37.94514],[127.06605,37.94505],[127.0661,37.94505],[127.0661,37.945],[127.06617,37.945],[127.06619,37.94514],[127.06607,37.94514]]]}},{"type":"Feature","properties":{"valleyId":"soyosan","layer":"shadow","date":"2026-08-01","timeLocal":"18:00"},"geometry":{"type":"Polygon","coordinates":[[[127.06152,37.94499],[127.06153,37.94488],[127.06182,37.94487],[127.06182,37.94493],[127.06171,37.94492],[127.06168,37.94496],[127.06164,37.94496],[127.06164,37.94499],[127.06152,37.94499]]]}},{"type":"Feature","properties":{"valleyId":"soyosan","layer":"shadow","date":"2026-08-01","timeLocal":"18:00"},"geometry":{"type":"Polygon","coordinates":[[[127.06048,37.9449],[127.06048,37.94485],[127.06055,37.94485],[127.06055,37.9449],[127.06048,37.9449]]]}},{"type":"Feature","properties":{"valleyId":"soyosan","layer":"shadow","date":"2026-08-01","timeLocal":"18:00"},"geometry":{"type":"Polygon","coordinates":[[[127.06555,37.94497],[127.06556,37.9449],[127.06562,37.9449],[127.06564,37.94497],[127.06555,37.94497]]]}},{"type":"Feature","properties":{"valleyId":"soyosan","layer":"shadow","date":"2026-08-01","timeLocal":"18:00"},"geometry":{"type":"Polygon","coordinates":[[[127.05728,37.94525],[127.05729,37.94518],[127.05724,37.94514],[127.05708,37.94512],[127.05706,37.94497],[127.05688,37.94488],[127.05687,37.94474],[127.05709,37.94472],[127.05709,37.94476],[127.05716,37.94478],[127.05711,37.94492],[127.05736,37.94498],[127.05736,37.94503],[127.05724,37.94505],[127.05724,37.9451],[127.05749,37.94511],[127.05756,37.94516],[127.05756,37.94522],[127.05747,37.94525],[127.05728,37.94525]]]}},{"type":"Feature","properties":{"valleyId":"soyosan","layer":"shadow","date":"2026-08-01","timeLocal":"18:00"},"geometry":{"type":"Polygon","coordinates":[[[127.05627,37.94482],[127.05628,37.94469],[127.05664,37.94471],[127.05664,37.94479],[127.05627,37.94482]]]}},{"type":"Feature","properties":{"valleyId":"soyosan","layer":"shadow","date":"2026-08-01","timeLocal":"18:00"},"geometry":{"type":"Polygon","coordinates":[[[127.06597,37.9449],[127.06597,37.94485],[127.06603,37.94485],[127.06603,37.9449],[127.06597,37.9449]]]}},{"type":"Feature","properties":{"valleyId":"soyosan","layer":"shadow","date":"2026-08-01","timeLocal":"18:00"},"geometry":{"type":"Polygon","coordinates":[[[127.06558,37.9447],[127.06559,37.94457],[127.06575,37.94458],[127.06581,37.94461],[127.06581,37.94467],[127.06568,37.94466],[127.06565,37.9447],[127.06558,37.9447]]]}},{"type":"Feature","properties":{"valleyId":"soyosan","layer":"shadow","date":"2026-08-01","timeLocal":"18:00"},"geometry":{"type":"Polygon","coordinates":[[[127.06279,37.94436],[127.0628,37.94427],[127.06291,37.94428],[127.06291,37.94433],[127.06286,37.94437],[127.06279,37.94436]]]}},{"type":"Feature","properties":{"valleyId":"soyosan","layer":"shadow","date":"2026-08-01","timeLocal":"18:00"},"geometry":{"type":"Polygon","coordinates":[[[127.05372,37.94418],[127.05372,37.94411],[127.05383,37.94411],[127.05383,37.94416],[127.05372,37.94418]]]}},{"type":"Feature","properties":{"valleyId":"soyosan","layer":"shadow","date":"2026-08-01","timeLocal":"18:00"},"geometry":{"type":"Polygon","coordinates":[[[127.06093,37.94426],[127.06093,37.94421],[127.061,37.94421],[127.061,37.94426],[127.06093,37.94426]]]}},{"type":"Feature","properties":{"valleyId":"soyosan","layer":"shadow","date":"2026-08-01","timeLocal":"18:00"},"geometry":{"type":"Polygon","coordinates":[[[127.06063,37.94424],[127.06064,37.94417],[127.0607,37.94417],[127.0607,37.94424],[127.06063,37.94424]]]}},{"type":"Feature","properties":{"valleyId":"soyosan","layer":"shadow","date":"2026-08-01","timeLocal":"18:00"},"geometry":{"type":"Polygon","coordinates":[[[127.05383,37.94411],[127.05383,37.94405],[127.0539,37.94406],[127.0539,37.94411],[127.05383,37.94411]]]}},{"type":"Feature","properties":{"valleyId":"soyosan","layer":"shadow","date":"2026-08-01","timeLocal":"18:00"},"geometry":{"type":"Polygon","coordinates":[[[127.05637,37.9446],[127.05637,37.94446],[127.0563,37.94444],[127.05629,37.94426],[127.05613,37.94425],[127.05611,37.9442],[127.05606,37.9442],[127.05595,37.94411],[127.05595,37.94404],[127.05613,37.94404],[127.05645,37.94413],[127.05654,37.94414],[127.05654,37.94419],[127.05647,37.94419],[127.05647,37.94424],[127.05651,37.94424],[127.05651,37.94432],[127.05658,37.94433],[127.05658,37.94439],[127.05651,37.94441],[127.05651,37.94446],[127.05669,37.94446],[127.05674,37.94448],[127.05673,37.94454],[127.05637,37.9446]]]}},{"type":"Feature","properties":{"valleyId":"soyosan","layer":"shadow","date":"2026-08-01","timeLocal":"18:00"},"geometry":{"type":"Polygon","coordinates":[[[127.06043,37.94415],[127.06043,37.94407],[127.06055,37.94408],[127.06055,37.94415],[127.06043,37.94415]]]}},{"type":"Feature","properties":{"valleyId":"soyosan","layer":"shadow","date":"2026-08-01","timeLocal":"18:00"},"geometry":{"type":"Polygon","coordinates":[[[127.05417,37.94413],[127.05417,37.94408],[127.05424,37.94406],[127.05425,37.94395],[127.05436,37.94392],[127.05436,37.94381],[127.05445,37.94381],[127.05446,37.94376],[127.05455,37.94374],[127.05457,37.94389],[127.05443,37.94394],[127.05443,37.94405],[127.05429,37.94413],[127.05417,37.94413]]]}},{"type":"Feature","properties":{"valleyId":"soyosan","layer":"shadow","date":"2026-08-01","timeLocal":"18:00"},"geometry":{"type":"Polygon","coordinates":[[[127.06433,37.94392],[127.06431,37.94381],[127.06442,37.94381],[127.06442,37.94392],[127.06433,37.94392]]]}},{"type":"Feature","properties":{"valleyId":"soyosan","layer":"shadow","date":"2026-08-01","timeLocal":"18:00"},"geometry":{"type":"Polygon","coordinates":[[[127.05471,37.94376],[127.05471,37.94373],[127.05462,37.94373],[127.05464,37.94358],[127.05482,37.9436],[127.0548,37.94376],[127.05471,37.94376]]]}},{"type":"Feature","properties":{"valleyId":"soyosan","layer":"shadow","date":"2026-08-01","timeLocal":"18:00"},"geometry":{"type":"Polygon","coordinates":[[[127.05298,37.94363],[127.05301,37.94354],[127.05323,37.94354],[127.05323,37.94359],[127.05314,37.94359],[127.05314,37.94363],[127.05298,37.94363]]]}},{"type":"Feature","properties":{"valleyId":"soyosan","layer":"shadow","date":"2026-08-01","timeLocal":"18:00"},"geometry":{"type":"Polygon","coordinates":[[[127.05483,37.94358],[127.05483,37.94349],[127.05492,37.9435],[127.05494,37.94357],[127.05483,37.94358]]]}},{"type":"Feature","properties":{"valleyId":"soyosan","layer":"shadow","date":"2026-08-01","timeLocal":"18:00"},"geometry":{"type":"Polygon","coordinates":[[[127.06154,37.94371],[127.06152,37.94355],[127.06179,37.94356],[127.06174,37.94368],[127.06163,37.94368],[127.0616,37.94371],[127.06154,37.94371]]]}},{"type":"Feature","properties":{"valleyId":"soyosan","layer":"shadow","date":"2026-08-01","timeLocal":"18:00"},"geometry":{"type":"Polygon","coordinates":[[[127.06065,37.94357],[127.06065,37.94346],[127.06075,37.94347],[127.06072,37.94357],[127.06065,37.94357]]]}},{"type":"Feature","properties":{"valleyId":"soyosan","layer":"shadow","date":"2026-08-01","timeLocal":"18:00"},"geometry":{"type":"Polygon","coordinates":[[[127.06027,37.94351],[127.06027,37.94346],[127.06036,37.94344],[127.06036,37.94351],[127.06027,37.94351]]]}},{"type":"Feature","properties":{"valleyId":"soyosan","layer":"shadow","date":"2026-08-01","timeLocal":"18:00"},"geometry":{"type":"Polygon","coordinates":[[[127.05573,37.94394],[127.05573,37.94387],[127.05568,37.94385],[127.05568,37.94381],[127.05562,37.94376],[127.05548,37.94376],[127.05548,37.94365],[127.05533,37.94357],[127.05533,37.94354],[127.05526,37.9435],[127.05526,37.94345],[127.05515,37.94345],[127.05513,37.94339],[127.05506,37.94337],[127.05506,37.94332],[127.05531,37.94332],[127.05537,37.94349],[127.05544,37.94352],[127.05553,37.94352],[127.05553,37.94358],[127.05596,37.9436],[127.05596,37.94368],[127.05592,37.94367],[127.05589,37.94371],[127.05575,37.94371],[127.05575,37.94376],[127.05596,37.94378],[127.05598,37.94382],[127.05614,37.94382],[127.05614,37.94388],[127.05573,37.94394]]]}},{"type":"Feature","properties":{"valleyId":"soyosan","layer":"shadow","date":"2026-08-01","timeLocal":"18:00"},"geometry":{"type":"Polygon","coordinates":[[[127.06546,37.94347],[127.06546,37.94342],[127.06555,37.94342],[127.06555,37.94347],[127.06546,37.94347]]]}},{"type":"Feature","properties":{"valleyId":"soyosan","layer":"shadow","date":"2026-08-01","timeLocal":"18:00"},"geometry":{"type":"Polygon","coordinates":[[[127.05446,37.94352],[127.05446,37.94347],[127.0546,37.94345],[127.0546,37.94336],[127.05447,37.94334],[127.05447,37.94322],[127.05454,37.94322],[127.05463,37.94326],[127.05463,37.94333],[127.05479,37.94335],[127.05478,37.9434],[127.05476,37.94346],[127.05467,37.94346],[127.0546,37.94347],[127.0546,37.94351],[127.05446,37.94352]]]}},{"type":"Feature","properties":{"valleyId":"soyosan","layer":"shadow","date":"2026-08-01","timeLocal":"18:00"},"geometry":{"type":"Polygon","coordinates":[[[127.06575,37.9434],[127.06576,37.94335],[127.06582,37.94335],[127.06582,37.94341],[127.06575,37.9434]]]}},{"type":"Feature","properties":{"valleyId":"soyosan","layer":"shadow","date":"2026-08-01","timeLocal":"18:00"},"geometry":{"type":"Polygon","coordinates":[[[127.06447,37.94378],[127.0645,37.94362],[127.06445,37.94351],[127.06457,37.9434],[127.06457,37.94331],[127.06469,37.94331],[127.06473,37.94333],[127.06473,37.94339],[127.06464,37.94346],[127.06464,37.94355],[127.0647,37.94362],[127.0647,37.94368],[127.06456,37.94378],[127.06447,37.94378]]]}},{"type":"Feature","properties":{"valleyId":"soyosan","layer":"shadow","date":"2026-08-01","timeLocal":"18:00"},"geometry":{"type":"Polygon","coordinates":[[[127.06525,37.94341],[127.06525,37.94336],[127.06519,37.9433],[127.06521,37.9432],[127.06528,37.9432],[127.0653,37.94331],[127.06544,37.94331],[127.06544,37.9434],[127.06525,37.94341]]]}},{"type":"Feature","properties":{"valleyId":"soyosan","layer":"shadow","date":"2026-08-01","timeLocal":"18:00"},"geometry":{"type":"Polygon","coordinates":[[[127.06448,37.94331],[127.06442,37.94324],[127.06442,37.94317],[127.06449,37.94317],[127.06457,37.94324],[127.06457,37.94331],[127.06448,37.94331]]]}},{"type":"Feature","properties":{"valleyId":"soyosan","layer":"shadow","date":"2026-08-01","timeLocal":"18:00"},"geometry":{"type":"Polygon","coordinates":[[[127.05931,37.94342],[127.05929,37.9433],[127.05923,37.94328],[127.0592,37.94321],[127.05909,37.94313],[127.05909,37.94308],[127.05919,37.94308],[127.05918,37.94312],[127.05932,37.94314],[127.05936,37.94321],[127.05945,37.94321],[127.05945,37.94328],[127.05957,37.9433],[127.05956,37.94337],[127.05931,37.94342]]]}},{"type":"Feature","properties":{"valleyId":"soyosan","layer":"shadow","date":"2026-08-01","timeLocal":"18:00"},"geometry":{"type":"Polygon","coordinates":[[[127.05964,37.94318],[127.05964,37.94305],[127.05985,37.94307],[127.05984,37.94313],[127.05975,37.94313],[127.05971,37.94314],[127.05971,37.94318],[127.05964,37.94318]]]}},{"type":"Feature","properties":{"valleyId":"soyosan","layer":"shadow","date":"2026-08-01","timeLocal":"18:00"},"geometry":{"type":"Polygon","coordinates":[[[127.06562,37.9432],[127.06563,37.94311],[127.06572,37.94312],[127.06574,37.94319],[127.06562,37.9432]]]}},{"type":"Feature","properties":{"valleyId":"soyosan","layer":"shadow","date":"2026-08-01","timeLocal":"18:00"},"geometry":{"type":"Polygon","coordinates":[[[127.05448,37.94297],[127.05448,37.94291],[127.05455,37.94291],[127.05455,37.94297],[127.05448,37.94297]]]}},{"type":"Feature","properties":{"valleyId":"soyosan","layer":"shadow","date":"2026-08-01","timeLocal":"18:00"},"geometry":{"type":"Polygon","coordinates":[[[127.05309,37.94296],[127.05309,37.94287],[127.05323,37.94287],[127.05323,37.94293],[127.05309,37.94296]]]}},{"type":"Feature","properties":{"valleyId":"soyosan","layer":"shadow","date":"2026-08-01","timeLocal":"18:00"},"geometry":{"type":"Polygon","coordinates":[[[127.06007,37.943],[127.06008,37.94293],[127.06015,37.94293],[127.06014,37.94301],[127.06007,37.943]]]}},{"type":"Feature","properties":{"valleyId":"soyosan","layer":"shadow","date":"2026-08-01","timeLocal":"18:00"},"geometry":{"type":"Polygon","coordinates":[[[127.06372,37.94305],[127.06372,37.94297],[127.06379,37.94298],[127.06378,37.94305],[127.06372,37.94305]]]}},{"type":"Feature","properties":{"valleyId":"soyosan","layer":"shadow","date":"2026-08-01","timeLocal":"18:00"},"geometry":{"type":"Polygon","coordinates":[[[127.06472,37.94303],[127.06472,37.94297],[127.06479,37.94297],[127.06479,37.94303],[127.06472,37.94303]]]}},{"type":"Feature","properties":{"valleyId":"soyosan","layer":"shadow","date":"2026-08-01","timeLocal":"18:00"},"geometry":{"type":"Polygon","coordinates":[[[127.06554,37.94302],[127.06552,37.94295],[127.06558,37.94295],[127.0656,37.94302],[127.06554,37.94302]]]}},{"type":"Feature","properties":{"valleyId":"soyosan","layer":"shadow","date":"2026-08-01","timeLocal":"18:00"},"geometry":{"type":"Polygon","coordinates":[[[127.05237,37.94277],[127.05237,37.9427],[127.05244,37.9427],[127.05243,37.94277],[127.05237,37.94277]]]}},{"type":"Feature","properties":{"valleyId":"soyosan","layer":"shadow","date":"2026-08-01","timeLocal":"18:00"},"geometry":{"type":"Polygon","coordinates":[[[127.05687,37.94281],[127.05687,37.94274],[127.05694,37.94274],[127.05694,37.94281],[127.05687,37.94281]]]}},{"type":"Feature","properties":{"valleyId":"soyosan","layer":"shadow","date":"2026-08-01","timeLocal":"18:00"},"geometry":{"type":"Polygon","coordinates":[[[127.057,37.94297],[127.05701,37.94286],[127.05712,37.94287],[127.05712,37.94274],[127.05721,37.94272],[127.05719,37.94292],[127.0571,37.94294],[127.05709,37.94297],[127.057,37.94297]]]}},{"type":"Feature","properties":{"valleyId":"soyosan","layer":"shadow","date":"2026-08-01","timeLocal":"18:00"},"geometry":{"type":"Polygon","coordinates":[[[127.06428,37.94309],[127.06429,37.94286],[127.06431,37.9428],[127.06438,37.9428],[127.06435,37.94309],[127.06428,37.94309]]]}},{"type":"Feature","properties":{"valleyId":"soyosan","layer":"shadow","date":"2026-08-01","timeLocal":"18:00"},"geometry":{"type":"Polygon","coordinates":[[[127.05385,37.94265],[127.05385,37.94259],[127.05392,37.9426],[127.05392,37.94265],[127.05385,37.94265]]]}},{"type":"Feature","properties":{"valleyId":"soyosan","layer":"shadow","date":"2026-08-01","timeLocal":"18:00"},"geometry":{"type":"Polygon","coordinates":[[[127.06486,37.94287],[127.06486,37.94278],[127.06493,37.94278],[127.06493,37.94274],[127.06502,37.94274],[127.06502,37.94283],[127.06493,37.94283],[127.06493,37.94287],[127.06486,37.94287]]]}},{"type":"Feature","properties":{"valleyId":"soyosan","layer":"shadow","date":"2026-08-01","timeLocal":"18:00"},"geometry":{"type":"Polygon","coordinates":[[[127.06643,37.94284],[127.06643,37.94277],[127.0665,37.94277],[127.0665,37.94284],[127.06643,37.94284]]]}},{"type":"Feature","properties":{"valleyId":"soyosan","layer":"shadow","date":"2026-08-01","timeLocal":"18:00"},"geometry":{"type":"Polygon","coordinates":[[[127.05901,37.94299],[127.05896,37.94281],[127.05892,37.94277],[127.05892,37.94264],[127.05897,37.94261],[127.05906,37.94261],[127.05904,37.94273],[127.05908,37.94275],[127.05908,37.94288],[127.05912,37.94288],[127.05912,37.94295],[127.05907,37.94299],[127.05901,37.94299]]]}},{"type":"Feature","properties":{"valleyId":"soyosan","layer":"shadow","date":"2026-08-01","timeLocal":"18:00"},"geometry":{"type":"Polygon","coordinates":[[[127.06465,37.94281],[127.06466,37.94272],[127.06457,37.94272],[127.06457,37.94266],[127.0647,37.94265],[127.0647,37.9427],[127.06475,37.94274],[127.06482,37.94274],[127.06481,37.94279],[127.06465,37.94281]]]}},{"type":"Feature","properties":{"valleyId":"soyosan","layer":"shadow","date":"2026-08-01","timeLocal":"18:00"},"geometry":{"type":"Polygon","coordinates":[[[127.0542,37.94303],[127.0542,37.94298],[127.05429,37.94298],[127.05432,37.94284],[127.05421,37.94284],[127.05416,37.94274],[127.05417,37.9426],[127.05408,37.94258],[127.05406,37.94247],[127.05426,37.94249],[127.05426,37.94253],[127.05431,37.94253],[127.05433,37.94257],[127.05433,37.94262],[127.05426,37.94266],[127.05426,37.94271],[127.05435,37.94271],[127.05441,37.94275],[127.05439,37.943],[127.0542,37.94303]]]}},{"type":"Feature","properties":{"valleyId":"soyosan","layer":"shadow","date":"2026-08-01","timeLocal":"18:00"},"geometry":{"type":"Polygon","coordinates":[[[127.05908,37.94257],[127.05909,37.94252],[127.05918,37.9425],[127.05918,37.94256],[127.05908,37.94257]]]}},{"type":"Feature","properties":{"valleyId":"soyosan","layer":"shadow","date":"2026-08-01","timeLocal":"18:00"},"geometry":{"type":"Polygon","coordinates":[[[127.06395,37.94262],[127.06396,37.94253],[127.06402,37.94253],[127.06405,37.9426],[127.06395,37.94262]]]}},{"type":"Feature","properties":{"valleyId":"soyosan","layer":"shadow","date":"2026-08-01","timeLocal":"18:00"},"geometry":{"type":"Polygon","coordinates":[[[127.05347,37.94241],[127.05347,37.94235],[127.05354,37.94236],[127.05354,37.94241],[127.05347,37.94241]]]}},{"type":"Feature","properties":{"valleyId":"soyosan","layer":"shadow","date":"2026-08-01","timeLocal":"18:00"},"geometry":{"type":"Polygon","coordinates":[[[127.06482,37.94265],[127.0648,37.94256],[127.06471,37.94256],[127.06471,37.94243],[127.0648,37.94243],[127.0648,37.94254],[127.06496,37.94258],[127.06496,37.94263],[127.06482,37.94265]]]}},{"type":"Feature","properties":{"valleyId":"soyosan","layer":"shadow","date":"2026-08-01","timeLocal":"18:00"},"geometry":{"type":"Polygon","coordinates":[[[127.05863,37.9424],[127.05864,37.94233],[127.0587,37.94233],[127.0587,37.9424],[127.05863,37.9424]]]}},{"type":"Feature","properties":{"valleyId":"soyosan","layer":"shadow","date":"2026-08-01","timeLocal":"18:00"},"geometry":{"type":"Polygon","coordinates":[[[127.0589,37.9425],[127.05898,37.94234],[127.05907,37.94232],[127.05907,37.94243],[127.05902,37.94245],[127.05902,37.9425],[127.0589,37.9425]]]}},{"type":"Feature","properties":{"valleyId":"soyosan","layer":"shadow","date":"2026-08-01","timeLocal":"18:00"},"geometry":{"type":"Polygon","coordinates":[[[127.0592,37.94245],[127.05923,37.94232],[127.05939,37.94234],[127.05936,37.94242],[127.05932,37.94241],[127.05929,37.94245],[127.0592,37.94245]]]}},{"type":"Feature","properties":{"valleyId":"soyosan","layer":"shadow","date":"2026-08-01","timeLocal":"18:00"},"geometry":{"type":"Polygon","coordinates":[[[127.0648,37.9424],[127.0648,37.94233],[127.06489,37.94233],[127.06489,37.94238],[127.0648,37.9424]]]}},{"type":"Feature","properties":{"valleyId":"soyosan","layer":"shadow","date":"2026-08-01","timeLocal":"18:00"},"geometry":{"type":"Polygon","coordinates":[[[127.06303,37.94228],[127.06303,37.94219],[127.0631,37.94219],[127.0631,37.94228],[127.06303,37.94228]]]}},{"type":"Feature","properties":{"valleyId":"soyosan","layer":"shadow","date":"2026-08-01","timeLocal":"18:00"},"geometry":{"type":"Polygon","coordinates":[[[127.0568,37.94212],[127.0568,37.94207],[127.05687,37.94207],[127.05687,37.94212],[127.0568,37.94212]]]}},{"type":"Feature","properties":{"valleyId":"soyosan","layer":"shadow","date":"2026-08-01","timeLocal":"18:00"},"geometry":{"type":"Polygon","coordinates":[[[127.06464,37.94232],[127.06463,37.94218],[127.06469,37.94218],[127.06471,37.94232],[127.06464,37.94232]]]}},{"type":"Feature","properties":{"valleyId":"soyosan","layer":"shadow","date":"2026-08-01","timeLocal":"18:00"},"geometry":{"type":"Polygon","coordinates":[[[127.0646,37.94216],[127.06461,37.94209],[127.06467,37.94209],[127.06467,37.94216],[127.0646,37.94216]]]}},{"type":"Feature","properties":{"valleyId":"soyosan","layer":"shadow","date":"2026-08-01","timeLocal":"18:00"},"geometry":{"type":"Polygon","coordinates":[[[127.06319,37.94214],[127.06317,37.94203],[127.06324,37.94201],[127.06324,37.94192],[127.06334,37.94192],[127.06331,37.94214],[127.06319,37.94214]]]}},{"type":"Feature","properties":{"valleyId":"soyosan","layer":"shadow","date":"2026-08-01","timeLocal":"18:00"},"geometry":{"type":"Polygon","coordinates":[[[127.05655,37.9419],[127.05653,37.94177],[127.05665,37.94178],[127.05662,37.9419],[127.05655,37.9419]]]}},{"type":"Feature","properties":{"valleyId":"soyosan","layer":"shadow","date":"2026-08-01","timeLocal":"18:00"},"geometry":{"type":"Polygon","coordinates":[[[127.06488,37.94204],[127.06493,37.94189],[127.065,37.9419],[127.06499,37.942],[127.06495,37.942],[127.06495,37.94204],[127.06488,37.94204]]]}},{"type":"Feature","properties":{"valleyId":"soyosan","layer":"shadow","date":"2026-08-01","timeLocal":"18:00"},"geometry":{"type":"Polygon","coordinates":[[[127.05356,37.94219],[127.05357,37.94212],[127.05352,37.94212],[127.0535,37.94207],[127.05345,37.94207],[127.05345,37.94203],[127.05336,37.94199],[127.05332,37.9419],[127.05307,37.94179],[127.05306,37.94166],[127.05315,37.94166],[127.05317,37.9417],[127.05321,37.9417],[127.05323,37.94177],[127.0533,37.94183],[127.05337,37.94183],[127.05339,37.94187],[127.0535,37.94187],[127.05357,37.94192],[127.05369,37.94193],[127.05373,37.942],[127.05384,37.942],[127.05384,37.94209],[127.05393,37.94209],[127.05391,37.94216],[127.05356,37.94219]]]}},{"type":"Feature","properties":{"valleyId":"soyosan","layer":"shadow","date":"2026-08-01","timeLocal":"18:00"},"geometry":{"type":"Polygon","coordinates":[[[127.06058,37.94208],[127.06058,37.94202],[127.06049,37.94195],[127.0604,37.94193],[127.06036,37.94186],[127.06029,37.94185],[127.06027,37.94178],[127.06052,37.94182],[127.06056,37.94193],[127.06076,37.94193],[127.06076,37.94206],[127.06058,37.94208]]]}},{"type":"Feature","properties":{"valleyId":"soyosan","layer":"shadow","date":"2026-08-01","timeLocal":"18:00"},"geometry":{"type":"Polygon","coordinates":[[[127.0635,37.94189],[127.0635,37.94176],[127.06357,37.94176],[127.06356,37.94189],[127.0635,37.94189]]]}},{"type":"Feature","properties":{"valleyId":"soyosan","layer":"shadow","date":"2026-08-01","timeLocal":"18:00"},"geometry":{"type":"Polygon","coordinates":[[[127.05965,37.94175],[127.05966,37.94159],[127.05975,37.94159],[127.05977,37.9417],[127.05972,37.94175],[127.05965,37.94175]]]}},{"type":"Feature","properties":{"valleyId":"soyosan","layer":"shadow","date":"2026-08-01","timeLocal":"18:00"},"geometry":{"type":"Polygon","coordinates":[[[127.0632,37.9417],[127.06321,37.9416],[127.06328,37.9416],[127.0633,37.94171],[127.0632,37.9417]]]}},{"type":"Feature","properties":{"valleyId":"soyosan","layer":"shadow","date":"2026-08-01","timeLocal":"18:00"},"geometry":{"type":"Polygon","coordinates":[[[127.05486,37.94122],[127.05482,37.94121],[127.05482,37.94113],[127.05494,37.94114],[127.05493,37.94123],[127.05486,37.94122]]]}},{"type":"Feature","properties":{"valleyId":"soyosan","layer":"shadow","date":"2026-08-01","timeLocal":"18:00"},"geometry":{"type":"Polygon","coordinates":[[[127.06583,37.94142],[127.06588,37.94126],[127.06595,37.94126],[127.06592,37.94142],[127.06583,37.94142]]]}},{"type":"Feature","properties":{"valleyId":"soyosan","layer":"shadow","date":"2026-08-01","timeLocal":"18:00"},"geometry":{"type":"Polygon","coordinates":[[[127.06332,37.94147],[127.06333,37.94126],[127.0634,37.94118],[127.06347,37.94119],[127.06349,37.94131],[127.06344,37.94142],[127.06339,37.94147],[127.06332,37.94147]]]}},{"type":"Feature","properties":{"valleyId":"soyosan","layer":"shadow","date":"2026-08-01","timeLocal":"18:00"},"geometry":{"type":"Polygon","coordinates":[[[127.05134,37.94104],[127.05132,37.94093],[127.05139,37.94093],[127.05143,37.94097],[127.05143,37.94102],[127.05134,37.94104]]]}},{"type":"Feature","properties":{"valleyId":"soyosan","layer":"shadow","date":"2026-08-01","timeLocal":"18:00"},"geometry":{"type":"Polygon","coordinates":[[[127.05157,37.94094],[127.05157,37.94088],[127.05164,37.94088],[127.05164,37.94094],[127.05157,37.94094]]]}},{"type":"Feature","properties":{"valleyId":"soyosan","layer":"shadow","date":"2026-08-01","timeLocal":"18:00"},"geometry":{"type":"Polygon","coordinates":[[[127.06374,37.94112],[127.06374,37.94105],[127.06381,37.94105],[127.06381,37.94112],[127.06374,37.94112]]]}},{"type":"Feature","properties":{"valleyId":"soyosan","layer":"shadow","date":"2026-08-01","timeLocal":"18:00"},"geometry":{"type":"Polygon","coordinates":[[[127.05494,37.94097],[127.05494,37.94088],[127.05501,37.94088],[127.05501,37.94097],[127.05494,37.94097]]]}},{"type":"Feature","properties":{"valleyId":"soyosan","layer":"shadow","date":"2026-08-01","timeLocal":"18:00"},"geometry":{"type":"Polygon","coordinates":[[[127.05453,37.94088],[127.05453,37.94082],[127.05462,37.94082],[127.05462,37.94088],[127.05453,37.94088]]]}},{"type":"Feature","properties":{"valleyId":"soyosan","layer":"shadow","date":"2026-08-01","timeLocal":"18:00"},"geometry":{"type":"Polygon","coordinates":[[[127.05203,37.94082],[127.05203,37.94074],[127.0521,37.94075],[127.0521,37.94082],[127.05203,37.94082]]]}},{"type":"Feature","properties":{"valleyId":"soyosan","layer":"shadow","date":"2026-08-01","timeLocal":"18:00"},"geometry":{"type":"Polygon","coordinates":[[[127.05574,37.94086],[127.05574,37.94082],[127.05569,37.94082],[127.0557,37.94075],[127.05576,37.94075],[127.05581,37.94081],[127.05581,37.94086],[127.05574,37.94086]]]}},{"type":"Feature","properties":{"valleyId":"soyosan","layer":"shadow","date":"2026-08-01","timeLocal":"18:00"},"geometry":{"type":"Polygon","coordinates":[[[127.05422,37.94069],[127.05422,37.94062],[127.05431,37.94062],[127.05431,37.94067],[127.05422,37.94069]]]}},{"type":"Feature","properties":{"valleyId":"soyosan","layer":"shadow","date":"2026-08-01","timeLocal":"18:00"},"geometry":{"type":"Polygon","coordinates":[[[127.05188,37.94067],[127.05188,37.94063],[127.05179,37.9406],[127.05179,37.94054],[127.05199,37.9406],[127.05199,37.94067],[127.05188,37.94067]]]}},{"type":"Feature","properties":{"valleyId":"soyosan","layer":"shadow","date":"2026-08-01","timeLocal":"18:00"},"geometry":{"type":"Polygon","coordinates":[[[127.05413,37.94062],[127.05411,37.94051],[127.0542,37.94051],[127.0542,37.94062],[127.05413,37.94062]]]}},{"type":"Feature","properties":{"valleyId":"soyosan","layer":"shadow","date":"2026-08-01","timeLocal":"18:00"},"geometry":{"type":"Polygon","coordinates":[[[127.05388,37.94043],[127.05386,37.94032],[127.05393,37.94033],[127.05402,37.94038],[127.05402,37.94043],[127.05388,37.94043]]]}},{"type":"Feature","properties":{"valleyId":"soyosan","layer":"shadow","date":"2026-08-01","timeLocal":"18:00"},"geometry":{"type":"Polygon","coordinates":[[[127.05377,37.94029],[127.05373,37.94016],[127.05385,37.94016],[127.05387,37.9402],[127.05391,37.9402],[127.05391,37.94025],[127.05377,37.94029]]]}},{"type":"Feature","properties":{"valleyId":"soyosan","layer":"shadow","date":"2026-08-01","timeLocal":"18:00"},"geometry":{"type":"Polygon","coordinates":[[[127.05357,37.94014],[127.05355,37.93999],[127.05362,37.94],[127.05367,37.94001],[127.05367,37.94007],[127.05364,37.94014],[127.05357,37.94014]]]}},{"type":"Feature","properties":{"valleyId":"soyosan","layer":"shadow","date":"2026-08-01","timeLocal":"18:00"},"geometry":{"type":"Polygon","coordinates":[[[127.05364,37.93919],[127.05365,37.93913],[127.05371,37.93913],[127.05371,37.93919],[127.05364,37.93919]]]}},{"type":"Feature","properties":{"valleyId":"soyosan","layer":"shadow","date":"2026-08-01","timeLocal":"18:00"},"geometry":{"type":"Polygon","coordinates":[[[127.04862,37.93883],[127.04865,37.93872],[127.04874,37.93873],[127.04874,37.93864],[127.04883,37.93864],[127.04883,37.93873],[127.04876,37.93873],[127.04876,37.93883],[127.04862,37.93883]]]}},{"type":"Feature","properties":{"valleyId":"soyosan","layer":"shadow","date":"2026-08-01","timeLocal":"18:00"},"geometry":{"type":"Polygon","coordinates":[[[127.04842,37.93868],[127.04842,37.93863],[127.04849,37.93863],[127.04849,37.93869],[127.04842,37.93868]]]}},{"type":"Feature","properties":{"valleyId":"soyosan","layer":"shadow","date":"2026-08-01","timeLocal":"18:00"},"geometry":{"type":"Polygon","coordinates":[[[127.0514,37.94234],[127.05135,37.94227],[127.05111,37.94206],[127.05111,37.94203],[127.05102,37.94197],[127.05102,37.94194],[127.05091,37.94186],[127.05091,37.94183],[127.05084,37.94179],[127.05085,37.94175],[127.05078,37.94172],[127.05078,37.94168],[127.05071,37.94164],[127.05071,37.94161],[127.05065,37.94157],[127.05065,37.94153],[127.05038,37.94128],[127.05034,37.94119],[127.05027,37.94115],[127.05027,37.94108],[127.05034,37.94104],[127.05037,37.94086],[127.05033,37.94054],[127.05031,37.94045],[127.05027,37.94041],[127.05029,37.94025],[127.04997,37.94024],[127.04997,37.9403],[127.0499,37.94033],[127.04977,37.94033],[127.04972,37.94031],[127.04972,37.94027],[127.04963,37.94025],[127.04961,37.94011],[127.04984,37.94011],[127.04998,37.94017],[127.05014,37.94015],[127.05016,37.94012],[127.05016,37.94001],[127.0501,37.93997],[127.05007,37.9399],[127.05001,37.9399],[127.04994,37.93966],[127.04981,37.93957],[127.04974,37.93946],[127.04961,37.93941],[127.04961,37.93937],[127.04952,37.93932],[127.04952,37.93926],[127.04948,37.93922],[127.04932,37.9392],[127.04928,37.93915],[127.04921,37.93913],[127.04921,37.93908],[127.04914,37.93902],[127.04907,37.93902],[127.04901,37.93895],[127.04896,37.93895],[127.0489,37.93889],[127.0489,37.93866],[127.04906,37.93868],[127.04908,37.93871],[127.0492,37.93871],[127.0492,37.93859],[127.04927,37.93859],[127.04927,37.93864],[127.04933,37.93865],[127.04934,37.93857],[127.04954,37.93858],[127.04954,37.93861],[127.04965,37.93863],[127.0497,37.93871],[127.0504,37.93873],[127.05042,37.9389],[127.05051,37.9389],[127.05069,37.93901],[127.05108,37.93902],[127.05107,37.93916],[127.05114,37.9392],[127.05114,37.93923],[127.05123,37.93929],[127.05141,37.93929],[127.05141,37.93945],[127.05149,37.93965],[127.05149,37.93987],[127.05141,37.94001],[127.05143,37.94018],[127.05139,37.94021],[127.05138,37.94037],[127.05122,37.94037],[127.05122,37.94046],[127.05136,37.94048],[127.05135,37.94055],[127.05129,37.94059],[127.05128,37.9407],[127.05115,37.94073],[127.05115,37.94068],[127.05106,37.94057],[127.05104,37.94048],[127.05099,37.94047],[127.05097,37.94044],[127.05088,37.94044],[127.05088,37.94049],[127.05092,37.94051],[127.05094,37.94062],[127.05099,37.94062],[127.05105,37.94071],[127.05101,37.94147],[127.05108,37.94149],[127.05112,37.94154],[127.05114,37.94172],[127.05135,37.94172],[127.05134,37.94201],[127.05149,37.94221],[127.05147,37.94234],[127.0514,37.94234]]]}},{"type":"Feature","properties":{"valleyId":"soyosan","layer":"shadow","date":"2026-08-01","timeLocal":"18:00"},"geometry":{"type":"Polygon","coordinates":[[[127.05236,37.93864],[127.05236,37.93859],[127.05243,37.93859],[127.05243,37.93864],[127.05236,37.93864]]]}},{"type":"Feature","properties":{"valleyId":"soyosan","layer":"shadow","date":"2026-08-01","timeLocal":"18:00"},"geometry":{"type":"Polygon","coordinates":[[[127.05319,37.93983],[127.05317,37.93974],[127.05308,37.93973],[127.05308,37.93968],[127.05299,37.93968],[127.053,37.93961],[127.0529,37.93959],[127.05291,37.93953],[127.05284,37.93948],[127.05277,37.93948],[127.05277,37.93935],[127.05268,37.93933],[127.05266,37.93924],[127.05262,37.9392],[127.05253,37.9392],[127.05248,37.93917],[127.05249,37.93911],[127.05237,37.93906],[127.05236,37.93886],[127.05229,37.93886],[127.05225,37.93866],[127.0522,37.93864],[127.05218,37.93855],[127.0523,37.93855],[127.05229,37.93864],[127.05236,37.93864],[127.05238,37.93886],[127.05245,37.93888],[127.05244,37.93893],[127.05251,37.93893],[127.05256,37.93899],[127.05262,37.93899],[127.05269,37.93906],[127.05274,37.93906],[127.05274,37.93912],[127.05267,37.93911],[127.05267,37.93917],[127.05285,37.93919],[127.0528,37.93933],[127.053,37.93935],[127.05298,37.93946],[127.05307,37.93948],[127.05304,37.93961],[127.05318,37.93961],[127.05318,37.93966],[127.05324,37.93967],[127.05324,37.93972],[127.05336,37.93974],[127.05335,37.93979],[127.05319,37.93983]]]}},{"type":"Feature","properties":{"valleyId":"soyosan","layer":"shadow","date":"2026-08-01","timeLocal":"18:00"},"geometry":{"type":"Polygon","coordinates":[[[127.04891,37.93844],[127.04891,37.93839],[127.04898,37.93839],[127.04898,37.93844],[127.04891,37.93844]]]}},{"type":"Feature","properties":{"valleyId":"soyosan","layer":"shadow","date":"2026-08-01","timeLocal":"18:00"},"geometry":{"type":"Polygon","coordinates":[[[127.04766,37.93844],[127.04766,37.93833],[127.04761,37.93831],[127.04759,37.9382],[127.04773,37.93822],[127.04775,37.93835],[127.04779,37.93835],[127.04779,37.9384],[127.04766,37.93844]]]}},{"type":"Feature","properties":{"valleyId":"soyosan","layer":"shadow","date":"2026-08-01","timeLocal":"18:00"},"geometry":{"type":"Polygon","coordinates":[[[127.05248,37.93861],[127.05248,37.93854],[127.05232,37.93855],[127.0523,37.93842],[127.05221,37.93842],[127.05221,37.93846],[127.05214,37.93846],[127.05214,37.93842],[127.05205,37.93835],[127.05198,37.93835],[127.05187,37.93827],[127.05187,37.93822],[127.05201,37.93824],[127.05201,37.93818],[127.0521,37.93819],[127.05212,37.93833],[127.05228,37.93835],[127.0523,37.93841],[127.05253,37.93841],[127.05257,37.93861],[127.05248,37.93861]]]}},{"type":"Feature","properties":{"valleyId":"soyosan","layer":"shadow","date":"2026-08-01","timeLocal":"18:00"},"geometry":{"type":"Polygon","coordinates":[[[127.048,37.93837],[127.04803,37.93819],[127.04798,37.93817],[127.04798,37.93812],[127.04821,37.93818],[127.04835,37.93818],[127.0483,37.93832],[127.04823,37.93832],[127.04811,37.93837],[127.048,37.93837]]]}},{"type":"Feature","properties":{"valleyId":"soyosan","layer":"shadow","date":"2026-08-01","timeLocal":"18:00"},"geometry":{"type":"Polygon","coordinates":[[[127.0523,37.93828],[127.05228,37.93817],[127.05235,37.93817],[127.05239,37.93828],[127.0523,37.93828]]]}},{"type":"Feature","properties":{"valleyId":"soyosan","layer":"shadow","date":"2026-08-01","timeLocal":"18:00"},"geometry":{"type":"Polygon","coordinates":[[[127.05226,37.93815],[127.05226,37.9381],[127.05233,37.9381],[127.05233,37.93815],[127.05226,37.93815]]]}},{"type":"Feature","properties":{"valleyId":"soyosan","layer":"shadow","date":"2026-08-01","timeLocal":"18:00"},"geometry":{"type":"Polygon","coordinates":[[[127.04822,37.93789],[127.0482,37.93778],[127.04842,37.9378],[127.04842,37.93786],[127.04833,37.93789],[127.04822,37.93789]]]}},{"type":"Feature","properties":{"valleyId":"soyosan","layer":"shadow","date":"2026-08-01","timeLocal":"18:00"},"geometry":{"type":"Polygon","coordinates":[[[127.05099,37.93793],[127.05099,37.93786],[127.05093,37.93782],[127.05093,37.93777],[127.05113,37.93777],[127.05117,37.93788],[127.05108,37.93794],[127.05099,37.93793]]]}},{"type":"Feature","properties":{"valleyId":"soyosan","layer":"shadow","date":"2026-08-01","timeLocal":"18:00"},"geometry":{"type":"Polygon","coordinates":[[[127.04797,37.93785],[127.04795,37.9377],[127.04802,37.9377],[127.04806,37.93772],[127.04806,37.93779],[127.04804,37.93785],[127.04797,37.93785]]]}},{"type":"Feature","properties":{"valleyId":"soyosan","layer":"shadow","date":"2026-08-01","timeLocal":"18:00"},"geometry":{"type":"Polygon","coordinates":[[[127.04767,37.93777],[127.04765,37.93764],[127.04772,37.93765],[127.04777,37.93766],[127.04776,37.93775],[127.04767,37.93777]]]}},{"type":"Feature","properties":{"valleyId":"soyosan","layer":"shadow","date":"2026-08-01","timeLocal":"18:00"},"geometry":{"type":"Polygon","coordinates":[[[127.05639,37.93784],[127.05637,37.93777],[127.05653,37.93777],[127.05652,37.93784],[127.05639,37.93784]]]}},{"type":"Feature","properties":{"valleyId":"soyosan","layer":"shadow","date":"2026-08-01","timeLocal":"18:00"},"geometry":{"type":"Polygon","coordinates":[[[127.05619,37.93768],[127.05619,37.93761],[127.0563,37.93761],[127.05628,37.93768],[127.05619,37.93768]]]}},{"type":"Feature","properties":{"valleyId":"soyosan","layer":"shadow","date":"2026-08-01","timeLocal":"18:00"},"geometry":{"type":"Polygon","coordinates":[[[127.05066,37.93755],[127.05066,37.93746],[127.05059,37.93746],[127.05057,37.93739],[127.05073,37.93739],[127.05078,37.93741],[127.05078,37.93744],[127.05082,37.93744],[127.05082,37.9375],[127.05073,37.93751],[127.05073,37.93755],[127.05066,37.93755]]]}},{"type":"Feature","properties":{"valleyId":"soyosan","layer":"shadow","date":"2026-08-01","timeLocal":"18:00"},"geometry":{"type":"Polygon","coordinates":[[[127.05649,37.93745],[127.05649,37.93738],[127.05665,37.93738],[127.05665,37.93743],[127.05649,37.93745]]]}},{"type":"Feature","properties":{"valleyId":"soyosan","layer":"shadow","date":"2026-08-01","timeLocal":"18:00"},"geometry":{"type":"Polygon","coordinates":[[[127.05777,37.93734],[127.05777,37.93727],[127.05784,37.93727],[127.05783,37.93734],[127.05777,37.93734]]]}},{"type":"Feature","properties":{"valleyId":"soyosan","layer":"shadow","date":"2026-08-01","timeLocal":"18:00"},"geometry":{"type":"Polygon","coordinates":[[[127.04869,37.93804],[127.04869,37.93793],[127.04863,37.93789],[127.04861,37.9378],[127.04852,37.93777],[127.04852,37.93771],[127.04838,37.93762],[127.04839,37.93751],[127.04827,37.93751],[127.04827,37.93746],[127.04834,37.93746],[127.04834,37.93735],[127.04805,37.93734],[127.04805,37.93724],[127.04792,37.93723],[127.04792,37.93709],[127.04801,37.93709],[127.04801,37.93704],[127.04826,37.93702],[127.04828,37.93708],[127.0484,37.93708],[127.04839,37.93735],[127.04873,37.93736],[127.04872,37.93763],[127.04884,37.93763],[127.04886,37.93766],[127.04897,37.93768],[127.04897,37.93777],[127.04902,37.93777],[127.04901,37.93788],[127.04906,37.93788],[127.04906,37.93794],[127.04883,37.93802],[127.04869,37.93804]]]}},{"type":"Feature","properties":{"valleyId":"soyosan","layer":"shadow","date":"2026-08-01","timeLocal":"18:00"},"geometry":{"type":"Polygon","coordinates":[[[127.05456,37.93718],[127.05456,37.93713],[127.05463,37.93713],[127.05463,37.93718],[127.05456,37.93718]]]}},{"type":"Feature","properties":{"valleyId":"soyosan","layer":"shadow","date":"2026-08-01","timeLocal":"18:00"},"geometry":{"type":"Polygon","coordinates":[[[127.05015,37.93705],[127.05011,37.93698],[127.05011,37.93693],[127.05018,37.93693],[127.05022,37.93698],[127.05022,37.93706],[127.05015,37.93705]]]}},{"type":"Feature","properties":{"valleyId":"soyosan","layer":"shadow","date":"2026-08-01","timeLocal":"18:00"},"geometry":{"type":"Polygon","coordinates":[[[127.05796,37.93697],[127.05796,37.93691],[127.05803,37.93691],[127.05803,37.93697],[127.05796,37.93697]]]}},{"type":"Feature","properties":{"valleyId":"soyosan","layer":"shadow","date":"2026-08-01","timeLocal":"18:00"},"geometry":{"type":"Polygon","coordinates":[[[127.05787,37.93684],[127.05783,37.9368],[127.05783,37.93669],[127.0579,37.9367],[127.05789,37.93677],[127.05794,37.93679],[127.05794,37.93684],[127.05787,37.93684]]]}},{"type":"Feature","properties":{"valleyId":"soyosan","layer":"shadow","date":"2026-08-01","timeLocal":"18:00"},"geometry":{"type":"Polygon","coordinates":[[[127.05667,37.93648],[127.05668,37.93642],[127.05674,37.93642],[127.05674,37.93648],[127.05667,37.93648]]]}},{"type":"Feature","properties":{"valleyId":"soyosan","layer":"shadow","date":"2026-08-01","timeLocal":"18:00"},"geometry":{"type":"Polygon","coordinates":[[[127.05747,37.93638],[127.05747,37.93633],[127.05754,37.93633],[127.05754,37.93638],[127.05747,37.93638]]]}},{"type":"Feature","properties":{"valleyId":"soyosan","layer":"shadow","date":"2026-08-01","timeLocal":"18:00"},"geometry":{"type":"Polygon","coordinates":[[[127.04953,37.93623],[127.04951,37.93612],[127.04961,37.93613],[127.04965,37.93616],[127.04965,37.93622],[127.04953,37.93623]]]}},{"type":"Feature","properties":{"valleyId":"soyosan","layer":"shadow","date":"2026-08-01","timeLocal":"18:00"},"geometry":{"type":"Polygon","coordinates":[[[127.05438,37.93624],[127.05438,37.93613],[127.05448,37.93613],[127.05447,37.93622],[127.05438,37.93624]]]}},{"type":"Feature","properties":{"valleyId":"soyosan","layer":"shadow","date":"2026-08-01","timeLocal":"18:00"},"geometry":{"type":"Polygon","coordinates":[[[127.04945,37.93611],[127.04945,37.936],[127.04954,37.936],[127.04952,37.93611],[127.04945,37.93611]]]}},{"type":"Feature","properties":{"valleyId":"soyosan","layer":"shadow","date":"2026-08-01","timeLocal":"18:00"},"geometry":{"type":"Polygon","coordinates":[[[127.05434,37.9361],[127.05434,37.93604],[127.05441,37.93604],[127.05441,37.9361],[127.05434,37.9361]]]}},{"type":"Feature","properties":{"valleyId":"soyosan","layer":"shadow","date":"2026-08-01","timeLocal":"18:00"},"geometry":{"type":"Polygon","coordinates":[[[127.04939,37.93583],[127.04939,37.93576],[127.04946,37.93576],[127.04945,37.93584],[127.04939,37.93583]]]}},{"type":"Feature","properties":{"valleyId":"soyosan","layer":"shadow","date":"2026-08-01","timeLocal":"18:00"},"geometry":{"type":"Polygon","coordinates":[[[127.04673,37.93732],[127.04653,37.93698],[127.04632,37.93643],[127.0462,37.9358],[127.04621,37.93557],[127.04641,37.9356],[127.04657,37.93559],[127.0473,37.93566],[127.0478,37.93565],[127.04789,37.93572],[127.04809,37.93572],[127.04809,37.93592],[127.04818,37.93598],[127.04817,37.93605],[127.04808,37.93616],[127.04807,37.93653],[127.0478,37.93653],[127.04766,37.9366],[127.04757,37.9366],[127.04752,37.93661],[127.04752,37.93667],[127.04763,37.93669],[127.04763,37.93674],[127.04704,37.93689],[127.04703,37.93707],[127.04712,37.93708],[127.04712,37.93713],[127.04703,37.93718],[127.04703,37.93722],[127.04696,37.93727],[127.04689,37.93727],[127.04687,37.93732],[127.04673,37.93732]],[[127.04702,37.9358],[127.04711,37.9358],[127.04709,37.93569],[127.04702,37.93569],[127.04702,37.9358]]]}},{"type":"Feature","properties":{"valleyId":"soyosan","layer":"shadow","date":"2026-08-01","timeLocal":"18:00"},"geometry":{"type":"Polygon","coordinates":[[[127.04937,37.93564],[127.04937,37.93556],[127.04944,37.93556],[127.04944,37.93564],[127.04937,37.93564]]]}},{"type":"Feature","properties":{"valleyId":"soyosan","layer":"shadow","date":"2026-08-01","timeLocal":"18:00"},"geometry":{"type":"Polygon","coordinates":[[[127.05606,37.93555],[127.05606,37.93548],[127.05613,37.93548],[127.05613,37.93555],[127.05606,37.93555]]]}},{"type":"Feature","properties":{"valleyId":"soyosan","layer":"shadow","date":"2026-08-01","timeLocal":"18:00"},"geometry":{"type":"Polygon","coordinates":[[[127.04931,37.93526],[127.04931,37.9352],[127.04938,37.9352],[127.04938,37.93526],[127.04931,37.93526]]]}},{"type":"Feature","properties":{"valleyId":"soyosan","layer":"shadow","date":"2026-08-01","timeLocal":"18:00"},"geometry":{"type":"Polygon","coordinates":[[[127.05597,37.93538],[127.056,37.9352],[127.05623,37.93521],[127.05625,37.93532],[127.05613,37.93533],[127.05613,37.93537],[127.05597,37.93538]]]}},{"type":"Feature","properties":{"valleyId":"soyosan","layer":"shadow","date":"2026-08-01","timeLocal":"18:00"},"geometry":{"type":"Polygon","coordinates":[[[127.04931,37.93515],[127.04932,37.935],[127.04945,37.93501],[127.04943,37.93511],[127.04938,37.93511],[127.04938,37.93515],[127.04931,37.93515]]]}},{"type":"Feature","properties":{"valleyId":"soyosan","layer":"shadow","date":"2026-08-01","timeLocal":"18:00"},"geometry":{"type":"Polygon","coordinates":[[[127.04982,37.9348],[127.04982,37.93474],[127.04957,37.93472],[127.04953,37.9347],[127.04953,37.93465],[127.04962,37.93465],[127.04969,37.93469],[127.05008,37.93469],[127.05007,37.93476],[127.04996,37.9348],[127.04982,37.9348]]]}},{"type":"Feature","properties":{"valleyId":"soyosan","layer":"shadow","date":"2026-08-01","timeLocal":"18:00"},"geometry":{"type":"Polygon","coordinates":[[[127.0464,37.93515],[127.04626,37.93512],[127.04625,37.93494],[127.04616,37.93493],[127.04614,37.93474],[127.04616,37.93405],[127.04623,37.93376],[127.04635,37.93353],[127.04644,37.93353],[127.04646,37.93366],[127.04701,37.9337],[127.0471,37.93376],[127.04716,37.93376],[127.04719,37.93382],[127.04746,37.93382],[127.04746,37.93393],[127.04755,37.934],[127.04752,37.93416],[127.04761,37.93418],[127.04763,37.93422],[127.04765,37.93449],[127.04764,37.93456],[127.04758,37.93458],[127.04755,37.93463],[127.04744,37.9347],[127.04743,37.9349],[127.04727,37.93492],[127.04722,37.93497],[127.04709,37.935],[127.04708,37.93517],[127.0464,37.93515]]]}}]}
