{"type":"FeatureCollection","metadata":{"description":"개방지(CHM ≤ 2 m)에 드리운 나무·지형 그림자, 2026-08-01 17:00 KST. canopy 위에 겹쳐 그린다","source":"위성 기반 추정 — Copernicus GLO-30 지형(30 m) + Meta/WRI 수관 높이(1 m CHM, 2019 촬영). 그늘 = 수관(CHM > 2 m) ∪ 나무·지형 그림자 ∪ 원거리 지형 마스크. 현장과 다를 수 있음.","datasetVersion":"2026-09-06.0","collectedAt":"2026-09-06","coordinateOrder":"[longitude, latitude]","crs":"EPSG:4326","representativeDate":"2026-08-01","hours":["10:00","11:00","12:00","13:00","14:00","15:00","16:00","17:00","18:00"],"chmAcquisition":["2019-03"],"assets":{"glo30":{"dataset":"Copernicus DEM GLO-30 (COG, s3://copernicus-dem-30m)","tiles":["Copernicus_DSM_COG_10_N37_00_E126_00_DEM","Copernicus_DSM_COG_10_N37_00_E127_00_DEM"]},"chm":{"dataset":"Meta/WRI Global Canopy Height Map v1 (alsgedi_global_v6_float, 1 m, CC-BY 4.0)","quadkeys":["132110320"],"acquisition":["2019-03"]}},"method":{"gridResM":2,"canopyThresholdM":2,"bufferHalfM":25,"corridorHalfM":200,"simplifyTolM":2,"minAreaM2":25,"coordDecimals":5},"generator":"scripts/shade 0.1.0","builtAt":"2026-09-06T06:10:31Z","layer":"shadow","timeLocal":"17:00"},"features":[{"type":"Feature","properties":{"valleyId":"uidong","layer":"shadow","date":"2026-08-01","timeLocal":"17:00"},"geometry":{"type":"Polygon","coordinates":[[[126.99509,37.68553],[126.99507,37.68538],[126.99512,37.68538],[126.99512,37.68535],[126.99519,37.68535],[126.99516,37.68553],[126.99509,37.68553]]]}},{"type":"Feature","properties":{"valleyId":"uidong","layer":"shadow","date":"2026-08-01","timeLocal":"17:00"},"geometry":{"type":"Polygon","coordinates":[[[126.99489,37.68535],[126.9949,37.68513],[126.99492,37.68506],[126.99499,37.68506],[126.99499,37.68513],[126.99503,37.68513],[126.99503,37.68519],[126.99508,37.68519],[126.99507,37.68526],[126.99501,37.68526],[126.99498,37.68535],[126.99489,37.68535]]]}},{"type":"Feature","properties":{"valleyId":"uidong","layer":"shadow","date":"2026-08-01","timeLocal":"17:00"},"geometry":{"type":"Polygon","coordinates":[[[126.99494,37.68504],[126.99495,37.68495],[126.99501,37.68495],[126.99501,37.68504],[126.99494,37.68504]]]}},{"type":"Feature","properties":{"valleyId":"uidong","layer":"shadow","date":"2026-08-01","timeLocal":"17:00"},"geometry":{"type":"Polygon","coordinates":[[[127.00978,37.68493],[127.00978,37.68488],[127.00985,37.68488],[127.00985,37.68493],[127.00978,37.68493]]]}},{"type":"Feature","properties":{"valleyId":"uidong","layer":"shadow","date":"2026-08-01","timeLocal":"17:00"},"geometry":{"type":"Polygon","coordinates":[[[126.99654,37.68476],[126.99659,37.68465],[126.99668,37.68464],[126.99668,37.68471],[126.99661,37.68473],[126.99661,37.68476],[126.99654,37.68476]]]}},{"type":"Feature","properties":{"valleyId":"uidong","layer":"shadow","date":"2026-08-01","timeLocal":"17:00"},"geometry":{"type":"Polygon","coordinates":[[[127.00985,37.68488],[127.00985,37.68481],[127.00996,37.68483],[127.00996,37.68488],[127.00985,37.68488]]]}},{"type":"Feature","properties":{"valleyId":"uidong","layer":"shadow","date":"2026-08-01","timeLocal":"17:00"},"geometry":{"type":"Polygon","coordinates":[[[126.99691,37.68455],[126.99691,37.68448],[126.99698,37.68448],[126.99698,37.68455],[126.99691,37.68455]]]}},{"type":"Feature","properties":{"valleyId":"uidong","layer":"shadow","date":"2026-08-01","timeLocal":"17:00"},"geometry":{"type":"Polygon","coordinates":[[[127.00967,37.68486],[127.00953,37.68476],[127.00954,37.68469],[127.00978,37.68473],[127.00978,37.6848],[127.00974,37.68482],[127.00974,37.68486],[127.00967,37.68486]]]}},{"type":"Feature","properties":{"valleyId":"uidong","layer":"shadow","date":"2026-08-01","timeLocal":"17:00"},"geometry":{"type":"Polygon","coordinates":[[[126.99671,37.68446],[126.99671,37.68438],[126.99678,37.68439],[126.9968,37.68446],[126.99671,37.68446]]]}},{"type":"Feature","properties":{"valleyId":"uidong","layer":"shadow","date":"2026-08-01","timeLocal":"17:00"},"geometry":{"type":"Polygon","coordinates":[[[126.99707,37.68441],[126.99707,37.68432],[126.99714,37.68428],[126.99714,37.68421],[126.99721,37.68421],[126.99718,37.68437],[126.99714,37.68441],[126.99707,37.68441]]]}},{"type":"Feature","properties":{"valleyId":"uidong","layer":"shadow","date":"2026-08-01","timeLocal":"17:00"},"geometry":{"type":"Polygon","coordinates":[[[126.99696,37.68424],[126.99699,37.68414],[126.99705,37.68414],[126.99708,37.68421],[126.99703,37.68425],[126.99696,37.68424]]]}},{"type":"Feature","properties":{"valleyId":"uidong","layer":"shadow","date":"2026-08-01","timeLocal":"17:00"},"geometry":{"type":"Polygon","coordinates":[[[127.00928,37.68411],[127.0091,37.68407],[127.00906,37.68402],[127.00892,37.68401],[127.00888,37.68392],[127.00888,37.68382],[127.00917,37.68382],[127.00926,37.68388],[127.00935,37.68388],[127.0094,37.68391],[127.0094,37.68402],[127.00944,37.68402],[127.00944,37.68408],[127.00937,37.68411],[127.00928,37.68411]]]}},{"type":"Feature","properties":{"valleyId":"uidong","layer":"shadow","date":"2026-08-01","timeLocal":"17:00"},"geometry":{"type":"Polygon","coordinates":[[[127.00881,37.68369],[127.00882,37.68362],[127.00888,37.68362],[127.00888,37.68369],[127.00881,37.68369]]]}},{"type":"Feature","properties":{"valleyId":"uidong","layer":"shadow","date":"2026-08-01","timeLocal":"17:00"},"geometry":{"type":"Polygon","coordinates":[[[127.01083,37.6837],[127.01074,37.68363],[127.01065,37.68361],[127.01068,37.68352],[127.01088,37.68349],[127.011,37.68349],[127.01102,37.68353],[127.01127,37.68353],[127.01122,37.68364],[127.01102,37.68364],[127.01099,37.68367],[127.01083,37.6837]]]}},{"type":"Feature","properties":{"valleyId":"uidong","layer":"shadow","date":"2026-08-01","timeLocal":"17:00"},"geometry":{"type":"Polygon","coordinates":[[[127.0117,37.68356],[127.01163,37.68354],[127.01159,37.68348],[127.0115,37.68348],[127.01145,37.68337],[127.01163,37.68341],[127.0117,37.68334],[127.01177,37.68334],[127.0118,37.68325],[127.01187,37.68325],[127.01191,37.68327],[127.01193,37.68336],[127.01202,37.6834],[127.01202,37.68353],[127.0117,37.68356]]]}},{"type":"Feature","properties":{"valleyId":"uidong","layer":"shadow","date":"2026-08-01","timeLocal":"17:00"},"geometry":{"type":"Polygon","coordinates":[[[127.01221,37.68324],[127.01221,37.68317],[127.0121,37.6831],[127.0121,37.68302],[127.01237,37.68303],[127.01239,37.68299],[127.01246,37.68299],[127.01243,37.68323],[127.01221,37.68324]]]}},{"type":"Feature","properties":{"valleyId":"uidong","layer":"shadow","date":"2026-08-01","timeLocal":"17:00"},"geometry":{"type":"Polygon","coordinates":[[[127.01173,37.68307],[127.01171,37.683],[127.0118,37.68298],[127.0118,37.68307],[127.01173,37.68307]]]}},{"type":"Feature","properties":{"valleyId":"uidong","layer":"shadow","date":"2026-08-01","timeLocal":"17:00"},"geometry":{"type":"Polygon","coordinates":[[[127.01013,37.68375],[127.01008,37.68373],[127.01006,37.68364],[127.01007,37.68357],[127.01013,37.68357],[127.01014,37.68342],[127.01007,37.68342],[127.00996,37.68333],[127.00996,37.68328],[127.01005,37.68319],[127.01005,37.68313],[127.00999,37.6831],[127.00999,37.68302],[127.01031,37.68301],[127.01027,37.68285],[127.01049,37.68285],[127.0105,37.68274],[127.01061,37.68271],[127.01061,37.68266],[127.0107,37.68258],[127.01073,37.68242],[127.01066,37.68239],[127.01044,37.68238],[127.01025,37.68247],[127.01016,37.68247],[127.0101,37.68241],[127.00994,37.68239],[127.00994,37.68232],[127.00996,37.68228],[127.01019,37.68222],[127.01019,37.68211],[127.01031,37.68211],[127.01033,37.68206],[127.01047,37.68206],[127.01044,37.68218],[127.01053,37.68222],[127.01053,37.68231],[127.0108,37.68233],[127.0108,37.6825],[127.01084,37.6825],[127.01084,37.68255],[127.01093,37.68261],[127.01109,37.68263],[127.01113,37.6827],[127.0111,37.68288],[127.01115,37.68292],[127.01124,37.68292],[127.01131,37.68287],[127.01147,37.68285],[127.01147,37.6829],[127.0114,37.6829],[127.01139,37.68305],[127.01128,37.68305],[127.01126,37.68297],[127.01115,37.68299],[127.01114,37.68306],[127.0113,37.68306],[127.01135,37.68314],[127.01134,37.68323],[127.01121,37.68322],[127.01119,37.68319],[127.0111,37.68319],[127.01105,37.68322],[127.01105,37.68333],[127.01084,37.68333],[127.01073,37.68322],[127.01057,37.6832],[127.01053,37.6833],[127.01041,37.68335],[127.01036,37.68348],[127.01032,37.68348],[127.01018,37.68359],[127.01015,37.68368],[127.0102,37.68369],[127.0102,37.68375],[127.01013,37.68375]]]}},{"type":"Feature","properties":{"valleyId":"uidong","layer":"shadow","date":"2026-08-01","timeLocal":"17:00"},"geometry":{"type":"Polygon","coordinates":[[[127.00995,37.68207],[127.00995,37.68187],[127.01011,37.6818],[127.01018,37.6818],[127.01018,37.68186],[127.01013,37.68185],[127.01013,37.68194],[127.01022,37.68196],[127.01024,37.68204],[127.01011,37.68203],[127.01011,37.68207],[127.00995,37.68207]]]}},{"type":"Feature","properties":{"valleyId":"uidong","layer":"shadow","date":"2026-08-01","timeLocal":"17:00"},"geometry":{"type":"Polygon","coordinates":[[[127.01195,37.68188],[127.01195,37.68179],[127.01206,37.68181],[127.01206,37.68189],[127.01195,37.68188]]]}},{"type":"Feature","properties":{"valleyId":"uidong","layer":"shadow","date":"2026-08-01","timeLocal":"17:00"},"geometry":{"type":"Polygon","coordinates":[[[127.01066,37.68179],[127.01066,37.6817],[127.01071,37.68167],[127.01098,37.68163],[127.01098,37.68169],[127.01091,37.68169],[127.01084,37.68178],[127.01066,37.68179]]]}},{"type":"Feature","properties":{"valleyId":"uidong","layer":"shadow","date":"2026-08-01","timeLocal":"17:00"},"geometry":{"type":"Polygon","coordinates":[[[127.00304,37.67818],[127.00304,37.67813],[127.00311,37.67813],[127.00311,37.67818],[127.00304,37.67818]]]}},{"type":"Feature","properties":{"valleyId":"uidong","layer":"shadow","date":"2026-08-01","timeLocal":"17:00"},"geometry":{"type":"Polygon","coordinates":[[[127.00188,37.67746],[127.00188,37.67741],[127.00195,37.67741],[127.00195,37.67746],[127.00188,37.67746]]]}},{"type":"Feature","properties":{"valleyId":"uidong","layer":"shadow","date":"2026-08-01","timeLocal":"17:00"},"geometry":{"type":"Polygon","coordinates":[[[127.00147,37.67841],[127.00138,37.67832],[127.00137,37.67814],[127.00138,37.67778],[127.00151,37.67769],[127.00152,37.67756],[127.00145,37.67753],[127.00143,37.67742],[127.00152,37.67742],[127.00157,37.67738],[127.00157,37.67731],[127.00166,37.67731],[127.00175,37.67728],[127.00182,37.67719],[127.00191,37.67719],[127.00194,37.67687],[127.00206,37.67687],[127.00208,37.67705],[127.002,37.67721],[127.00193,37.67723],[127.00184,37.67732],[127.0018,37.67732],[127.00175,37.67739],[127.00161,37.6774],[127.00163,37.67753],[127.00179,37.67755],[127.00179,37.67771],[127.00169,37.67771],[127.00167,37.67775],[127.00163,37.67775],[127.00162,37.6778],[127.00169,37.67787],[127.00169,37.67794],[127.00155,37.67798],[127.00155,37.67816],[127.00161,37.67818],[127.00161,37.67823],[127.00156,37.67841],[127.00147,37.67841]]]}},{"type":"Feature","properties":{"valleyId":"uidong","layer":"shadow","date":"2026-08-01","timeLocal":"17:00"},"geometry":{"type":"Polygon","coordinates":[[[127.00253,37.6769],[127.00254,37.67682],[127.0026,37.67682],[127.0026,37.6769],[127.00253,37.6769]]]}},{"type":"Feature","properties":{"valleyId":"uidong","layer":"shadow","date":"2026-08-01","timeLocal":"17:00"},"geometry":{"type":"Polygon","coordinates":[[[127.00112,37.67642],[127.00112,37.67633],[127.00123,37.67631],[127.00123,37.67639],[127.00119,37.67642],[127.00112,37.67642]]]}},{"type":"Feature","properties":{"valleyId":"uidong","layer":"shadow","date":"2026-08-01","timeLocal":"17:00"},"geometry":{"type":"Polygon","coordinates":[[[127.00141,37.67632],[127.00144,37.67619],[127.00153,37.67618],[127.00155,37.67627],[127.00148,37.67632],[127.00141,37.67632]]]}},{"type":"Feature","properties":{"valleyId":"uidong","layer":"shadow","date":"2026-08-01","timeLocal":"17:00"},"geometry":{"type":"Polygon","coordinates":[[[127.00246,37.67621],[127.00244,37.67612],[127.00251,37.67612],[127.00253,37.67621],[127.00246,37.67621]]]}},{"type":"Feature","properties":{"valleyId":"uidong","layer":"shadow","date":"2026-08-01","timeLocal":"17:00"},"geometry":{"type":"Polygon","coordinates":[[[127.00219,37.6761],[127.00219,37.67604],[127.00226,37.67604],[127.00226,37.6761],[127.00219,37.6761]]]}},{"type":"Feature","properties":{"valleyId":"uidong","layer":"shadow","date":"2026-08-01","timeLocal":"17:00"},"geometry":{"type":"Polygon","coordinates":[[[127.00269,37.67625],[127.00265,37.67605],[127.00278,37.67603],[127.00278,37.67611],[127.00274,37.67611],[127.00273,37.67616],[127.00282,37.67618],[127.00282,37.67623],[127.00269,37.67625]]]}},{"type":"Feature","properties":{"valleyId":"uidong","layer":"shadow","date":"2026-08-01","timeLocal":"17:00"},"geometry":{"type":"Polygon","coordinates":[[[127.00201,37.67618],[127.00194,37.67613],[127.00195,37.67589],[127.00202,37.6759],[127.00206,37.67593],[127.00203,37.67609],[127.00208,37.67609],[127.00208,37.67618],[127.00201,37.67618]]]}},{"type":"Feature","properties":{"valleyId":"uidong","layer":"shadow","date":"2026-08-01","timeLocal":"17:00"},"geometry":{"type":"Polygon","coordinates":[[[127.00276,37.67596],[127.00279,37.67575],[127.00293,37.67571],[127.00292,37.67593],[127.00288,37.67593],[127.00285,37.67596],[127.00276,37.67596]]]}},{"type":"Feature","properties":{"valleyId":"uidong","layer":"shadow","date":"2026-08-01","timeLocal":"17:00"},"geometry":{"type":"Polygon","coordinates":[[[127.00293,37.67569],[127.00293,37.67564],[127.00302,37.67557],[127.00311,37.67557],[127.00311,37.67563],[127.00304,37.67568],[127.00293,37.67569]]]}},{"type":"Feature","properties":{"valleyId":"uidong","layer":"shadow","date":"2026-08-01","timeLocal":"17:00"},"geometry":{"type":"Polygon","coordinates":[[[127.00311,37.67557],[127.00311,37.6755],[127.00321,37.67546],[127.00321,37.67534],[127.00332,37.67536],[127.00334,37.67543],[127.00323,37.67547],[127.00323,37.67556],[127.00311,37.67557]]]}},{"type":"Feature","properties":{"valleyId":"uidong","layer":"shadow","date":"2026-08-01","timeLocal":"17:00"},"geometry":{"type":"Polygon","coordinates":[[[127.00469,37.67336],[127.00469,37.67329],[127.00476,37.67329],[127.00476,37.67336],[127.00469,37.67336]]]}},{"type":"Feature","properties":{"valleyId":"uidong","layer":"shadow","date":"2026-08-01","timeLocal":"17:00"},"geometry":{"type":"Polygon","coordinates":[[[127.00515,37.67324],[127.00515,37.67317],[127.00522,37.67317],[127.00522,37.67325],[127.00515,37.67324]]]}},{"type":"Feature","properties":{"valleyId":"uidong","layer":"shadow","date":"2026-08-01","timeLocal":"17:00"},"geometry":{"type":"Polygon","coordinates":[[[127.00446,37.6735],[127.0044,37.67338],[127.0044,37.67327],[127.00435,37.67325],[127.00436,37.6732],[127.00431,37.67319],[127.00431,37.67314],[127.00438,37.67314],[127.00438,37.6732],[127.00445,37.6732],[127.00453,37.67329],[127.00455,37.67349],[127.00446,37.6735]]]}},{"type":"Feature","properties":{"valleyId":"uidong","layer":"shadow","date":"2026-08-01","timeLocal":"17:00"},"geometry":{"type":"Polygon","coordinates":[[[127.00486,37.67315],[127.00484,37.67306],[127.00493,37.67306],[127.00495,37.67315],[127.00486,37.67315]]]}},{"type":"Feature","properties":{"valleyId":"uidong","layer":"shadow","date":"2026-08-01","timeLocal":"17:00"},"geometry":{"type":"Polygon","coordinates":[[[127.0052,37.67305],[127.00523,37.6729],[127.00529,37.6729],[127.00529,37.67294],[127.00538,37.67296],[127.00536,37.67303],[127.0052,37.67305]]]}},{"type":"Feature","properties":{"valleyId":"uidong","layer":"shadow","date":"2026-08-01","timeLocal":"17:00"},"geometry":{"type":"Polygon","coordinates":[[[127.00371,37.67358],[127.00371,37.67351],[127.00381,37.67342],[127.00381,37.67324],[127.00386,37.67319],[127.00395,37.67317],[127.00393,37.67301],[127.00398,37.67297],[127.00398,37.67279],[127.00403,37.67276],[127.0041,37.67276],[127.00411,37.67297],[127.00407,37.67297],[127.00404,37.67301],[127.00409,37.67314],[127.00404,37.67317],[127.00397,37.67317],[127.00395,37.67324],[127.00394,37.6734],[127.00399,37.67341],[127.00399,37.67344],[127.00405,37.67344],[127.00405,37.6735],[127.00398,37.6735],[127.00399,37.67346],[127.0039,37.67346],[127.00387,37.67358],[127.00371,37.67358]]]}},{"type":"Feature","properties":{"valleyId":"uidong","layer":"shadow","date":"2026-08-01","timeLocal":"17:00"},"geometry":{"type":"Polygon","coordinates":[[[127.00412,37.67276],[127.00415,37.67258],[127.00419,37.67254],[127.00426,37.67254],[127.00426,37.67269],[127.00419,37.67276],[127.00412,37.67276]]]}},{"type":"Feature","properties":{"valleyId":"uidong","layer":"shadow","date":"2026-08-01","timeLocal":"17:00"},"geometry":{"type":"Polygon","coordinates":[[[127.00483,37.67252],[127.00481,37.67245],[127.00492,37.67245],[127.00492,37.67252],[127.00483,37.67252]]]}},{"type":"Feature","properties":{"valleyId":"uidong","layer":"shadow","date":"2026-08-01","timeLocal":"17:00"},"geometry":{"type":"Polygon","coordinates":[[[127.00433,37.67247],[127.00433,37.67238],[127.00442,37.67239],[127.00442,37.67246],[127.00433,37.67247]]]}},{"type":"Feature","properties":{"valleyId":"uidong","layer":"shadow","date":"2026-08-01","timeLocal":"17:00"},"geometry":{"type":"Polygon","coordinates":[[[127.00519,37.67265],[127.00519,37.6726],[127.00526,37.67254],[127.00526,37.67251],[127.00542,37.67251],[127.00544,37.67242],[127.00556,37.67239],[127.00556,37.67226],[127.0057,37.6723],[127.00565,37.67242],[127.00546,37.67251],[127.00544,37.6726],[127.00532,37.67262],[127.00528,37.67265],[127.00519,37.67265]]]}},{"type":"Feature","properties":{"valleyId":"uidong","layer":"shadow","date":"2026-08-01","timeLocal":"17:00"},"geometry":{"type":"Polygon","coordinates":[[[127.00608,37.67231],[127.00611,37.6722],[127.00617,37.6722],[127.00617,37.67229],[127.00608,37.67231]]]}},{"type":"Feature","properties":{"valleyId":"uidong","layer":"shadow","date":"2026-08-01","timeLocal":"17:00"},"geometry":{"type":"Polygon","coordinates":[[[127.00253,37.67208],[127.00253,37.67203],[127.0026,37.67203],[127.00259,37.67208],[127.00253,37.67208]]]}},{"type":"Feature","properties":{"valleyId":"uidong","layer":"shadow","date":"2026-08-01","timeLocal":"17:00"},"geometry":{"type":"Polygon","coordinates":[[[127.00674,37.67208],[127.00675,37.67201],[127.00681,37.67201],[127.00681,37.67208],[127.00674,37.67208]]]}},{"type":"Feature","properties":{"valleyId":"uidong","layer":"shadow","date":"2026-08-01","timeLocal":"17:00"},"geometry":{"type":"Polygon","coordinates":[[[127.00337,37.67199],[127.00337,37.67193],[127.00346,37.67192],[127.00346,37.67197],[127.00337,37.67199]]]}},{"type":"Feature","properties":{"valleyId":"uidong","layer":"shadow","date":"2026-08-01","timeLocal":"17:00"},"geometry":{"type":"Polygon","coordinates":[[[127.00407,37.67198],[127.00403,37.67196],[127.00403,37.67191],[127.00414,37.67193],[127.00414,37.67198],[127.00407,37.67198]]]}},{"type":"Feature","properties":{"valleyId":"uidong","layer":"shadow","date":"2026-08-01","timeLocal":"17:00"},"geometry":{"type":"Polygon","coordinates":[[[127.00584,37.67198],[127.00582,37.67185],[127.00589,37.67185],[127.00591,37.67198],[127.00584,37.67198]]]}},{"type":"Feature","properties":{"valleyId":"uidong","layer":"shadow","date":"2026-08-01","timeLocal":"17:00"},"geometry":{"type":"Polygon","coordinates":[[[127.00187,37.67198],[127.0018,37.67194],[127.00181,37.67189],[127.00197,37.67186],[127.00197,37.6718],[127.00201,37.67177],[127.0021,37.67177],[127.0021,37.67182],[127.00199,37.67186],[127.00196,37.67198],[127.00187,37.67198]]]}},{"type":"Feature","properties":{"valleyId":"uidong","layer":"shadow","date":"2026-08-01","timeLocal":"17:00"},"geometry":{"type":"Polygon","coordinates":[[[127.00531,37.67226],[127.00531,37.67218],[127.00545,37.67217],[127.00545,37.6721],[127.00532,37.67206],[127.0053,37.67177],[127.00517,37.67175],[127.00519,37.67155],[127.00528,37.67155],[127.00531,37.67159],[127.00535,37.67159],[127.00532,37.67177],[127.00544,37.67179],[127.00546,37.67183],[127.00553,37.67183],[127.00557,37.67186],[127.00555,37.67197],[127.00563,37.67201],[127.00566,37.6721],[127.00572,37.67212],[127.00572,37.67217],[127.00568,37.67219],[127.00561,37.67219],[127.00561,37.67212],[127.00554,37.67212],[127.00554,37.67217],[127.00549,37.67217],[127.00549,37.67226],[127.00531,37.67226]]]}},{"type":"Feature","properties":{"valleyId":"uidong","layer":"shadow","date":"2026-08-01","timeLocal":"17:00"},"geometry":{"type":"Polygon","coordinates":[[[127.00438,37.67157],[127.00438,37.67147],[127.00445,37.67147],[127.00444,37.67157],[127.00438,37.67157]]]}},{"type":"Feature","properties":{"valleyId":"uidong","layer":"shadow","date":"2026-08-01","timeLocal":"17:00"},"geometry":{"type":"Polygon","coordinates":[[[127.00388,37.6716],[127.00388,37.67151],[127.00395,37.67142],[127.00395,37.6713],[127.00404,37.6713],[127.00404,37.67133],[127.00409,37.67133],[127.00409,37.67139],[127.00404,37.67141],[127.00401,37.67155],[127.00397,37.67155],[127.00394,37.6716],[127.00388,37.6716]]]}},{"type":"Feature","properties":{"valleyId":"uidong","layer":"shadow","date":"2026-08-01","timeLocal":"17:00"},"geometry":{"type":"Polygon","coordinates":[[[127.0061,37.67149],[127.00615,37.67133],[127.00622,37.67133],[127.00622,37.67146],[127.00617,37.6715],[127.0061,37.67149]]]}},{"type":"Feature","properties":{"valleyId":"uidong","layer":"shadow","date":"2026-08-01","timeLocal":"17:00"},"geometry":{"type":"Polygon","coordinates":[[[127.00529,37.67125],[127.00529,37.67117],[127.00536,37.67118],[127.00536,37.67125],[127.00529,37.67125]]]}},{"type":"Feature","properties":{"valleyId":"uidong","layer":"shadow","date":"2026-08-01","timeLocal":"17:00"},"geometry":{"type":"Polygon","coordinates":[[[127.00432,37.67125],[127.00432,37.67112],[127.00439,37.67112],[127.00439,37.67125],[127.00432,37.67125]]]}},{"type":"Feature","properties":{"valleyId":"uidong","layer":"shadow","date":"2026-08-01","timeLocal":"17:00"},"geometry":{"type":"Polygon","coordinates":[[[127.00452,37.67118],[127.00453,37.67111],[127.00459,37.67111],[127.00459,37.67118],[127.00452,37.67118]]]}},{"type":"Feature","properties":{"valleyId":"uidong","layer":"shadow","date":"2026-08-01","timeLocal":"17:00"},"geometry":{"type":"Polygon","coordinates":[[[127.00647,37.67119],[127.00648,37.67109],[127.00657,37.67109],[127.00659,37.67118],[127.00647,37.67119]]]}},{"type":"Feature","properties":{"valleyId":"uidong","layer":"shadow","date":"2026-08-01","timeLocal":"17:00"},"geometry":{"type":"Polygon","coordinates":[[[127.00552,37.67114],[127.00552,37.67103],[127.00559,37.67104],[127.00561,37.67111],[127.00559,37.67114],[127.00552,37.67114]]]}},{"type":"Feature","properties":{"valleyId":"uidong","layer":"shadow","date":"2026-08-01","timeLocal":"17:00"},"geometry":{"type":"Polygon","coordinates":[[[127.00684,37.67109],[127.00684,37.67102],[127.00691,37.67102],[127.00691,37.67109],[127.00684,37.67109]]]}},{"type":"Feature","properties":{"valleyId":"uidong","layer":"shadow","date":"2026-08-01","timeLocal":"17:00"},"geometry":{"type":"Polygon","coordinates":[[[127.00718,37.67095],[127.00716,37.67085],[127.00723,37.67085],[127.00725,37.67096],[127.00718,37.67095]]]}},{"type":"Feature","properties":{"valleyId":"uidong","layer":"shadow","date":"2026-08-01","timeLocal":"17:00"},"geometry":{"type":"Polygon","coordinates":[[[127.00555,37.67076],[127.00556,37.67071],[127.00562,37.67071],[127.00562,37.67077],[127.00555,37.67076]]]}},{"type":"Feature","properties":{"valleyId":"uidong","layer":"shadow","date":"2026-08-01","timeLocal":"17:00"},"geometry":{"type":"Polygon","coordinates":[[[127.00367,37.67075],[127.00368,37.67066],[127.00374,37.67066],[127.00374,37.67075],[127.00367,37.67075]]]}},{"type":"Feature","properties":{"valleyId":"uidong","layer":"shadow","date":"2026-08-01","timeLocal":"17:00"},"geometry":{"type":"Polygon","coordinates":[[[127.00492,37.6707],[127.00492,37.67065],[127.00499,37.67065],[127.00499,37.6707],[127.00492,37.6707]]]}},{"type":"Feature","properties":{"valleyId":"uidong","layer":"shadow","date":"2026-08-01","timeLocal":"17:00"},"geometry":{"type":"Polygon","coordinates":[[[127.00313,37.67067],[127.003,37.67061],[127.003,37.6705],[127.00316,37.67051],[127.00322,37.67067],[127.00313,37.67067]]]}},{"type":"Feature","properties":{"valleyId":"uidong","layer":"shadow","date":"2026-08-01","timeLocal":"17:00"},"geometry":{"type":"Polygon","coordinates":[[[127.00594,37.67063],[127.00595,37.67055],[127.00601,37.67056],[127.00601,37.67063],[127.00594,37.67063]]]}},{"type":"Feature","properties":{"valleyId":"uidong","layer":"shadow","date":"2026-08-01","timeLocal":"17:00"},"geometry":{"type":"Polygon","coordinates":[[[127.00622,37.67058],[127.00624,37.67049],[127.00631,37.67049],[127.00631,37.67058],[127.00622,37.67058]]]}},{"type":"Feature","properties":{"valleyId":"uidong","layer":"shadow","date":"2026-08-01","timeLocal":"17:00"},"geometry":{"type":"Polygon","coordinates":[[[127.00724,37.67058],[127.00726,37.67049],[127.00733,37.67049],[127.00735,37.67056],[127.00724,37.67058]]]}},{"type":"Feature","properties":{"valleyId":"uidong","layer":"shadow","date":"2026-08-01","timeLocal":"17:00"},"geometry":{"type":"Polygon","coordinates":[[[127.0068,37.67079],[127.00679,37.67048],[127.00688,37.67048],[127.00687,37.67079],[127.0068,37.67079]]]}},{"type":"Feature","properties":{"valleyId":"uidong","layer":"shadow","date":"2026-08-01","timeLocal":"17:00"},"geometry":{"type":"Polygon","coordinates":[[[127.003,37.6704],[127.003,37.67034],[127.00307,37.67034],[127.00307,37.6704],[127.003,37.6704]]]}},{"type":"Feature","properties":{"valleyId":"uidong","layer":"shadow","date":"2026-08-01","timeLocal":"17:00"},"geometry":{"type":"Polygon","coordinates":[[[127.00645,37.67053],[127.00647,37.67038],[127.00654,37.67038],[127.00651,37.67053],[127.00645,37.67053]]]}},{"type":"Feature","properties":{"valleyId":"uidong","layer":"shadow","date":"2026-08-01","timeLocal":"17:00"},"geometry":{"type":"Polygon","coordinates":[[[127.00629,37.67045],[127.00629,37.67038],[127.00636,37.67038],[127.00636,37.67045],[127.00629,37.67045]]]}},{"type":"Feature","properties":{"valleyId":"uidong","layer":"shadow","date":"2026-08-01","timeLocal":"17:00"},"geometry":{"type":"Polygon","coordinates":[[[127.00616,37.67032],[127.00616,37.67027],[127.00625,37.67025],[127.00625,37.67033],[127.00616,37.67032]]]}},{"type":"Feature","properties":{"valleyId":"uidong","layer":"shadow","date":"2026-08-01","timeLocal":"17:00"},"geometry":{"type":"Polygon","coordinates":[[[127.00708,37.67036],[127.00709,37.67025],[127.00716,37.67025],[127.0072,37.67029],[127.0072,37.67036],[127.00708,37.67036]]]}},{"type":"Feature","properties":{"valleyId":"uidong","layer":"shadow","date":"2026-08-01","timeLocal":"17:00"},"geometry":{"type":"Polygon","coordinates":[[[127.00323,37.67045],[127.00321,37.67018],[127.0033,37.67017],[127.00334,37.67044],[127.00323,37.67045]]]}},{"type":"Feature","properties":{"valleyId":"uidong","layer":"shadow","date":"2026-08-01","timeLocal":"17:00"},"geometry":{"type":"Polygon","coordinates":[[[127.00764,37.67002],[127.00764,37.66997],[127.00771,37.66997],[127.00771,37.67003],[127.00764,37.67002]]]}},{"type":"Feature","properties":{"valleyId":"uidong","layer":"shadow","date":"2026-08-01","timeLocal":"17:00"},"geometry":{"type":"Polygon","coordinates":[[[127.00627,37.67022],[127.00628,37.67009],[127.00632,37.67009],[127.00634,37.67006],[127.00639,37.66988],[127.00644,37.66986],[127.00649,37.66975],[127.00658,37.66974],[127.00658,37.66981],[127.00651,37.66984],[127.00648,37.6699],[127.00646,37.67004],[127.00641,37.67006],[127.00634,37.67022],[127.00627,37.67022]]]}},{"type":"Feature","properties":{"valleyId":"uidong","layer":"shadow","date":"2026-08-01","timeLocal":"17:00"},"geometry":{"type":"Polygon","coordinates":[[[127.0069,37.66972],[127.0069,37.66963],[127.00697,37.66963],[127.00699,37.66973],[127.0069,37.66972]]]}},{"type":"Feature","properties":{"valleyId":"uidong","layer":"shadow","date":"2026-08-01","timeLocal":"17:00"},"geometry":{"type":"Polygon","coordinates":[[[127.00765,37.66965],[127.00765,37.66957],[127.00774,37.66958],[127.00774,37.66963],[127.00765,37.66965]]]}},{"type":"Feature","properties":{"valleyId":"uidong","layer":"shadow","date":"2026-08-01","timeLocal":"17:00"},"geometry":{"type":"Polygon","coordinates":[[[127.0079,37.6696],[127.0079,37.66952],[127.00797,37.66953],[127.00799,37.6696],[127.0079,37.6696]]]}},{"type":"Feature","properties":{"valleyId":"uidong","layer":"shadow","date":"2026-08-01","timeLocal":"17:00"},"geometry":{"type":"Polygon","coordinates":[[[127.0084,37.66939],[127.0084,37.66933],[127.00847,37.66934],[127.00847,37.66939],[127.0084,37.66939]]]}},{"type":"Feature","properties":{"valleyId":"uidong","layer":"shadow","date":"2026-08-01","timeLocal":"17:00"},"geometry":{"type":"Polygon","coordinates":[[[127.00727,37.66939],[127.00725,37.66922],[127.00732,37.66923],[127.00736,37.66939],[127.00727,37.66939]]]}},{"type":"Feature","properties":{"valleyId":"uidong","layer":"shadow","date":"2026-08-01","timeLocal":"17:00"},"geometry":{"type":"Polygon","coordinates":[[[127.00658,37.66972],[127.00659,37.66952],[127.0067,37.66936],[127.00677,37.66934],[127.00678,37.66916],[127.00689,37.66907],[127.00696,37.66908],[127.00696,37.66924],[127.00709,37.66922],[127.00711,37.66931],[127.00693,37.66936],[127.0069,37.66945],[127.00681,37.66947],[127.00679,37.66958],[127.00674,37.66958],[127.00672,37.6697],[127.00658,37.66972]]]}},{"type":"Feature","properties":{"valleyId":"uidong","layer":"shadow","date":"2026-08-01","timeLocal":"17:00"},"geometry":{"type":"Polygon","coordinates":[[[127.0082,37.66865],[127.0082,37.66856],[127.00827,37.66856],[127.00826,37.66865],[127.0082,37.66865]]]}},{"type":"Feature","properties":{"valleyId":"uidong","layer":"shadow","date":"2026-08-01","timeLocal":"17:00"},"geometry":{"type":"Polygon","coordinates":[[[127.00655,37.66847],[127.00655,37.66842],[127.00662,37.66842],[127.00661,37.66848],[127.00655,37.66847]]]}},{"type":"Feature","properties":{"valleyId":"uidong","layer":"shadow","date":"2026-08-01","timeLocal":"17:00"},"geometry":{"type":"Polygon","coordinates":[[[127.00747,37.66854],[127.00745,37.66847],[127.00752,37.66842],[127.00759,37.66842],[127.00759,37.66855],[127.00747,37.66854]]]}},{"type":"Feature","properties":{"valleyId":"uidong","layer":"shadow","date":"2026-08-01","timeLocal":"17:00"},"geometry":{"type":"Polygon","coordinates":[[[127.00673,37.66837],[127.00678,37.66823],[127.00687,37.66823],[127.00687,37.66828],[127.0068,37.66833],[127.0068,37.66837],[127.00673,37.66837]]]}},{"type":"Feature","properties":{"valleyId":"uidong","layer":"shadow","date":"2026-08-01","timeLocal":"17:00"},"geometry":{"type":"Polygon","coordinates":[[[127.00807,37.66834],[127.00807,37.66827],[127.00812,37.66825],[127.00812,37.66821],[127.00821,37.6682],[127.0082,37.66832],[127.00807,37.66834]]]}},{"type":"Feature","properties":{"valleyId":"uidong","layer":"shadow","date":"2026-08-01","timeLocal":"17:00"},"geometry":{"type":"Polygon","coordinates":[[[127.01113,37.66815],[127.01114,37.66808],[127.01125,37.66807],[127.01125,37.66812],[127.0112,37.66812],[127.0112,37.66816],[127.01113,37.66815]]]}},{"type":"Feature","properties":{"valleyId":"uidong","layer":"shadow","date":"2026-08-01","timeLocal":"17:00"},"geometry":{"type":"Polygon","coordinates":[[[127.0076,37.66804],[127.0076,37.66797],[127.00767,37.66797],[127.00767,37.66804],[127.0076,37.66804]]]}},{"type":"Feature","properties":{"valleyId":"uidong","layer":"shadow","date":"2026-08-01","timeLocal":"17:00"},"geometry":{"type":"Polygon","coordinates":[[[127.00696,37.66897],[127.00697,37.66879],[127.00692,37.66877],[127.0069,37.66864],[127.00693,37.66834],[127.00698,37.6683],[127.00696,37.66812],[127.00703,37.6681],[127.00708,37.66805],[127.00726,37.66809],[127.00728,37.66796],[127.00738,37.66797],[127.00738,37.66793],[127.00744,37.66793],[127.00744,37.668],[127.00737,37.668],[127.00735,37.66807],[127.0073,37.66809],[127.0073,37.66814],[127.00735,37.66815],[127.00735,37.66822],[127.0073,37.66822],[127.00728,37.66831],[127.00718,37.66834],[127.0072,37.66856],[127.00709,37.66859],[127.00708,37.6687],[127.00713,37.6687],[127.00715,37.66881],[127.00722,37.66883],[127.00721,37.6689],[127.00712,37.66895],[127.00696,37.66897]],[[127.0071,37.66825],[127.00716,37.66825],[127.00719,37.66814],[127.0071,37.66814],[127.0071,37.66825]]]}},{"type":"Feature","properties":{"valleyId":"uidong","layer":"shadow","date":"2026-08-01","timeLocal":"17:00"},"geometry":{"type":"Polygon","coordinates":[[[127.00699,37.66796],[127.00699,37.6679],[127.00706,37.66791],[127.00706,37.66796],[127.00699,37.66796]]]}},{"type":"Feature","properties":{"valleyId":"uidong","layer":"shadow","date":"2026-08-01","timeLocal":"17:00"},"geometry":{"type":"Polygon","coordinates":[[[127.00833,37.66793],[127.00833,37.66787],[127.0084,37.66787],[127.0084,37.66793],[127.00833,37.66793]]]}},{"type":"Feature","properties":{"valleyId":"uidong","layer":"shadow","date":"2026-08-01","timeLocal":"17:00"},"geometry":{"type":"Polygon","coordinates":[[[127.00688,37.6679],[127.00686,37.66785],[127.00681,37.66785],[127.00681,37.66779],[127.00688,37.66779],[127.00688,37.66783],[127.00697,37.66785],[127.00697,37.6679],[127.00688,37.6679]]]}},{"type":"Feature","properties":{"valleyId":"uidong","layer":"shadow","date":"2026-08-01","timeLocal":"17:00"},"geometry":{"type":"Polygon","coordinates":[[[127.01128,37.66794],[127.01128,37.66789],[127.01132,37.66785],[127.01141,37.66785],[127.01141,37.66794],[127.01128,37.66794]]]}},{"type":"Feature","properties":{"valleyId":"uidong","layer":"shadow","date":"2026-08-01","timeLocal":"17:00"},"geometry":{"type":"Polygon","coordinates":[[[127.00733,37.66784],[127.00736,37.66777],[127.00752,37.66775],[127.00749,37.66782],[127.00733,37.66784]]]}},{"type":"Feature","properties":{"valleyId":"uidong","layer":"shadow","date":"2026-08-01","timeLocal":"17:00"},"geometry":{"type":"Polygon","coordinates":[[[127.00842,37.66786],[127.00842,37.6678],[127.00852,37.66773],[127.00852,37.66766],[127.00859,37.66766],[127.00858,37.66781],[127.00849,37.66786],[127.00842,37.66786]]]}},{"type":"Feature","properties":{"valleyId":"uidong","layer":"shadow","date":"2026-08-01","timeLocal":"17:00"},"geometry":{"type":"Polygon","coordinates":[[[127.00883,37.66783],[127.00883,37.66777],[127.00876,37.66774],[127.00875,37.66761],[127.00888,37.66761],[127.0089,37.66783],[127.00883,37.66783]]]}},{"type":"Feature","properties":{"valleyId":"uidong","layer":"shadow","date":"2026-08-01","timeLocal":"17:00"},"geometry":{"type":"Polygon","coordinates":[[[127.00927,37.66746],[127.0093,37.66738],[127.00941,37.66737],[127.00941,37.66742],[127.00927,37.66746]]]}},{"type":"Feature","properties":{"valleyId":"uidong","layer":"shadow","date":"2026-08-01","timeLocal":"17:00"},"geometry":{"type":"Polygon","coordinates":[[[127.00861,37.66759],[127.00868,37.66743],[127.00875,37.66738],[127.0088,37.66738],[127.00885,37.66727],[127.00898,37.66727],[127.00898,37.66734],[127.00893,37.66734],[127.00886,37.6674],[127.00882,37.66752],[127.0087,37.66754],[127.0087,37.66759],[127.00861,37.66759]]]}},{"type":"Feature","properties":{"valleyId":"uidong","layer":"shadow","date":"2026-08-01","timeLocal":"17:00"},"geometry":{"type":"Polygon","coordinates":[[[127.00639,37.66735],[127.0064,37.66723],[127.00649,37.66723],[127.00649,37.66734],[127.00639,37.66735]]]}},{"type":"Feature","properties":{"valleyId":"uidong","layer":"shadow","date":"2026-08-01","timeLocal":"17:00"},"geometry":{"type":"Polygon","coordinates":[[[127.00898,37.66727],[127.00898,37.66722],[127.00903,37.66722],[127.00903,37.66709],[127.00915,37.66708],[127.00914,37.66724],[127.00898,37.66727]]]}},{"type":"Feature","properties":{"valleyId":"uidong","layer":"shadow","date":"2026-08-01","timeLocal":"17:00"},"geometry":{"type":"Polygon","coordinates":[[[127.00917,37.66708],[127.00917,37.66699],[127.00931,37.66699],[127.0093,37.66704],[127.00917,37.66708]]]}},{"type":"Feature","properties":{"valleyId":"uidong","layer":"shadow","date":"2026-08-01","timeLocal":"17:00"},"geometry":{"type":"Polygon","coordinates":[[[127.00935,37.66697],[127.00935,37.66692],[127.00942,37.66692],[127.00942,37.66697],[127.00935,37.66697]]]}},{"type":"Feature","properties":{"valleyId":"uidong","layer":"shadow","date":"2026-08-01","timeLocal":"17:00"},"geometry":{"type":"Polygon","coordinates":[[[127.00956,37.66694],[127.00956,37.66687],[127.00963,37.66687],[127.00963,37.66694],[127.00956,37.66694]]]}},{"type":"Feature","properties":{"valleyId":"uidong","layer":"shadow","date":"2026-08-01","timeLocal":"17:00"},"geometry":{"type":"Polygon","coordinates":[[[127.00913,37.66693],[127.00911,37.66686],[127.00915,37.66684],[127.00915,37.66675],[127.00925,37.66674],[127.00922,37.66691],[127.00913,37.66693]]]}},{"type":"Feature","properties":{"valleyId":"uidong","layer":"shadow","date":"2026-08-01","timeLocal":"17:00"},"geometry":{"type":"Polygon","coordinates":[[[127.0094,37.66679],[127.00941,37.66668],[127.0095,37.66669],[127.00949,37.66679],[127.0094,37.66679]]]}},{"type":"Feature","properties":{"valleyId":"uidong","layer":"shadow","date":"2026-08-01","timeLocal":"17:00"},"geometry":{"type":"Polygon","coordinates":[[[127.00859,37.66671],[127.00859,37.66667],[127.00854,37.66665],[127.00855,37.66658],[127.00859,37.66653],[127.00866,37.66653],[127.00866,37.66671],[127.00859,37.66671]]]}},{"type":"Feature","properties":{"valleyId":"uidong","layer":"shadow","date":"2026-08-01","timeLocal":"17:00"},"geometry":{"type":"Polygon","coordinates":[[[127.00959,37.66667],[127.00954,37.66665],[127.00957,37.66651],[127.00966,37.66651],[127.00965,37.66667],[127.00959,37.66667]]]}},{"type":"Feature","properties":{"valleyId":"uidong","layer":"shadow","date":"2026-08-01","timeLocal":"17:00"},"geometry":{"type":"Polygon","coordinates":[[[127.0099,37.66671],[127.00986,37.66658],[127.00993,37.66651],[127.01,37.66651],[127.01,37.66657],[127.00995,37.66658],[127.00997,37.66671],[127.0099,37.66671]]]}},{"type":"Feature","properties":{"valleyId":"uidong","layer":"shadow","date":"2026-08-01","timeLocal":"17:00"},"geometry":{"type":"Polygon","coordinates":[[[127.00907,37.66639],[127.00907,37.66634],[127.00914,37.66634],[127.00914,37.66639],[127.00907,37.66639]]]}},{"type":"Feature","properties":{"valleyId":"uidong","layer":"shadow","date":"2026-08-01","timeLocal":"17:00"},"geometry":{"type":"Polygon","coordinates":[[[127.0088,37.66626],[127.00876,37.66624],[127.00876,37.66615],[127.00887,37.66617],[127.00887,37.66626],[127.0088,37.66626]]]}},{"type":"Feature","properties":{"valleyId":"uidong","layer":"shadow","date":"2026-08-01","timeLocal":"17:00"},"geometry":{"type":"Polygon","coordinates":[[[127.01005,37.66628],[127.00996,37.66619],[127.00999,37.66606],[127.01006,37.66606],[127.01005,37.66617],[127.01012,37.66623],[127.01012,37.66628],[127.01005,37.66628]]]}},{"type":"Feature","properties":{"valleyId":"uidong","layer":"shadow","date":"2026-08-01","timeLocal":"17:00"},"geometry":{"type":"Polygon","coordinates":[[[127.00924,37.6661],[127.00924,37.666],[127.00933,37.666],[127.00933,37.66611],[127.00924,37.6661]]]}},{"type":"Feature","properties":{"valleyId":"uidong","layer":"shadow","date":"2026-08-01","timeLocal":"17:00"},"geometry":{"type":"Polygon","coordinates":[[[127.0096,37.66611],[127.00963,37.666],[127.0097,37.666],[127.00967,37.66611],[127.0096,37.66611]]]}},{"type":"Feature","properties":{"valleyId":"uidong","layer":"shadow","date":"2026-08-01","timeLocal":"17:00"},"geometry":{"type":"Polygon","coordinates":[[[127.00972,37.66597],[127.00973,37.66573],[127.00968,37.6657],[127.00968,37.66559],[127.00982,37.66561],[127.00991,37.66572],[127.00986,37.66592],[127.00979,37.66597],[127.00972,37.66597]]]}},{"type":"Feature","properties":{"valleyId":"uidong","layer":"shadow","date":"2026-08-01","timeLocal":"17:00"},"geometry":{"type":"Polygon","coordinates":[[[127.01047,37.66494],[127.01047,37.66488],[127.01059,37.66487],[127.01059,37.66492],[127.01047,37.66494]]]}},{"type":"Feature","properties":{"valleyId":"uidong","layer":"shadow","date":"2026-08-01","timeLocal":"17:00"},"geometry":{"type":"Polygon","coordinates":[[[127.00992,37.66511],[127.00993,37.66502],[127.01013,37.66489],[127.01011,37.6648],[127.01007,37.6648],[127.01007,37.66475],[127.01014,37.66475],[127.01014,37.66479],[127.01027,37.66482],[127.01027,37.66493],[127.01013,37.66497],[127.01013,37.66506],[127.01008,37.66509],[127.00992,37.66511]]]}},{"type":"Feature","properties":{"valleyId":"uidong","layer":"shadow","date":"2026-08-01","timeLocal":"17:00"},"geometry":{"type":"Polygon","coordinates":[[[127.00955,37.66474],[127.00953,37.66447],[127.0096,37.66447],[127.00964,37.66458],[127.00975,37.66465],[127.00975,37.66471],[127.00955,37.66474]]]}},{"type":"Feature","properties":{"valleyId":"uidong","layer":"shadow","date":"2026-08-01","timeLocal":"17:00"},"geometry":{"type":"Polygon","coordinates":[[[127.00867,37.66456],[127.00863,37.66447],[127.00856,37.66443],[127.00856,37.66438],[127.00863,37.66438],[127.00872,37.66446],[127.00872,37.66449],[127.00878,37.66451],[127.00878,37.66456],[127.00867,37.66456]]]}},{"type":"Feature","properties":{"valleyId":"uidong","layer":"shadow","date":"2026-08-01","timeLocal":"17:00"},"geometry":{"type":"Polygon","coordinates":[[[127.01041,37.66465],[127.01042,37.6645],[127.01033,37.66445],[127.01033,37.66437],[127.01049,37.66439],[127.01048,37.66449],[127.01069,37.66451],[127.01069,37.6646],[127.01064,37.66463],[127.01041,37.66465]]]}},{"type":"Feature","properties":{"valleyId":"uidong","layer":"shadow","date":"2026-08-01","timeLocal":"17:00"},"geometry":{"type":"Polygon","coordinates":[[[127.01116,37.66385],[127.01116,37.66379],[127.01125,37.6638],[127.01125,37.66385],[127.01116,37.66385]]]}},{"type":"Feature","properties":{"valleyId":"uidong","layer":"shadow","date":"2026-08-01","timeLocal":"17:00"},"geometry":{"type":"Polygon","coordinates":[[[127.00777,37.66343],[127.00777,37.66338],[127.00782,37.66338],[127.00782,37.66332],[127.00786,37.66331],[127.00787,37.6632],[127.00793,37.66318],[127.00798,37.66313],[127.00796,37.66296],[127.00817,37.66299],[127.00821,37.66304],[127.00821,37.66313],[127.00805,37.66316],[127.00802,37.66329],[127.00793,37.66332],[127.00793,37.66336],[127.00788,37.66336],[127.00784,37.66343],[127.00777,37.66343]]]}},{"type":"Feature","properties":{"valleyId":"uidong","layer":"shadow","date":"2026-08-01","timeLocal":"17:00"},"geometry":{"type":"Polygon","coordinates":[[[127.00617,37.66299],[127.00617,37.66288],[127.00624,37.66288],[127.00624,37.66299],[127.00617,37.66299]]]}},{"type":"Feature","properties":{"valleyId":"uidong","layer":"shadow","date":"2026-08-01","timeLocal":"17:00"},"geometry":{"type":"Polygon","coordinates":[[[127.00905,37.66289],[127.00905,37.66284],[127.00915,37.66284],[127.00914,37.66289],[127.00905,37.66289]]]}},{"type":"Feature","properties":{"valleyId":"uidong","layer":"shadow","date":"2026-08-01","timeLocal":"17:00"},"geometry":{"type":"Polygon","coordinates":[[[127.00699,37.66288],[127.00699,37.6628],[127.00708,37.66279],[127.00708,37.66286],[127.00699,37.66288]]]}},{"type":"Feature","properties":{"valleyId":"uidong","layer":"shadow","date":"2026-08-01","timeLocal":"17:00"},"geometry":{"type":"Polygon","coordinates":[[[127.00778,37.66293],[127.00776,37.66289],[127.00769,37.66289],[127.00767,37.6628],[127.00781,37.6628],[127.0079,37.66284],[127.0079,37.66293],[127.00778,37.66293]]]}},{"type":"Feature","properties":{"valleyId":"uidong","layer":"shadow","date":"2026-08-01","timeLocal":"17:00"},"geometry":{"type":"Polygon","coordinates":[[[127.01236,37.66293],[127.01236,37.66284],[127.01252,37.66286],[127.01252,37.66292],[127.01236,37.66293]]]}},{"type":"Feature","properties":{"valleyId":"uidong","layer":"shadow","date":"2026-08-01","timeLocal":"17:00"},"geometry":{"type":"Polygon","coordinates":[[[127.00747,37.66278],[127.00745,37.66274],[127.0074,37.66274],[127.00738,37.66265],[127.0075,37.66265],[127.00749,37.6627],[127.00754,37.66271],[127.00754,37.66278],[127.00747,37.66278]]]}},{"type":"Feature","properties":{"valleyId":"uidong","layer":"shadow","date":"2026-08-01","timeLocal":"17:00"},"geometry":{"type":"Polygon","coordinates":[[[127.00573,37.66253],[127.00573,37.66248],[127.0058,37.66248],[127.0058,37.66253],[127.00573,37.66253]]]}},{"type":"Feature","properties":{"valleyId":"uidong","layer":"shadow","date":"2026-08-01","timeLocal":"17:00"},"geometry":{"type":"Polygon","coordinates":[[[127.00842,37.6627],[127.00838,37.66254],[127.00843,37.66249],[127.0085,37.66249],[127.00849,37.66259],[127.00856,37.66263],[127.00856,37.66269],[127.00842,37.6627]]]}},{"type":"Feature","properties":{"valleyId":"uidong","layer":"shadow","date":"2026-08-01","timeLocal":"17:00"},"geometry":{"type":"Polygon","coordinates":[[[127.00752,37.66261],[127.00752,37.66256],[127.00745,37.66254],[127.00746,37.6624],[127.00752,37.6624],[127.00757,37.66251],[127.00763,37.66254],[127.00763,37.6626],[127.00752,37.66261]]]}},{"type":"Feature","properties":{"valleyId":"uidong","layer":"shadow","date":"2026-08-01","timeLocal":"17:00"},"geometry":{"type":"Polygon","coordinates":[[[127.01226,37.66242],[127.01226,37.66237],[127.01235,37.66237],[127.01235,37.66243],[127.01226,37.66242]]]}},{"type":"Feature","properties":{"valleyId":"uidong","layer":"shadow","date":"2026-08-01","timeLocal":"17:00"},"geometry":{"type":"Polygon","coordinates":[[[127.00852,37.66234],[127.0085,37.66222],[127.00857,37.66222],[127.00859,37.66234],[127.00852,37.66234]]]}},{"type":"Feature","properties":{"valleyId":"uidong","layer":"shadow","date":"2026-08-01","timeLocal":"17:00"},"geometry":{"type":"Polygon","coordinates":[[[127.00601,37.66232],[127.00606,37.66216],[127.00613,37.66216],[127.00614,37.6623],[127.00601,37.66232]]]}},{"type":"Feature","properties":{"valleyId":"uidong","layer":"shadow","date":"2026-08-01","timeLocal":"17:00"},"geometry":{"type":"Polygon","coordinates":[[[127.0072,37.66265],[127.00716,37.66259],[127.00716,37.66243],[127.00709,37.66237],[127.0071,37.66234],[127.00701,37.66228],[127.00699,37.66215],[127.00708,37.66217],[127.00714,37.66232],[127.00721,37.66234],[127.00721,37.66239],[127.00727,37.66247],[127.00727,37.66259],[127.00732,37.66259],[127.00731,37.66265],[127.0072,37.66265]]]}},{"type":"Feature","properties":{"valleyId":"uidong","layer":"shadow","date":"2026-08-01","timeLocal":"17:00"},"geometry":{"type":"Polygon","coordinates":[[[127.0165,37.66242],[127.01648,37.66228],[127.01655,37.66228],[127.01657,37.66242],[127.0165,37.66242]]]}},{"type":"Feature","properties":{"valleyId":"uidong","layer":"shadow","date":"2026-08-01","timeLocal":"17:00"},"geometry":{"type":"Polygon","coordinates":[[[127.01249,37.66239],[127.01249,37.66228],[127.01256,37.66229],[127.01256,37.6622],[127.01265,37.6622],[127.01267,37.66227],[127.01261,37.6623],[127.0126,37.66236],[127.01256,37.66239],[127.01249,37.66239]]]}},{"type":"Feature","properties":{"valleyId":"uidong","layer":"shadow","date":"2026-08-01","timeLocal":"17:00"},"geometry":{"type":"Polygon","coordinates":[[[127.00558,37.66219],[127.00556,37.66204],[127.00563,37.66204],[127.00565,37.66219],[127.00558,37.66219]]]}},{"type":"Feature","properties":{"valleyId":"uidong","layer":"shadow","date":"2026-08-01","timeLocal":"17:00"},"geometry":{"type":"Polygon","coordinates":[[[127.00626,37.66211],[127.00627,37.66196],[127.00636,37.66196],[127.00635,37.66211],[127.00626,37.66211]]]}},{"type":"Feature","properties":{"valleyId":"uidong","layer":"shadow","date":"2026-08-01","timeLocal":"17:00"},"geometry":{"type":"Polygon","coordinates":[[[127.00704,37.66199],[127.00704,37.66192],[127.00711,37.66192],[127.00713,37.662],[127.00704,37.66199]]]}},{"type":"Feature","properties":{"valleyId":"uidong","layer":"shadow","date":"2026-08-01","timeLocal":"17:00"},"geometry":{"type":"Polygon","coordinates":[[[127.00604,37.66189],[127.00604,37.66183],[127.00616,37.66183],[127.00616,37.66189],[127.00604,37.66189]]]}},{"type":"Feature","properties":{"valleyId":"uidong","layer":"shadow","date":"2026-08-01","timeLocal":"17:00"},"geometry":{"type":"Polygon","coordinates":[[[127.00495,37.66192],[127.00493,37.66178],[127.00498,37.66176],[127.005,37.66169],[127.00507,37.66169],[127.00507,37.66191],[127.00495,37.66192]]]}},{"type":"Feature","properties":{"valleyId":"uidong","layer":"shadow","date":"2026-08-01","timeLocal":"17:00"},"geometry":{"type":"Polygon","coordinates":[[[127.00549,37.66199],[127.00548,37.66179],[127.00557,37.66177],[127.00562,37.66168],[127.00568,37.66168],[127.00568,37.66183],[127.00557,37.6619],[127.00556,37.66199],[127.00549,37.66199]]]}},{"type":"Feature","properties":{"valleyId":"uidong","layer":"shadow","date":"2026-08-01","timeLocal":"17:00"},"geometry":{"type":"Polygon","coordinates":[[[127.00677,37.66175],[127.00677,37.66168],[127.00689,37.66168],[127.00688,37.66176],[127.00677,37.66175]]]}},{"type":"Feature","properties":{"valleyId":"uidong","layer":"shadow","date":"2026-08-01","timeLocal":"17:00"},"geometry":{"type":"Polygon","coordinates":[[[127.00643,37.6618],[127.00643,37.66164],[127.00652,37.66164],[127.00659,37.6617],[127.00659,37.66177],[127.00643,37.6618]]]}},{"type":"Feature","properties":{"valleyId":"uidong","layer":"shadow","date":"2026-08-01","timeLocal":"17:00"},"geometry":{"type":"Polygon","coordinates":[[[127.01479,37.66187],[127.0148,37.66176],[127.01486,37.66177],[127.01486,37.66187],[127.01479,37.66187]]]}},{"type":"Feature","properties":{"valleyId":"uidong","layer":"shadow","date":"2026-08-01","timeLocal":"17:00"},"geometry":{"type":"Polygon","coordinates":[[[127.00544,37.66164],[127.00537,37.66162],[127.00539,37.66155],[127.00551,37.66157],[127.0055,37.66164],[127.00544,37.66164]]]}},{"type":"Feature","properties":{"valleyId":"uidong","layer":"shadow","date":"2026-08-01","timeLocal":"17:00"},"geometry":{"type":"Polygon","coordinates":[[[127.00729,37.66184],[127.00727,37.66176],[127.00722,37.66174],[127.00723,37.66169],[127.00718,37.66169],[127.00718,37.66165],[127.00714,37.66163],[127.00707,37.66145],[127.00716,37.66146],[127.00725,37.66155],[127.00725,37.66169],[127.00729,37.66169],[127.00736,37.66175],[127.00736,37.66184],[127.00729,37.66184]]]}},{"type":"Feature","properties":{"valleyId":"uidong","layer":"shadow","date":"2026-08-01","timeLocal":"17:00"},"geometry":{"type":"Polygon","coordinates":[[[127.01642,37.66201],[127.0164,37.66186],[127.01636,37.66179],[127.01629,37.66175],[127.01625,37.66161],[127.01632,37.66161],[127.01641,37.66177],[127.01652,37.66185],[127.01651,37.66197],[127.01649,37.66201],[127.01642,37.66201]]]}},{"type":"Feature","properties":{"valleyId":"uidong","layer":"shadow","date":"2026-08-01","timeLocal":"17:00"},"geometry":{"type":"Polygon","coordinates":[[[127.00666,37.66154],[127.00664,37.66141],[127.00676,37.66141],[127.00682,37.66145],[127.00682,37.6615],[127.00666,37.66154]]]}},{"type":"Feature","properties":{"valleyId":"uidong","layer":"shadow","date":"2026-08-01","timeLocal":"17:00"},"geometry":{"type":"Polygon","coordinates":[[[127.00696,37.6614],[127.00696,37.66134],[127.00705,37.66133],[127.00705,37.6614],[127.00696,37.6614]]]}},{"type":"Feature","properties":{"valleyId":"uidong","layer":"shadow","date":"2026-08-01","timeLocal":"17:00"},"geometry":{"type":"Polygon","coordinates":[[[127.01517,37.66152],[127.01519,37.66143],[127.0153,37.66145],[127.0153,37.6615],[127.01517,37.66152]]]}},{"type":"Feature","properties":{"valleyId":"uidong","layer":"shadow","date":"2026-08-01","timeLocal":"17:00"},"geometry":{"type":"Polygon","coordinates":[[[127.01487,37.66171],[127.01487,37.66148],[127.0149,37.66141],[127.01496,37.66141],[127.01499,37.66148],[127.01492,37.66157],[127.01493,37.66171],[127.01487,37.66171]]]}},{"type":"Feature","properties":{"valleyId":"uidong","layer":"shadow","date":"2026-08-01","timeLocal":"17:00"},"geometry":{"type":"Polygon","coordinates":[[[127.00658,37.66141],[127.00642,37.66137],[127.0064,37.66121],[127.00647,37.66117],[127.00647,37.6611],[127.00656,37.6611],[127.00654,37.66123],[127.00667,37.66127],[127.00664,37.66141],[127.00658,37.66141]]]}},{"type":"Feature","properties":{"valleyId":"uidong","layer":"shadow","date":"2026-08-01","timeLocal":"17:00"},"geometry":{"type":"Polygon","coordinates":[[[127.00832,37.66135],[127.00833,37.6611],[127.0084,37.6611],[127.00841,37.66133],[127.00832,37.66135]]]}},{"type":"Feature","properties":{"valleyId":"uidong","layer":"shadow","date":"2026-08-01","timeLocal":"17:00"},"geometry":{"type":"Polygon","coordinates":[[[127.00604,37.66115],[127.00599,37.66111],[127.00598,37.66098],[127.00611,37.66099],[127.00613,37.66115],[127.00604,37.66115]]]}},{"type":"Feature","properties":{"valleyId":"uidong","layer":"shadow","date":"2026-08-01","timeLocal":"17:00"},"geometry":{"type":"Polygon","coordinates":[[[127.01257,37.66111],[127.01257,37.66102],[127.01266,37.66103],[127.01266,37.6611],[127.01257,37.66111]]]}},{"type":"Feature","properties":{"valleyId":"uidong","layer":"shadow","date":"2026-08-01","timeLocal":"17:00"},"geometry":{"type":"Polygon","coordinates":[[[127.01318,37.66114],[127.01316,37.661],[127.01323,37.661],[127.01325,37.66114],[127.01318,37.66114]]]}},{"type":"Feature","properties":{"valleyId":"uidong","layer":"shadow","date":"2026-08-01","timeLocal":"17:00"},"geometry":{"type":"Polygon","coordinates":[[[127.00595,37.66097],[127.00593,37.6608],[127.00603,37.6608],[127.00607,37.66082],[127.00607,37.66093],[127.00602,37.66093],[127.00602,37.66097],[127.00595,37.66097]]]}},{"type":"Feature","properties":{"valleyId":"uidong","layer":"shadow","date":"2026-08-01","timeLocal":"17:00"},"geometry":{"type":"Polygon","coordinates":[[[127.01067,37.6609],[127.0107,37.66079],[127.01079,37.66078],[127.01076,37.6609],[127.01067,37.6609]]]}},{"type":"Feature","properties":{"valleyId":"uidong","layer":"shadow","date":"2026-08-01","timeLocal":"17:00"},"geometry":{"type":"Polygon","coordinates":[[[127.00569,37.66076],[127.00567,37.66069],[127.00578,37.66069],[127.00578,37.66076],[127.00569,37.66076]]]}},{"type":"Feature","properties":{"valleyId":"uidong","layer":"shadow","date":"2026-08-01","timeLocal":"17:00"},"geometry":{"type":"Polygon","coordinates":[[[127.01149,37.66081],[127.01149,37.66074],[127.01158,37.66074],[127.01158,37.66081],[127.01149,37.66081]]]}},{"type":"Feature","properties":{"valleyId":"uidong","layer":"shadow","date":"2026-08-01","timeLocal":"17:00"},"geometry":{"type":"Polygon","coordinates":[[[127.00576,37.66067],[127.00576,37.66062],[127.00585,37.6606],[127.00585,37.66066],[127.00576,37.66067]]]}},{"type":"Feature","properties":{"valleyId":"uidong","layer":"shadow","date":"2026-08-01","timeLocal":"17:00"},"geometry":{"type":"Polygon","coordinates":[[[127.00673,37.66067],[127.00673,37.66062],[127.0068,37.66062],[127.0068,37.66067],[127.00673,37.66067]]]}},{"type":"Feature","properties":{"valleyId":"uidong","layer":"shadow","date":"2026-08-01","timeLocal":"17:00"},"geometry":{"type":"Polygon","coordinates":[[[127.00798,37.66075],[127.00798,37.6606],[127.00791,37.66055],[127.00787,37.66055],[127.00787,37.66048],[127.00796,37.66048],[127.00805,37.66055],[127.00807,37.66075],[127.00798,37.66075]]]}},{"type":"Feature","properties":{"valleyId":"uidong","layer":"shadow","date":"2026-08-01","timeLocal":"17:00"},"geometry":{"type":"Polygon","coordinates":[[[127.01288,37.66061],[127.01288,37.66054],[127.01302,37.66054],[127.01299,37.66062],[127.01288,37.66061]]]}},{"type":"Feature","properties":{"valleyId":"uidong","layer":"shadow","date":"2026-08-01","timeLocal":"17:00"},"geometry":{"type":"Polygon","coordinates":[[[127.01308,37.66067],[127.01306,37.66053],[127.01309,37.66047],[127.01315,37.66047],[127.01317,37.66066],[127.01308,37.66067]]]}},{"type":"Feature","properties":{"valleyId":"uidong","layer":"shadow","date":"2026-08-01","timeLocal":"17:00"},"geometry":{"type":"Polygon","coordinates":[[[127.00535,37.66056],[127.00522,37.66048],[127.00522,37.66043],[127.00518,37.66036],[127.00511,37.66034],[127.00511,37.66028],[127.00518,37.66029],[127.00524,37.66036],[127.00531,37.66036],[127.00538,37.66049],[127.00542,37.66049],[127.00542,37.66056],[127.00535,37.66056]]]}},{"type":"Feature","properties":{"valleyId":"uidong","layer":"shadow","date":"2026-08-01","timeLocal":"17:00"},"geometry":{"type":"Polygon","coordinates":[[[127.00576,37.66039],[127.00577,37.66028],[127.00584,37.66028],[127.00583,37.66039],[127.00576,37.66039]]]}},{"type":"Feature","properties":{"valleyId":"uidong","layer":"shadow","date":"2026-08-01","timeLocal":"17:00"},"geometry":{"type":"Polygon","coordinates":[[[127.01163,37.66065],[127.01163,37.66059],[127.01177,37.6604],[127.01177,37.66031],[127.01187,37.66029],[127.01186,37.66043],[127.01179,37.66049],[127.01179,37.66054],[127.01175,37.66056],[127.01172,37.66063],[127.01163,37.66065]]]}},{"type":"Feature","properties":{"valleyId":"uidong","layer":"shadow","date":"2026-08-01","timeLocal":"17:00"},"geometry":{"type":"Polygon","coordinates":[[[127.00767,37.66044],[127.00765,37.6604],[127.0076,37.6604],[127.00761,37.66016],[127.00765,37.66009],[127.00774,37.6601],[127.00774,37.66044],[127.00767,37.66044]]]}},{"type":"Feature","properties":{"valleyId":"uidong","layer":"shadow","date":"2026-08-01","timeLocal":"17:00"},"geometry":{"type":"Polygon","coordinates":[[[127.00933,37.66025],[127.00929,37.66005],[127.00936,37.65996],[127.00936,37.65987],[127.00947,37.65987],[127.00945,37.65998],[127.00938,37.66005],[127.00938,37.66012],[127.00944,37.6602],[127.00944,37.66025],[127.00933,37.66025]]]}},{"type":"Feature","properties":{"valleyId":"uidong","layer":"shadow","date":"2026-08-01","timeLocal":"17:00"},"geometry":{"type":"Polygon","coordinates":[[[127.01205,37.66011],[127.01205,37.66006],[127.01212,37.65999],[127.01213,37.65986],[127.01222,37.65986],[127.01219,37.66004],[127.01212,37.66011],[127.01205,37.66011]]]}},{"type":"Feature","properties":{"valleyId":"uidong","layer":"shadow","date":"2026-08-01","timeLocal":"17:00"},"geometry":{"type":"Polygon","coordinates":[[[127.01355,37.6599],[127.01356,37.6598],[127.01367,37.6598],[127.01369,37.65987],[127.01355,37.6599]]]}},{"type":"Feature","properties":{"valleyId":"uidong","layer":"shadow","date":"2026-08-01","timeLocal":"17:00"},"geometry":{"type":"Polygon","coordinates":[[[127.00811,37.65922],[127.00811,37.65913],[127.00818,37.65913],[127.0082,37.6592],[127.00811,37.65922]]]}}]}
