{"type":"FeatureCollection","metadata":{"description":"개방지(CHM ≤ 2 m)에 드리운 나무·지형 그림자, 2026-08-01 18:00 KST. canopy 위에 겹쳐 그린다","source":"위성 기반 추정 — Copernicus GLO-30 지형(30 m) + Meta/WRI 수관 높이(1 m CHM, 2019 촬영). 그늘 = 수관(CHM > 2 m) ∪ 나무·지형 그림자 ∪ 원거리 지형 마스크. 현장과 다를 수 있음.","datasetVersion":"2026-09-06.0","collectedAt":"2026-09-06","coordinateOrder":"[longitude, latitude]","crs":"EPSG:4326","representativeDate":"2026-08-01","hours":["10:00","11:00","12:00","13:00","14:00","15:00","16:00","17:00","18:00"],"chmAcquisition":["2019-03"],"assets":{"glo30":{"dataset":"Copernicus DEM GLO-30 (COG, s3://copernicus-dem-30m)","tiles":["Copernicus_DSM_COG_10_N37_00_E126_00_DEM","Copernicus_DSM_COG_10_N37_00_E127_00_DEM"]},"chm":{"dataset":"Meta/WRI Global Canopy Height Map v1 (alsgedi_global_v6_float, 1 m, CC-BY 4.0)","quadkeys":["132110320"],"acquisition":["2019-03"]}},"method":{"gridResM":2,"canopyThresholdM":2,"bufferHalfM":25,"corridorHalfM":200,"simplifyTolM":2,"minAreaM2":25,"coordDecimals":5},"generator":"scripts/shade 0.1.0","builtAt":"2026-09-06T06:10:31Z","layer":"shadow","timeLocal":"18:00"},"features":[{"type":"Feature","properties":{"valleyId":"uidong","layer":"shadow","date":"2026-08-01","timeLocal":"18:00"},"geometry":{"type":"Polygon","coordinates":[[[126.99581,37.68581],[126.99581,37.68576],[126.99588,37.68576],[126.99588,37.68581],[126.99581,37.68581]]]}},{"type":"Feature","properties":{"valleyId":"uidong","layer":"shadow","date":"2026-08-01","timeLocal":"18:00"},"geometry":{"type":"Polygon","coordinates":[[[126.9957,37.68572],[126.9957,37.68567],[126.99577,37.68567],[126.99576,37.68572],[126.9957,37.68572]]]}},{"type":"Feature","properties":{"valleyId":"uidong","layer":"shadow","date":"2026-08-01","timeLocal":"18:00"},"geometry":{"type":"Polygon","coordinates":[[[126.996,37.68538],[126.99603,37.68529],[126.99612,37.68528],[126.99611,37.68535],[126.99607,37.68535],[126.99607,37.68538],[126.996,37.68538]]]}},{"type":"Feature","properties":{"valleyId":"uidong","layer":"shadow","date":"2026-08-01","timeLocal":"18:00"},"geometry":{"type":"Polygon","coordinates":[[[126.99607,37.68526],[126.99607,37.6852],[126.99614,37.6852],[126.99614,37.68526],[126.99607,37.68526]]]}},{"type":"Feature","properties":{"valleyId":"uidong","layer":"shadow","date":"2026-08-01","timeLocal":"18:00"},"geometry":{"type":"Polygon","coordinates":[[[126.99526,37.68593],[126.99515,37.68582],[126.99513,37.68575],[126.99508,37.68573],[126.99487,37.68529],[126.99495,37.68495],[126.99517,37.68501],[126.99517,37.68506],[126.9951,37.68506],[126.9951,37.68515],[126.99517,37.68519],[126.99525,37.68541],[126.99522,37.68566],[126.99531,37.68569],[126.99531,37.68575],[126.99536,37.68577],[126.99533,37.68593],[126.99526,37.68593]]]}},{"type":"Feature","properties":{"valleyId":"uidong","layer":"shadow","date":"2026-08-01","timeLocal":"18:00"},"geometry":{"type":"Polygon","coordinates":[[[126.99624,37.68503],[126.99624,37.68495],[126.99631,37.68495],[126.99631,37.68503],[126.99624,37.68503]]]}},{"type":"Feature","properties":{"valleyId":"uidong","layer":"shadow","date":"2026-08-01","timeLocal":"18:00"},"geometry":{"type":"Polygon","coordinates":[[[126.99613,37.6849],[126.99613,37.68483],[126.9962,37.68483],[126.9962,37.6849],[126.99613,37.6849]]]}},{"type":"Feature","properties":{"valleyId":"uidong","layer":"shadow","date":"2026-08-01","timeLocal":"18:00"},"geometry":{"type":"Polygon","coordinates":[[[126.99672,37.68491],[126.99667,37.68485],[126.99667,37.6848],[126.99676,37.6848],[126.99683,37.68486],[126.99683,37.68491],[126.99672,37.68491]]]}},{"type":"Feature","properties":{"valleyId":"uidong","layer":"shadow","date":"2026-08-01","timeLocal":"18:00"},"geometry":{"type":"Polygon","coordinates":[[[126.99602,37.68481],[126.99602,37.68475],[126.99609,37.68475],[126.99608,37.68481],[126.99602,37.68481]]]}},{"type":"Feature","properties":{"valleyId":"uidong","layer":"shadow","date":"2026-08-01","timeLocal":"18:00"},"geometry":{"type":"Polygon","coordinates":[[[126.99642,37.68479],[126.99643,37.68474],[126.99649,37.68474],[126.99649,37.6848],[126.99642,37.68479]]]}},{"type":"Feature","properties":{"valleyId":"uidong","layer":"shadow","date":"2026-08-01","timeLocal":"18:00"},"geometry":{"type":"Polygon","coordinates":[[[127.00978,37.68493],[127.00978,37.68488],[127.00985,37.68488],[127.00985,37.68493],[127.00978,37.68493]]]}},{"type":"Feature","properties":{"valleyId":"uidong","layer":"shadow","date":"2026-08-01","timeLocal":"18:00"},"geometry":{"type":"Polygon","coordinates":[[[126.99658,37.68476],[126.99659,37.68465],[126.99668,37.68464],[126.99667,37.68476],[126.99658,37.68476]]]}},{"type":"Feature","properties":{"valleyId":"uidong","layer":"shadow","date":"2026-08-01","timeLocal":"18:00"},"geometry":{"type":"Polygon","coordinates":[[[126.99486,37.68462],[126.99487,37.68457],[126.99496,37.68457],[126.99496,37.68463],[126.99486,37.68462]]]}},{"type":"Feature","properties":{"valleyId":"uidong","layer":"shadow","date":"2026-08-01","timeLocal":"18:00"},"geometry":{"type":"Polygon","coordinates":[[[127.00985,37.68488],[127.00985,37.68481],[127.00996,37.68483],[127.00996,37.68488],[127.00985,37.68488]]]}},{"type":"Feature","properties":{"valleyId":"uidong","layer":"shadow","date":"2026-08-01","timeLocal":"18:00"},"geometry":{"type":"Polygon","coordinates":[[[127.01225,37.68486],[127.01219,37.68484],[127.01219,37.68479],[127.0123,37.68477],[127.01235,37.68481],[127.01234,37.68487],[127.01225,37.68486]]]}},{"type":"Feature","properties":{"valleyId":"uidong","layer":"shadow","date":"2026-08-01","timeLocal":"18:00"},"geometry":{"type":"Polygon","coordinates":[[[127.00967,37.68486],[127.00953,37.68476],[127.00954,37.68469],[127.00978,37.68473],[127.00978,37.6848],[127.00974,37.68482],[127.00974,37.68486],[127.00967,37.68486]]]}},{"type":"Feature","properties":{"valleyId":"uidong","layer":"shadow","date":"2026-08-01","timeLocal":"18:00"},"geometry":{"type":"Polygon","coordinates":[[[126.99671,37.68446],[126.99671,37.68438],[126.99678,37.68439],[126.9968,37.68446],[126.99671,37.68446]]]}},{"type":"Feature","properties":{"valleyId":"uidong","layer":"shadow","date":"2026-08-01","timeLocal":"18:00"},"geometry":{"type":"Polygon","coordinates":[[[126.99569,37.68424],[126.99569,37.68415],[126.99576,37.68415],[126.99576,37.68424],[126.99569,37.68424]]]}},{"type":"Feature","properties":{"valleyId":"uidong","layer":"shadow","date":"2026-08-01","timeLocal":"18:00"},"geometry":{"type":"Polygon","coordinates":[[[126.99691,37.68459],[126.99693,37.68444],[126.99705,37.68441],[126.99707,37.68432],[126.99714,37.68428],[126.99714,37.68421],[126.99721,37.68418],[126.99721,37.68414],[126.99728,37.68414],[126.99726,37.68425],[126.99719,37.68428],[126.99718,37.68437],[126.99711,37.68443],[126.99707,37.68443],[126.99707,37.68452],[126.997,37.68453],[126.99697,37.68459],[126.99691,37.68459]]]}},{"type":"Feature","properties":{"valleyId":"uidong","layer":"shadow","date":"2026-08-01","timeLocal":"18:00"},"geometry":{"type":"Polygon","coordinates":[[[126.99696,37.68424],[126.99699,37.68414],[126.99705,37.68414],[126.99707,37.68423],[126.99696,37.68424]]]}},{"type":"Feature","properties":{"valleyId":"uidong","layer":"shadow","date":"2026-08-01","timeLocal":"18:00"},"geometry":{"type":"Polygon","coordinates":[[[126.99572,37.68397],[126.99572,37.6839],[126.99579,37.6839],[126.99579,37.68397],[126.99572,37.68397]]]}},{"type":"Feature","properties":{"valleyId":"uidong","layer":"shadow","date":"2026-08-01","timeLocal":"18:00"},"geometry":{"type":"Polygon","coordinates":[[[126.99677,37.68368],[126.99673,37.68365],[126.99673,37.68354],[126.9968,37.68354],[126.99684,37.68358],[126.99684,37.68368],[126.99677,37.68368]]]}},{"type":"Feature","properties":{"valleyId":"uidong","layer":"shadow","date":"2026-08-01","timeLocal":"18:00"},"geometry":{"type":"Polygon","coordinates":[[[127.00928,37.68411],[127.0091,37.68407],[127.00906,37.68402],[127.00892,37.68401],[127.00883,37.68378],[127.00882,37.68362],[127.00888,37.68362],[127.00893,37.68374],[127.00902,37.68382],[127.00917,37.68382],[127.0094,37.68391],[127.0094,37.68402],[127.00944,37.68402],[127.00944,37.68408],[127.00937,37.68411],[127.00928,37.68411]]]}},{"type":"Feature","properties":{"valleyId":"uidong","layer":"shadow","date":"2026-08-01","timeLocal":"18:00"},"geometry":{"type":"Polygon","coordinates":[[[126.99673,37.68347],[126.99673,37.68341],[126.9968,37.68341],[126.9968,37.68347],[126.99673,37.68347]]]}},{"type":"Feature","properties":{"valleyId":"uidong","layer":"shadow","date":"2026-08-01","timeLocal":"18:00"},"geometry":{"type":"Polygon","coordinates":[[[127.01083,37.6837],[127.01074,37.68363],[127.01065,37.68361],[127.01068,37.68352],[127.01088,37.68349],[127.011,37.68349],[127.01102,37.68353],[127.01127,37.68353],[127.01122,37.68364],[127.01102,37.68364],[127.01099,37.68367],[127.01083,37.6837]]]}},{"type":"Feature","properties":{"valleyId":"uidong","layer":"shadow","date":"2026-08-01","timeLocal":"18:00"},"geometry":{"type":"Polygon","coordinates":[[[126.99699,37.68334],[126.99696,37.68327],[126.99692,37.68325],[126.99692,37.68316],[126.99701,37.68318],[126.99701,37.68327],[126.99705,37.68329],[126.99705,37.68335],[126.99699,37.68334]]]}},{"type":"Feature","properties":{"valleyId":"uidong","layer":"shadow","date":"2026-08-01","timeLocal":"18:00"},"geometry":{"type":"Polygon","coordinates":[[[127.0117,37.68356],[127.01163,37.68354],[127.01159,37.68348],[127.0115,37.68348],[127.01145,37.68337],[127.01163,37.68341],[127.0117,37.68334],[127.01177,37.68334],[127.0118,37.68325],[127.01187,37.68325],[127.01191,37.68327],[127.01193,37.68336],[127.01202,37.6834],[127.01202,37.68353],[127.0117,37.68356]]]}},{"type":"Feature","properties":{"valleyId":"uidong","layer":"shadow","date":"2026-08-01","timeLocal":"18:00"},"geometry":{"type":"Polygon","coordinates":[[[127.01221,37.68324],[127.01221,37.68317],[127.0121,37.6831],[127.0121,37.68302],[127.01237,37.68303],[127.01239,37.68299],[127.01246,37.68299],[127.01246,37.68321],[127.01241,37.68324],[127.01221,37.68324]]]}},{"type":"Feature","properties":{"valleyId":"uidong","layer":"shadow","date":"2026-08-01","timeLocal":"18:00"},"geometry":{"type":"Polygon","coordinates":[[[127.01173,37.68307],[127.01171,37.683],[127.0118,37.68298],[127.0118,37.68307],[127.01173,37.68307]]]}},{"type":"Feature","properties":{"valleyId":"uidong","layer":"shadow","date":"2026-08-01","timeLocal":"18:00"},"geometry":{"type":"Polygon","coordinates":[[[127.01236,37.68256],[127.01236,37.6825],[127.01248,37.68249],[127.01245,37.68256],[127.01236,37.68256]]]}},{"type":"Feature","properties":{"valleyId":"uidong","layer":"shadow","date":"2026-08-01","timeLocal":"18:00"},"geometry":{"type":"Polygon","coordinates":[[[127.01013,37.68375],[127.01008,37.68373],[127.01006,37.68364],[127.01007,37.68357],[127.01013,37.68357],[127.01014,37.68342],[127.01007,37.68342],[127.00996,37.68333],[127.00996,37.68328],[127.01005,37.68319],[127.01005,37.68313],[127.00999,37.6831],[127.00999,37.68302],[127.01031,37.68301],[127.01027,37.68285],[127.01049,37.68285],[127.0105,37.68274],[127.01061,37.68271],[127.01061,37.68266],[127.0107,37.68258],[127.01073,37.68242],[127.01066,37.68239],[127.01044,37.68238],[127.01025,37.68247],[127.01016,37.68247],[127.0101,37.68241],[127.00994,37.68239],[127.00994,37.68232],[127.00996,37.68228],[127.01019,37.68222],[127.01019,37.68211],[127.01031,37.68211],[127.01033,37.68206],[127.01047,37.68206],[127.01044,37.68218],[127.01053,37.68222],[127.01053,37.68231],[127.0108,37.68233],[127.0108,37.6825],[127.01084,37.6825],[127.01084,37.68255],[127.01093,37.68261],[127.01109,37.68263],[127.01113,37.6827],[127.0111,37.68288],[127.01115,37.68292],[127.01124,37.68292],[127.01131,37.68287],[127.01149,37.68285],[127.01151,37.68298],[127.01148,37.68308],[127.01137,37.68314],[127.01134,37.68323],[127.01121,37.68322],[127.01119,37.68319],[127.0111,37.68319],[127.01105,37.68322],[127.01105,37.68333],[127.01084,37.68333],[127.01073,37.68322],[127.01057,37.6832],[127.01053,37.6833],[127.01041,37.68335],[127.01036,37.68348],[127.01032,37.68348],[127.01018,37.68359],[127.01015,37.68368],[127.0102,37.68369],[127.0102,37.68375],[127.01013,37.68375]],[[127.01114,37.68306],[127.01126,37.68306],[127.01128,37.68299],[127.01117,37.68297],[127.01114,37.68306]]]}},{"type":"Feature","properties":{"valleyId":"uidong","layer":"shadow","date":"2026-08-01","timeLocal":"18:00"},"geometry":{"type":"Polygon","coordinates":[[[127.01203,37.68214],[127.01203,37.68203],[127.0121,37.68203],[127.01212,37.68214],[127.01203,37.68214]]]}},{"type":"Feature","properties":{"valleyId":"uidong","layer":"shadow","date":"2026-08-01","timeLocal":"18:00"},"geometry":{"type":"Polygon","coordinates":[[[127.00995,37.68207],[127.00995,37.68187],[127.01011,37.6818],[127.01018,37.6818],[127.01018,37.68186],[127.01013,37.68185],[127.01013,37.68194],[127.01022,37.68196],[127.01024,37.68204],[127.01011,37.68203],[127.01011,37.68207],[127.00995,37.68207]]]}},{"type":"Feature","properties":{"valleyId":"uidong","layer":"shadow","date":"2026-08-01","timeLocal":"18:00"},"geometry":{"type":"Polygon","coordinates":[[[127.01197,37.68192],[127.01195,37.68179],[127.01202,37.6818],[127.01206,37.68181],[127.01208,37.68191],[127.01197,37.68192]]]}},{"type":"Feature","properties":{"valleyId":"uidong","layer":"shadow","date":"2026-08-01","timeLocal":"18:00"},"geometry":{"type":"Polygon","coordinates":[[[127.01066,37.68179],[127.01066,37.6817],[127.01071,37.68167],[127.01098,37.68163],[127.01098,37.68169],[127.01091,37.68169],[127.01084,37.68178],[127.01066,37.68179]]]}},{"type":"Feature","properties":{"valleyId":"uidong","layer":"shadow","date":"2026-08-01","timeLocal":"18:00"},"geometry":{"type":"Polygon","coordinates":[[[127.00327,37.67893],[127.0032,37.67891],[127.00321,37.6788],[127.00325,37.67875],[127.00339,37.67873],[127.00341,37.67882],[127.0035,37.67882],[127.00352,37.67891],[127.00327,37.67893]]]}},{"type":"Feature","properties":{"valleyId":"uidong","layer":"shadow","date":"2026-08-01","timeLocal":"18:00"},"geometry":{"type":"Polygon","coordinates":[[[127.00317,37.67838],[127.00318,37.67833],[127.00329,37.67833],[127.00329,37.67839],[127.00317,37.67838]]]}},{"type":"Feature","properties":{"valleyId":"uidong","layer":"shadow","date":"2026-08-01","timeLocal":"18:00"},"geometry":{"type":"Polygon","coordinates":[[[127.00309,37.67827],[127.00306,37.67824],[127.00291,37.67824],[127.00291,37.67818],[127.00302,37.67818],[127.00305,37.67809],[127.00309,37.67806],[127.0031,37.67793],[127.00319,37.67793],[127.00318,37.67802],[127.00323,37.67804],[127.00323,37.67808],[127.00332,37.67812],[127.00331,37.67821],[127.00325,37.67821],[127.00323,37.67813],[127.00314,37.67813],[127.00318,37.67828],[127.00309,37.67827]]]}},{"type":"Feature","properties":{"valleyId":"uidong","layer":"shadow","date":"2026-08-01","timeLocal":"18:00"},"geometry":{"type":"Polygon","coordinates":[[[127.00126,37.67776],[127.00126,37.6777],[127.00133,37.6777],[127.00133,37.67776],[127.00126,37.67776]]]}},{"type":"Feature","properties":{"valleyId":"uidong","layer":"shadow","date":"2026-08-01","timeLocal":"18:00"},"geometry":{"type":"Polygon","coordinates":[[[127.00303,37.67788],[127.00299,37.67773],[127.00315,37.67775],[127.0031,37.67788],[127.00303,37.67788]]]}},{"type":"Feature","properties":{"valleyId":"uidong","layer":"shadow","date":"2026-08-01","timeLocal":"18:00"},"geometry":{"type":"Polygon","coordinates":[[[127.0011,37.67707],[127.00108,37.67696],[127.00115,37.67696],[127.00115,37.677],[127.00124,37.67702],[127.00124,37.67707],[127.0011,37.67707]]]}},{"type":"Feature","properties":{"valleyId":"uidong","layer":"shadow","date":"2026-08-01","timeLocal":"18:00"},"geometry":{"type":"Polygon","coordinates":[[[127.00122,37.67695],[127.0012,37.67687],[127.00126,37.67687],[127.00127,37.67675],[127.00134,37.67675],[127.0014,37.67682],[127.0014,37.67688],[127.00133,37.67687],[127.00133,37.67693],[127.00122,37.67695]]]}},{"type":"Feature","properties":{"valleyId":"uidong","layer":"shadow","date":"2026-08-01","timeLocal":"18:00"},"geometry":{"type":"Polygon","coordinates":[[[127.00203,37.67874],[127.00192,37.67867],[127.00183,37.67865],[127.00181,37.67861],[127.00176,37.67861],[127.00141,37.67835],[127.00137,37.67814],[127.00138,37.67776],[127.00142,37.67776],[127.00151,37.67769],[127.00152,37.67756],[127.00145,37.67753],[127.00143,37.67742],[127.00152,37.67742],[127.00157,37.67738],[127.00157,37.67731],[127.00166,37.67731],[127.00175,37.67728],[127.00182,37.67719],[127.00191,37.67719],[127.00194,37.67687],[127.00228,37.67691],[127.00228,37.67696],[127.00221,37.67696],[127.00219,37.67703],[127.00237,37.67704],[127.0024,37.67691],[127.00251,37.67691],[127.00254,37.67666],[127.00243,37.67666],[127.00234,37.6766],[127.00236,37.67648],[127.0023,37.67644],[127.00225,37.67637],[127.00221,37.67637],[127.00221,37.67631],[127.00239,37.67632],[127.00248,37.67637],[127.0025,37.67643],[127.00264,37.67645],[127.00263,37.67684],[127.00274,37.67688],[127.0028,37.67695],[127.00294,37.67694],[127.00294,37.67701],[127.00285,37.67701],[127.00285,37.67704],[127.00271,37.67706],[127.00268,37.67726],[127.00252,37.67727],[127.00252,37.6774],[127.00245,37.6774],[127.00243,37.67734],[127.00234,37.67734],[127.00232,37.67738],[127.0022,37.67741],[127.0022,37.67752],[127.00227,37.67754],[127.00227,37.67759],[127.00211,37.67757],[127.00208,37.67764],[127.00188,37.67768],[127.00183,37.67784],[127.00189,37.67789],[127.00189,37.67798],[127.00196,37.67799],[127.00196,37.67793],[127.00205,37.6779],[127.00228,37.67788],[127.00228,37.67794],[127.00219,37.67799],[127.00218,37.67806],[127.00234,37.67808],[127.00236,37.67815],[127.00241,37.67815],[127.00236,37.6783],[127.00247,37.6783],[127.00246,37.67866],[127.00221,37.67866],[127.00214,37.67875],[127.00203,37.67874]],[[127.00198,37.67824],[127.00207,37.67824],[127.00209,37.67815],[127.00205,37.67815],[127.00205,37.67811],[127.00196,37.67811],[127.00196,37.67806],[127.00187,37.67806],[127.00175,37.67811],[127.00177,37.6782],[127.00195,37.6782],[127.00198,37.67824]],[[127.00255,37.67704],[127.00264,37.67704],[127.00269,37.67701],[127.00269,37.67695],[127.00255,37.67695],[127.00255,37.67704]]]}},{"type":"Feature","properties":{"valleyId":"uidong","layer":"shadow","date":"2026-08-01","timeLocal":"18:00"},"geometry":{"type":"Polygon","coordinates":[[[127.00102,37.67676],[127.00102,37.67667],[127.00093,37.67662],[127.00103,37.67638],[127.0011,37.67637],[127.00114,37.6763],[127.00141,37.67634],[127.00144,37.67619],[127.00153,37.67618],[127.00157,37.67628],[127.00155,37.67634],[127.00144,37.67639],[127.00141,37.67652],[127.00134,37.67655],[127.00138,37.67666],[127.00132,37.67666],[127.00132,37.6766],[127.00111,37.6766],[127.00109,37.67676],[127.00102,37.67676]]]}},{"type":"Feature","properties":{"valleyId":"uidong","layer":"shadow","date":"2026-08-01","timeLocal":"18:00"},"geometry":{"type":"Polygon","coordinates":[[[127.0025,37.6763],[127.00248,37.67621],[127.00244,37.67619],[127.00244,37.67612],[127.00253,37.67612],[127.0026,37.67623],[127.00259,37.67628],[127.0025,37.6763]]]}},{"type":"Feature","properties":{"valleyId":"uidong","layer":"shadow","date":"2026-08-01","timeLocal":"18:00"},"geometry":{"type":"Polygon","coordinates":[[[127.0028,37.67641],[127.00271,37.67639],[127.00266,37.67632],[127.00267,37.67603],[127.00278,37.67603],[127.00278,37.67616],[127.00292,37.67618],[127.00291,37.67623],[127.00287,37.67623],[127.00289,37.67641],[127.0028,37.67641]]]}},{"type":"Feature","properties":{"valleyId":"uidong","layer":"shadow","date":"2026-08-01","timeLocal":"18:00"},"geometry":{"type":"Polygon","coordinates":[[[127.00301,37.67611],[127.00296,37.67609],[127.00296,37.67604],[127.0031,37.67606],[127.0031,37.67611],[127.00301,37.67611]]]}},{"type":"Feature","properties":{"valleyId":"uidong","layer":"shadow","date":"2026-08-01","timeLocal":"18:00"},"geometry":{"type":"Polygon","coordinates":[[[127.00201,37.67618],[127.00194,37.67613],[127.00195,37.67589],[127.00206,37.67591],[127.00206,37.67608],[127.00219,37.6761],[127.00219,37.67604],[127.00228,37.67604],[127.00228,37.6761],[127.00224,37.6761],[127.00224,37.67617],[127.00201,37.67618]]]}},{"type":"Feature","properties":{"valleyId":"uidong","layer":"shadow","date":"2026-08-01","timeLocal":"18:00"},"geometry":{"type":"Polygon","coordinates":[[[127.00276,37.67596],[127.00279,37.67575],[127.00286,37.67573],[127.00302,37.67557],[127.00311,37.67557],[127.00311,37.6755],[127.00321,37.67545],[127.00321,37.67534],[127.00357,37.67538],[127.00357,37.67543],[127.00352,37.67543],[127.00352,37.67552],[127.00336,37.67552],[127.00332,37.67556],[127.00332,37.67561],[127.00322,37.67565],[127.00322,37.67572],[127.00329,37.67572],[127.00329,37.67577],[127.00315,37.67582],[127.00313,37.67593],[127.00276,37.67596]]]}},{"type":"Feature","properties":{"valleyId":"uidong","layer":"shadow","date":"2026-08-01","timeLocal":"18:00"},"geometry":{"type":"Polygon","coordinates":[[[127.00625,37.67278],[127.00625,37.67269],[127.00632,37.67269],[127.00634,37.67276],[127.00625,37.67278]]]}},{"type":"Feature","properties":{"valleyId":"uidong","layer":"shadow","date":"2026-08-01","timeLocal":"18:00"},"geometry":{"type":"Polygon","coordinates":[[[127.00374,37.67254],[127.00374,37.67248],[127.00383,37.67248],[127.00383,37.67254],[127.00374,37.67254]]]}},{"type":"Feature","properties":{"valleyId":"uidong","layer":"shadow","date":"2026-08-01","timeLocal":"18:00"},"geometry":{"type":"Polygon","coordinates":[[[127.00671,37.67239],[127.00671,37.67232],[127.00683,37.67232],[127.00683,37.67237],[127.00671,37.67239]]]}},{"type":"Feature","properties":{"valleyId":"uidong","layer":"shadow","date":"2026-08-01","timeLocal":"18:00"},"geometry":{"type":"Polygon","coordinates":[[[127.00644,37.67226],[127.00645,37.67217],[127.00656,37.67217],[127.00656,37.67224],[127.00644,37.67226]]]}},{"type":"Feature","properties":{"valleyId":"uidong","layer":"shadow","date":"2026-08-01","timeLocal":"18:00"},"geometry":{"type":"Polygon","coordinates":[[[127.00603,37.67252],[127.00598,37.6725],[127.00599,37.67236],[127.0061,37.67225],[127.00608,37.67214],[127.00629,37.67216],[127.00626,37.67227],[127.00615,37.67231],[127.00606,37.67239],[127.00605,37.67245],[127.00612,37.67245],[127.00612,37.67252],[127.00603,37.67252]]]}},{"type":"Feature","properties":{"valleyId":"uidong","layer":"shadow","date":"2026-08-01","timeLocal":"18:00"},"geometry":{"type":"Polygon","coordinates":[[[127.00248,37.6721],[127.00248,37.67205],[127.00262,37.67201],[127.00264,37.6721],[127.00248,37.6721]]]}},{"type":"Feature","properties":{"valleyId":"uidong","layer":"shadow","date":"2026-08-01","timeLocal":"18:00"},"geometry":{"type":"Polygon","coordinates":[[[127.00414,37.672],[127.00403,37.67196],[127.00403,37.67191],[127.00423,37.67193],[127.00423,37.67199],[127.00414,37.672]]]}},{"type":"Feature","properties":{"valleyId":"uidong","layer":"shadow","date":"2026-08-01","timeLocal":"18:00"},"geometry":{"type":"Polygon","coordinates":[[[127.00667,37.67219],[127.00667,37.67214],[127.00674,37.67208],[127.00675,37.67197],[127.00688,37.67194],[127.0069,37.67205],[127.00679,37.6721],[127.00676,37.67219],[127.00667,37.67219]]]}},{"type":"Feature","properties":{"valleyId":"uidong","layer":"shadow","date":"2026-08-01","timeLocal":"18:00"},"geometry":{"type":"Polygon","coordinates":[[[127.00722,37.67205],[127.00718,37.67193],[127.00729,37.67193],[127.00729,37.67206],[127.00722,37.67205]]]}},{"type":"Feature","properties":{"valleyId":"uidong","layer":"shadow","date":"2026-08-01","timeLocal":"18:00"},"geometry":{"type":"Polygon","coordinates":[[[127.00214,37.67209],[127.00212,37.67206],[127.00198,37.67206],[127.00192,37.67198],[127.0018,37.67194],[127.00181,37.67189],[127.00192,37.67187],[127.00201,37.67177],[127.00235,37.67183],[127.00235,37.67192],[127.00241,37.67208],[127.00214,37.67209]]]}},{"type":"Feature","properties":{"valleyId":"uidong","layer":"shadow","date":"2026-08-01","timeLocal":"18:00"},"geometry":{"type":"Polygon","coordinates":[[[127.00686,37.67183],[127.00684,37.67174],[127.00691,37.67174],[127.00693,37.67183],[127.00686,37.67183]]]}},{"type":"Feature","properties":{"valleyId":"uidong","layer":"shadow","date":"2026-08-01","timeLocal":"18:00"},"geometry":{"type":"Polygon","coordinates":[[[127.00371,37.67358],[127.00371,37.67351],[127.00381,37.67342],[127.00381,37.67324],[127.00386,37.67319],[127.00395,37.67315],[127.00393,37.67301],[127.00398,37.67297],[127.00398,37.67279],[127.00412,37.67272],[127.00415,37.67258],[127.00433,37.67247],[127.00431,37.67233],[127.00436,37.67233],[127.00436,37.67229],[127.00456,37.67228],[127.00456,37.67232],[127.00463,37.67235],[127.00485,37.67241],[127.00499,37.67241],[127.00503,37.67245],[127.00501,37.67254],[127.00487,37.67254],[127.00472,37.67244],[127.00449,37.67244],[127.00449,37.67248],[127.00444,37.67249],[127.00446,37.6726],[127.00462,37.6726],[127.00473,37.67268],[127.00485,37.67268],[127.00489,37.67265],[127.00516,37.67265],[127.00528,37.67249],[127.00542,37.67249],[127.00544,37.67242],[127.00556,37.67239],[127.00556,37.6723],[127.00551,37.67226],[127.00531,37.67226],[127.00531,37.67218],[127.00545,37.67217],[127.00545,37.6721],[127.00532,37.67206],[127.0053,37.67179],[127.00516,37.67179],[127.00519,37.67153],[127.00562,37.67154],[127.00574,37.6716],[127.0059,37.67158],[127.00589,37.67169],[127.00605,37.67169],[127.00607,37.67185],[127.00614,37.67186],[127.00613,37.672],[127.00611,37.67205],[127.00604,37.67207],[127.00604,37.67216],[127.0059,37.67218],[127.0059,37.67223],[127.00586,37.67225],[127.0058,37.67252],[127.0058,37.67273],[127.00602,37.67283],[127.00602,37.67295],[127.00563,37.67313],[127.00535,37.67316],[127.00531,37.67321],[127.00522,37.67325],[127.00515,37.67324],[127.00515,37.67317],[127.00504,37.67319],[127.00503,37.67335],[127.0046,37.67351],[127.00446,37.6735],[127.0044,37.67338],[127.0044,37.67327],[127.00429,37.67316],[127.00408,37.67317],[127.00404,37.67319],[127.00404,37.6733],[127.00399,37.67332],[127.00399,37.67337],[127.00415,37.67344],[127.00414,37.6735],[127.00394,37.67349],[127.00394,37.67358],[127.00371,37.67358]],[[127.00509,37.67305],[127.0052,37.67303],[127.0052,37.67289],[127.00514,37.67288],[127.00513,37.67294],[127.00509,37.67296],[127.00509,37.67305]],[[127.00561,37.67302],[127.0057,37.67302],[127.0057,37.67295],[127.00563,37.67295],[127.00561,37.67302]],[[127.00573,37.67197],[127.00584,37.67196],[127.0058,37.67185],[127.00571,37.67185],[127.00568,37.67188],[127.00568,37.67194],[127.00573,37.67197]]]}},{"type":"Feature","properties":{"valleyId":"uidong","layer":"shadow","date":"2026-08-01","timeLocal":"18:00"},"geometry":{"type":"Polygon","coordinates":[[[127.0068,37.67165],[127.0068,37.67154],[127.00692,37.67156],[127.00691,37.67163],[127.0068,37.67165]]]}},{"type":"Feature","properties":{"valleyId":"uidong","layer":"shadow","date":"2026-08-01","timeLocal":"18:00"},"geometry":{"type":"Polygon","coordinates":[[[127.00665,37.67149],[127.00667,37.6714],[127.00678,37.6714],[127.00676,37.67147],[127.00665,37.67149]]]}},{"type":"Feature","properties":{"valleyId":"uidong","layer":"shadow","date":"2026-08-01","timeLocal":"18:00"},"geometry":{"type":"Polygon","coordinates":[[[127.00529,37.67139],[127.00529,37.6713],[127.00525,37.6713],[127.00525,37.67125],[127.00529,37.67125],[127.00529,37.67116],[127.00536,37.67116],[127.00541,37.67118],[127.00541,37.67123],[127.00532,37.67125],[127.00531,37.6713],[127.00543,37.67132],[127.00542,37.67139],[127.00529,37.67139]]]}},{"type":"Feature","properties":{"valleyId":"uidong","layer":"shadow","date":"2026-08-01","timeLocal":"18:00"},"geometry":{"type":"Polygon","coordinates":[[[127.00629,37.67107],[127.0063,37.67101],[127.00636,37.67101],[127.00636,37.67107],[127.00629,37.67107]]]}},{"type":"Feature","properties":{"valleyId":"uidong","layer":"shadow","date":"2026-08-01","timeLocal":"18:00"},"geometry":{"type":"Polygon","coordinates":[[[127.0061,37.67149],[127.00615,37.67133],[127.0062,37.6713],[127.00627,37.6713],[127.00631,37.67125],[127.00643,37.67123],[127.00643,37.67119],[127.00647,37.67118],[127.00645,37.67105],[127.00664,37.67103],[127.00682,37.67107],[127.00686,37.671],[127.00693,37.671],[127.00695,37.67111],[127.00686,37.67111],[127.00686,37.67115],[127.00672,37.67114],[127.00672,37.67118],[127.00659,37.67118],[127.00654,37.67125],[127.00643,37.67125],[127.00642,37.67134],[127.00647,37.67134],[127.00647,37.67141],[127.00642,37.67141],[127.00642,37.67145],[127.00628,37.67146],[127.00624,37.6715],[127.0061,37.67149]]]}},{"type":"Feature","properties":{"valleyId":"uidong","layer":"shadow","date":"2026-08-01","timeLocal":"18:00"},"geometry":{"type":"Polygon","coordinates":[[[127.00337,37.67204],[127.00339,37.67188],[127.00335,37.67184],[127.00335,37.67174],[127.00342,37.67172],[127.00344,37.67167],[127.00354,37.67167],[127.00358,37.67161],[127.00383,37.67162],[127.00388,37.67158],[127.00388,37.67151],[127.00395,37.67142],[127.00395,37.6713],[127.00414,37.67126],[127.00416,37.67123],[127.00432,37.67121],[127.00432,37.67112],[127.00428,37.67107],[127.0043,37.67096],[127.00437,37.67096],[127.00439,37.67101],[127.0045,37.67102],[127.00453,37.67098],[127.0046,37.67098],[127.0046,37.67095],[127.00469,37.67095],[127.00464,37.67106],[127.00471,37.67111],[127.0047,37.67118],[127.00452,37.6712],[127.00452,37.67113],[127.00446,37.67112],[127.00443,37.67121],[127.00448,37.67121],[127.00447,37.67129],[127.0047,37.67131],[127.0047,37.67127],[127.00486,37.67128],[127.00486,37.67137],[127.00508,37.67141],[127.00508,37.67159],[127.00503,37.67162],[127.00483,37.67162],[127.00476,37.67156],[127.00467,37.67156],[127.00467,37.67167],[127.00462,37.67167],[127.00455,37.67172],[127.00457,37.6719],[127.00439,37.6719],[127.00437,37.67179],[127.00417,37.67179],[127.00405,37.67184],[127.00405,37.67189],[127.00394,37.67189],[127.00389,37.67193],[127.00376,37.67191],[127.00364,37.67199],[127.00337,37.67204]],[[127.0042,37.67153],[127.00435,37.67154],[127.00436,37.67148],[127.00431,37.67148],[127.00424,37.67141],[127.00413,37.67141],[127.00413,37.6715],[127.0042,37.67153]]]}},{"type":"Feature","properties":{"valleyId":"uidong","layer":"shadow","date":"2026-08-01","timeLocal":"18:00"},"geometry":{"type":"Polygon","coordinates":[[[127.00609,37.67104],[127.006,37.67101],[127.006,37.67093],[127.00609,37.67094],[127.00621,37.67099],[127.0062,37.67105],[127.00609,37.67104]]]}},{"type":"Feature","properties":{"valleyId":"uidong","layer":"shadow","date":"2026-08-01","timeLocal":"18:00"},"geometry":{"type":"Polygon","coordinates":[[[127.00476,37.67093],[127.00481,37.67079],[127.00487,37.67079],[127.00487,37.67091],[127.00476,37.67093]]]}},{"type":"Feature","properties":{"valleyId":"uidong","layer":"shadow","date":"2026-08-01","timeLocal":"18:00"},"geometry":{"type":"Polygon","coordinates":[[[127.0072,37.67108],[127.0072,37.67095],[127.00716,37.67094],[127.00714,37.67085],[127.00719,37.67083],[127.00721,37.67074],[127.0073,37.67074],[127.00728,37.67085],[127.00734,37.67087],[127.00734,37.67103],[127.00731,37.67108],[127.0072,37.67108]]]}},{"type":"Feature","properties":{"valleyId":"uidong","layer":"shadow","date":"2026-08-01","timeLocal":"18:00"},"geometry":{"type":"Polygon","coordinates":[[[127.00552,37.67114],[127.00552,37.67103],[127.00541,37.67096],[127.00544,37.67074],[127.00553,37.67075],[127.00563,37.67068],[127.00572,37.67068],[127.00569,37.67077],[127.00558,37.6708],[127.00551,37.67087],[127.0055,37.67098],[127.00571,37.671],[127.0057,37.67113],[127.00552,37.67114]]]}},{"type":"Feature","properties":{"valleyId":"uidong","layer":"shadow","date":"2026-08-01","timeLocal":"18:00"},"geometry":{"type":"Polygon","coordinates":[[[127.0049,37.67074],[127.0049,37.67065],[127.00501,37.67063],[127.00501,37.6707],[127.00497,37.6707],[127.00497,37.67074],[127.0049,37.67074]]]}},{"type":"Feature","properties":{"valleyId":"uidong","layer":"shadow","date":"2026-08-01","timeLocal":"18:00"},"geometry":{"type":"Polygon","coordinates":[[[127.00578,37.6707],[127.00578,37.67064],[127.00585,37.67064],[127.00585,37.6707],[127.00578,37.6707]]]}},{"type":"Feature","properties":{"valleyId":"uidong","layer":"shadow","date":"2026-08-01","timeLocal":"18:00"},"geometry":{"type":"Polygon","coordinates":[[[127.00433,37.6706],[127.00434,37.67051],[127.00447,37.67053],[127.00447,37.6706],[127.00433,37.6706]]]}},{"type":"Feature","properties":{"valleyId":"uidong","layer":"shadow","date":"2026-08-01","timeLocal":"18:00"},"geometry":{"type":"Polygon","coordinates":[[[127.00594,37.67066],[127.00595,37.67055],[127.00588,37.67054],[127.00588,37.67046],[127.00602,37.67047],[127.00606,37.67054],[127.00606,37.67063],[127.00601,37.67063],[127.00601,37.67066],[127.00594,37.67066]]]}},{"type":"Feature","properties":{"valleyId":"uidong","layer":"shadow","date":"2026-08-01","timeLocal":"18:00"},"geometry":{"type":"Polygon","coordinates":[[[127.00787,37.67057],[127.00787,37.67052],[127.00797,37.6705],[127.00796,37.67055],[127.00787,37.67057]]]}},{"type":"Feature","properties":{"valleyId":"uidong","layer":"shadow","date":"2026-08-01","timeLocal":"18:00"},"geometry":{"type":"Polygon","coordinates":[[[127.00724,37.67058],[127.00726,37.67045],[127.00747,37.67045],[127.00749,37.67042],[127.00758,37.67042],[127.00758,37.67046],[127.00763,37.67046],[127.00762,37.67056],[127.00749,37.67056],[127.00749,37.67053],[127.0074,37.67053],[127.00731,37.67058],[127.00724,37.67058]]]}},{"type":"Feature","properties":{"valleyId":"uidong","layer":"shadow","date":"2026-08-01","timeLocal":"18:00"},"geometry":{"type":"Polygon","coordinates":[[[127.00675,37.67086],[127.00671,37.67084],[127.00671,37.67078],[127.0068,37.67079],[127.00681,37.67053],[127.00674,37.67051],[127.00674,37.67046],[127.00683,37.67046],[127.0069,37.67052],[127.00697,37.67052],[127.00699,37.67041],[127.00706,37.67041],[127.00706,37.67056],[127.00697,37.67059],[127.00696,37.67075],[127.00687,37.67077],[127.00687,37.6708],[127.00682,37.6708],[127.00682,37.67086],[127.00675,37.67086]]]}},{"type":"Feature","properties":{"valleyId":"uidong","layer":"shadow","date":"2026-08-01","timeLocal":"18:00"},"geometry":{"type":"Polygon","coordinates":[[[127.00248,37.67051],[127.00236,37.67049],[127.00237,37.67044],[127.00255,37.67032],[127.00262,37.67032],[127.00266,37.67037],[127.00275,37.67039],[127.00275,37.67045],[127.00262,37.67046],[127.00257,37.67052],[127.00248,37.67051]]]}},{"type":"Feature","properties":{"valleyId":"uidong","layer":"shadow","date":"2026-08-01","timeLocal":"18:00"},"geometry":{"type":"Polygon","coordinates":[[[127.00781,37.67039],[127.00781,37.67033],[127.00788,37.67033],[127.00788,37.67039],[127.00781,37.67039]]]}},{"type":"Feature","properties":{"valleyId":"uidong","layer":"shadow","date":"2026-08-01","timeLocal":"18:00"},"geometry":{"type":"Polygon","coordinates":[[[127.00681,37.67039],[127.00677,37.67024],[127.00688,37.67025],[127.00693,37.67039],[127.00681,37.67039]]]}},{"type":"Feature","properties":{"valleyId":"uidong","layer":"shadow","date":"2026-08-01","timeLocal":"18:00"},"geometry":{"type":"Polygon","coordinates":[[[127.00335,37.6708],[127.00336,37.67073],[127.0032,37.67071],[127.00318,37.67067],[127.003,37.67061],[127.003,37.6705],[127.00295,37.67049],[127.00296,37.67043],[127.003,37.67041],[127.003,37.67032],[127.00294,37.67031],[127.00294,37.67014],[127.00303,37.67014],[127.00305,37.67027],[127.00312,37.67031],[127.00311,37.67045],[127.00318,37.67045],[127.00323,37.67042],[127.00321,37.67018],[127.00335,37.67011],[127.00351,37.67012],[127.00358,37.67017],[127.00387,37.6702],[127.00394,37.67027],[127.00398,37.67027],[127.00398,37.67031],[127.00405,37.67032],[127.00409,37.67051],[127.004,37.67056],[127.00397,37.6707],[127.00388,37.6707],[127.00388,37.67075],[127.00383,37.67075],[127.00381,37.67079],[127.00374,37.67079],[127.00363,37.67073],[127.00351,37.67073],[127.00347,37.6708],[127.00335,37.6708]]]}},{"type":"Feature","properties":{"valleyId":"uidong","layer":"shadow","date":"2026-08-01","timeLocal":"18:00"},"geometry":{"type":"Polygon","coordinates":[[[127.00708,37.67036],[127.00709,37.67029],[127.007,37.67023],[127.007,37.67018],[127.00727,37.6702],[127.00731,37.67024],[127.00731,37.67031],[127.00722,37.67032],[127.0072,37.67036],[127.00708,37.67036]]]}},{"type":"Feature","properties":{"valleyId":"uidong","layer":"shadow","date":"2026-08-01","timeLocal":"18:00"},"geometry":{"type":"Polygon","coordinates":[[[127.00808,37.67028],[127.00809,37.67025],[127.00804,37.67025],[127.00804,37.67019],[127.00811,37.67019],[127.00811,37.67023],[127.00815,37.67023],[127.00815,37.67029],[127.00808,37.67028]]]}},{"type":"Feature","properties":{"valleyId":"uidong","layer":"shadow","date":"2026-08-01","timeLocal":"18:00"},"geometry":{"type":"Polygon","coordinates":[[[127.00779,37.67024],[127.00779,37.67014],[127.00773,37.67013],[127.00764,37.67008],[127.00762,37.66992],[127.0078,37.66994],[127.0078,37.67005],[127.00784,37.67005],[127.00786,37.6701],[127.00793,37.6701],[127.00793,37.67016],[127.00786,37.67017],[127.00786,37.67024],[127.00779,37.67024]]]}},{"type":"Feature","properties":{"valleyId":"uidong","layer":"shadow","date":"2026-08-01","timeLocal":"18:00"},"geometry":{"type":"Polygon","coordinates":[[[127.00816,37.66987],[127.00817,37.66978],[127.00823,37.66978],[127.00823,37.66987],[127.00816,37.66987]]]}},{"type":"Feature","properties":{"valleyId":"uidong","layer":"shadow","date":"2026-08-01","timeLocal":"18:00"},"geometry":{"type":"Polygon","coordinates":[[[127.0079,37.6696],[127.0079,37.66951],[127.00808,37.66951],[127.00806,37.66958],[127.0079,37.6696]]]}},{"type":"Feature","properties":{"valleyId":"uidong","layer":"shadow","date":"2026-08-01","timeLocal":"18:00"},"geometry":{"type":"Polygon","coordinates":[[[127.0084,37.66939],[127.0084,37.66933],[127.00847,37.66934],[127.00847,37.66939],[127.0084,37.66939]]]}},{"type":"Feature","properties":{"valleyId":"uidong","layer":"shadow","date":"2026-08-01","timeLocal":"18:00"},"geometry":{"type":"Polygon","coordinates":[[[127.01062,37.66941],[127.0106,37.66932],[127.01067,37.66932],[127.01069,37.66941],[127.01062,37.66941]]]}},{"type":"Feature","properties":{"valleyId":"uidong","layer":"shadow","date":"2026-08-01","timeLocal":"18:00"},"geometry":{"type":"Polygon","coordinates":[[[127.00993,37.66922],[127.00993,37.66916],[127.01002,37.66916],[127.01002,37.66922],[127.00993,37.66922]]]}},{"type":"Feature","properties":{"valleyId":"uidong","layer":"shadow","date":"2026-08-01","timeLocal":"18:00"},"geometry":{"type":"Polygon","coordinates":[[[127.00809,37.66913],[127.00809,37.66908],[127.00816,37.66908],[127.00816,37.66913],[127.00809,37.66913]]]}},{"type":"Feature","properties":{"valleyId":"uidong","layer":"shadow","date":"2026-08-01","timeLocal":"18:00"},"geometry":{"type":"Polygon","coordinates":[[[127.00622,37.67058],[127.00622,37.67052],[127.00629,37.67047],[127.00629,37.67036],[127.00611,37.67038],[127.00611,37.67032],[127.00618,37.67027],[127.0062,37.6702],[127.00627,37.67018],[127.00628,37.67009],[127.00632,37.67009],[127.00634,37.67006],[127.00639,37.66988],[127.00644,37.66986],[127.00649,37.66975],[127.00658,37.6697],[127.00659,37.66952],[127.0067,37.66936],[127.00677,37.66934],[127.00678,37.66916],[127.00689,37.66907],[127.00696,37.66908],[127.00696,37.66924],[127.00709,37.66922],[127.00714,37.66926],[127.00725,37.66926],[127.00727,37.66921],[127.00739,37.66921],[127.00748,37.66914],[127.00766,37.66914],[127.00773,37.66911],[127.00775,37.66905],[127.00789,37.66906],[127.00789,37.66911],[127.00784,37.66911],[127.00782,37.66916],[127.00777,37.66916],[127.00777,37.66922],[127.00773,37.66921],[127.00772,37.66941],[127.00777,37.66941],[127.00777,37.66947],[127.0077,37.66947],[127.0077,37.66954],[127.00781,37.66954],[127.00778,37.66967],[127.00785,37.66969],[127.00785,37.66981],[127.00778,37.66981],[127.00778,37.66972],[127.00774,37.66972],[127.00774,37.66968],[127.00767,37.66968],[127.00765,37.66957],[127.00754,37.66957],[127.00753,37.66966],[127.00749,37.66966],[127.00747,37.6697],[127.00746,37.66982],[127.00705,37.66982],[127.00703,37.66991],[127.00676,37.66994],[127.00671,37.66995],[127.00671,37.67001],[127.0066,37.67001],[127.00659,37.67017],[127.00648,37.67017],[127.00645,37.67022],[127.00636,37.67022],[127.00634,37.67033],[127.00647,37.67029],[127.0065,37.67033],[127.00661,37.67035],[127.00661,37.67049],[127.00656,37.67053],[127.00645,37.67053],[127.00647,37.67042],[127.0064,37.67042],[127.00633,37.67049],[127.00633,37.67056],[127.00622,37.67058]],[[127.00718,37.66937],[127.00727,37.66937],[127.00727,37.66932],[127.00718,37.66931],[127.00718,37.66937]]]}},{"type":"Feature","properties":{"valleyId":"uidong","layer":"shadow","date":"2026-08-01","timeLocal":"18:00"},"geometry":{"type":"Polygon","coordinates":[[[127.00832,37.66913],[127.0083,37.66901],[127.00826,37.66899],[127.00826,37.66894],[127.00837,37.66894],[127.00839,37.66899],[127.00839,37.66914],[127.00832,37.66913]]]}},{"type":"Feature","properties":{"valleyId":"uidong","layer":"shadow","date":"2026-08-01","timeLocal":"18:00"},"geometry":{"type":"Polygon","coordinates":[[[127.00785,37.66896],[127.00783,37.66866],[127.00792,37.66866],[127.00792,37.6687],[127.00799,37.6687],[127.00804,37.66866],[127.00804,37.66861],[127.00815,37.66861],[127.00815,37.66866],[127.00808,37.66868],[127.00808,37.66875],[127.00801,37.66875],[127.00797,37.6688],[127.00794,37.66895],[127.00785,37.66896]]]}},{"type":"Feature","properties":{"valleyId":"uidong","layer":"shadow","date":"2026-08-01","timeLocal":"18:00"},"geometry":{"type":"Polygon","coordinates":[[[127.00856,37.66858],[127.00854,37.66854],[127.00849,37.66854],[127.0085,37.66849],[127.00859,37.66849],[127.00865,37.66853],[127.00865,37.66858],[127.00856,37.66858]]]}},{"type":"Feature","properties":{"valleyId":"uidong","layer":"shadow","date":"2026-08-01","timeLocal":"18:00"},"geometry":{"type":"Polygon","coordinates":[[[127.00747,37.66854],[127.00745,37.66847],[127.00752,37.66842],[127.0077,37.66842],[127.0077,37.66849],[127.00761,37.66849],[127.00759,37.66855],[127.00747,37.66854]]]}},{"type":"Feature","properties":{"valleyId":"uidong","layer":"shadow","date":"2026-08-01","timeLocal":"18:00"},"geometry":{"type":"Polygon","coordinates":[[[127.0106,37.66851],[127.01061,37.66843],[127.01067,37.66844],[127.01067,37.66851],[127.0106,37.66851]]]}},{"type":"Feature","properties":{"valleyId":"uidong","layer":"shadow","date":"2026-08-01","timeLocal":"18:00"},"geometry":{"type":"Polygon","coordinates":[[[127.00661,37.66855],[127.00661,37.66851],[127.00655,37.66847],[127.00657,37.66831],[127.00666,37.66831],[127.00666,37.66846],[127.0067,37.66846],[127.0067,37.66853],[127.00661,37.66855]]]}},{"type":"Feature","properties":{"valleyId":"uidong","layer":"shadow","date":"2026-08-01","timeLocal":"18:00"},"geometry":{"type":"Polygon","coordinates":[[[127.00673,37.6684],[127.00678,37.66823],[127.00687,37.66823],[127.00687,37.66834],[127.0068,37.66841],[127.00673,37.6684]]]}},{"type":"Feature","properties":{"valleyId":"uidong","layer":"shadow","date":"2026-08-01","timeLocal":"18:00"},"geometry":{"type":"Polygon","coordinates":[[[127.01093,37.66806],[127.01091,37.66799],[127.01105,37.66801],[127.01105,37.66806],[127.01093,37.66806]]]}},{"type":"Feature","properties":{"valleyId":"uidong","layer":"shadow","date":"2026-08-01","timeLocal":"18:00"},"geometry":{"type":"Polygon","coordinates":[[[127.01071,37.66799],[127.01071,37.6679],[127.01078,37.6679],[127.01078,37.66799],[127.01071,37.66799]]]}},{"type":"Feature","properties":{"valleyId":"uidong","layer":"shadow","date":"2026-08-01","timeLocal":"18:00"},"geometry":{"type":"Polygon","coordinates":[[[127.00835,37.66892],[127.0084,37.6687],[127.00833,37.66868],[127.00833,37.66863],[127.00817,37.66865],[127.00818,37.66839],[127.00811,37.66839],[127.00813,37.66852],[127.00797,37.66852],[127.00795,37.66843],[127.00807,37.66834],[127.00807,37.66827],[127.00814,37.66821],[127.00814,37.66812],[127.0083,37.66805],[127.00833,37.66787],[127.00842,37.66784],[127.00842,37.6678],[127.00852,37.66773],[127.00852,37.66766],[127.00859,37.66766],[127.00858,37.66773],[127.00863,37.66775],[127.00858,37.6679],[127.00849,37.66791],[127.00846,37.66802],[127.00833,37.66807],[127.00832,37.66813],[127.00855,37.66815],[127.00857,37.66822],[127.00853,37.66822],[127.00846,37.66827],[127.00825,37.6683],[127.00825,37.66836],[127.00829,37.66838],[127.00827,37.6685],[127.00836,37.66852],[127.00836,37.66861],[127.00845,37.66863],[127.00851,37.66871],[127.00848,37.66889],[127.00835,37.66892]]]}},{"type":"Feature","properties":{"valleyId":"uidong","layer":"shadow","date":"2026-08-01","timeLocal":"18:00"},"geometry":{"type":"Polygon","coordinates":[[[127.00696,37.66897],[127.00697,37.66879],[127.00692,37.66877],[127.0069,37.66864],[127.00693,37.66834],[127.00698,37.6683],[127.00696,37.66812],[127.00703,37.6681],[127.00708,37.66805],[127.00726,37.66805],[127.00728,37.66796],[127.00724,37.66793],[127.00717,37.66793],[127.0071,37.66798],[127.00704,37.66798],[127.00695,37.6679],[127.00688,37.6679],[127.00681,37.66783],[127.0067,37.66783],[127.0067,37.6679],[127.00676,37.66792],[127.00676,37.66797],[127.0067,37.66797],[127.00667,37.66792],[127.00661,37.66792],[127.00661,37.66775],[127.00668,37.66776],[127.00668,37.66767],[127.00684,37.66769],[127.00689,37.66761],[127.00707,37.66762],[127.00709,37.66778],[127.00724,37.66776],[127.00727,37.6678],[127.00733,37.6678],[127.00736,37.66777],[127.0074,37.66777],[127.0074,37.66773],[127.00754,37.66773],[127.00754,37.66784],[127.00767,37.66792],[127.00769,37.66799],[127.00783,37.66799],[127.00787,37.66805],[127.00796,37.66807],[127.00796,37.66814],[127.0078,37.66813],[127.00778,37.6681],[127.00771,37.6681],[127.00767,37.66813],[127.00766,37.66824],[127.00757,37.66838],[127.00727,37.6684],[127.00723,37.66845],[127.00725,37.66859],[127.00731,37.66863],[127.00735,37.66874],[127.00747,37.66883],[127.00746,37.66889],[127.00728,37.66888],[127.00715,37.66892],[127.00712,37.66895],[127.00696,37.66897]],[[127.00712,37.66821],[127.00719,37.66821],[127.00719,37.66814],[127.0071,37.66814],[127.00712,37.66821]]]}},{"type":"Feature","properties":{"valleyId":"uidong","layer":"shadow","date":"2026-08-01","timeLocal":"18:00"},"geometry":{"type":"Polygon","coordinates":[[[127.01113,37.66819],[127.01116,37.66807],[127.01139,37.66801],[127.01139,37.66796],[127.01128,37.66794],[127.01128,37.66789],[127.01137,37.66785],[127.01142,37.66778],[127.01148,37.66776],[127.01153,37.66771],[127.01171,37.66768],[127.01169,37.66775],[127.01155,37.66778],[127.01155,37.66786],[127.01162,37.66791],[127.01162,37.66796],[127.01152,37.66802],[127.01152,37.66805],[127.01136,37.66807],[127.01136,37.6681],[127.01129,37.66816],[127.01125,37.66816],[127.01122,37.66819],[127.01113,37.66819]]]}},{"type":"Feature","properties":{"valleyId":"uidong","layer":"shadow","date":"2026-08-01","timeLocal":"18:00"},"geometry":{"type":"Polygon","coordinates":[[[127.01103,37.66794],[127.01103,37.66788],[127.01087,37.66779],[127.01092,37.66766],[127.01101,37.66767],[127.01101,37.66777],[127.01108,37.66783],[127.01112,37.66783],[127.01109,37.66794],[127.01103,37.66794]]]}},{"type":"Feature","properties":{"valleyId":"uidong","layer":"shadow","date":"2026-08-01","timeLocal":"18:00"},"geometry":{"type":"Polygon","coordinates":[[[127.01131,37.6676],[127.01129,37.66751],[127.01145,37.66751],[127.01144,37.66758],[127.01131,37.6676]]]}},{"type":"Feature","properties":{"valleyId":"uidong","layer":"shadow","date":"2026-08-01","timeLocal":"18:00"},"geometry":{"type":"Polygon","coordinates":[[[127.00975,37.6675],[127.00975,37.66745],[127.00982,37.66745],[127.00981,37.6675],[127.00975,37.6675]]]}},{"type":"Feature","properties":{"valleyId":"uidong","layer":"shadow","date":"2026-08-01","timeLocal":"18:00"},"geometry":{"type":"Polygon","coordinates":[[[127.01103,37.66767],[127.01099,37.66745],[127.01118,37.66745],[127.01117,37.66756],[127.01113,37.6676],[127.01113,37.66765],[127.01103,37.66767]]]}},{"type":"Feature","properties":{"valleyId":"uidong","layer":"shadow","date":"2026-08-01","timeLocal":"18:00"},"geometry":{"type":"Polygon","coordinates":[[[127.00927,37.66746],[127.0093,37.66738],[127.00946,37.66735],[127.00943,37.66742],[127.00939,37.66742],[127.00936,37.66746],[127.00927,37.66746]]]}},{"type":"Feature","properties":{"valleyId":"uidong","layer":"shadow","date":"2026-08-01","timeLocal":"18:00"},"geometry":{"type":"Polygon","coordinates":[[[127.00998,37.66736],[127.00993,37.66734],[127.00993,37.66729],[127.01005,37.66729],[127.01007,37.66736],[127.00998,37.66736]]]}},{"type":"Feature","properties":{"valleyId":"uidong","layer":"shadow","date":"2026-08-01","timeLocal":"18:00"},"geometry":{"type":"Polygon","coordinates":[[[127.00639,37.66735],[127.0064,37.66723],[127.00651,37.66721],[127.00649,37.66734],[127.00639,37.66735]]]}},{"type":"Feature","properties":{"valleyId":"uidong","layer":"shadow","date":"2026-08-01","timeLocal":"18:00"},"geometry":{"type":"Polygon","coordinates":[[[127.00957,37.6673],[127.00957,37.66719],[127.00969,37.66721],[127.00968,37.6673],[127.00957,37.6673]]]}},{"type":"Feature","properties":{"valleyId":"uidong","layer":"shadow","date":"2026-08-01","timeLocal":"18:00"},"geometry":{"type":"Polygon","coordinates":[[[127.01012,37.66713],[127.01012,37.66707],[127.01019,37.66708],[127.01019,37.66713],[127.01012,37.66713]]]}},{"type":"Feature","properties":{"valleyId":"uidong","layer":"shadow","date":"2026-08-01","timeLocal":"18:00"},"geometry":{"type":"Polygon","coordinates":[[[127.00898,37.66808],[127.00901,37.66781],[127.00883,37.66785],[127.00883,37.66777],[127.00876,37.66774],[127.00875,37.66761],[127.00861,37.66761],[127.00861,37.66764],[127.00854,37.66764],[127.00854,37.66759],[127.00861,37.66759],[127.00868,37.66743],[127.00875,37.66738],[127.0088,37.66738],[127.00885,37.66727],[127.00894,37.66727],[127.00898,37.66722],[127.00903,37.66722],[127.00903,37.66709],[127.00912,37.66708],[127.00919,37.66697],[127.00935,37.66697],[127.00935,37.6669],[127.00922,37.6669],[127.00919,37.66693],[127.0091,37.66691],[127.00911,37.66686],[127.00915,37.66684],[127.00915,37.66675],[127.00925,37.66668],[127.00945,37.66668],[127.00947,37.66665],[127.00952,37.66665],[127.00957,37.66651],[127.00966,37.66651],[127.00968,37.6666],[127.00975,37.66664],[127.00972,37.66674],[127.00965,37.66674],[127.00965,37.66681],[127.00974,37.66683],[127.00974,37.66692],[127.00972,37.66696],[127.00958,37.66699],[127.00957,37.66716],[127.00948,37.66715],[127.00948,37.66721],[127.00941,37.66721],[127.00937,37.66715],[127.00928,37.66715],[127.00928,37.66726],[127.00923,37.66726],[127.00909,37.66736],[127.00913,37.66765],[127.00902,37.66767],[127.00901,37.66774],[127.0091,37.66778],[127.0091,37.66803],[127.00905,37.66808],[127.00898,37.66808]],[[127.00944,37.66692],[127.00956,37.66692],[127.00956,37.66685],[127.00945,37.66685],[127.00944,37.66692]]]}},{"type":"Feature","properties":{"valleyId":"uidong","layer":"shadow","date":"2026-08-01","timeLocal":"18:00"},"geometry":{"type":"Polygon","coordinates":[[[127.00861,37.66672],[127.00854,37.66665],[127.00855,37.66658],[127.00864,37.66649],[127.00878,37.66647],[127.00872,37.66671],[127.00861,37.66672]]]}},{"type":"Feature","properties":{"valleyId":"uidong","layer":"shadow","date":"2026-08-01","timeLocal":"18:00"},"geometry":{"type":"Polygon","coordinates":[[[127.0099,37.66687],[127.00995,37.66675],[127.00986,37.66664],[127.00986,37.66658],[127.00993,37.66651],[127.01002,37.6665],[127.01007,37.66642],[127.01016,37.66641],[127.01014,37.66632],[127.0101,37.66632],[127.00996,37.66619],[127.00997,37.66606],[127.0101,37.66605],[127.01012,37.66608],[127.01019,37.66608],[127.01017,37.66621],[127.01026,37.66623],[127.01028,37.66627],[127.01037,37.66627],[127.01044,37.66632],[127.01043,37.66645],[127.01036,37.66645],[127.01007,37.66659],[127.01006,37.66666],[127.01011,37.66668],[127.01013,37.66677],[127.01008,37.66677],[127.01008,37.6668],[127.01004,37.6668],[127.01001,37.66686],[127.0099,37.66687]]]}},{"type":"Feature","properties":{"valleyId":"uidong","layer":"shadow","date":"2026-08-01","timeLocal":"18:00"},"geometry":{"type":"Polygon","coordinates":[[[127.00907,37.66639],[127.00887,37.66626],[127.00876,37.66624],[127.00876,37.6662],[127.00862,37.66618],[127.00865,37.66599],[127.00872,37.66599],[127.00883,37.66608],[127.00888,37.66608],[127.00894,37.66619],[127.00924,37.66621],[127.00919,37.66637],[127.00907,37.66639]]]}},{"type":"Feature","properties":{"valleyId":"uidong","layer":"shadow","date":"2026-08-01","timeLocal":"18:00"},"geometry":{"type":"Polygon","coordinates":[[[127.00946,37.66622],[127.00942,37.66618],[127.00935,37.66618],[127.00935,37.66614],[127.00924,37.66614],[127.00922,37.66594],[127.00938,37.66596],[127.00935,37.66612],[127.00947,37.66613],[127.00953,37.66616],[127.00953,37.66622],[127.00946,37.66622]]]}},{"type":"Feature","properties":{"valleyId":"uidong","layer":"shadow","date":"2026-08-01","timeLocal":"18:00"},"geometry":{"type":"Polygon","coordinates":[[[127.01085,37.66601],[127.01085,37.66592],[127.01094,37.66592],[127.01094,37.66601],[127.01085,37.66601]]]}},{"type":"Feature","properties":{"valleyId":"uidong","layer":"shadow","date":"2026-08-01","timeLocal":"18:00"},"geometry":{"type":"Polygon","coordinates":[[[127.01065,37.66591],[127.01065,37.66586],[127.01074,37.66586],[127.01074,37.66591],[127.01065,37.66591]]]}},{"type":"Feature","properties":{"valleyId":"uidong","layer":"shadow","date":"2026-08-01","timeLocal":"18:00"},"geometry":{"type":"Polygon","coordinates":[[[127.00864,37.66581],[127.00857,37.66575],[127.00853,37.66564],[127.00841,37.66559],[127.00842,37.66553],[127.00851,37.66553],[127.00853,37.66557],[127.00864,37.66559],[127.00866,37.66572],[127.00873,37.66574],[127.00873,37.66581],[127.00864,37.66581]]]}},{"type":"Feature","properties":{"valleyId":"uidong","layer":"shadow","date":"2026-08-01","timeLocal":"18:00"},"geometry":{"type":"Polygon","coordinates":[[[127.0096,37.66615],[127.00963,37.666],[127.00972,37.66595],[127.00973,37.66573],[127.00968,37.6657],[127.00968,37.66561],[127.00959,37.66559],[127.00959,37.66553],[127.01027,37.66554],[127.01027,37.6656],[127.01032,37.6656],[127.01032,37.66571],[127.01038,37.66571],[127.01038,37.66576],[127.0102,37.6658],[127.0102,37.66583],[127.01013,37.66588],[127.01004,37.6659],[127.01004,37.66594],[127.00988,37.66595],[127.00985,37.66602],[127.0099,37.66603],[127.0099,37.66608],[127.00974,37.66606],[127.00974,37.66615],[127.0096,37.66615]]]}},{"type":"Feature","properties":{"valleyId":"uidong","layer":"shadow","date":"2026-08-01","timeLocal":"18:00"},"geometry":{"type":"Polygon","coordinates":[[[127.00819,37.66555],[127.00812,37.66549],[127.00812,37.66544],[127.00839,37.6655],[127.00839,37.66555],[127.00819,37.66555]]]}},{"type":"Feature","properties":{"valleyId":"uidong","layer":"shadow","date":"2026-08-01","timeLocal":"18:00"},"geometry":{"type":"Polygon","coordinates":[[[127.01107,37.66475],[127.01109,37.66462],[127.01123,37.66462],[127.01118,37.66473],[127.01107,37.66475]]]}},{"type":"Feature","properties":{"valleyId":"uidong","layer":"shadow","date":"2026-08-01","timeLocal":"18:00"},"geometry":{"type":"Polygon","coordinates":[[[127.00873,37.66465],[127.00874,37.66458],[127.00867,37.66456],[127.00863,37.66447],[127.00856,37.66443],[127.00856,37.66438],[127.00851,37.66438],[127.00852,37.66433],[127.00876,37.66435],[127.00876,37.6644],[127.00885,37.66444],[127.00908,37.66444],[127.00908,37.6645],[127.00896,37.6645],[127.00892,37.66453],[127.00892,37.6646],[127.00887,37.66464],[127.00873,37.66465]]]}},{"type":"Feature","properties":{"valleyId":"uidong","layer":"shadow","date":"2026-08-01","timeLocal":"18:00"},"geometry":{"type":"Polygon","coordinates":[[[127.00815,37.66436],[127.00815,37.6643],[127.00822,37.6643],[127.00822,37.66436],[127.00815,37.66436]]]}},{"type":"Feature","properties":{"valleyId":"uidong","layer":"shadow","date":"2026-08-01","timeLocal":"18:00"},"geometry":{"type":"Polygon","coordinates":[[[127.00938,37.66434],[127.00938,37.66429],[127.00947,37.66429],[127.00947,37.66434],[127.00938,37.66434]]]}},{"type":"Feature","properties":{"valleyId":"uidong","layer":"shadow","date":"2026-08-01","timeLocal":"18:00"},"geometry":{"type":"Polygon","coordinates":[[[127.01064,37.66528],[127.01065,37.66515],[127.0106,37.66515],[127.01056,37.66501],[127.01049,37.66501],[127.01047,37.66506],[127.01022,37.66506],[127.01022,37.66517],[127.01015,37.66516],[127.01015,37.66509],[127.00992,37.66512],[127.00993,37.66502],[127.01013,37.66489],[127.01013,37.66484],[127.01007,37.6648],[127.01007,37.66477],[127.00996,37.66473],[127.00966,37.66472],[127.00966,37.66485],[127.00959,37.66488],[127.00959,37.66496],[127.00972,37.66498],[127.00972,37.66508],[127.00963,37.66508],[127.00963,37.66505],[127.00947,37.66504],[127.00948,37.66476],[127.00955,37.6647],[127.00955,37.66456],[127.00951,37.66449],[127.00949,37.66431],[127.00954,37.66431],[127.00956,37.66427],[127.00957,37.66409],[127.00952,37.66404],[127.00939,37.66402],[127.00936,37.66394],[127.00957,37.66393],[127.00982,37.66397],[127.00984,37.66415],[127.00979,37.66415],[127.00979,37.66422],[127.00974,37.66422],[127.00967,37.66427],[127.00967,37.66431],[127.0096,37.66433],[127.0096,37.66438],[127.00967,37.6644],[127.00974,37.66445],[127.00974,37.66451],[127.0098,37.66455],[127.01012,37.66457],[127.01009,37.66469],[127.01021,37.6647],[127.01025,37.66466],[127.01032,37.66466],[127.01034,37.66463],[127.01041,37.66463],[127.01042,37.6645],[127.01033,37.66445],[127.01033,37.66439],[127.01028,37.66439],[127.01028,37.66436],[127.01017,37.66432],[127.01017,37.66426],[127.01042,37.66427],[127.01044,37.66432],[127.01051,37.66432],[127.01051,37.66423],[127.01058,37.66423],[127.01058,37.66427],[127.01099,37.66428],[127.01108,37.66431],[127.01108,37.66439],[127.01126,37.66443],[127.01125,37.6645],[127.01121,37.66453],[127.01107,37.66453],[127.01094,37.66458],[127.01064,37.6646],[127.01064,37.66463],[127.01041,37.66465],[127.01041,37.6647],[127.01048,37.66472],[127.01048,37.66477],[127.01066,37.66478],[127.01066,37.66474],[127.01082,37.66474],[127.01082,37.66478],[127.01093,37.66478],[127.01098,37.66476],[127.01098,37.66473],[127.01104,37.66473],[127.01104,37.66478],[127.011,37.66478],[127.01098,37.66529],[127.01064,37.66528]]]}},{"type":"Feature","properties":{"valleyId":"uidong","layer":"shadow","date":"2026-08-01","timeLocal":"18:00"},"geometry":{"type":"Polygon","coordinates":[[[127.009,37.66401],[127.00896,37.66397],[127.00896,37.66392],[127.00918,37.66392],[127.00918,37.66398],[127.009,37.66401]]]}},{"type":"Feature","properties":{"valleyId":"uidong","layer":"shadow","date":"2026-08-01","timeLocal":"18:00"},"geometry":{"type":"Polygon","coordinates":[[[127.01116,37.66387],[127.01112,37.66372],[127.01123,37.66372],[127.01127,37.66374],[127.01127,37.66378],[127.01134,37.66378],[127.01134,37.66383],[127.01116,37.66387]]]}},{"type":"Feature","properties":{"valleyId":"uidong","layer":"shadow","date":"2026-08-01","timeLocal":"18:00"},"geometry":{"type":"Polygon","coordinates":[[[127.01044,37.66376],[127.01044,37.66367],[127.01053,37.66367],[127.01053,37.66376],[127.01044,37.66376]]]}},{"type":"Feature","properties":{"valleyId":"uidong","layer":"shadow","date":"2026-08-01","timeLocal":"18:00"},"geometry":{"type":"Polygon","coordinates":[[[127.01087,37.66375],[127.01087,37.66364],[127.01107,37.66365],[127.01107,37.66372],[127.01096,37.66372],[127.01096,37.66375],[127.01087,37.66375]]]}},{"type":"Feature","properties":{"valleyId":"uidong","layer":"shadow","date":"2026-08-01","timeLocal":"18:00"},"geometry":{"type":"Polygon","coordinates":[[[127.00996,37.66365],[127.00996,37.66359],[127.01003,37.66359],[127.01003,37.66365],[127.00996,37.66365]]]}},{"type":"Feature","properties":{"valleyId":"uidong","layer":"shadow","date":"2026-08-01","timeLocal":"18:00"},"geometry":{"type":"Polygon","coordinates":[[[127.01175,37.66361],[127.01176,37.66355],[127.01182,37.66355],[127.01182,37.66361],[127.01175,37.66361]]]}},{"type":"Feature","properties":{"valleyId":"uidong","layer":"shadow","date":"2026-08-01","timeLocal":"18:00"},"geometry":{"type":"Polygon","coordinates":[[[127.00901,37.66356],[127.00904,37.66347],[127.00917,37.66347],[127.00917,37.66353],[127.00901,37.66356]]]}},{"type":"Feature","properties":{"valleyId":"uidong","layer":"shadow","date":"2026-08-01","timeLocal":"18:00"},"geometry":{"type":"Polygon","coordinates":[[[127.00944,37.66353],[127.00945,37.66348],[127.00951,37.66348],[127.00951,37.66353],[127.00944,37.66353]]]}},{"type":"Feature","properties":{"valleyId":"uidong","layer":"shadow","date":"2026-08-01","timeLocal":"18:00"},"geometry":{"type":"Polygon","coordinates":[[[127.00932,37.66322],[127.00932,37.66311],[127.00945,37.66315],[127.00945,37.66321],[127.00932,37.66322]]]}},{"type":"Feature","properties":{"valleyId":"uidong","layer":"shadow","date":"2026-08-01","timeLocal":"18:00"},"geometry":{"type":"Polygon","coordinates":[[[127.01052,37.66317],[127.01052,37.66312],[127.01059,37.66312],[127.01059,37.66317],[127.01052,37.66317]]]}},{"type":"Feature","properties":{"valleyId":"uidong","layer":"shadow","date":"2026-08-01","timeLocal":"18:00"},"geometry":{"type":"Polygon","coordinates":[[[127.00621,37.66308],[127.00619,37.66304],[127.00615,37.66304],[127.00617,37.66288],[127.00629,37.66286],[127.00638,37.66297],[127.00637,37.66303],[127.0063,37.66308],[127.00621,37.66308]]]}},{"type":"Feature","properties":{"valleyId":"uidong","layer":"shadow","date":"2026-08-01","timeLocal":"18:00"},"geometry":{"type":"Polygon","coordinates":[[[127.00928,37.66302],[127.0093,37.6629],[127.00944,37.6629],[127.00944,37.66295],[127.00939,37.66295],[127.00937,37.66302],[127.00928,37.66302]]]}},{"type":"Feature","properties":{"valleyId":"uidong","layer":"shadow","date":"2026-08-01","timeLocal":"18:00"},"geometry":{"type":"Polygon","coordinates":[[[127.01073,37.66296],[127.01073,37.6629],[127.01082,37.6629],[127.01082,37.66296],[127.01073,37.66296]]]}},{"type":"Feature","properties":{"valleyId":"uidong","layer":"shadow","date":"2026-08-01","timeLocal":"18:00"},"geometry":{"type":"Polygon","coordinates":[[[127.00908,37.66291],[127.00906,37.6628],[127.00921,37.66282],[127.00921,37.66288],[127.00917,37.66291],[127.00908,37.66291]]]}},{"type":"Feature","properties":{"valleyId":"uidong","layer":"shadow","date":"2026-08-01","timeLocal":"18:00"},"geometry":{"type":"Polygon","coordinates":[[[127.00699,37.66289],[127.00699,37.6628],[127.00708,37.66275],[127.00715,37.66275],[127.00717,37.66284],[127.00708,37.66286],[127.00706,37.6629],[127.00699,37.66289]]]}},{"type":"Feature","properties":{"valleyId":"uidong","layer":"shadow","date":"2026-08-01","timeLocal":"18:00"},"geometry":{"type":"Polygon","coordinates":[[[127.01236,37.66293],[127.01234,37.6628],[127.01275,37.66279],[127.01275,37.66285],[127.0127,37.66285],[127.0127,37.66288],[127.01257,37.66288],[127.01252,37.66292],[127.01236,37.66293]]]}},{"type":"Feature","properties":{"valleyId":"uidong","layer":"shadow","date":"2026-08-01","timeLocal":"18:00"},"geometry":{"type":"Polygon","coordinates":[[[127.00607,37.66266],[127.00602,37.66255],[127.00616,37.66256],[127.00618,37.66265],[127.00607,37.66266]]]}},{"type":"Feature","properties":{"valleyId":"uidong","layer":"shadow","date":"2026-08-01","timeLocal":"18:00"},"geometry":{"type":"Polygon","coordinates":[[[127.00994,37.66262],[127.00995,37.66257],[127.01001,37.66257],[127.01001,37.66262],[127.00994,37.66262]]]}},{"type":"Feature","properties":{"valleyId":"uidong","layer":"shadow","date":"2026-08-01","timeLocal":"18:00"},"geometry":{"type":"Polygon","coordinates":[[[127.0116,37.66276],[127.01158,37.66257],[127.01171,37.6626],[127.01171,37.6627],[127.01166,37.66272],[127.01166,37.66276],[127.0116,37.66276]]]}},{"type":"Feature","properties":{"valleyId":"uidong","layer":"shadow","date":"2026-08-01","timeLocal":"18:00"},"geometry":{"type":"Polygon","coordinates":[[[127.01189,37.66296],[127.0119,37.66254],[127.01196,37.66255],[127.01201,37.66271],[127.01196,37.66285],[127.012,37.66287],[127.012,37.66292],[127.01198,37.66296],[127.01189,37.66296]]]}},{"type":"Feature","properties":{"valleyId":"uidong","layer":"shadow","date":"2026-08-01","timeLocal":"18:00"},"geometry":{"type":"Polygon","coordinates":[[[127.0099,37.66253],[127.0099,37.66244],[127.01002,37.66244],[127.01002,37.66249],[127.00997,37.66249],[127.00997,37.66253],[127.0099,37.66253]]]}},{"type":"Feature","properties":{"valleyId":"uidong","layer":"shadow","date":"2026-08-01","timeLocal":"18:00"},"geometry":{"type":"Polygon","coordinates":[[[127.01033,37.6625],[127.01033,37.66245],[127.0104,37.66245],[127.0104,37.6625],[127.01033,37.6625]]]}},{"type":"Feature","properties":{"valleyId":"uidong","layer":"shadow","date":"2026-08-01","timeLocal":"18:00"},"geometry":{"type":"Polygon","coordinates":[[[127.00961,37.66242],[127.00961,37.66236],[127.00968,37.66236],[127.00968,37.66242],[127.00961,37.66242]]]}},{"type":"Feature","properties":{"valleyId":"uidong","layer":"shadow","date":"2026-08-01","timeLocal":"18:00"},"geometry":{"type":"Polygon","coordinates":[[[127.01221,37.66253],[127.01224,37.6623],[127.01236,37.6623],[127.01238,37.66234],[127.01242,37.66234],[127.0124,37.66246],[127.01233,37.66246],[127.01228,37.66253],[127.01221,37.66253]]]}},{"type":"Feature","properties":{"valleyId":"uidong","layer":"shadow","date":"2026-08-01","timeLocal":"18:00"},"geometry":{"type":"Polygon","coordinates":[[[127.00887,37.66228],[127.00887,37.6622],[127.00898,37.66221],[127.00898,37.66226],[127.00887,37.66228]]]}},{"type":"Feature","properties":{"valleyId":"uidong","layer":"shadow","date":"2026-08-01","timeLocal":"18:00"},"geometry":{"type":"Polygon","coordinates":[[[127.00584,37.66259],[127.00573,37.66253],[127.00573,37.66248],[127.00585,37.66241],[127.00585,37.66235],[127.00596,37.66235],[127.00601,37.66232],[127.00601,37.66226],[127.00606,37.66223],[127.00606,37.66212],[127.00631,37.66213],[127.00631,37.6622],[127.0064,37.6622],[127.00639,37.66225],[127.00633,37.66229],[127.00624,37.66229],[127.00619,37.66232],[127.0061,37.66232],[127.0061,37.66237],[127.00603,37.66239],[127.006,37.66257],[127.00584,37.66259]]]}},{"type":"Feature","properties":{"valleyId":"uidong","layer":"shadow","date":"2026-08-01","timeLocal":"18:00"},"geometry":{"type":"Polygon","coordinates":[[[127.00789,37.66224],[127.00782,37.66221],[127.00783,37.66215],[127.00798,37.66217],[127.00798,37.66224],[127.00789,37.66224]]]}},{"type":"Feature","properties":{"valleyId":"uidong","layer":"shadow","date":"2026-08-01","timeLocal":"18:00"},"geometry":{"type":"Polygon","coordinates":[[[127.01321,37.66262],[127.01321,37.66257],[127.01326,37.66255],[127.01329,37.66223],[127.01333,37.66223],[127.01333,37.66219],[127.0134,37.66219],[127.0134,37.66241],[127.01335,37.66241],[127.0133,37.6626],[127.01321,37.66262]]]}},{"type":"Feature","properties":{"valleyId":"uidong","layer":"shadow","date":"2026-08-01","timeLocal":"18:00"},"geometry":{"type":"Polygon","coordinates":[[[127.01249,37.66239],[127.01249,37.66228],[127.01256,37.66229],[127.01259,37.66216],[127.01275,37.66216],[127.01274,37.66225],[127.0127,37.66227],[127.0127,37.66231],[127.01263,37.66232],[127.01258,37.66239],[127.01249,37.66239]]]}},{"type":"Feature","properties":{"valleyId":"uidong","layer":"shadow","date":"2026-08-01","timeLocal":"18:00"},"geometry":{"type":"Polygon","coordinates":[[[127.00842,37.6627],[127.00838,37.66254],[127.00845,37.66247],[127.00854,37.66243],[127.00855,37.66234],[127.0085,37.66232],[127.0085,37.66223],[127.00844,37.66214],[127.00844,37.66209],[127.00851,37.66209],[127.00862,37.66213],[127.00862,37.66218],[127.00871,37.66222],[127.00871,37.66229],[127.00877,37.66235],[127.00877,37.6624],[127.00863,37.66242],[127.00859,37.66245],[127.00859,37.66254],[127.00868,37.66258],[127.00867,37.66265],[127.00856,37.66267],[127.00854,37.6627],[127.00842,37.6627]]]}},{"type":"Feature","properties":{"valleyId":"uidong","layer":"shadow","date":"2026-08-01","timeLocal":"18:00"},"geometry":{"type":"Polygon","coordinates":[[[127.0117,37.66229],[127.01168,37.66218],[127.01172,37.66218],[127.01173,37.66213],[127.01186,37.66213],[127.01186,37.66218],[127.01179,37.6622],[127.01179,37.66229],[127.0117,37.66229]]]}},{"type":"Feature","properties":{"valleyId":"uidong","layer":"shadow","date":"2026-08-01","timeLocal":"18:00"},"geometry":{"type":"Polygon","coordinates":[[[127.00835,37.66211],[127.0083,37.66209],[127.00831,37.66203],[127.00842,37.66205],[127.00842,37.66211],[127.00835,37.66211]]]}},{"type":"Feature","properties":{"valleyId":"uidong","layer":"shadow","date":"2026-08-01","timeLocal":"18:00"},"geometry":{"type":"Polygon","coordinates":[[[127.01288,37.66216],[127.01288,37.66211],[127.01295,37.66211],[127.01295,37.66217],[127.01288,37.66216]]]}},{"type":"Feature","properties":{"valleyId":"uidong","layer":"shadow","date":"2026-08-01","timeLocal":"18:00"},"geometry":{"type":"Polygon","coordinates":[[[127.0144,37.66232],[127.0144,37.66224],[127.01444,37.66224],[127.01445,37.66212],[127.01454,37.6621],[127.01453,37.66225],[127.01447,37.66225],[127.01446,37.66232],[127.0144,37.66232]]]}},{"type":"Feature","properties":{"valleyId":"uidong","layer":"shadow","date":"2026-08-01","timeLocal":"18:00"},"geometry":{"type":"Polygon","coordinates":[[[127.00626,37.66211],[127.00627,37.66196],[127.00638,37.66195],[127.00638,37.66198],[127.00642,37.66198],[127.00642,37.66207],[127.00638,37.66207],[127.00638,37.66211],[127.00626,37.66211]]]}},{"type":"Feature","properties":{"valleyId":"uidong","layer":"shadow","date":"2026-08-01","timeLocal":"18:00"},"geometry":{"type":"Polygon","coordinates":[[[127.00926,37.66205],[127.00926,37.662],[127.00933,37.662],[127.00932,37.66205],[127.00926,37.66205]]]}},{"type":"Feature","properties":{"valleyId":"uidong","layer":"shadow","date":"2026-08-01","timeLocal":"18:00"},"geometry":{"type":"Polygon","coordinates":[[[127.0081,37.66362],[127.00804,37.66356],[127.00804,37.66352],[127.00793,37.66349],[127.0079,37.66345],[127.00775,37.66345],[127.00775,37.66339],[127.00786,37.66331],[127.00787,37.6632],[127.00793,37.66318],[127.00798,37.66313],[127.00796,37.66298],[127.00792,37.66295],[127.00778,37.66293],[127.00776,37.66289],[127.00769,37.66289],[127.00769,37.66285],[127.0076,37.66278],[127.00747,37.66278],[127.00745,37.66274],[127.0074,37.66274],[127.00736,37.66267],[127.0072,37.66265],[127.00716,37.66259],[127.00716,37.66243],[127.00709,37.66237],[127.0071,37.66234],[127.00701,37.66228],[127.00694,37.66212],[127.00672,37.66208],[127.0067,37.66204],[127.00656,37.66199],[127.00656,37.66193],[127.00683,37.66194],[127.00694,37.66205],[127.00701,37.66205],[127.00704,37.6619],[127.00711,37.6619],[127.00715,37.66194],[127.00715,37.66201],[127.00708,37.66203],[127.00708,37.66208],[127.00717,37.66212],[127.00731,37.66212],[127.00742,37.66222],[127.0076,37.6622],[127.00759,37.6624],[127.00766,37.6624],[127.00766,37.66244],[127.00775,37.66249],[127.00788,37.66251],[127.00788,37.66255],[127.00793,37.66255],[127.00793,37.6626],[127.00813,37.66262],[127.0082,37.66273],[127.00833,37.66274],[127.00833,37.66288],[127.0086,37.66294],[127.00862,37.66305],[127.00853,37.66306],[127.00852,37.66314],[127.00857,37.66314],[127.00852,37.66332],[127.00831,37.6634],[127.00831,37.66362],[127.0081,37.66362]],[[127.00738,37.66263],[127.00752,37.66261],[127.00752,37.66256],[127.00736,37.66254],[127.00738,37.66263]]]}},{"type":"Feature","properties":{"valleyId":"uidong","layer":"shadow","date":"2026-08-01","timeLocal":"18:00"},"geometry":{"type":"Polygon","coordinates":[[[127.01248,37.66205],[127.01248,37.662],[127.01255,37.662],[127.01254,37.66205],[127.01248,37.66205]]]}},{"type":"Feature","properties":{"valleyId":"uidong","layer":"shadow","date":"2026-08-01","timeLocal":"18:00"},"geometry":{"type":"Polygon","coordinates":[[[127.00805,37.66206],[127.0081,37.6619],[127.0082,37.66189],[127.00819,37.66196],[127.00812,37.66199],[127.00812,37.66207],[127.00805,37.66206]]]}},{"type":"Feature","properties":{"valleyId":"uidong","layer":"shadow","date":"2026-08-01","timeLocal":"18:00"},"geometry":{"type":"Polygon","coordinates":[[[127.00604,37.66189],[127.00604,37.66183],[127.00618,37.66183],[127.00618,37.66189],[127.00604,37.66189]]]}},{"type":"Feature","properties":{"valleyId":"uidong","layer":"shadow","date":"2026-08-01","timeLocal":"18:00"},"geometry":{"type":"Polygon","coordinates":[[[127.00631,37.66189],[127.00632,37.66184],[127.00638,37.66184],[127.00638,37.66189],[127.00631,37.66189]]]}},{"type":"Feature","properties":{"valleyId":"uidong","layer":"shadow","date":"2026-08-01","timeLocal":"18:00"},"geometry":{"type":"Polygon","coordinates":[[[127.00931,37.66194],[127.00931,37.66189],[127.00937,37.66189],[127.00937,37.66194],[127.00931,37.66194]]]}},{"type":"Feature","properties":{"valleyId":"uidong","layer":"shadow","date":"2026-08-01","timeLocal":"18:00"},"geometry":{"type":"Polygon","coordinates":[[[127.01216,37.66197],[127.01216,37.66192],[127.01223,37.66192],[127.01223,37.66197],[127.01216,37.66197]]]}},{"type":"Feature","properties":{"valleyId":"uidong","layer":"shadow","date":"2026-08-01","timeLocal":"18:00"},"geometry":{"type":"Polygon","coordinates":[[[127.00795,37.66185],[127.00795,37.66177],[127.00804,37.66178],[127.00804,37.66185],[127.00795,37.66185]]]}},{"type":"Feature","properties":{"valleyId":"uidong","layer":"shadow","date":"2026-08-01","timeLocal":"18:00"},"geometry":{"type":"Polygon","coordinates":[[[127.00495,37.66192],[127.00493,37.66178],[127.00498,37.66176],[127.005,37.66169],[127.00512,37.66169],[127.00516,37.66184],[127.00511,37.66183],[127.00504,37.66192],[127.00495,37.66192]]]}},{"type":"Feature","properties":{"valleyId":"uidong","layer":"shadow","date":"2026-08-01","timeLocal":"18:00"},"geometry":{"type":"Polygon","coordinates":[[[127.00571,37.66233],[127.00569,37.66222],[127.00558,37.66219],[127.00554,37.662],[127.00547,37.66197],[127.00548,37.66179],[127.00557,37.66177],[127.00562,37.66168],[127.00568,37.66168],[127.00577,37.66177],[127.00577,37.66185],[127.00573,37.66185],[127.00576,37.66208],[127.00594,37.66214],[127.00594,37.66221],[127.00587,37.66226],[127.00587,37.66233],[127.00571,37.66233]]]}},{"type":"Feature","properties":{"valleyId":"uidong","layer":"shadow","date":"2026-08-01","timeLocal":"18:00"},"geometry":{"type":"Polygon","coordinates":[[[127.00675,37.66179],[127.00677,37.66168],[127.00693,37.6617],[127.00693,37.66176],[127.00682,37.66176],[127.00682,37.66179],[127.00675,37.66179]]]}},{"type":"Feature","properties":{"valleyId":"uidong","layer":"shadow","date":"2026-08-01","timeLocal":"18:00"},"geometry":{"type":"Polygon","coordinates":[[[127.00638,37.66184],[127.00638,37.66178],[127.00643,37.66177],[127.00643,37.66164],[127.00655,37.66164],[127.00657,37.6617],[127.00668,37.66175],[127.00668,37.66181],[127.00638,37.66184]]]}},{"type":"Feature","properties":{"valleyId":"uidong","layer":"shadow","date":"2026-08-01","timeLocal":"18:00"},"geometry":{"type":"Polygon","coordinates":[[[127.01282,37.66178],[127.01283,37.66169],[127.01296,37.66168],[127.01296,37.66177],[127.01282,37.66178]]]}},{"type":"Feature","properties":{"valleyId":"uidong","layer":"shadow","date":"2026-08-01","timeLocal":"18:00"},"geometry":{"type":"Polygon","coordinates":[[[127.00546,37.66166],[127.00544,37.66162],[127.00537,37.66162],[127.00539,37.66155],[127.00551,37.66157],[127.00553,37.66166],[127.00546,37.66166]]]}},{"type":"Feature","properties":{"valleyId":"uidong","layer":"shadow","date":"2026-08-01","timeLocal":"18:00"},"geometry":{"type":"Polygon","coordinates":[[[127.01299,37.66157],[127.01299,37.6615],[127.01306,37.6615],[127.01306,37.66157],[127.01299,37.66157]]]}},{"type":"Feature","properties":{"valleyId":"uidong","layer":"shadow","date":"2026-08-01","timeLocal":"18:00"},"geometry":{"type":"Polygon","coordinates":[[[127.0165,37.66242],[127.01648,37.66226],[127.01642,37.66222],[127.01642,37.66192],[127.01636,37.66179],[127.01629,37.66175],[127.01629,37.6617],[127.01623,37.66163],[127.01623,37.66155],[127.01639,37.66157],[127.01645,37.66165],[127.01645,37.66177],[127.01654,37.66179],[127.01663,37.66188],[127.01663,37.66194],[127.01658,37.66197],[127.01658,37.66208],[127.01662,37.66212],[127.01662,37.66232],[127.01659,37.66241],[127.0165,37.66242]]]}},{"type":"Feature","properties":{"valleyId":"uidong","layer":"shadow","date":"2026-08-01","timeLocal":"18:00"},"geometry":{"type":"Polygon","coordinates":[[[127.01356,37.66149],[127.01356,37.66144],[127.01363,37.66144],[127.01362,37.66149],[127.01356,37.66149]]]}},{"type":"Feature","properties":{"valleyId":"uidong","layer":"shadow","date":"2026-08-01","timeLocal":"18:00"},"geometry":{"type":"Polygon","coordinates":[[[127.00755,37.66218],[127.00758,37.66202],[127.00751,37.66198],[127.00747,37.66191],[127.00727,37.66182],[127.00727,37.66176],[127.00714,37.66163],[127.00707,37.66145],[127.00696,37.6614],[127.00699,37.66133],[127.00715,37.66129],[127.00712,37.6614],[127.0073,37.66144],[127.00741,37.66153],[127.00736,37.66166],[127.00748,37.66169],[127.00747,37.66186],[127.00758,37.66186],[127.00767,37.6619],[127.00767,37.66193],[127.00774,37.66197],[127.00774,37.66202],[127.00769,37.66204],[127.00764,37.66217],[127.00755,37.66218]]]}},{"type":"Feature","properties":{"valleyId":"uidong","layer":"shadow","date":"2026-08-01","timeLocal":"18:00"},"geometry":{"type":"Polygon","coordinates":[[[127.01519,37.6615],[127.01521,37.66141],[127.01542,37.66141],[127.01542,37.66147],[127.01535,37.66147],[127.01533,37.6615],[127.01519,37.6615]]]}},{"type":"Feature","properties":{"valleyId":"uidong","layer":"shadow","date":"2026-08-01","timeLocal":"18:00"},"geometry":{"type":"Polygon","coordinates":[[[127.01479,37.66187],[127.0148,37.66176],[127.01487,37.66171],[127.01485,37.66157],[127.0149,37.66139],[127.01503,37.66139],[127.01501,37.66155],[127.01496,37.66155],[127.01498,37.6617],[127.01493,37.66171],[127.01493,37.66186],[127.01479,37.66187]]]}},{"type":"Feature","properties":{"valleyId":"uidong","layer":"shadow","date":"2026-08-01","timeLocal":"18:00"},"geometry":{"type":"Polygon","coordinates":[[[127.01406,37.66146],[127.01406,37.66137],[127.01401,37.66135],[127.01402,37.6613],[127.01417,37.6613],[127.01417,37.66136],[127.01413,37.66137],[127.01412,37.66146],[127.01406,37.66146]]]}},{"type":"Feature","properties":{"valleyId":"uidong","layer":"shadow","date":"2026-08-01","timeLocal":"18:00"},"geometry":{"type":"Polygon","coordinates":[[[127.00712,37.66127],[127.00717,37.66109],[127.00724,37.6611],[127.00726,37.66124],[127.00712,37.66127]]]}},{"type":"Feature","properties":{"valleyId":"uidong","layer":"shadow","date":"2026-08-01","timeLocal":"18:00"},"geometry":{"type":"Polygon","coordinates":[[[127.01379,37.66131],[127.01379,37.66121],[127.01393,37.66121],[127.01393,37.66126],[127.01397,37.66126],[127.01397,37.66132],[127.01379,37.66131]]]}},{"type":"Feature","properties":{"valleyId":"uidong","layer":"shadow","date":"2026-08-01","timeLocal":"18:00"},"geometry":{"type":"Polygon","coordinates":[[[127.00832,37.66135],[127.00831,37.66102],[127.00833,37.66099],[127.0084,37.66099],[127.0084,37.66104],[127.00849,37.66106],[127.00848,37.66132],[127.00841,37.66135],[127.00832,37.66135]]]}},{"type":"Feature","properties":{"valleyId":"uidong","layer":"shadow","date":"2026-08-01","timeLocal":"18:00"},"geometry":{"type":"Polygon","coordinates":[[[127.01295,37.66126],[127.01298,37.66114],[127.01291,37.66114],[127.01289,37.66106],[127.013,37.66108],[127.01304,37.66119],[127.01311,37.66121],[127.01311,37.66127],[127.01295,37.66126]]]}},{"type":"Feature","properties":{"valleyId":"uidong","layer":"shadow","date":"2026-08-01","timeLocal":"18:00"},"geometry":{"type":"Polygon","coordinates":[[[127.01318,37.66114],[127.01316,37.661],[127.01328,37.66098],[127.01327,37.66114],[127.01318,37.66114]]]}},{"type":"Feature","properties":{"valleyId":"uidong","layer":"shadow","date":"2026-08-01","timeLocal":"18:00"},"geometry":{"type":"Polygon","coordinates":[[[127.01024,37.661],[127.01024,37.66095],[127.01028,37.66091],[127.01035,37.66091],[127.01035,37.66099],[127.01024,37.661]]]}},{"type":"Feature","properties":{"valleyId":"uidong","layer":"shadow","date":"2026-08-01","timeLocal":"18:00"},"geometry":{"type":"Polygon","coordinates":[[[127.01257,37.66111],[127.01255,37.66097],[127.01266,37.66095],[127.01269,37.66099],[127.01273,37.66099],[127.01275,37.6611],[127.01257,37.66111]]]}},{"type":"Feature","properties":{"valleyId":"uidong","layer":"shadow","date":"2026-08-01","timeLocal":"18:00"},"geometry":{"type":"Polygon","coordinates":[[[127.00688,37.66093],[127.00686,37.66084],[127.00695,37.66084],[127.00695,37.66093],[127.00688,37.66093]]]}},{"type":"Feature","properties":{"valleyId":"uidong","layer":"shadow","date":"2026-08-01","timeLocal":"18:00"},"geometry":{"type":"Polygon","coordinates":[[[127.00695,37.66082],[127.00696,37.66075],[127.00702,37.66075],[127.00702,37.66082],[127.00695,37.66082]]]}},{"type":"Feature","properties":{"valleyId":"uidong","layer":"shadow","date":"2026-08-01","timeLocal":"18:00"},"geometry":{"type":"Polygon","coordinates":[[[127.01089,37.66107],[127.01089,37.66101],[127.01083,37.66099],[127.01081,37.66092],[127.01067,37.6609],[127.01067,37.66083],[127.01077,37.66076],[127.01086,37.66076],[127.01083,37.6609],[127.01099,37.66096],[127.01098,37.66107],[127.01089,37.66107]]]}},{"type":"Feature","properties":{"valleyId":"uidong","layer":"shadow","date":"2026-08-01","timeLocal":"18:00"},"geometry":{"type":"Polygon","coordinates":[[[127.0111,37.66107],[127.01106,37.66085],[127.01115,37.66082],[127.0112,37.66071],[127.01133,37.66071],[127.01133,37.66079],[127.01117,37.66082],[127.01116,37.66107],[127.0111,37.66107]]]}},{"type":"Feature","properties":{"valleyId":"uidong","layer":"shadow","date":"2026-08-01","timeLocal":"18:00"},"geometry":{"type":"Polygon","coordinates":[[[127.01287,37.66074],[127.01288,37.66069],[127.01297,37.66069],[127.01296,37.66074],[127.01287,37.66074]]]}},{"type":"Feature","properties":{"valleyId":"uidong","layer":"shadow","date":"2026-08-01","timeLocal":"18:00"},"geometry":{"type":"Polygon","coordinates":[[[127.00684,37.66076],[127.00673,37.66067],[127.00673,37.66062],[127.0068,37.66062],[127.00682,37.66058],[127.00687,37.66058],[127.00687,37.66053],[127.00694,37.66053],[127.00694,37.66059],[127.00689,37.66059],[127.00693,37.66077],[127.00684,37.66076]]]}},{"type":"Feature","properties":{"valleyId":"uidong","layer":"shadow","date":"2026-08-01","timeLocal":"18:00"},"geometry":{"type":"Polygon","coordinates":[[[127.01283,37.66065],[127.01283,37.6606],[127.01288,37.6606],[127.01288,37.66051],[127.01299,37.66049],[127.01301,37.6606],[127.01295,37.6606],[127.01292,37.66065],[127.01283,37.66065]]]}},{"type":"Feature","properties":{"valleyId":"uidong","layer":"shadow","date":"2026-08-01","timeLocal":"18:00"},"geometry":{"type":"Polygon","coordinates":[[[127.01308,37.66067],[127.01309,37.66046],[127.01349,37.66048],[127.01349,37.66053],[127.01336,37.66053],[127.01335,37.66057],[127.01326,37.66057],[127.01326,37.66062],[127.01322,37.66062],[127.01319,37.66067],[127.01308,37.66067]]]}},{"type":"Feature","properties":{"valleyId":"uidong","layer":"shadow","date":"2026-08-01","timeLocal":"18:00"},"geometry":{"type":"Polygon","coordinates":[[[127.00975,37.66045],[127.00975,37.6604],[127.00982,37.6604],[127.00982,37.66045],[127.00975,37.66045]]]}},{"type":"Feature","properties":{"valleyId":"uidong","layer":"shadow","date":"2026-08-01","timeLocal":"18:00"},"geometry":{"type":"Polygon","coordinates":[[[127.01223,37.66037],[127.01223,37.66028],[127.0123,37.66028],[127.01229,37.66037],[127.01223,37.66037]]]}},{"type":"Feature","properties":{"valleyId":"uidong","layer":"shadow","date":"2026-08-01","timeLocal":"18:00"},"geometry":{"type":"Polygon","coordinates":[[[127.00666,37.66154],[127.00662,37.66141],[127.00642,37.66137],[127.0064,37.66121],[127.00647,37.66117],[127.00645,37.66108],[127.00636,37.6611],[127.00635,37.66121],[127.00604,37.66115],[127.00599,37.66111],[127.00593,37.66082],[127.00587,37.66078],[127.00573,37.66078],[127.0056,37.66069],[127.0056,37.66064],[127.00576,37.66064],[127.00578,37.6606],[127.00587,37.66059],[127.00587,37.6605],[127.00581,37.66046],[127.00576,37.66039],[127.00579,37.66019],[127.00584,37.66015],[127.00593,37.66015],[127.0059,37.66033],[127.00603,37.66046],[127.00601,37.66061],[127.00635,37.66061],[127.00635,37.66068],[127.00623,37.66068],[127.00623,37.66075],[127.00634,37.66077],[127.00637,37.66081],[127.00648,37.66083],[127.00654,37.66089],[127.00668,37.66089],[127.00668,37.66109],[127.00681,37.66114],[127.00681,37.6612],[127.00674,37.66127],[127.00674,37.66136],[127.00678,37.66143],[127.00685,37.66145],[127.00685,37.6615],[127.00666,37.66154]]]}},{"type":"Feature","properties":{"valleyId":"uidong","layer":"shadow","date":"2026-08-01","timeLocal":"18:00"},"geometry":{"type":"Polygon","coordinates":[[[127.00544,37.6606],[127.00522,37.66048],[127.00522,37.66043],[127.00518,37.66036],[127.00511,37.66034],[127.00509,37.66027],[127.00486,37.66021],[127.00487,37.66008],[127.00516,37.66009],[127.00516,37.66018],[127.00534,37.66032],[127.00533,37.66041],[127.00556,37.66047],[127.00553,37.6606],[127.00544,37.6606]]]}},{"type":"Feature","properties":{"valleyId":"uidong","layer":"shadow","date":"2026-08-01","timeLocal":"18:00"},"geometry":{"type":"Polygon","coordinates":[[[127.00817,37.66102],[127.00813,37.661],[127.00811,37.66091],[127.00802,37.66091],[127.00802,37.66084],[127.00795,37.6608],[127.00798,37.6606],[127.00791,37.66055],[127.00787,37.66055],[127.00783,37.66047],[127.00776,37.66047],[127.0076,37.6604],[127.00761,37.66016],[127.00763,37.66011],[127.00775,37.66006],[127.00781,37.66006],[127.00784,37.6601],[127.00785,37.66035],[127.00796,37.66042],[127.00796,37.6605],[127.00805,37.66055],[127.00805,37.66068],[127.00811,37.66071],[127.00809,37.66082],[127.00813,37.66089],[127.00824,37.66093],[127.00824,37.66102],[127.00817,37.66102]]]}},{"type":"Feature","properties":{"valleyId":"uidong","layer":"shadow","date":"2026-08-01","timeLocal":"18:00"},"geometry":{"type":"Polygon","coordinates":[[[127.00992,37.66022],[127.0099,37.6601],[127.00992,37.66006],[127.01001,37.66006],[127.01001,37.66022],[127.00992,37.66022]]]}},{"type":"Feature","properties":{"valleyId":"uidong","layer":"shadow","date":"2026-08-01","timeLocal":"18:00"},"geometry":{"type":"Polygon","coordinates":[[[127.00494,37.65999],[127.00494,37.65994],[127.00501,37.65994],[127.005,37.65999],[127.00494,37.65999]]]}},{"type":"Feature","properties":{"valleyId":"uidong","layer":"shadow","date":"2026-08-01","timeLocal":"18:00"},"geometry":{"type":"Polygon","coordinates":[[[127.01302,37.6602],[127.01303,37.65997],[127.01312,37.65995],[127.01314,37.65999],[127.01319,37.65999],[127.01316,37.66017],[127.01302,37.6602]]]}},{"type":"Feature","properties":{"valleyId":"uidong","layer":"shadow","date":"2026-08-01","timeLocal":"18:00"},"geometry":{"type":"Polygon","coordinates":[[[127.014,37.66002],[127.01401,37.65997],[127.01407,37.65997],[127.01407,37.66002],[127.014,37.66002]]]}},{"type":"Feature","properties":{"valleyId":"uidong","layer":"shadow","date":"2026-08-01","timeLocal":"18:00"},"geometry":{"type":"Polygon","coordinates":[[[127.00935,37.66027],[127.00929,37.6601],[127.00929,37.66005],[127.00936,37.65996],[127.00936,37.65987],[127.00952,37.65987],[127.00956,37.65991],[127.00963,37.65991],[127.00965,37.66007],[127.00951,37.66014],[127.00946,37.66027],[127.00935,37.66027]]]}},{"type":"Feature","properties":{"valleyId":"uidong","layer":"shadow","date":"2026-08-01","timeLocal":"18:00"},"geometry":{"type":"Polygon","coordinates":[[[127.01153,37.66084],[127.01153,37.66081],[127.01149,37.66081],[127.01149,37.66074],[127.01154,37.66074],[127.01161,37.66068],[127.01163,37.66059],[127.01175,37.66045],[127.01177,37.66031],[127.01182,37.66027],[127.01189,37.66027],[127.01205,37.66011],[127.01205,37.66006],[127.01212,37.65999],[127.01213,37.65986],[127.01222,37.65983],[127.01233,37.65983],[127.01235,37.65994],[127.01231,37.65996],[127.0123,37.66005],[127.01223,37.66006],[127.01218,37.66028],[127.01214,37.66028],[127.01211,37.66031],[127.01211,37.66048],[127.01206,37.66047],[127.01204,37.66051],[127.01193,37.66051],[127.0119,37.66058],[127.01186,37.66058],[127.01181,37.66065],[127.01174,37.6607],[127.0117,37.6607],[127.01169,37.66079],[127.0116,37.66081],[127.0116,37.66085],[127.01153,37.66084]]]}},{"type":"Feature","properties":{"valleyId":"uidong","layer":"shadow","date":"2026-08-01","timeLocal":"18:00"},"geometry":{"type":"Polygon","coordinates":[[[127.01355,37.65994],[127.01356,37.6598],[127.01381,37.6598],[127.0138,37.65985],[127.01367,37.65989],[127.01364,37.65994],[127.01355,37.65994]]]}},{"type":"Feature","properties":{"valleyId":"uidong","layer":"shadow","date":"2026-08-01","timeLocal":"18:00"},"geometry":{"type":"Polygon","coordinates":[[[127.00811,37.65925],[127.00809,37.65909],[127.00816,37.65909],[127.00825,37.65913],[127.00824,37.65924],[127.00811,37.65925]]]}}]}
