{"type":"FeatureCollection","metadata":{"description":"개방지(CHM ≤ 2 m)에 드리운 나무·지형 그림자, 2026-08-01 16:00 KST. canopy 위에 겹쳐 그린다","source":"위성 기반 추정 — Copernicus GLO-30 지형(30 m) + Meta/WRI 수관 높이(1 m CHM, 2019 촬영). 그늘 = 수관(CHM > 2 m) ∪ 나무·지형 그림자 ∪ 원거리 지형 마스크. 현장과 다를 수 있음.","datasetVersion":"2026-09-06.0","collectedAt":"2026-09-06","coordinateOrder":"[longitude, latitude]","crs":"EPSG:4326","representativeDate":"2026-08-01","hours":["10:00","11:00","12:00","13:00","14:00","15:00","16:00","17:00","18:00"],"chmAcquisition":["2019-03"],"assets":{"glo30":{"dataset":"Copernicus DEM GLO-30 (COG, s3://copernicus-dem-30m)","tiles":["Copernicus_DSM_COG_10_N37_00_E126_00_DEM","Copernicus_DSM_COG_10_N37_00_E127_00_DEM"]},"chm":{"dataset":"Meta/WRI Global Canopy Height Map v1 (alsgedi_global_v6_float, 1 m, CC-BY 4.0)","quadkeys":["132110320"],"acquisition":["2019-03"]}},"method":{"gridResM":2,"canopyThresholdM":2,"bufferHalfM":25,"corridorHalfM":200,"simplifyTolM":2,"minAreaM2":25,"coordDecimals":5},"generator":"scripts/shade 0.1.0","builtAt":"2026-09-06T06:10:31Z","layer":"shadow","timeLocal":"16:00"},"features":[{"type":"Feature","properties":{"valleyId":"uidong","layer":"shadow","date":"2026-08-01","timeLocal":"16:00"},"geometry":{"type":"Polygon","coordinates":[[[126.99707,37.68439],[126.99707,37.68432],[126.99716,37.6843],[126.99716,37.68439],[126.99707,37.68439]]]}},{"type":"Feature","properties":{"valleyId":"uidong","layer":"shadow","date":"2026-08-01","timeLocal":"16:00"},"geometry":{"type":"Polygon","coordinates":[[[126.99698,37.68421],[126.99699,37.68414],[126.99705,37.68414],[126.99705,37.68421],[126.99698,37.68421]]]}},{"type":"Feature","properties":{"valleyId":"uidong","layer":"shadow","date":"2026-08-01","timeLocal":"16:00"},"geometry":{"type":"Polygon","coordinates":[[[127.01068,37.68363],[127.01068,37.68352],[127.01075,37.68352],[127.01074,37.68363],[127.01068,37.68363]]]}},{"type":"Feature","properties":{"valleyId":"uidong","layer":"shadow","date":"2026-08-01","timeLocal":"16:00"},"geometry":{"type":"Polygon","coordinates":[[[127.01109,37.68358],[127.01109,37.68353],[127.01118,37.68353],[127.01118,37.68358],[127.01109,37.68358]]]}},{"type":"Feature","properties":{"valleyId":"uidong","layer":"shadow","date":"2026-08-01","timeLocal":"16:00"},"geometry":{"type":"Polygon","coordinates":[[[127.01174,37.68354],[127.01175,37.68349],[127.01181,37.68349],[127.01181,37.68354],[127.01174,37.68354]]]}},{"type":"Feature","properties":{"valleyId":"uidong","layer":"shadow","date":"2026-08-01","timeLocal":"16:00"},"geometry":{"type":"Polygon","coordinates":[[[127.01147,37.68346],[127.01148,37.68341],[127.01154,37.68341],[127.01154,37.68346],[127.01147,37.68346]]]}},{"type":"Feature","properties":{"valleyId":"uidong","layer":"shadow","date":"2026-08-01","timeLocal":"16:00"},"geometry":{"type":"Polygon","coordinates":[[[127.01165,37.68348],[127.01166,37.68338],[127.0117,37.68334],[127.01177,37.68334],[127.0118,37.68329],[127.01186,37.68329],[127.01188,37.68336],[127.01184,37.68336],[127.01184,37.6834],[127.01175,37.6834],[127.01175,37.68349],[127.01165,37.68348]]]}},{"type":"Feature","properties":{"valleyId":"uidong","layer":"shadow","date":"2026-08-01","timeLocal":"16:00"},"geometry":{"type":"Polygon","coordinates":[[[127.01008,37.68367],[127.01007,37.68357],[127.01013,37.68357],[127.01014,37.68342],[127.01007,37.68342],[127.00996,37.68333],[127.00996,37.68328],[127.01005,37.68319],[127.01005,37.68313],[127.00999,37.6831],[127.01001,37.68301],[127.01017,37.68301],[127.01017,37.68313],[127.01019,37.68317],[127.01023,37.68317],[127.01026,37.68324],[127.01025,37.68332],[127.01018,37.68335],[127.01018,37.68341],[127.01023,37.68341],[127.01023,37.68344],[127.01027,37.68346],[127.01027,37.68353],[127.01018,37.68357],[127.01015,37.68368],[127.01008,37.68367]]]}},{"type":"Feature","properties":{"valleyId":"uidong","layer":"shadow","date":"2026-08-01","timeLocal":"16:00"},"geometry":{"type":"Polygon","coordinates":[[[127.01033,37.68303],[127.01027,37.68285],[127.01047,37.68287],[127.01047,37.68292],[127.01042,37.68292],[127.01042,37.68301],[127.01033,37.68303]]]}},{"type":"Feature","properties":{"valleyId":"uidong","layer":"shadow","date":"2026-08-01","timeLocal":"16:00"},"geometry":{"type":"Polygon","coordinates":[[[127.01049,37.68289],[127.0105,37.68274],[127.01059,37.68273],[127.01061,37.68287],[127.01049,37.68289]]]}},{"type":"Feature","properties":{"valleyId":"uidong","layer":"shadow","date":"2026-08-01","timeLocal":"16:00"},"geometry":{"type":"Polygon","coordinates":[[[127.01061,37.68275],[127.01061,37.68266],[127.01068,37.68262],[127.01071,37.68253],[127.01077,37.68253],[127.01075,37.68271],[127.01061,37.68275]]]}},{"type":"Feature","properties":{"valleyId":"uidong","layer":"shadow","date":"2026-08-01","timeLocal":"16:00"},"geometry":{"type":"Polygon","coordinates":[[[127.01073,37.68251],[127.01073,37.68244],[127.0108,37.68244],[127.0108,37.68251],[127.01073,37.68251]]]}},{"type":"Feature","properties":{"valleyId":"uidong","layer":"shadow","date":"2026-08-01","timeLocal":"16:00"},"geometry":{"type":"Polygon","coordinates":[[[127.00995,37.68207],[127.00995,37.68187],[127.01002,37.68183],[127.01013,37.68184],[127.01011,37.68191],[127.01,37.68192],[127.01001,37.68207],[127.00995,37.68207]]]}},{"type":"Feature","properties":{"valleyId":"uidong","layer":"shadow","date":"2026-08-01","timeLocal":"16:00"},"geometry":{"type":"Polygon","coordinates":[[[127.01066,37.68179],[127.01066,37.6817],[127.01075,37.68165],[127.01084,37.68165],[127.01084,37.6817],[127.01077,37.6817],[127.01077,37.68177],[127.01066,37.68179]]]}},{"type":"Feature","properties":{"valleyId":"uidong","layer":"shadow","date":"2026-08-01","timeLocal":"16:00"},"geometry":{"type":"Polygon","coordinates":[[[127.00137,37.67814],[127.00137,37.67808],[127.00144,37.67808],[127.00143,37.67814],[127.00137,37.67814]]]}},{"type":"Feature","properties":{"valleyId":"uidong","layer":"shadow","date":"2026-08-01","timeLocal":"16:00"},"geometry":{"type":"Polygon","coordinates":[[[127.00139,37.67798],[127.00138,37.67778],[127.00147,37.67778],[127.00146,37.67789],[127.00151,37.67791],[127.00151,37.67796],[127.00139,37.67798]]]}},{"type":"Feature","properties":{"valleyId":"uidong","layer":"shadow","date":"2026-08-01","timeLocal":"16:00"},"geometry":{"type":"Polygon","coordinates":[[[127.00151,37.67773],[127.00152,37.67765],[127.00158,37.67765],[127.00158,37.67773],[127.00151,37.67773]]]}},{"type":"Feature","properties":{"valleyId":"uidong","layer":"shadow","date":"2026-08-01","timeLocal":"16:00"},"geometry":{"type":"Polygon","coordinates":[[[127.00264,37.67612],[127.00265,37.67605],[127.00274,37.67603],[127.00271,37.67612],[127.00264,37.67612]]]}},{"type":"Feature","properties":{"valleyId":"uidong","layer":"shadow","date":"2026-08-01","timeLocal":"16:00"},"geometry":{"type":"Polygon","coordinates":[[[127.00194,37.67607],[127.00194,37.676],[127.00201,37.676],[127.00201,37.67608],[127.00194,37.67607]]]}},{"type":"Feature","properties":{"valleyId":"uidong","layer":"shadow","date":"2026-08-01","timeLocal":"16:00"},"geometry":{"type":"Polygon","coordinates":[[[127.00276,37.67589],[127.00277,37.67582],[127.00283,37.67582],[127.00283,37.67589],[127.00276,37.67589]]]}},{"type":"Feature","properties":{"valleyId":"uidong","layer":"shadow","date":"2026-08-01","timeLocal":"16:00"},"geometry":{"type":"Polygon","coordinates":[[[127.00371,37.67358],[127.00371,37.67351],[127.00378,37.67351],[127.00378,37.67358],[127.00371,37.67358]]]}},{"type":"Feature","properties":{"valleyId":"uidong","layer":"shadow","date":"2026-08-01","timeLocal":"16:00"},"geometry":{"type":"Polygon","coordinates":[[[127.00378,37.67347],[127.00378,37.67342],[127.00385,37.67342],[127.00385,37.67348],[127.00378,37.67347]]]}},{"type":"Feature","properties":{"valleyId":"uidong","layer":"shadow","date":"2026-08-01","timeLocal":"16:00"},"geometry":{"type":"Polygon","coordinates":[[[127.00515,37.67324],[127.00515,37.67319],[127.00522,37.67319],[127.00522,37.67325],[127.00515,37.67324]]]}},{"type":"Feature","properties":{"valleyId":"uidong","layer":"shadow","date":"2026-08-01","timeLocal":"16:00"},"geometry":{"type":"Polygon","coordinates":[[[127.0052,37.67305],[127.0052,37.67299],[127.00529,37.67298],[127.00529,37.67303],[127.0052,37.67305]]]}},{"type":"Feature","properties":{"valleyId":"uidong","layer":"shadow","date":"2026-08-01","timeLocal":"16:00"},"geometry":{"type":"Polygon","coordinates":[[[127.00521,37.67263],[127.00521,37.67256],[127.0053,37.67254],[127.0053,37.67262],[127.00521,37.67263]]]}},{"type":"Feature","properties":{"valleyId":"uidong","layer":"shadow","date":"2026-08-01","timeLocal":"16:00"},"geometry":{"type":"Polygon","coordinates":[[[127.00532,37.67206],[127.00532,37.67182],[127.00539,37.67182],[127.00538,37.67206],[127.00532,37.67206]]]}},{"type":"Feature","properties":{"valleyId":"uidong","layer":"shadow","date":"2026-08-01","timeLocal":"16:00"},"geometry":{"type":"Polygon","coordinates":[[[127.00199,37.67184],[127.00199,37.67179],[127.00208,37.67177],[127.00208,37.67182],[127.00199,37.67184]]]}},{"type":"Feature","properties":{"valleyId":"uidong","layer":"shadow","date":"2026-08-01","timeLocal":"16:00"},"geometry":{"type":"Polygon","coordinates":[[[127.00519,37.67166],[127.00519,37.67159],[127.00526,37.67159],[127.00526,37.67166],[127.00519,37.67166]]]}},{"type":"Feature","properties":{"valleyId":"uidong","layer":"shadow","date":"2026-08-01","timeLocal":"16:00"},"geometry":{"type":"Polygon","coordinates":[[[127.003,37.67061],[127.003,37.67054],[127.00307,37.67054],[127.00306,37.67061],[127.003,37.67061]]]}},{"type":"Feature","properties":{"valleyId":"uidong","layer":"shadow","date":"2026-08-01","timeLocal":"16:00"},"geometry":{"type":"Polygon","coordinates":[[[127.00677,37.66936],[127.00678,37.66916],[127.00687,37.66915],[127.00691,37.66929],[127.00684,37.66936],[127.00677,37.66936]]]}},{"type":"Feature","properties":{"valleyId":"uidong","layer":"shadow","date":"2026-08-01","timeLocal":"16:00"},"geometry":{"type":"Polygon","coordinates":[[[127.00687,37.66915],[127.00687,37.66909],[127.00694,37.66909],[127.00694,37.66915],[127.00687,37.66915]]]}},{"type":"Feature","properties":{"valleyId":"uidong","layer":"shadow","date":"2026-08-01","timeLocal":"16:00"},"geometry":{"type":"Polygon","coordinates":[[[127.00694,37.66895],[127.00697,37.66882],[127.00704,37.66882],[127.00703,37.66893],[127.00694,37.66895]]]}},{"type":"Feature","properties":{"valleyId":"uidong","layer":"shadow","date":"2026-08-01","timeLocal":"16:00"},"geometry":{"type":"Polygon","coordinates":[[[127.00693,37.66857],[127.00693,37.66834],[127.00703,37.66832],[127.00702,37.66855],[127.00693,37.66857]]]}},{"type":"Feature","properties":{"valleyId":"uidong","layer":"shadow","date":"2026-08-01","timeLocal":"16:00"},"geometry":{"type":"Polygon","coordinates":[[[127.00807,37.66832],[127.00807,37.66827],[127.00816,37.66825],[127.00816,37.6683],[127.00807,37.66832]]]}},{"type":"Feature","properties":{"valleyId":"uidong","layer":"shadow","date":"2026-08-01","timeLocal":"16:00"},"geometry":{"type":"Polygon","coordinates":[[[127.00719,37.66821],[127.00719,37.66816],[127.00726,37.66816],[127.00726,37.66822],[127.00719,37.66821]]]}},{"type":"Feature","properties":{"valleyId":"uidong","layer":"shadow","date":"2026-08-01","timeLocal":"16:00"},"geometry":{"type":"Polygon","coordinates":[[[127.00696,37.66819],[127.00696,37.66812],[127.00703,37.66812],[127.00703,37.66819],[127.00696,37.66819]]]}},{"type":"Feature","properties":{"valleyId":"uidong","layer":"shadow","date":"2026-08-01","timeLocal":"16:00"},"geometry":{"type":"Polygon","coordinates":[[[127.00866,37.66752],[127.00866,37.66746],[127.00873,37.66747],[127.00873,37.66752],[127.00866,37.66752]]]}},{"type":"Feature","properties":{"valleyId":"uidong","layer":"shadow","date":"2026-08-01","timeLocal":"16:00"},"geometry":{"type":"Polygon","coordinates":[[[127.00972,37.6659],[127.00973,37.66573],[127.00979,37.66574],[127.00979,37.6659],[127.00972,37.6659]]]}},{"type":"Feature","properties":{"valleyId":"uidong","layer":"shadow","date":"2026-08-01","timeLocal":"16:00"},"geometry":{"type":"Polygon","coordinates":[[[127.00992,37.66509],[127.00993,37.66502],[127.00999,37.66502],[127.00999,37.66509],[127.00992,37.66509]]]}},{"type":"Feature","properties":{"valleyId":"uidong","layer":"shadow","date":"2026-08-01","timeLocal":"16:00"},"geometry":{"type":"Polygon","coordinates":[[[127.01011,37.66495],[127.01011,37.66489],[127.01018,37.66489],[127.01018,37.66495],[127.01011,37.66495]]]}},{"type":"Feature","properties":{"valleyId":"uidong","layer":"shadow","date":"2026-08-01","timeLocal":"16:00"},"geometry":{"type":"Polygon","coordinates":[[[127.00955,37.66472],[127.00955,37.66461],[127.00962,37.66461],[127.00964,37.66471],[127.00955,37.66472]]]}},{"type":"Feature","properties":{"valleyId":"uidong","layer":"shadow","date":"2026-08-01","timeLocal":"16:00"},"geometry":{"type":"Polygon","coordinates":[[[127.01041,37.66463],[127.01042,37.6645],[127.01048,37.6645],[127.0105,37.66463],[127.01041,37.66463]]]}},{"type":"Feature","properties":{"valleyId":"uidong","layer":"shadow","date":"2026-08-01","timeLocal":"16:00"},"geometry":{"type":"Polygon","coordinates":[[[127.00786,37.66331],[127.00786,37.66323],[127.00793,37.66323],[127.00793,37.66331],[127.00786,37.66331]]]}},{"type":"Feature","properties":{"valleyId":"uidong","layer":"shadow","date":"2026-08-01","timeLocal":"16:00"},"geometry":{"type":"Polygon","coordinates":[[[127.00798,37.66315],[127.00798,37.66302],[127.00805,37.66302],[127.00807,37.66313],[127.00798,37.66315]]]}},{"type":"Feature","properties":{"valleyId":"uidong","layer":"shadow","date":"2026-08-01","timeLocal":"16:00"},"geometry":{"type":"Polygon","coordinates":[[[127.00842,37.6627],[127.00843,37.66263],[127.00849,37.66263],[127.00849,37.6627],[127.00842,37.6627]]]}},{"type":"Feature","properties":{"valleyId":"uidong","layer":"shadow","date":"2026-08-01","timeLocal":"16:00"},"geometry":{"type":"Polygon","coordinates":[[[127.00548,37.66188],[127.00548,37.66179],[127.00557,37.66177],[127.00557,37.66186],[127.00548,37.66188]]]}},{"type":"Feature","properties":{"valleyId":"uidong","layer":"shadow","date":"2026-08-01","timeLocal":"16:00"},"geometry":{"type":"Polygon","coordinates":[[[127.00559,37.66175],[127.00559,37.6617],[127.00566,37.6617],[127.00566,37.66175],[127.00559,37.66175]]]}},{"type":"Feature","properties":{"valleyId":"uidong","layer":"shadow","date":"2026-08-01","timeLocal":"16:00"},"geometry":{"type":"Polygon","coordinates":[[[127.00643,37.66177],[127.00643,37.66169],[127.0065,37.6617],[127.0065,37.66177],[127.00643,37.66177]]]}},{"type":"Feature","properties":{"valleyId":"uidong","layer":"shadow","date":"2026-08-01","timeLocal":"16:00"},"geometry":{"type":"Polygon","coordinates":[[[127.00677,37.66175],[127.00677,37.6617],[127.00684,37.6617],[127.00684,37.66176],[127.00677,37.66175]]]}},{"type":"Feature","properties":{"valleyId":"uidong","layer":"shadow","date":"2026-08-01","timeLocal":"16:00"},"geometry":{"type":"Polygon","coordinates":[[[127.00537,37.66162],[127.00537,37.66157],[127.00546,37.66155],[127.00546,37.66162],[127.00537,37.66162]]]}},{"type":"Feature","properties":{"valleyId":"uidong","layer":"shadow","date":"2026-08-01","timeLocal":"16:00"},"geometry":{"type":"Polygon","coordinates":[[[127.00664,37.66152],[127.00664,37.66143],[127.00671,37.66143],[127.00673,37.6615],[127.00664,37.66152]]]}},{"type":"Feature","properties":{"valleyId":"uidong","layer":"shadow","date":"2026-08-01","timeLocal":"16:00"},"geometry":{"type":"Polygon","coordinates":[[[127.01517,37.66152],[127.01517,37.66146],[127.01524,37.66146],[127.01523,37.66152],[127.01517,37.66152]]]}},{"type":"Feature","properties":{"valleyId":"uidong","layer":"shadow","date":"2026-08-01","timeLocal":"16:00"},"geometry":{"type":"Polygon","coordinates":[[[127.00642,37.66135],[127.00642,37.66128],[127.00651,37.66128],[127.00651,37.66135],[127.00642,37.66135]]]}},{"type":"Feature","properties":{"valleyId":"uidong","layer":"shadow","date":"2026-08-01","timeLocal":"16:00"},"geometry":{"type":"Polygon","coordinates":[[[127.00798,37.66075],[127.00798,37.66064],[127.00805,37.66064],[127.00804,37.66075],[127.00798,37.66075]]]}},{"type":"Feature","properties":{"valleyId":"uidong","layer":"shadow","date":"2026-08-01","timeLocal":"16:00"},"geometry":{"type":"Polygon","coordinates":[[[127.01288,37.66063],[127.01288,37.66058],[127.01297,37.66058],[127.01297,37.66063],[127.01288,37.66063]]]}},{"type":"Feature","properties":{"valleyId":"uidong","layer":"shadow","date":"2026-08-01","timeLocal":"16:00"},"geometry":{"type":"Polygon","coordinates":[[[127.0076,37.66033],[127.00761,37.66016],[127.00763,37.66011],[127.0077,37.66011],[127.00767,37.66033],[127.0076,37.66033]]]}},{"type":"Feature","properties":{"valleyId":"uidong","layer":"shadow","date":"2026-08-01","timeLocal":"16:00"},"geometry":{"type":"Polygon","coordinates":[[[127.01355,37.65987],[127.01356,37.6598],[127.01362,37.6598],[127.01362,37.65987],[127.01355,37.65987]]]}}]}
