{"type":"FeatureCollection","metadata":{"description":"수관 아래(CHM > 2 m) — 시각 무관. 구간 회랑 ±200 m 절단","source":"위성 기반 추정 — Copernicus GLO-30 지형(30 m) + Meta/WRI 수관 높이(1 m CHM, 2016~2018 촬영). 그늘 = 수관(CHM > 2 m) ∪ 나무·지형 그림자 ∪ 원거리 지형 마스크. 현장과 다를 수 있음.","datasetVersion":"2026-09-06.0","collectedAt":"2026-09-06","coordinateOrder":"[longitude, latitude]","crs":"EPSG:4326","representativeDate":"2026-08-01","hours":["10:00","11:00","12:00","13:00","14:00","15:00","16:00","17:00","18:00"],"chmAcquisition":["2016-12","2018-03"],"assets":{"glo30":{"dataset":"Copernicus DEM GLO-30 (COG, s3://copernicus-dem-30m)","tiles":["Copernicus_DSM_COG_10_N37_00_E127_00_DEM","Copernicus_DSM_COG_10_N38_00_E127_00_DEM"]},"chm":{"dataset":"Meta/WRI Global Canopy Height Map v1 (alsgedi_global_v6_float, 1 m, CC-BY 4.0)","quadkeys":["132110303"],"acquisition":["2016-12","2018-03"]}},"method":{"gridResM":2,"canopyThresholdM":2,"bufferHalfM":25,"corridorHalfM":200,"simplifyTolM":2,"minAreaM2":25,"coordDecimals":5},"generator":"scripts/shade 0.1.0","builtAt":"2026-09-06T06:01:18Z","layer":"canopy"},"features":[{"type":"Feature","properties":{"valleyId":"domachi","layer":"canopy","date":"2026-08-01"},"geometry":{"type":"Polygon","coordinates":[[[127.43885,38.00695],[127.43865,38.00675],[127.43867,38.00664],[127.43881,38.00664],[127.43883,38.00677],[127.43894,38.00684],[127.43894,38.00693],[127.43885,38.00695]]]}},{"type":"Feature","properties":{"valleyId":"domachi","layer":"canopy","date":"2026-08-01"},"geometry":{"type":"Polygon","coordinates":[[[127.43865,38.00653],[127.43863,38.00642],[127.43872,38.00641],[127.43874,38.00653],[127.43865,38.00653]]]}},{"type":"Feature","properties":{"valleyId":"domachi","layer":"canopy","date":"2026-08-01"},"geometry":{"type":"Polygon","coordinates":[[[127.43951,38.00573],[127.43951,38.00568],[127.43958,38.00568],[127.43958,38.00573],[127.43951,38.00573]]]}},{"type":"Feature","properties":{"valleyId":"domachi","layer":"canopy","date":"2026-08-01"},"geometry":{"type":"Polygon","coordinates":[[[127.43967,38.0057],[127.43967,38.00564],[127.43974,38.00565],[127.43974,38.0057],[127.43967,38.0057]]]}},{"type":"Feature","properties":{"valleyId":"domachi","layer":"canopy","date":"2026-08-01"},"geometry":{"type":"Polygon","coordinates":[[[127.43872,38.00572],[127.43872,38.00561],[127.43881,38.00562],[127.43881,38.00571],[127.43872,38.00572]]]}},{"type":"Feature","properties":{"valleyId":"domachi","layer":"canopy","date":"2026-08-01"},"geometry":{"type":"Polygon","coordinates":[[[127.43824,38.00568],[127.43824,38.00557],[127.43831,38.00557],[127.43833,38.00566],[127.43824,38.00568]]]}},{"type":"Feature","properties":{"valleyId":"domachi","layer":"canopy","date":"2026-08-01"},"geometry":{"type":"Polygon","coordinates":[[[127.43879,38.00552],[127.43879,38.00547],[127.43886,38.00547],[127.43886,38.00553],[127.43879,38.00552]]]}},{"type":"Feature","properties":{"valleyId":"domachi","layer":"canopy","date":"2026-08-01"},"geometry":{"type":"Polygon","coordinates":[[[127.43932,38.00541],[127.43932,38.00535],[127.43939,38.00535],[127.43938,38.00541],[127.43932,38.00541]]]}},{"type":"Feature","properties":{"valleyId":"domachi","layer":"canopy","date":"2026-08-01"},"geometry":{"type":"Polygon","coordinates":[[[127.4401,38.00835],[127.43985,38.00799],[127.4399,38.00788],[127.43981,38.00786],[127.43979,38.00779],[127.43972,38.00775],[127.43966,38.00736],[127.43962,38.00736],[127.43955,38.0073],[127.43955,38.00725],[127.43942,38.00716],[127.43942,38.00712],[127.43935,38.0071],[127.43933,38.00697],[127.43915,38.00683],[127.43906,38.00666],[127.43899,38.00665],[127.43897,38.00645],[127.43893,38.00643],[127.43889,38.00627],[127.43889,38.00614],[127.43894,38.0061],[127.43894,38.00574],[127.43899,38.00571],[127.4391,38.00571],[127.43913,38.00567],[127.43922,38.00566],[127.43924,38.00555],[127.43931,38.00555],[127.43933,38.00559],[127.43952,38.00557],[127.43954,38.00564],[127.43945,38.00564],[127.43945,38.00571],[127.43949,38.00571],[127.43949,38.00582],[127.43976,38.00584],[127.43983,38.00581],[127.43986,38.00574],[127.4399,38.00574],[127.44004,38.00563],[127.44018,38.00562],[127.44022,38.00556],[127.44036,38.00556],[127.44036,38.00553],[127.44054,38.00546],[127.44059,38.0054],[127.4408,38.00539],[127.44091,38.0053],[127.44098,38.0053],[127.44105,38.00532],[127.44105,38.00539],[127.44083,38.00598],[127.44083,38.00607],[127.44078,38.00607],[127.44076,38.00611],[127.44076,38.00624],[127.44066,38.00629],[127.44066,38.00632],[127.44055,38.00634],[127.44046,38.00641],[127.44036,38.00643],[127.44029,38.0065],[127.44027,38.00661],[127.44009,38.00662],[127.44006,38.00677],[127.44036,38.00675],[127.44034,38.00663],[127.44041,38.00661],[127.44045,38.00654],[127.44059,38.00654],[127.44059,38.00647],[127.44075,38.00645],[127.44078,38.00636],[127.44085,38.00631],[127.44096,38.00629],[127.44107,38.00662],[127.44106,38.0068],[127.44093,38.00681],[127.4409,38.00678],[127.44081,38.00678],[127.44081,38.00683],[127.44095,38.00694],[127.44101,38.00694],[127.44101,38.00698],[127.44108,38.00702],[127.44103,38.00736],[127.44086,38.00772],[127.44082,38.00773],[127.44074,38.00788],[127.4407,38.00789],[127.4406,38.00804],[127.4403,38.00828],[127.44026,38.00828],[127.44019,38.00836],[127.4401,38.00835]],[[127.44038,38.00776],[127.44047,38.00776],[127.44061,38.00771],[127.44064,38.00757],[127.44059,38.00755],[127.44059,38.00751],[127.44052,38.00751],[127.4405,38.00755],[127.44052,38.00766],[127.44032,38.00765],[127.44031,38.00771],[127.44038,38.00776]],[[127.4396,38.00718],[127.43969,38.00718],[127.43967,38.00709],[127.43958,38.00709],[127.4396,38.00718]],[[127.43948,38.00633],[127.43959,38.00633],[127.43964,38.00622],[127.43985,38.00621],[127.43983,38.00601],[127.43955,38.006],[127.43951,38.00604],[127.43951,38.00609],[127.43946,38.00611],[127.43948,38.00633]],[[127.43937,38.00598],[127.43944,38.00598],[127.43949,38.00595],[127.43949,38.00582],[127.4394,38.00582],[127.43937,38.00586],[127.43933,38.00586],[127.43933,38.00593],[127.43937,38.00598]],[[127.43929,38.00575],[127.43935,38.00575],[127.43936,38.00569],[127.43929,38.00569],[127.43929,38.00575]]]}},{"type":"Feature","properties":{"valleyId":"domachi","layer":"canopy","date":"2026-08-01"},"geometry":{"type":"Polygon","coordinates":[[[127.43923,38.00533],[127.43921,38.00522],[127.4393,38.00523],[127.43932,38.00533],[127.43923,38.00533]]]}},{"type":"Feature","properties":{"valleyId":"domachi","layer":"canopy","date":"2026-08-01"},"geometry":{"type":"Polygon","coordinates":[[[127.44016,38.00414],[127.44007,38.00405],[127.44007,38.00397],[127.44012,38.00394],[127.44012,38.00383],[127.44019,38.00381],[127.4404,38.00383],[127.44049,38.00389],[127.44062,38.00389],[127.44062,38.00395],[127.44076,38.00396],[127.44076,38.00404],[127.44085,38.00404],[127.44085,38.00411],[127.44069,38.00409],[127.44062,38.00414],[127.44046,38.00414],[127.44041,38.0041],[127.44035,38.0041],[127.44032,38.00414],[127.44016,38.00414]]]}},{"type":"Feature","properties":{"valleyId":"domachi","layer":"canopy","date":"2026-08-01"},"geometry":{"type":"Polygon","coordinates":[[[127.43977,38.00539],[127.43964,38.00534],[127.43955,38.00512],[127.4395,38.00512],[127.43946,38.00505],[127.43935,38.00503],[127.4393,38.00492],[127.43917,38.00488],[127.43908,38.00481],[127.43908,38.00475],[127.43897,38.00457],[127.43897,38.0045],[127.43893,38.00446],[127.43893,38.00419],[127.43884,38.00416],[127.43882,38.00396],[127.43889,38.00394],[127.43889,38.0039],[127.43896,38.00385],[127.43896,38.00372],[127.43903,38.00369],[127.43906,38.00355],[127.43913,38.00355],[127.43924,38.00364],[127.43974,38.00368],[127.43978,38.00375],[127.4399,38.00381],[127.43989,38.00386],[127.43985,38.0039],[127.43971,38.00393],[127.4396,38.00391],[127.43958,38.00382],[127.43942,38.00384],[127.43942,38.00393],[127.43951,38.00393],[127.43964,38.00409],[127.43961,38.00424],[127.4397,38.00429],[127.4397,38.00435],[127.43968,38.0044],[127.43949,38.00454],[127.4392,38.00452],[127.43922,38.00465],[127.43935,38.00467],[127.43938,38.00472],[127.43953,38.00474],[127.43951,38.00462],[127.43958,38.00456],[127.43997,38.00457],[127.44008,38.00462],[127.4402,38.00462],[127.44027,38.00455],[127.44043,38.00454],[127.44045,38.0045],[127.44082,38.00451],[127.441,38.00447],[127.44104,38.00482],[127.44095,38.00483],[127.44094,38.00487],[127.4409,38.00487],[127.44087,38.00492],[127.44069,38.00503],[127.44067,38.0051],[127.44055,38.00512],[127.44041,38.00519],[127.44035,38.00519],[127.44028,38.00526],[127.44018,38.00527],[127.44002,38.00538],[127.43977,38.00539]]]}},{"type":"Feature","properties":{"valleyId":"domachi","layer":"canopy","date":"2026-08-01"},"geometry":{"type":"Polygon","coordinates":[[[127.43787,38.00357],[127.43788,38.00351],[127.43794,38.00351],[127.43794,38.00357],[127.43787,38.00357]]]}},{"type":"Feature","properties":{"valleyId":"domachi","layer":"canopy","date":"2026-08-01"},"geometry":{"type":"Polygon","coordinates":[[[127.43756,38.00336],[127.43754,38.00327],[127.43763,38.00326],[127.43765,38.00335],[127.43756,38.00336]]]}},{"type":"Feature","properties":{"valleyId":"domachi","layer":"canopy","date":"2026-08-01"},"geometry":{"type":"Polygon","coordinates":[[[127.43809,38.00321],[127.43802,38.00317],[127.43802,38.00312],[127.43825,38.00308],[127.43825,38.00314],[127.43815,38.00321],[127.43809,38.00321]]]}},{"type":"Feature","properties":{"valleyId":"domachi","layer":"canopy","date":"2026-08-01"},"geometry":{"type":"Polygon","coordinates":[[[127.43861,38.00871],[127.43797,38.0086],[127.43745,38.00837],[127.43723,38.00819],[127.43718,38.00819],[127.43709,38.00812],[127.43709,38.00808],[127.43698,38.00801],[127.43698,38.00797],[127.43687,38.00788],[127.43669,38.00761],[127.4367,38.00755],[127.43661,38.00742],[127.43659,38.00732],[127.43654,38.00728],[127.43652,38.00717],[127.43648,38.00713],[127.43646,38.00703],[127.43641,38.00699],[127.43639,38.00688],[127.43628,38.00668],[127.43624,38.00645],[127.43672,38.00645],[127.43686,38.00644],[127.43695,38.00638],[127.43713,38.00639],[127.43718,38.00633],[127.43731,38.00632],[127.43732,38.00623],[127.43725,38.00623],[127.4372,38.00619],[127.43695,38.00622],[127.43693,38.00619],[127.43686,38.00618],[127.43675,38.00611],[127.43675,38.00607],[127.43662,38.00598],[127.43659,38.00591],[127.43623,38.00589],[127.43635,38.0054],[127.43636,38.00528],[127.4362,38.00517],[127.4362,38.00509],[127.43627,38.00488],[127.43637,38.00488],[127.43637,38.00483],[127.4363,38.00481],[127.4363,38.00473],[127.43646,38.00465],[127.43646,38.00452],[127.43628,38.00452],[127.43628,38.00455],[127.43624,38.00457],[127.43623,38.00464],[127.43619,38.00464],[127.43619,38.00468],[127.43612,38.0047],[127.43607,38.00475],[127.43584,38.00475],[127.43573,38.00455],[127.43565,38.00429],[127.43561,38.00402],[127.43562,38.0035],[127.43564,38.00341],[127.43578,38.00341],[127.43578,38.00336],[127.43574,38.00336],[127.43574,38.00327],[127.43569,38.00327],[127.43569,38.00321],[127.43577,38.00305],[127.43584,38.00302],[127.43602,38.00304],[127.43611,38.003],[127.43627,38.003],[127.43643,38.00306],[127.43643,38.00313],[127.43633,38.00317],[127.43633,38.00326],[127.43638,38.00328],[127.43638,38.00331],[127.43654,38.00331],[127.43665,38.00337],[127.43672,38.00337],[127.43676,38.00341],[127.43676,38.0035],[127.4368,38.00357],[127.43694,38.00359],[127.43698,38.00366],[127.43721,38.00367],[127.43732,38.00383],[127.43753,38.00383],[127.43759,38.00389],[127.43764,38.00389],[127.43771,38.004],[127.4377,38.00407],[127.43761,38.00409],[127.43761,38.00416],[127.43766,38.00419],[127.43788,38.00422],[127.43793,38.00425],[127.43793,38.00432],[127.43783,38.00439],[127.43781,38.00459],[127.43767,38.00457],[127.43767,38.00448],[127.43772,38.00448],[127.4377,38.00439],[127.43756,38.00437],[127.43751,38.00444],[127.43751,38.00453],[127.43756,38.00455],[127.43762,38.00472],[127.43776,38.00474],[127.43778,38.00479],[127.43789,38.00485],[127.43791,38.0051],[127.43768,38.00513],[127.43768,38.00519],[127.43786,38.00533],[127.43786,38.00548],[127.4379,38.00551],[127.4379,38.00575],[127.43794,38.00577],[127.43794,38.00587],[127.43787,38.00591],[127.43787,38.00613],[127.43793,38.00618],[127.43807,38.00618],[127.43811,38.00624],[127.4382,38.00627],[127.4382,38.00636],[127.43831,38.00649],[127.43831,38.00658],[127.43836,38.0066],[127.43835,38.00674],[127.43851,38.00678],[127.4385,38.00716],[127.43864,38.00716],[127.43875,38.00724],[127.43877,38.00738],[127.43882,38.00742],[127.43879,38.00769],[127.43897,38.00778],[127.43901,38.008],[127.43908,38.00803],[127.43908,38.00814],[127.43921,38.00816],[127.43924,38.00811],[127.43933,38.00811],[127.43942,38.0082],[127.43939,38.00827],[127.43923,38.00825],[127.43923,38.00831],[127.43932,38.00833],[127.43932,38.00836],[127.43937,38.00838],[127.43936,38.00867],[127.43895,38.00872],[127.43861,38.00871]],[[127.43677,38.00492],[127.43689,38.00492],[127.43698,38.00487],[127.43698,38.00482],[127.43671,38.00481],[127.43671,38.00488],[127.43677,38.00492]],[[127.43689,38.00472],[127.43703,38.00473],[127.43705,38.00462],[127.43687,38.00458],[127.43685,38.00453],[127.43674,38.00454],[127.43674,38.00461],[127.43689,38.00467],[127.43689,38.00472]]]}},{"type":"Feature","properties":{"valleyId":"domachi","layer":"canopy","date":"2026-08-01"},"geometry":{"type":"Polygon","coordinates":[[[127.437,38.00285],[127.43693,38.0028],[127.43694,38.00271],[127.43705,38.00269],[127.43705,38.00262],[127.43714,38.00257],[127.43715,38.00238],[127.43747,38.00234],[127.43747,38.00239],[127.43742,38.00242],[127.43744,38.00259],[127.4373,38.00266],[127.43725,38.00276],[127.43721,38.00276],[127.43714,38.00285],[127.437,38.00285]]]}},{"type":"Feature","properties":{"valleyId":"domachi","layer":"canopy","date":"2026-08-01"},"geometry":{"type":"Polygon","coordinates":[[[127.43826,38.00251],[127.43826,38.00245],[127.43822,38.00245],[127.43815,38.0024],[127.43815,38.00234],[127.43838,38.00237],[127.43838,38.00249],[127.43826,38.00251]]]}},{"type":"Feature","properties":{"valleyId":"domachi","layer":"canopy","date":"2026-08-01"},"geometry":{"type":"Polygon","coordinates":[[[127.43801,38.00238],[127.43799,38.00231],[127.43813,38.00231],[127.43813,38.00238],[127.43801,38.00238]]]}},{"type":"Feature","properties":{"valleyId":"domachi","layer":"canopy","date":"2026-08-01"},"geometry":{"type":"Polygon","coordinates":[[[127.4379,38.00232],[127.43788,38.0022],[127.43797,38.0022],[127.43797,38.00232],[127.4379,38.00232]]]}},{"type":"Feature","properties":{"valleyId":"domachi","layer":"canopy","date":"2026-08-01"},"geometry":{"type":"Polygon","coordinates":[[[127.43744,38.00232],[127.43745,38.00217],[127.43749,38.00214],[127.43761,38.00216],[127.43761,38.00228],[127.43756,38.00232],[127.43744,38.00232]]]}},{"type":"Feature","properties":{"valleyId":"domachi","layer":"canopy","date":"2026-08-01"},"geometry":{"type":"Polygon","coordinates":[[[127.43768,38.00212],[127.43763,38.0021],[127.43766,38.00201],[127.43782,38.00203],[127.43781,38.00211],[127.43768,38.00212]]]}},{"type":"Feature","properties":{"valleyId":"domachi","layer":"canopy","date":"2026-08-01"},"geometry":{"type":"Polygon","coordinates":[[[127.43793,38.00207],[127.43791,38.00198],[127.438,38.00196],[127.43802,38.00207],[127.43793,38.00207]]]}},{"type":"Feature","properties":{"valleyId":"domachi","layer":"canopy","date":"2026-08-01"},"geometry":{"type":"Polygon","coordinates":[[[127.44042,38.0007],[127.44044,38.00063],[127.44056,38.00063],[127.44055,38.00068],[127.44042,38.0007]]]}},{"type":"Feature","properties":{"valleyId":"domachi","layer":"canopy","date":"2026-08-01"},"geometry":{"type":"Polygon","coordinates":[[[127.44054,38.00349],[127.44036,38.00342],[127.44029,38.00342],[127.44027,38.00345],[127.44013,38.00345],[127.44009,38.00342],[127.44002,38.00341],[127.44002,38.00338],[127.43995,38.00334],[127.43981,38.00334],[127.43977,38.00338],[127.43961,38.00335],[127.43956,38.00332],[127.43941,38.00328],[127.43938,38.00323],[127.43929,38.00317],[127.4393,38.00313],[127.43916,38.00311],[127.43914,38.00308],[127.43905,38.00306],[127.43905,38.00286],[127.43912,38.00283],[127.43953,38.00281],[127.43971,38.00289],[127.44012,38.00297],[127.44028,38.0029],[127.44031,38.00277],[127.44019,38.00262],[127.43999,38.00262],[127.43994,38.00266],[127.43933,38.00263],[127.43922,38.00257],[127.43908,38.00255],[127.43888,38.00244],[127.43886,38.00228],[127.4389,38.00223],[127.43891,38.00201],[127.43896,38.00192],[127.43896,38.00181],[127.43894,38.00171],[127.43887,38.00163],[127.43888,38.00145],[127.43897,38.0014],[127.43897,38.00133],[127.43883,38.00122],[127.43884,38.00113],[127.43877,38.00111],[127.43879,38.00096],[127.43884,38.00091],[127.43891,38.00089],[127.43916,38.0009],[127.4392,38.00101],[127.43929,38.00101],[127.43943,38.00096],[127.43946,38.00092],[127.43955,38.00092],[127.43973,38.00107],[127.43991,38.00111],[127.43998,38.00116],[127.44004,38.00116],[127.44011,38.00114],[127.44011,38.00104],[127.44005,38.00102],[127.44005,38.00093],[127.44037,38.00093],[127.44048,38.00092],[127.4405,38.00088],[127.44066,38.00088],[127.44071,38.00094],[127.44078,38.00094],[127.44082,38.00085],[127.44089,38.00085],[127.44091,38.0009],[127.44098,38.0009],[127.44101,38.00072],[127.44121,38.00071],[127.44126,38.00067],[127.44124,38.00053],[127.44145,38.00037],[127.44141,38.00022],[127.44148,38.0001],[127.44152,38.00008],[127.44155,37.99996],[127.44169,37.99983],[127.44169,37.9998],[127.44178,37.99974],[127.44219,37.99975],[127.44238,37.99966],[127.44258,37.99968],[127.44265,37.99974],[127.44265,37.99977],[127.44287,37.99992],[127.44287,37.99996],[127.44305,37.99996],[127.44314,38.0],[127.44319,38.00007],[127.44339,38.00009],[127.44334,38.0003],[127.44327,38.00039],[127.44325,38.0005],[127.44301,38.00088],[127.44296,38.00089],[127.44287,38.00104],[127.44278,38.00109],[127.44278,38.00113],[127.44197,38.00178],[127.44192,38.00178],[127.44171,38.00192],[127.44128,38.00208],[127.44109,38.00209],[127.4411,38.00193],[127.44105,38.0019],[127.4411,38.00172],[127.44101,38.00163],[127.44094,38.00162],[127.44085,38.0017],[127.44085,38.00177],[127.4409,38.0018],[127.44089,38.00189],[127.44085,38.002],[127.4408,38.00202],[127.4408,38.00207],[127.44089,38.00209],[127.44089,38.00215],[127.4408,38.00215],[127.44086,38.0026],[127.44082,38.00303],[127.44068,38.00341],[127.44061,38.00349],[127.44054,38.00349]],[[127.43958,38.00132],[127.43968,38.00132],[127.4397,38.00128],[127.43974,38.00128],[127.43977,38.00118],[127.43968,38.00116],[127.43961,38.0011],[127.43954,38.0011],[127.43945,38.00115],[127.43943,38.00124],[127.43954,38.00126],[127.43958,38.00132]],[[127.44277,38.00048],[127.44284,38.00048],[127.44284,38.00041],[127.44277,38.0004],[127.44277,38.00048]]]}},{"type":"Feature","properties":{"valleyId":"domachi","layer":"canopy","date":"2026-08-01"},"geometry":{"type":"Polygon","coordinates":[[[127.43806,37.99695],[127.43802,37.99685],[127.43822,37.99688],[127.43822,37.99696],[127.43806,37.99695]]]}},{"type":"Feature","properties":{"valleyId":"domachi","layer":"canopy","date":"2026-08-01"},"geometry":{"type":"Polygon","coordinates":[[[127.43795,37.99681],[127.4379,37.99679],[127.43791,37.99674],[127.43804,37.99674],[127.43804,37.99681],[127.43795,37.99681]]]}},{"type":"Feature","properties":{"valleyId":"domachi","layer":"canopy","date":"2026-08-01"},"geometry":{"type":"Polygon","coordinates":[[[127.44152,37.99936],[127.44141,37.99922],[127.44139,37.99911],[127.44125,37.99901],[127.44119,37.99887],[127.44112,37.99885],[127.4411,37.9988],[127.44098,37.99874],[127.44092,37.99863],[127.4409,37.99843],[127.44091,37.99809],[127.44097,37.99806],[127.44098,37.998],[127.44102,37.99797],[127.44116,37.99797],[127.44118,37.9979],[127.4413,37.9979],[127.4413,37.99772],[127.44123,37.99761],[127.44119,37.99759],[127.44119,37.99748],[127.44124,37.99746],[127.44126,37.99739],[127.44127,37.99703],[127.44134,37.99696],[127.44141,37.99696],[127.4414,37.99727],[127.44147,37.99727],[127.4415,37.99713],[127.44154,37.99709],[127.44154,37.99696],[127.44161,37.99689],[127.44162,37.99684],[127.44166,37.99682],[127.44166,37.99675],[127.44134,37.99673],[127.44135,37.9966],[127.44142,37.9966],[127.44141,37.99666],[127.44148,37.99666],[127.44155,37.9965],[127.4416,37.99648],[127.44196,37.99652],[127.44201,37.99648],[127.4421,37.99648],[127.44212,37.99645],[127.44244,37.99644],[127.44251,37.99633],[127.44286,37.99633],[127.44296,37.9966],[127.44296,37.99669],[127.44285,37.99673],[127.44285,37.99682],[127.443,37.99684],[127.44305,37.99709],[127.44303,37.99758],[127.44289,37.99814],[127.44288,37.9983],[127.44293,37.99832],[127.44302,37.9985],[127.44306,37.99852],[127.44319,37.99873],[127.4433,37.99901],[127.4433,37.99908],[127.44314,37.99911],[127.44307,37.99917],[127.44266,37.99909],[127.44252,37.99912],[127.44252,37.99919],[127.44248,37.99919],[127.44238,37.99928],[127.44172,37.99927],[127.44158,37.99936],[127.44152,37.99936]],[[127.44159,37.99918],[127.44166,37.99918],[127.4417,37.99915],[127.4417,37.99907],[127.44157,37.99906],[127.44159,37.99918]],[[127.442,37.99888],[127.44207,37.99888],[127.44214,37.99881],[127.44219,37.99881],[127.44226,37.9987],[127.44235,37.99867],[127.44246,37.99867],[127.44251,37.99864],[127.44263,37.99864],[127.44272,37.99849],[127.44272,37.99844],[127.44238,37.99838],[127.44233,37.9984],[127.44231,37.99851],[127.4422,37.9985],[127.44213,37.99841],[127.44206,37.99841],[127.44206,37.99848],[127.44192,37.99857],[127.44167,37.99861],[127.44167,37.99866],[127.44174,37.9987],[127.44173,37.99873],[127.44189,37.99875],[127.44189,37.99884],[127.44196,37.99884],[127.442,37.99888]],[[127.44269,37.99756],[127.44278,37.99756],[127.44279,37.9975],[127.44269,37.9975],[127.44269,37.99756]],[[127.44215,37.99751],[127.44224,37.99751],[127.44224,37.99748],[127.44233,37.99744],[127.44233,37.99737],[127.44226,37.99737],[127.44217,37.99744],[127.44213,37.99744],[127.44215,37.99751]],[[127.44259,37.99712],[127.44268,37.99711],[127.44268,37.99705],[127.44264,37.99705],[127.44261,37.99698],[127.44234,37.99697],[127.44232,37.99708],[127.44254,37.99709],[127.44259,37.99712]]]}},{"type":"Feature","properties":{"valleyId":"domachi","layer":"canopy","date":"2026-08-01"},"geometry":{"type":"Polygon","coordinates":[[[127.44193,37.99616],[127.44188,37.99612],[127.44191,37.99589],[127.44196,37.99585],[127.44209,37.99584],[127.44212,37.9958],[127.4423,37.99573],[127.44237,37.99573],[127.44255,37.99591],[127.4425,37.99608],[127.44245,37.99611],[127.44234,37.99613],[127.44231,37.99616],[127.44193,37.99616]]]}},{"type":"Feature","properties":{"valleyId":"domachi","layer":"canopy","date":"2026-08-01"},"geometry":{"type":"Polygon","coordinates":[[[127.43625,38.00268],[127.43607,38.00262],[127.43607,38.00257],[127.43619,38.00243],[127.43619,38.00237],[127.43615,38.00232],[127.43604,38.00181],[127.43598,38.00165],[127.43598,38.00158],[127.43607,38.00152],[127.4361,38.00143],[127.4361,38.00138],[127.43605,38.00138],[127.43603,38.00132],[127.43608,38.00116],[127.43603,38.00116],[127.43601,38.00113],[127.4359,38.00112],[127.43591,38.00082],[127.43602,38.00075],[127.43613,38.00075],[127.43634,38.00081],[127.43634,38.00077],[127.43638,38.00075],[127.4367,38.00076],[127.4367,38.0007],[127.43661,38.00065],[127.4363,38.00064],[127.43623,38.00057],[127.43616,38.00057],[127.43609,38.00062],[127.43598,38.00062],[127.43605,38.00024],[127.4362,37.99987],[127.43627,37.9998],[127.43632,37.99965],[127.43653,37.99933],[127.43688,37.99899],[127.43692,37.99899],[127.43706,37.99887],[127.43718,37.99883],[127.43722,37.99878],[127.43743,37.99871],[127.43743,37.99866],[127.43716,37.99858],[127.43671,37.99838],[127.43662,37.99829],[127.43657,37.99829],[127.43651,37.99821],[127.43644,37.99819],[127.43644,37.99816],[127.43626,37.99803],[127.43626,37.99799],[127.4361,37.99785],[127.43593,37.99756],[127.43582,37.99725],[127.43581,37.99664],[127.43586,37.99646],[127.43595,37.99644],[127.43598,37.99633],[127.43614,37.99626],[127.43614,37.99623],[127.43618,37.99623],[127.43619,37.99617],[127.43603,37.99617],[127.43603,37.99612],[127.43615,37.99594],[127.43633,37.99578],[127.43633,37.99574],[127.4364,37.99569],[127.43658,37.99569],[127.43654,37.99558],[127.43675,37.99544],[127.43679,37.99544],[127.43689,37.99537],[127.43695,37.99537],[127.43714,37.99527],[127.43725,37.99527],[127.43725,37.99523],[127.43732,37.99523],[127.43732,37.99529],[127.43725,37.99528],[127.43725,37.99534],[127.43743,37.99532],[127.43745,37.99543],[127.4372,37.99559],[127.437,37.99555],[127.437,37.99559],[127.43693,37.9956],[127.43693,37.99566],[127.43699,37.9957],[127.43699,37.99573],[127.43708,37.99575],[127.43715,37.996],[127.43719,37.99606],[127.43719,37.99617],[127.4371,37.99617],[127.4371,37.99622],[127.43726,37.99622],[127.43725,37.99629],[127.43719,37.99629],[127.43718,37.99637],[127.43727,37.99646],[127.43729,37.99655],[127.43745,37.9966],[127.43747,37.99668],[127.43759,37.99673],[127.43761,37.9968],[127.4377,37.99682],[127.4377,37.99686],[127.43776,37.9969],[127.43776,37.99695],[127.43744,37.99696],[127.43737,37.99705],[127.43737,37.99711],[127.43742,37.99713],[127.43742,37.99727],[127.4376,37.99729],[127.4376,37.99736],[127.43771,37.99736],[127.43773,37.99733],[127.4378,37.99733],[127.43787,37.9974],[127.43801,37.99739],[127.438,37.99742],[127.43812,37.99744],[127.43839,37.99743],[127.43844,37.99746],[127.4386,37.99747],[127.43862,37.99736],[127.43873,37.99736],[127.43871,37.99723],[127.4386,37.99725],[127.43858,37.9973],[127.43837,37.9973],[127.4383,37.99725],[127.43821,37.99724],[127.4381,37.99715],[127.4381,37.9971],[127.43797,37.9971],[127.43797,37.99704],[127.43806,37.99701],[127.43817,37.99701],[127.43822,37.99708],[127.43828,37.99708],[127.43833,37.99705],[127.43842,37.99705],[127.43849,37.997],[127.4387,37.99698],[127.43879,37.99691],[127.43899,37.99693],[127.43904,37.99686],[127.43922,37.99683],[127.43934,37.99674],[127.43945,37.99674],[127.43948,37.9967],[127.43966,37.99667],[127.43971,37.99662],[127.43996,37.99662],[127.43998,37.99684],[127.44016,37.99682],[127.44027,37.99689],[127.44045,37.9969],[127.44045,37.99684],[127.44039,37.99679],[127.44025,37.99678],[127.44025,37.99673],[127.44043,37.99673],[127.44059,37.99679],[127.44059,37.99686],[127.44064,37.99688],[127.44063,37.99711],[127.44056,37.99713],[127.44056,37.99722],[127.4407,37.99728],[127.44069,37.99744],[127.44065,37.99746],[127.44064,37.99753],[127.44071,37.99755],[127.44071,37.99773],[127.44059,37.99778],[127.44059,37.99789],[127.44052,37.99796],[127.4405,37.99805],[127.44052,37.99816],[127.44049,37.99821],[127.44038,37.99826],[127.44038,37.99832],[127.44042,37.99832],[127.44042,37.99848],[127.44035,37.99853],[127.44035,37.99861],[127.44039,37.99861],[127.44039,37.99866],[127.44032,37.99868],[127.44032,37.99877],[127.44039,37.99881],[127.44048,37.99881],[127.44064,37.9989],[127.44066,37.99908],[127.44077,37.99915],[127.44077,37.99922],[127.44084,37.99924],[127.44083,37.99933],[127.44072,37.99933],[127.44072,37.99942],[127.44067,37.99949],[127.44058,37.99949],[127.44049,37.99942],[127.44026,37.99942],[127.44026,37.99954],[127.4401,37.99961],[127.44012,37.99968],[127.4406,37.99967],[127.4406,37.9998],[127.44066,37.99982],[127.44066,37.99987],[127.44052,37.99994],[127.4405,38.00003],[127.44041,38.0001],[127.44029,38.0001],[127.44027,38.00007],[127.44023,38.00006],[127.44023,38.00003],[127.44009,37.99995],[127.44009,37.9999],[127.43991,37.99975],[127.43985,37.99965],[127.43967,37.99957],[127.43935,37.99955],[127.43926,37.99949],[127.43922,37.9994],[127.43908,37.9994],[127.4389,37.99945],[127.43876,37.99943],[127.43871,37.9994],[127.43865,37.99939],[127.4386,37.99945],[127.43851,37.99945],[127.43849,37.99941],[127.4381,37.99942],[127.43807,37.99948],[127.43803,37.99948],[127.43794,37.99957],[127.43793,37.99987],[127.43786,37.99994],[127.43788,38.00005],[127.43801,38.00023],[127.43801,38.00059],[127.43794,38.00067],[127.43784,38.00068],[127.43773,38.00077],[127.43752,38.00077],[127.4375,38.00073],[127.43737,38.00069],[127.43711,38.00073],[127.43707,38.00067],[127.43689,38.00063],[127.43689,38.00069],[127.43698,38.00072],[127.43698,38.00083],[127.43693,38.00085],[127.43693,38.0009],[127.43688,38.00094],[127.4369,38.00114],[127.43683,38.00117],[127.43683,38.00123],[127.4369,38.00126],[127.43691,38.00161],[127.4368,38.00168],[127.43675,38.00177],[127.43659,38.00178],[127.43657,38.00184],[127.43645,38.00183],[127.43641,38.0018],[127.43627,38.00181],[127.43627,38.00192],[127.43634,38.00198],[127.43661,38.00196],[127.4367,38.00202],[127.43681,38.00202],[127.4368,38.00252],[127.43678,38.0026],[127.43669,38.00265],[127.43653,38.00268],[127.43625,38.00268]],[[127.43635,38.00142],[127.43651,38.00142],[127.43653,38.00133],[127.43633,38.00133],[127.43635,38.00142]],[[127.43714,37.99968],[127.43723,37.99968],[127.43723,37.99963],[127.43714,37.99963],[127.43714,37.99968]],[[127.43991,37.99869],[127.44003,37.99869],[127.44003,37.99864],[127.43994,37.9986],[127.43996,37.99846],[127.43983,37.99844],[127.43983,37.99851],[127.43985,37.99856],[127.43989,37.99856],[127.43991,37.99869]],[[127.43672,37.99807],[127.43681,37.99807],[127.43681,37.99802],[127.43688,37.99797],[127.43688,37.99788],[127.43692,37.99786],[127.43693,37.99779],[127.43688,37.99775],[127.43681,37.99775],[127.43677,37.99786],[127.4367,37.99789],[127.43672,37.99807]],[[127.436,37.99721],[127.4361,37.99722],[127.4361,37.99716],[127.43619,37.99713],[127.43617,37.99705],[127.4361,37.99705],[127.43605,37.99709],[127.436,37.99721]],[[127.43722,37.99682],[127.43738,37.9968],[127.4374,37.99669],[127.43731,37.99666],[127.4372,37.99665],[127.43693,37.99669],[127.43686,37.99672],[127.43688,37.99679],[127.4372,37.99678],[127.43722,37.99682]],[[127.43644,37.99616],[127.43651,37.99616],[127.43651,37.9961],[127.43644,37.9961],[127.43644,37.99616]]]}},{"type":"Feature","properties":{"valleyId":"domachi","layer":"canopy","date":"2026-08-01"},"geometry":{"type":"Polygon","coordinates":[[[127.43825,37.99667],[127.43814,37.99659],[127.43798,37.99657],[127.43784,37.99648],[127.43771,37.99625],[127.43772,37.99596],[127.43781,37.99574],[127.43786,37.99573],[127.43786,37.99569],[127.43793,37.99567],[127.43798,37.99551],[127.43818,37.99535],[127.43821,37.99526],[127.43839,37.99523],[127.43851,37.99514],[127.43869,37.99512],[127.43872,37.99502],[127.43863,37.99496],[127.43863,37.99489],[127.43872,37.99487],[127.43874,37.99475],[127.43916,37.99463],[127.43952,37.99458],[127.43998,37.99458],[127.44036,37.99462],[127.441,37.99478],[127.44118,37.99485],[127.4412,37.99489],[127.44129,37.99491],[127.44167,37.99515],[127.44165,37.99524],[127.44154,37.99523],[127.44151,37.99518],[127.4414,37.99516],[127.4414,37.99525],[127.44128,37.99525],[127.44124,37.99521],[127.44069,37.99522],[127.4406,37.9952],[127.44058,37.99517],[127.44049,37.99517],[127.4404,37.99511],[127.44022,37.99511],[127.44008,37.99521],[127.44009,37.9955],[127.44002,37.99572],[127.43995,37.99577],[127.43991,37.99577],[127.43986,37.99584],[127.43975,37.99586],[127.43961,37.99596],[127.43958,37.99604],[127.43949,37.99611],[127.43942,37.99611],[127.4394,37.99616],[127.43933,37.99621],[127.43928,37.99621],[127.43921,37.9963],[127.43903,37.99637],[127.439,37.99643],[127.43875,37.99649],[127.43864,37.99662],[127.43848,37.99662],[127.43836,37.99667],[127.43825,37.99667]],[[127.43804,37.99584],[127.43817,37.99584],[127.4382,37.9958],[127.43824,37.9958],[127.43825,37.99569],[127.43818,37.99569],[127.43811,37.99576],[127.43806,37.99576],[127.43804,37.99584]],[[127.43825,37.99569],[127.43834,37.99568],[127.43834,37.99557],[127.43827,37.99557],[127.43825,37.99569]],[[127.43818,37.99553],[127.43825,37.99553],[127.43825,37.99548],[127.43818,37.99548],[127.43818,37.99553]],[[127.43906,37.99504],[127.4394,37.99501],[127.4394,37.99497],[127.43945,37.99495],[127.43945,37.99486],[127.43936,37.99484],[127.43929,37.99492],[127.43904,37.99497],[127.43906,37.99504]]]}}]}
