{"type":"FeatureCollection","metadata":{"description":"개방지(CHM ≤ 2 m)에 드리운 나무·지형 그림자, 2026-08-01 10:00 KST. canopy 위에 겹쳐 그린다","source":"위성 기반 추정 — Copernicus GLO-30 지형(30 m) + Meta/WRI 수관 높이(1 m CHM, 2016~2018 촬영). 그늘 = 수관(CHM > 2 m) ∪ 나무·지형 그림자 ∪ 원거리 지형 마스크. 현장과 다를 수 있음.","datasetVersion":"2026-09-06.0","collectedAt":"2026-09-06","coordinateOrder":"[longitude, latitude]","crs":"EPSG:4326","representativeDate":"2026-08-01","hours":["10:00","11:00","12:00","13:00","14:00","15:00","16:00","17:00","18:00"],"chmAcquisition":["2016-12","2018-03"],"assets":{"glo30":{"dataset":"Copernicus DEM GLO-30 (COG, s3://copernicus-dem-30m)","tiles":["Copernicus_DSM_COG_10_N37_00_E127_00_DEM","Copernicus_DSM_COG_10_N38_00_E127_00_DEM"]},"chm":{"dataset":"Meta/WRI Global Canopy Height Map v1 (alsgedi_global_v6_float, 1 m, CC-BY 4.0)","quadkeys":["132110303"],"acquisition":["2016-12","2018-03"]}},"method":{"gridResM":2,"canopyThresholdM":2,"bufferHalfM":25,"corridorHalfM":200,"simplifyTolM":2,"minAreaM2":25,"coordDecimals":5},"generator":"scripts/shade 0.1.0","builtAt":"2026-09-06T06:01:18Z","layer":"shadow","timeLocal":"10:00"},"features":[{"type":"Feature","properties":{"valleyId":"domachi","layer":"shadow","date":"2026-08-01","timeLocal":"10:00"},"geometry":{"type":"Polygon","coordinates":[[[127.44003,38.00839],[127.43998,38.00835],[127.43994,38.00821],[127.44001,38.00821],[127.4401,38.00834],[127.4401,38.00839],[127.44003,38.00839]]]}},{"type":"Feature","properties":{"valleyId":"domachi","layer":"shadow","date":"2026-08-01","timeLocal":"10:00"},"geometry":{"type":"Polygon","coordinates":[[[127.43983,38.00574],[127.43983,38.00566],[127.43993,38.00567],[127.43992,38.00572],[127.43983,38.00574]]]}},{"type":"Feature","properties":{"valleyId":"domachi","layer":"shadow","date":"2026-08-01","timeLocal":"10:00"},"geometry":{"type":"Polygon","coordinates":[[[127.43979,38.00547],[127.43963,38.00545],[127.43963,38.00541],[127.43952,38.00539],[127.43948,38.00532],[127.43948,38.00519],[127.43939,38.00519],[127.43939,38.0051],[127.43935,38.00508],[127.43935,38.00503],[127.43946,38.00505],[127.43948,38.0051],[127.43955,38.00512],[127.43959,38.00527],[127.43968,38.00537],[127.43991,38.0054],[127.43991,38.00547],[127.43979,38.00547]]]}},{"type":"Feature","properties":{"valleyId":"domachi","layer":"shadow","date":"2026-08-01","timeLocal":"10:00"},"geometry":{"type":"Polygon","coordinates":[[[127.43901,38.00481],[127.43901,38.00475],[127.43908,38.00475],[127.43908,38.00481],[127.43901,38.00481]]]}},{"type":"Feature","properties":{"valleyId":"domachi","layer":"shadow","date":"2026-08-01","timeLocal":"10:00"},"geometry":{"type":"Polygon","coordinates":[[[127.43897,38.00473],[127.43897,38.00466],[127.43904,38.00466],[127.43903,38.00474],[127.43897,38.00473]]]}},{"type":"Feature","properties":{"valleyId":"domachi","layer":"shadow","date":"2026-08-01","timeLocal":"10:00"},"geometry":{"type":"Polygon","coordinates":[[[127.43929,38.00461],[127.43929,38.00454],[127.4394,38.00454],[127.4394,38.00461],[127.43929,38.00461]]]}},{"type":"Feature","properties":{"valleyId":"domachi","layer":"shadow","date":"2026-08-01","timeLocal":"10:00"},"geometry":{"type":"Polygon","coordinates":[[[127.43953,38.00395],[127.43953,38.00391],[127.43948,38.00391],[127.43949,38.00384],[127.43958,38.00382],[127.4396,38.00395],[127.43953,38.00395]]]}},{"type":"Feature","properties":{"valleyId":"domachi","layer":"shadow","date":"2026-08-01","timeLocal":"10:00"},"geometry":{"type":"Polygon","coordinates":[[[127.43941,38.00333],[127.43941,38.00328],[127.4395,38.00328],[127.4395,38.00334],[127.43941,38.00333]]]}},{"type":"Feature","properties":{"valleyId":"domachi","layer":"shadow","date":"2026-08-01","timeLocal":"10:00"},"geometry":{"type":"Polygon","coordinates":[[[127.43932,38.00328],[127.43932,38.00324],[127.43925,38.00324],[127.43925,38.00317],[127.43932,38.00317],[127.43934,38.00323],[127.43938,38.00323],[127.43938,38.00328],[127.43932,38.00328]]]}},{"type":"Feature","properties":{"valleyId":"domachi","layer":"shadow","date":"2026-08-01","timeLocal":"10:00"},"geometry":{"type":"Polygon","coordinates":[[[127.43904,38.00315],[127.43905,38.00308],[127.43916,38.0031],[127.43916,38.00315],[127.43904,38.00315]]]}},{"type":"Feature","properties":{"valleyId":"domachi","layer":"shadow","date":"2026-08-01","timeLocal":"10:00"},"geometry":{"type":"Polygon","coordinates":[[[127.43926,38.00268],[127.43906,38.00263],[127.43906,38.00255],[127.43915,38.00256],[127.43922,38.00257],[127.43922,38.00261],[127.43935,38.00263],[127.43935,38.00268],[127.43926,38.00268]]]}},{"type":"Feature","properties":{"valleyId":"domachi","layer":"shadow","date":"2026-08-01","timeLocal":"10:00"},"geometry":{"type":"Polygon","coordinates":[[[127.44291,37.99922],[127.44291,37.99918],[127.44273,37.99918],[127.44273,37.99912],[127.443,37.99915],[127.443,37.99922],[127.44291,37.99922]]]}},{"type":"Feature","properties":{"valleyId":"domachi","layer":"shadow","date":"2026-08-01","timeLocal":"10:00"},"geometry":{"type":"Polygon","coordinates":[[[127.44134,37.9968],[127.44134,37.99676],[127.44125,37.99674],[127.44126,37.99662],[127.44128,37.99658],[127.44132,37.99658],[127.44133,37.99651],[127.44139,37.99651],[127.44139,37.9966],[127.44135,37.9966],[127.44134,37.99673],[127.4415,37.99673],[127.4415,37.99678],[127.44134,37.9968]]]}},{"type":"Feature","properties":{"valleyId":"domachi","layer":"shadow","date":"2026-08-01","timeLocal":"10:00"},"geometry":{"type":"Polygon","coordinates":[[[127.44226,37.99643],[127.44226,37.99636],[127.44247,37.99636],[127.44244,37.99644],[127.44226,37.99643]]]}},{"type":"Feature","properties":{"valleyId":"domachi","layer":"shadow","date":"2026-08-01","timeLocal":"10:00"},"geometry":{"type":"Polygon","coordinates":[[[127.44058,37.99634],[127.44058,37.99605],[127.44079,37.99607],[127.44079,37.99612],[127.44086,37.99613],[127.44085,37.99634],[127.44058,37.99634]]]}},{"type":"Feature","properties":{"valleyId":"domachi","layer":"shadow","date":"2026-08-01","timeLocal":"10:00"},"geometry":{"type":"Polygon","coordinates":[[[127.44252,37.99629],[127.44247,37.99627],[127.44247,37.99622],[127.44234,37.99618],[127.44234,37.99613],[127.44247,37.99611],[127.44247,37.99608],[127.44252,37.99608],[127.44252,37.99599],[127.44261,37.99599],[127.44261,37.99629],[127.44252,37.99629]]]}},{"type":"Feature","properties":{"valleyId":"domachi","layer":"shadow","date":"2026-08-01","timeLocal":"10:00"},"geometry":{"type":"Polygon","coordinates":[[[127.44196,37.9958],[127.44196,37.99553],[127.44217,37.99555],[127.44223,37.99559],[127.44223,37.99566],[127.44232,37.99568],[127.44232,37.99573],[127.44216,37.9958],[127.44196,37.9958]]]}},{"type":"Feature","properties":{"valleyId":"domachi","layer":"shadow","date":"2026-08-01","timeLocal":"10:00"},"geometry":{"type":"Polygon","coordinates":[[[127.43913,37.99504],[127.43913,37.99499],[127.43919,37.99499],[127.43919,37.99504],[127.43913,37.99504]]]}},{"type":"Feature","properties":{"valleyId":"domachi","layer":"shadow","date":"2026-08-01","timeLocal":"10:00"},"geometry":{"type":"Polygon","coordinates":[[[127.4386,37.99509],[127.4386,37.995],[127.43856,37.995],[127.43853,37.99496],[127.43854,37.99487],[127.43863,37.99487],[127.43863,37.99498],[127.43872,37.99502],[127.43871,37.99509],[127.4386,37.99509]]]}},{"type":"Feature","properties":{"valleyId":"domachi","layer":"shadow","date":"2026-08-01","timeLocal":"10:00"},"geometry":{"type":"Polygon","coordinates":[[[127.43865,37.99487],[127.43865,37.99478],[127.43874,37.99478],[127.43872,37.99487],[127.43865,37.99487]]]}}]}
