{"type":"FeatureCollection","metadata":{"description":"개방지(CHM ≤ 2 m)에 드리운 나무·지형 그림자, 2026-08-01 16:00 KST. canopy 위에 겹쳐 그린다","source":"위성 기반 추정 — Copernicus GLO-30 지형(30 m) + Meta/WRI 수관 높이(1 m CHM, 2016~2018 촬영). 그늘 = 수관(CHM > 2 m) ∪ 나무·지형 그림자 ∪ 원거리 지형 마스크. 현장과 다를 수 있음.","datasetVersion":"2026-09-06.0","collectedAt":"2026-09-06","coordinateOrder":"[longitude, latitude]","crs":"EPSG:4326","representativeDate":"2026-08-01","hours":["10:00","11:00","12:00","13:00","14:00","15:00","16:00","17:00","18:00"],"chmAcquisition":["2016-12","2018-03"],"assets":{"glo30":{"dataset":"Copernicus DEM GLO-30 (COG, s3://copernicus-dem-30m)","tiles":["Copernicus_DSM_COG_10_N37_00_E127_00_DEM","Copernicus_DSM_COG_10_N38_00_E127_00_DEM"]},"chm":{"dataset":"Meta/WRI Global Canopy Height Map v1 (alsgedi_global_v6_float, 1 m, CC-BY 4.0)","quadkeys":["132110303"],"acquisition":["2016-12","2018-03"]}},"method":{"gridResM":2,"canopyThresholdM":2,"bufferHalfM":25,"corridorHalfM":200,"simplifyTolM":2,"minAreaM2":25,"coordDecimals":5},"generator":"scripts/shade 0.1.0","builtAt":"2026-09-06T06:01:18Z","layer":"shadow","timeLocal":"16:00"},"features":[{"type":"Feature","properties":{"valleyId":"domachi","layer":"shadow","date":"2026-08-01","timeLocal":"16:00"},"geometry":{"type":"Polygon","coordinates":[[[127.43938,38.00861],[127.43939,38.00854],[127.43945,38.00854],[127.43945,38.00862],[127.43938,38.00861]]]}},{"type":"Feature","properties":{"valleyId":"domachi","layer":"shadow","date":"2026-08-01","timeLocal":"16:00"},"geometry":{"type":"Polygon","coordinates":[[[127.43888,38.00765],[127.43888,38.00758],[127.43897,38.00758],[127.43897,38.00765],[127.43888,38.00765]]]}},{"type":"Feature","properties":{"valleyId":"domachi","layer":"shadow","date":"2026-08-01","timeLocal":"16:00"},"geometry":{"type":"Polygon","coordinates":[[[127.43855,38.00698],[127.43856,38.00686],[127.43851,38.00686],[127.43851,38.00676],[127.43858,38.00677],[127.43858,38.00684],[127.43862,38.00684],[127.43862,38.00698],[127.43855,38.00698]]]}},{"type":"Feature","properties":{"valleyId":"domachi","layer":"shadow","date":"2026-08-01","timeLocal":"16:00"},"geometry":{"type":"Polygon","coordinates":[[[127.43787,38.00604],[127.43787,38.00591],[127.43794,38.00591],[127.43796,38.00604],[127.43787,38.00604]]]}},{"type":"Feature","properties":{"valleyId":"domachi","layer":"shadow","date":"2026-08-01","timeLocal":"16:00"},"geometry":{"type":"Polygon","coordinates":[[[127.43824,38.00579],[127.43822,38.00572],[127.43833,38.00572],[127.43833,38.00577],[127.43824,38.00579]]]}},{"type":"Feature","properties":{"valleyId":"domachi","layer":"shadow","date":"2026-08-01","timeLocal":"16:00"},"geometry":{"type":"Polygon","coordinates":[[[127.43794,38.00584],[127.43794,38.00577],[127.4379,38.00575],[127.4379,38.00548],[127.43799,38.00548],[127.43799,38.00559],[127.43803,38.00564],[127.43803,38.0057],[127.43799,38.00569],[127.43801,38.00584],[127.43794,38.00584]]]}},{"type":"Feature","properties":{"valleyId":"domachi","layer":"shadow","date":"2026-08-01","timeLocal":"16:00"},"geometry":{"type":"Polygon","coordinates":[[[127.43781,38.00531],[127.43779,38.00526],[127.43775,38.00526],[127.43773,38.00519],[127.43768,38.00519],[127.43768,38.00513],[127.43775,38.00513],[127.43775,38.00517],[127.43784,38.00517],[127.43784,38.00522],[127.43788,38.00522],[127.43788,38.00531],[127.43781,38.00531]]]}},{"type":"Feature","properties":{"valleyId":"domachi","layer":"shadow","date":"2026-08-01","timeLocal":"16:00"},"geometry":{"type":"Polygon","coordinates":[[[127.4376,38.00466],[127.4376,38.00461],[127.43767,38.00461],[127.43767,38.00466],[127.4376,38.00466]]]}},{"type":"Feature","properties":{"valleyId":"domachi","layer":"shadow","date":"2026-08-01","timeLocal":"16:00"},"geometry":{"type":"Polygon","coordinates":[[[127.43662,38.0027],[127.43662,38.00265],[127.43669,38.00265],[127.43678,38.0026],[127.43683,38.00225],[127.43681,38.00206],[127.43684,38.00202],[127.4369,38.00202],[127.43695,38.00224],[127.43687,38.00245],[127.43687,38.00262],[127.43678,38.00267],[127.43678,38.0027],[127.43662,38.0027]]]}},{"type":"Feature","properties":{"valleyId":"domachi","layer":"shadow","date":"2026-08-01","timeLocal":"16:00"},"geometry":{"type":"Polygon","coordinates":[[[127.43629,38.00196],[127.43627,38.00181],[127.43639,38.0018],[127.43643,38.00194],[127.43629,38.00196]]]}},{"type":"Feature","properties":{"valleyId":"domachi","layer":"shadow","date":"2026-08-01","timeLocal":"16:00"},"geometry":{"type":"Polygon","coordinates":[[[127.43652,38.00189],[127.43652,38.00184],[127.43657,38.00184],[127.43659,38.00178],[127.43675,38.00177],[127.4368,38.00168],[127.43687,38.00162],[127.43691,38.00162],[127.43692,38.00141],[127.43699,38.00141],[127.437,38.00161],[127.43694,38.00163],[127.43691,38.00173],[127.43684,38.00179],[127.43677,38.00179],[127.43673,38.00186],[127.43652,38.00189]]]}},{"type":"Feature","properties":{"valleyId":"domachi","layer":"shadow","date":"2026-08-01","timeLocal":"16:00"},"geometry":{"type":"Polygon","coordinates":[[[127.4369,38.00139],[127.4369,38.00128],[127.43697,38.00128],[127.43696,38.00139],[127.4369,38.00139]]]}},{"type":"Feature","properties":{"valleyId":"domachi","layer":"shadow","date":"2026-08-01","timeLocal":"16:00"},"geometry":{"type":"Polygon","coordinates":[[[127.4369,38.00114],[127.43688,38.00094],[127.43693,38.0009],[127.43693,38.00085],[127.43698,38.00083],[127.43698,38.00072],[127.43707,38.00073],[127.43707,38.00076],[127.43714,38.00078],[127.43713,38.00083],[127.43707,38.00083],[127.43704,38.00112],[127.4369,38.00114]]]}},{"type":"Feature","properties":{"valleyId":"domachi","layer":"shadow","date":"2026-08-01","timeLocal":"16:00"},"geometry":{"type":"Polygon","coordinates":[[[127.4405,38.00007],[127.44052,37.99994],[127.44062,37.99993],[127.44057,38.00007],[127.4405,38.00007]]]}},{"type":"Feature","properties":{"valleyId":"domachi","layer":"shadow","date":"2026-08-01","timeLocal":"16:00"},"geometry":{"type":"Polygon","coordinates":[[[127.44064,37.99993],[127.44066,37.99982],[127.4406,37.9998],[127.4406,37.99967],[127.44069,37.99967],[127.44069,37.99973],[127.44073,37.99973],[127.44073,37.99978],[127.44078,37.99982],[127.44075,37.99991],[127.44064,37.99993]]]}},{"type":"Feature","properties":{"valleyId":"domachi","layer":"shadow","date":"2026-08-01","timeLocal":"16:00"},"geometry":{"type":"Polygon","coordinates":[[[127.44012,37.99965],[127.44015,37.99958],[127.44031,37.99954],[127.44028,37.99961],[127.44024,37.99961],[127.44021,37.99965],[127.44012,37.99965]]]}},{"type":"Feature","properties":{"valleyId":"domachi","layer":"shadow","date":"2026-08-01","timeLocal":"16:00"},"geometry":{"type":"Polygon","coordinates":[[[127.44075,37.99919],[127.44072,37.9991],[127.44066,37.99908],[127.44064,37.9989],[127.44055,37.99886],[127.44055,37.99883],[127.44048,37.99882],[127.44048,37.99873],[127.44055,37.99874],[127.44057,37.99881],[127.44071,37.99885],[127.44075,37.99908],[127.44079,37.99908],[127.44082,37.99914],[127.44086,37.99914],[127.44086,37.99919],[127.44075,37.99919]]]}},{"type":"Feature","properties":{"valleyId":"domachi","layer":"shadow","date":"2026-08-01","timeLocal":"16:00"},"geometry":{"type":"Polygon","coordinates":[[[127.44039,37.99866],[127.44039,37.99861],[127.44048,37.99861],[127.44048,37.99866],[127.44039,37.99866]]]}},{"type":"Feature","properties":{"valleyId":"domachi","layer":"shadow","date":"2026-08-01","timeLocal":"16:00"},"geometry":{"type":"Polygon","coordinates":[[[127.44052,37.99819],[127.4405,37.99805],[127.44059,37.99803],[127.44058,37.99819],[127.44052,37.99819]]]}},{"type":"Feature","properties":{"valleyId":"domachi","layer":"shadow","date":"2026-08-01","timeLocal":"16:00"},"geometry":{"type":"Polygon","coordinates":[[[127.44054,37.998],[127.44054,37.99792],[127.44059,37.99789],[127.44062,37.9978],[127.44068,37.9978],[127.44068,37.99789],[127.44064,37.99791],[127.44061,37.998],[127.44054,37.998]]]}},{"type":"Feature","properties":{"valleyId":"domachi","layer":"shadow","date":"2026-08-01","timeLocal":"16:00"},"geometry":{"type":"Polygon","coordinates":[[[127.43693,37.99566],[127.43693,37.9956],[127.437,37.99561],[127.43699,37.99566],[127.43693,37.99566]]]}},{"type":"Feature","properties":{"valleyId":"domachi","layer":"shadow","date":"2026-08-01","timeLocal":"16:00"},"geometry":{"type":"Polygon","coordinates":[[[127.4414,37.99525],[127.4414,37.99516],[127.44147,37.99516],[127.44147,37.99525],[127.4414,37.99525]]]}}]}
