{"type":"FeatureCollection","metadata":{"description":"개방지(CHM ≤ 2 m)에 드리운 나무·지형 그림자, 2026-08-01 18:00 KST. canopy 위에 겹쳐 그린다","source":"위성 기반 추정 — Copernicus GLO-30 지형(30 m) + Meta/WRI 수관 높이(1 m CHM, 2016~2018 촬영). 그늘 = 수관(CHM > 2 m) ∪ 나무·지형 그림자 ∪ 원거리 지형 마스크. 현장과 다를 수 있음.","datasetVersion":"2026-09-06.0","collectedAt":"2026-09-06","coordinateOrder":"[longitude, latitude]","crs":"EPSG:4326","representativeDate":"2026-08-01","hours":["10:00","11:00","12:00","13:00","14:00","15:00","16:00","17:00","18:00"],"chmAcquisition":["2016-12","2018-03"],"assets":{"glo30":{"dataset":"Copernicus DEM GLO-30 (COG, s3://copernicus-dem-30m)","tiles":["Copernicus_DSM_COG_10_N37_00_E127_00_DEM","Copernicus_DSM_COG_10_N38_00_E127_00_DEM"]},"chm":{"dataset":"Meta/WRI Global Canopy Height Map v1 (alsgedi_global_v6_float, 1 m, CC-BY 4.0)","quadkeys":["132110303"],"acquisition":["2016-12","2018-03"]}},"method":{"gridResM":2,"canopyThresholdM":2,"bufferHalfM":25,"corridorHalfM":200,"simplifyTolM":2,"minAreaM2":25,"coordDecimals":5},"generator":"scripts/shade 0.1.0","builtAt":"2026-09-06T06:01:18Z","layer":"shadow","timeLocal":"18:00"},"features":[{"type":"Feature","properties":{"valleyId":"domachi","layer":"shadow","date":"2026-08-01","timeLocal":"18:00"},"geometry":{"type":"Polygon","coordinates":[[[127.44038,38.00776],[127.44031,38.00771],[127.44032,38.00765],[127.44052,38.00766],[127.4405,38.00755],[127.44052,38.00751],[127.44059,38.00751],[127.44059,38.00755],[127.44064,38.00757],[127.44063,38.00769],[127.44047,38.00776],[127.44038,38.00776]]]}},{"type":"Feature","properties":{"valleyId":"domachi","layer":"shadow","date":"2026-08-01","timeLocal":"18:00"},"geometry":{"type":"Polygon","coordinates":[[[127.4396,38.00718],[127.43958,38.00709],[127.43967,38.00709],[127.43969,38.00718],[127.4396,38.00718]]]}},{"type":"Feature","properties":{"valleyId":"domachi","layer":"shadow","date":"2026-08-01","timeLocal":"18:00"},"geometry":{"type":"Polygon","coordinates":[[[127.44006,38.00677],[127.44009,38.00662],[127.44018,38.00662],[127.44018,38.00677],[127.44006,38.00677]]]}},{"type":"Feature","properties":{"valleyId":"domachi","layer":"shadow","date":"2026-08-01","timeLocal":"18:00"},"geometry":{"type":"Polygon","coordinates":[[[127.43948,38.00633],[127.43946,38.00611],[127.43951,38.00609],[127.43951,38.00604],[127.43955,38.006],[127.43983,38.00601],[127.43985,38.00621],[127.43964,38.00622],[127.43961,38.00633],[127.43948,38.00633]]]}},{"type":"Feature","properties":{"valleyId":"domachi","layer":"shadow","date":"2026-08-01","timeLocal":"18:00"},"geometry":{"type":"Polygon","coordinates":[[[127.43622,38.00645],[127.43623,38.00589],[127.43659,38.00591],[127.43662,38.00598],[127.43675,38.00607],[127.43675,38.00611],[127.43682,38.00617],[127.43693,38.00619],[127.43695,38.00622],[127.43709,38.00619],[127.43732,38.00623],[127.43731,38.00632],[127.43722,38.00632],[127.43713,38.00639],[127.43695,38.00638],[127.43686,38.00644],[127.43672,38.00645],[127.43622,38.00645]]]}},{"type":"Feature","properties":{"valleyId":"domachi","layer":"shadow","date":"2026-08-01","timeLocal":"18:00"},"geometry":{"type":"Polygon","coordinates":[[[127.43937,38.00598],[127.43933,38.00593],[127.43933,38.00586],[127.43937,38.00586],[127.4394,38.00582],[127.43949,38.00582],[127.43949,38.00595],[127.43944,38.00598],[127.43937,38.00598]]]}},{"type":"Feature","properties":{"valleyId":"domachi","layer":"shadow","date":"2026-08-01","timeLocal":"18:00"},"geometry":{"type":"Polygon","coordinates":[[[127.43929,38.00575],[127.43929,38.00569],[127.43936,38.00569],[127.43935,38.00575],[127.43929,38.00575]]]}},{"type":"Feature","properties":{"valleyId":"domachi","layer":"shadow","date":"2026-08-01","timeLocal":"18:00"},"geometry":{"type":"Polygon","coordinates":[[[127.43677,38.00492],[127.43668,38.00488],[127.43669,38.00481],[127.43698,38.00482],[127.43696,38.00489],[127.43691,38.00489],[127.43689,38.00492],[127.43677,38.00492]]]}},{"type":"Feature","properties":{"valleyId":"domachi","layer":"shadow","date":"2026-08-01","timeLocal":"18:00"},"geometry":{"type":"Polygon","coordinates":[[[127.43689,38.00472],[127.43689,38.00467],[127.43674,38.00461],[127.43674,38.00454],[127.43685,38.00453],[127.43687,38.00458],[127.43705,38.00462],[127.43703,38.00473],[127.43689,38.00472]]]}},{"type":"Feature","properties":{"valleyId":"domachi","layer":"shadow","date":"2026-08-01","timeLocal":"18:00"},"geometry":{"type":"Polygon","coordinates":[[[127.43613,38.00509],[127.43591,38.00486],[127.43589,38.00477],[127.43607,38.00475],[127.43612,38.0047],[127.43619,38.00468],[127.43619,38.00463],[127.43623,38.00463],[127.43628,38.00452],[127.43644,38.0045],[127.43646,38.00465],[127.4363,38.00473],[127.4363,38.00481],[127.43637,38.00483],[127.43637,38.00488],[127.43627,38.00488],[127.43622,38.00509],[127.43613,38.00509]]]}},{"type":"Feature","properties":{"valleyId":"domachi","layer":"shadow","date":"2026-08-01","timeLocal":"18:00"},"geometry":{"type":"Polygon","coordinates":[[[127.43947,38.00474],[127.43938,38.00472],[127.43935,38.00467],[127.43922,38.00465],[127.4392,38.00452],[127.43954,38.00454],[127.43953,38.00474],[127.43947,38.00474]]]}},{"type":"Feature","properties":{"valleyId":"domachi","layer":"shadow","date":"2026-08-01","timeLocal":"18:00"},"geometry":{"type":"Polygon","coordinates":[[[127.43569,38.00341],[127.43567,38.00328],[127.43574,38.00329],[127.43574,38.00336],[127.43578,38.00336],[127.43578,38.00341],[127.43569,38.00341]]]}},{"type":"Feature","properties":{"valleyId":"domachi","layer":"shadow","date":"2026-08-01","timeLocal":"18:00"},"geometry":{"type":"Polygon","coordinates":[[[127.44089,38.00213],[127.44087,38.00207],[127.4408,38.00207],[127.4408,38.00202],[127.44085,38.002],[127.44089,38.00189],[127.44085,38.0017],[127.44094,38.00162],[127.44101,38.00163],[127.4411,38.00172],[127.44105,38.00184],[127.44105,38.0019],[127.4411,38.00193],[127.44109,38.00211],[127.44089,38.00213]]]}},{"type":"Feature","properties":{"valleyId":"domachi","layer":"shadow","date":"2026-08-01","timeLocal":"18:00"},"geometry":{"type":"Polygon","coordinates":[[[127.43635,38.00142],[127.43633,38.00133],[127.43653,38.00133],[127.43651,38.00142],[127.43635,38.00142]]]}},{"type":"Feature","properties":{"valleyId":"domachi","layer":"shadow","date":"2026-08-01","timeLocal":"18:00"},"geometry":{"type":"Polygon","coordinates":[[[127.43596,38.00156],[127.4359,38.00125],[127.4359,38.00112],[127.43601,38.00113],[127.43603,38.00116],[127.43608,38.00116],[127.43608,38.00124],[127.43603,38.00125],[127.43605,38.00138],[127.4361,38.00138],[127.43607,38.00152],[127.43603,38.00156],[127.43596,38.00156]]]}},{"type":"Feature","properties":{"valleyId":"domachi","layer":"shadow","date":"2026-08-01","timeLocal":"18:00"},"geometry":{"type":"Polygon","coordinates":[[[127.43958,38.00132],[127.43954,38.00126],[127.43945,38.00124],[127.43945,38.00115],[127.43954,38.0011],[127.43961,38.0011],[127.43961,38.00125],[127.4397,38.00125],[127.43968,38.00132],[127.43958,38.00132]]]}},{"type":"Feature","properties":{"valleyId":"domachi","layer":"shadow","date":"2026-08-01","timeLocal":"18:00"},"geometry":{"type":"Polygon","coordinates":[[[127.43627,38.00081],[127.43613,38.00075],[127.43593,38.00076],[127.43595,38.00062],[127.43609,38.00062],[127.43616,38.00057],[127.43623,38.00057],[127.4363,38.00064],[127.43648,38.00063],[127.43661,38.00065],[127.4367,38.0007],[127.4367,38.00076],[127.43638,38.00075],[127.43634,38.00077],[127.43634,38.00081],[127.43627,38.00081]]]}},{"type":"Feature","properties":{"valleyId":"domachi","layer":"shadow","date":"2026-08-01","timeLocal":"18:00"},"geometry":{"type":"Polygon","coordinates":[[[127.44277,38.00048],[127.44277,38.0004],[127.44284,38.00041],[127.44284,38.00048],[127.44277,38.00048]]]}},{"type":"Feature","properties":{"valleyId":"domachi","layer":"shadow","date":"2026-08-01","timeLocal":"18:00"},"geometry":{"type":"Polygon","coordinates":[[[127.44319,38.00007],[127.44314,38.0],[127.4431,37.99999],[127.4431,37.99994],[127.44317,37.99994],[127.44317,37.99998],[127.44328,38.00002],[127.44328,38.00007],[127.44319,38.00007]]]}},{"type":"Feature","properties":{"valleyId":"domachi","layer":"shadow","date":"2026-08-01","timeLocal":"18:00"},"geometry":{"type":"Polygon","coordinates":[[[127.44287,37.99996],[127.44287,37.9999],[127.44301,37.9999],[127.44301,37.99996],[127.44287,37.99996]]]}},{"type":"Feature","properties":{"valleyId":"domachi","layer":"shadow","date":"2026-08-01","timeLocal":"18:00"},"geometry":{"type":"Polygon","coordinates":[[[127.43991,38.00001],[127.43989,37.99997],[127.43982,37.99997],[127.43982,37.99968],[127.43989,37.99968],[127.43991,37.99975],[127.44009,37.9999],[127.44007,37.99999],[127.43991,38.00001]]]}},{"type":"Feature","properties":{"valleyId":"domachi","layer":"shadow","date":"2026-08-01","timeLocal":"18:00"},"geometry":{"type":"Polygon","coordinates":[[[127.43714,37.99968],[127.43714,37.99963],[127.43723,37.99963],[127.43723,37.99968],[127.43714,37.99968]]]}},{"type":"Feature","properties":{"valleyId":"domachi","layer":"shadow","date":"2026-08-01","timeLocal":"18:00"},"geometry":{"type":"Polygon","coordinates":[[[127.43951,37.99962],[127.43951,37.99957],[127.43967,37.99957],[127.43967,37.99962],[127.43951,37.99962]]]}},{"type":"Feature","properties":{"valleyId":"domachi","layer":"shadow","date":"2026-08-01","timeLocal":"18:00"},"geometry":{"type":"Polygon","coordinates":[[[127.43864,37.99954],[127.43864,37.99948],[127.43871,37.99949],[127.43871,37.99954],[127.43864,37.99954]]]}},{"type":"Feature","properties":{"valleyId":"domachi","layer":"shadow","date":"2026-08-01","timeLocal":"18:00"},"geometry":{"type":"Polygon","coordinates":[[[127.438,37.99955],[127.43801,37.99949],[127.43807,37.99948],[127.43808,37.99944],[127.43814,37.99944],[127.43814,37.9995],[127.4381,37.9995],[127.43807,37.99955],[127.438,37.99955]]]}},{"type":"Feature","properties":{"valleyId":"domachi","layer":"shadow","date":"2026-08-01","timeLocal":"18:00"},"geometry":{"type":"Polygon","coordinates":[[[127.44159,37.99918],[127.44154,37.99914],[127.44155,37.99907],[127.4417,37.99907],[127.4417,37.99915],[127.44166,37.99918],[127.44159,37.99918]]]}},{"type":"Feature","properties":{"valleyId":"domachi","layer":"shadow","date":"2026-08-01","timeLocal":"18:00"},"geometry":{"type":"Polygon","coordinates":[[[127.43991,37.99869],[127.43989,37.9986],[127.44003,37.99864],[127.44003,37.99869],[127.43991,37.99869]]]}},{"type":"Feature","properties":{"valleyId":"domachi","layer":"shadow","date":"2026-08-01","timeLocal":"18:00"},"geometry":{"type":"Polygon","coordinates":[[[127.44185,37.99875],[127.44173,37.99873],[127.44174,37.9987],[127.44167,37.99866],[127.44167,37.99861],[127.44192,37.99857],[127.44196,37.99868],[127.44192,37.9987],[127.44192,37.99875],[127.44185,37.99875]]]}},{"type":"Feature","properties":{"valleyId":"domachi","layer":"shadow","date":"2026-08-01","timeLocal":"18:00"},"geometry":{"type":"Polygon","coordinates":[[[127.43987,37.99858],[127.43983,37.99851],[127.43983,37.99844],[127.43996,37.99846],[127.43994,37.99858],[127.43987,37.99858]]]}},{"type":"Feature","properties":{"valleyId":"domachi","layer":"shadow","date":"2026-08-01","timeLocal":"18:00"},"geometry":{"type":"Polygon","coordinates":[[[127.43672,37.99807],[127.4367,37.99789],[127.43677,37.99786],[127.43679,37.99777],[127.43688,37.99775],[127.43693,37.99779],[127.43688,37.99797],[127.43683,37.99798],[127.43681,37.99807],[127.43672,37.99807]]]}},{"type":"Feature","properties":{"valleyId":"domachi","layer":"shadow","date":"2026-08-01","timeLocal":"18:00"},"geometry":{"type":"Polygon","coordinates":[[[127.436,37.99721],[127.43605,37.99709],[127.4361,37.99705],[127.43617,37.99705],[127.43619,37.99713],[127.4361,37.99716],[127.4361,37.99722],[127.436,37.99721]]]}},{"type":"Feature","properties":{"valleyId":"domachi","layer":"shadow","date":"2026-08-01","timeLocal":"18:00"},"geometry":{"type":"Polygon","coordinates":[[[127.4414,37.99727],[127.44141,37.99698],[127.44148,37.99698],[127.44149,37.99725],[127.4414,37.99727]]]}},{"type":"Feature","properties":{"valleyId":"domachi","layer":"shadow","date":"2026-08-01","timeLocal":"18:00"},"geometry":{"type":"Polygon","coordinates":[[[127.44027,37.99689],[127.44025,37.99686],[127.4402,37.99686],[127.4402,37.9968],[127.44045,37.99684],[127.44045,37.9969],[127.44027,37.99689]]]}},{"type":"Feature","properties":{"valleyId":"domachi","layer":"shadow","date":"2026-08-01","timeLocal":"18:00"},"geometry":{"type":"Polygon","coordinates":[[[127.43938,38.00863],[127.43937,38.00838],[127.43932,38.00836],[127.43932,38.00833],[127.43923,38.00831],[127.43923,38.00825],[127.43939,38.00827],[127.43942,38.0082],[127.43933,38.00811],[127.43924,38.00811],[127.43921,38.00816],[127.43908,38.00814],[127.43908,38.00803],[127.43901,38.008],[127.43897,38.00778],[127.43879,38.00769],[127.43882,38.00742],[127.43877,38.00738],[127.43875,38.00724],[127.43864,38.00716],[127.4385,38.00716],[127.43851,38.00678],[127.43835,38.00674],[127.43836,38.0066],[127.43831,38.00658],[127.43831,38.00649],[127.4382,38.00636],[127.4382,38.00627],[127.43811,38.00624],[127.43807,38.00618],[127.43793,38.00618],[127.43787,38.00613],[127.43787,38.00591],[127.43794,38.00587],[127.43794,38.00577],[127.4379,38.00575],[127.4379,38.00551],[127.43786,38.00548],[127.43786,38.00533],[127.43768,38.00519],[127.4377,38.00511],[127.43791,38.0051],[127.43789,38.00485],[127.43782,38.00483],[127.43776,38.00474],[127.43762,38.00472],[127.4376,38.00463],[127.43751,38.00453],[127.43751,38.00444],[127.43756,38.00437],[127.4377,38.00439],[127.43772,38.00448],[127.43767,38.00448],[127.43767,38.00457],[127.43781,38.00459],[127.43783,38.00439],[127.4379,38.00436],[127.43793,38.00425],[127.43788,38.00422],[127.43766,38.00419],[127.43761,38.00416],[127.43761,38.00409],[127.4377,38.00407],[127.43771,38.004],[127.43764,38.00389],[127.43759,38.00389],[127.43753,38.00383],[127.43732,38.00383],[127.43721,38.00367],[127.43698,38.00366],[127.43694,38.00359],[127.4368,38.00357],[127.43676,38.0035],[127.43676,38.00341],[127.43672,38.00337],[127.43665,38.00337],[127.43654,38.00331],[127.43638,38.00331],[127.43638,38.00328],[127.43633,38.00326],[127.43633,38.00317],[127.43643,38.00313],[127.43643,38.00306],[127.43627,38.003],[127.43611,38.003],[127.43602,38.00304],[127.43584,38.00302],[127.43584,38.00293],[127.43603,38.00264],[127.43616,38.00266],[127.43616,38.00288],[127.43641,38.00288],[127.43641,38.00281],[127.43634,38.00281],[127.43634,38.00268],[127.43662,38.00267],[127.43678,38.0026],[127.43683,38.00225],[127.43681,38.00202],[127.4367,38.00202],[127.43661,38.00196],[127.43634,38.00198],[127.43627,38.00192],[127.43627,38.00181],[127.43641,38.0018],[127.43645,38.00183],[127.43657,38.00184],[127.43659,38.00178],[127.43675,38.00177],[127.4368,38.00168],[127.43691,38.00161],[127.4369,38.00126],[127.43683,38.00123],[127.43683,38.00117],[127.4369,38.00114],[127.43688,38.00094],[127.43693,38.0009],[127.43693,38.00085],[127.43698,38.00083],[127.43698,38.00072],[127.43689,38.00069],[127.43689,38.00063],[127.43702,38.00065],[127.43711,38.00073],[127.43737,38.00069],[127.4375,38.00073],[127.43752,38.00077],[127.43773,38.00077],[127.43777,38.00072],[127.43794,38.00067],[127.43801,38.00059],[127.43801,38.00023],[127.43786,38.0],[127.43788,37.99989],[127.43793,37.99987],[127.43791,37.99973],[127.43805,37.99975],[127.43804,37.99982],[127.43816,37.99982],[127.43845,37.9999],[127.43907,37.99996],[127.43964,37.99997],[127.43963,38.00013],[127.43979,38.0002],[127.4399,38.0002],[127.43999,38.00024],[127.44045,38.00025],[127.44045,38.00019],[127.44036,38.00019],[127.44034,38.00016],[127.44027,38.00016],[127.44027,38.00019],[127.44018,38.00019],[127.44016,38.00003],[127.44023,38.00003],[127.44027,38.0001],[127.44041,38.0001],[127.4405,38.00003],[127.44052,37.99994],[127.44066,37.99987],[127.44066,37.99982],[127.4406,37.9998],[127.4406,37.99967],[127.44012,37.99968],[127.4401,37.99961],[127.44026,37.99954],[127.44026,37.99942],[127.44049,37.99942],[127.44058,37.99949],[127.44067,37.99949],[127.44072,37.99942],[127.44072,37.99933],[127.44083,37.99933],[127.44084,37.99924],[127.44074,37.99922],[127.44075,37.99913],[127.44066,37.99908],[127.44064,37.9989],[127.44053,37.99882],[127.44032,37.99877],[127.44032,37.99868],[127.44039,37.99866],[127.44039,37.99861],[127.44035,37.99861],[127.44035,37.99853],[127.44042,37.99848],[127.44042,37.99832],[127.44038,37.99832],[127.44038,37.99826],[127.44049,37.99821],[127.4405,37.99805],[127.44052,37.99796],[127.44059,37.99789],[127.44059,37.99778],[127.44071,37.99773],[127.44071,37.99755],[127.44064,37.99753],[127.44065,37.99746],[127.44069,37.99744],[127.4407,37.99728],[127.44056,37.99722],[127.44056,37.99713],[127.44063,37.99711],[127.44064,37.99688],[127.44059,37.99686],[127.44059,37.99675],[127.44066,37.99675],[127.44068,37.99684],[127.44093,37.99687],[127.44097,37.99699],[127.44107,37.99701],[127.44111,37.99707],[127.44122,37.9971],[127.44127,37.99718],[127.44126,37.99739],[127.44124,37.99746],[127.44119,37.99748],[127.44119,37.99759],[127.44123,37.99761],[127.4413,37.99772],[127.4413,37.9979],[127.44118,37.9979],[127.44116,37.99797],[127.44102,37.99797],[127.44098,37.998],[127.44097,37.99806],[127.44091,37.99809],[127.44092,37.99863],[127.44098,37.99874],[127.44105,37.99876],[127.44109,37.99883],[127.44119,37.99887],[127.44125,37.99901],[127.44139,37.99911],[127.44141,37.99922],[127.44152,37.99936],[127.44158,37.99936],[127.44172,37.99927],[127.44184,37.99927],[127.44185,37.99962],[127.4418,37.99973],[127.44174,37.99974],[127.44169,37.99983],[127.44157,37.99992],[127.44155,37.99999],[127.44146,37.99999],[127.44134,38.00006],[127.44134,38.00026],[127.441,38.00026],[127.44099,38.0008],[127.44071,38.00079],[127.44071,38.00086],[127.4405,38.00088],[127.4405,38.00092],[127.44005,38.00093],[127.44005,38.00102],[127.44011,38.00104],[127.44011,38.00114],[127.43993,38.00114],[127.43991,38.00111],[127.43982,38.0011],[127.43973,38.00107],[127.43955,38.00092],[127.43946,38.00092],[127.43943,38.00096],[127.43929,38.00101],[127.4392,38.00101],[127.43916,38.0009],[127.43884,38.00091],[127.43879,38.00096],[127.43877,38.00111],[127.43884,38.00113],[127.43883,38.00122],[127.43888,38.00124],[127.43888,38.00127],[127.43895,38.00129],[127.43897,38.0014],[127.43888,38.00145],[127.43891,38.00185],[127.43878,38.00185],[127.43875,38.00188],[127.4387,38.00223],[127.43851,38.0024],[127.43838,38.0024],[127.43836,38.00235],[127.43813,38.00234],[127.43813,38.00231],[127.43801,38.00232],[127.43801,38.00238],[127.43815,38.00238],[127.43819,38.00242],[127.43819,38.00247],[127.4381,38.00249],[127.4381,38.00258],[127.43815,38.00258],[127.43814,38.00265],[127.43821,38.00265],[127.43821,38.00283],[127.4383,38.00283],[127.43833,38.00262],[127.4384,38.00262],[127.43839,38.00287],[127.4383,38.00287],[127.4383,38.00292],[127.43889,38.00293],[127.43888,38.0032],[127.43923,38.00321],[127.43922,38.00358],[127.43915,38.00358],[127.43913,38.00355],[127.43904,38.00356],[127.43903,38.00369],[127.43896,38.00372],[127.43896,38.00385],[127.43889,38.0039],[127.43889,38.00394],[127.43882,38.00396],[127.43884,38.00416],[127.43893,38.00419],[127.43893,38.00446],[127.43897,38.0045],[127.43897,38.00457],[127.43908,38.00475],[127.43908,38.00481],[127.43917,38.00488],[127.43928,38.0049],[127.43932,38.00501],[127.43946,38.00505],[127.43948,38.0051],[127.43955,38.00512],[127.43959,38.00527],[127.43968,38.00537],[127.43986,38.00539],[127.43986,38.00565],[127.43995,38.00565],[127.43995,38.0057],[127.43986,38.00574],[127.43983,38.00581],[127.43976,38.00584],[127.43949,38.00582],[127.43949,38.00573],[127.43958,38.00573],[127.43958,38.00568],[127.43945,38.00571],[127.43945,38.00564],[127.43952,38.00562],[127.43952,38.00557],[127.43933,38.00559],[127.43931,38.00555],[127.43924,38.00555],[127.43922,38.00566],[127.43913,38.00567],[127.4391,38.00571],[127.43899,38.00571],[127.43894,38.00574],[127.43894,38.0061],[127.43889,38.00614],[127.43889,38.00627],[127.43893,38.00643],[127.43897,38.00645],[127.43899,38.00665],[127.43906,38.00666],[127.43915,38.00683],[127.43933,38.00697],[127.43935,38.0071],[127.43942,38.00712],[127.43942,38.00716],[127.43955,38.00725],[127.43955,38.0073],[127.43962,38.00736],[127.43966,38.00736],[127.43972,38.00775],[127.43979,38.00779],[127.43981,38.00786],[127.4399,38.00788],[127.43985,38.00799],[127.43996,38.00814],[127.43996,38.00819],[127.44003,38.00823],[127.4401,38.00834],[127.44009,38.00841],[127.44005,38.00841],[127.43996,38.00848],[127.43964,38.0086],[127.43938,38.00863]],[[127.43885,38.00695],[127.43894,38.00693],[127.43894,38.00684],[127.43883,38.00677],[127.43881,38.00664],[127.43867,38.00664],[127.43865,38.00675],[127.43885,38.00695]],[[127.43865,38.00653],[127.43874,38.00653],[127.43872,38.00641],[127.43863,38.00642],[127.43865,38.00653]],[[127.43872,38.00572],[127.43881,38.00571],[127.43881,38.00562],[127.43872,38.00561],[127.43872,38.00572]],[[127.43967,38.0057],[127.43974,38.0057],[127.43974,38.00565],[127.43967,38.00564],[127.43967,38.0057]],[[127.43824,38.00566],[127.43833,38.00566],[127.43831,38.00557],[127.43824,38.00557],[127.43824,38.00566]],[[127.43879,38.00552],[127.43886,38.00553],[127.43886,38.00547],[127.43879,38.00547],[127.43879,38.00552]],[[127.43932,38.00541],[127.43938,38.00541],[127.43939,38.00535],[127.43932,38.00535],[127.43932,38.00541]],[[127.43923,38.00533],[127.43932,38.00533],[127.4393,38.00523],[127.43921,38.00522],[127.43923,38.00533]],[[127.43787,38.00357],[127.43794,38.00357],[127.43794,38.00351],[127.43788,38.00351],[127.43787,38.00357]],[[127.43756,38.00336],[127.43765,38.00335],[127.43763,38.00326],[127.43754,38.00327],[127.43756,38.00336]],[[127.43809,38.00321],[127.43815,38.00321],[127.43825,38.00314],[127.43825,38.00308],[127.43802,38.00312],[127.43802,38.00317],[127.43809,38.00321]],[[127.437,38.00285],[127.43714,38.00285],[127.43716,38.0028],[127.43725,38.00276],[127.4373,38.00266],[127.43744,38.00259],[127.43742,38.00242],[127.43747,38.00239],[127.43747,38.00234],[127.43715,38.00238],[127.43714,38.00257],[127.43707,38.0026],[127.43705,38.00269],[127.43694,38.00271],[127.43693,38.0028],[127.437,38.00285]],[[127.43787,38.00265],[127.43808,38.00265],[127.43808,38.00258],[127.43803,38.00258],[127.43799,38.00252],[127.43792,38.00252],[127.43792,38.00256],[127.43787,38.00256],[127.43787,38.00265]],[[127.43747,38.00232],[127.43756,38.00232],[127.43761,38.00228],[127.43761,38.00216],[127.43749,38.00214],[127.43745,38.00217],[127.43747,38.00232]],[[127.43768,38.00212],[127.43781,38.00211],[127.43782,38.00203],[127.43766,38.00201],[127.43763,38.0021],[127.43768,38.00212]],[[127.43793,38.00207],[127.43802,38.00207],[127.438,38.00196],[127.43791,38.00198],[127.43793,38.00207]],[[127.44042,38.0007],[127.44055,38.00068],[127.44056,38.00063],[127.44044,38.00063],[127.44042,38.0007]]]}},{"type":"Feature","properties":{"valleyId":"domachi","layer":"shadow","date":"2026-08-01","timeLocal":"18:00"},"geometry":{"type":"Polygon","coordinates":[[[127.43724,37.99689],[127.43724,37.99682],[127.4372,37.99678],[127.43688,37.99679],[127.43686,37.99672],[127.43693,37.99669],[127.4372,37.99665],[127.43731,37.99666],[127.4374,37.99669],[127.4374,37.99678],[127.43731,37.99682],[127.43731,37.99689],[127.43724,37.99689]]]}},{"type":"Feature","properties":{"valleyId":"domachi","layer":"shadow","date":"2026-08-01","timeLocal":"18:00"},"geometry":{"type":"Polygon","coordinates":[[[127.44043,37.99675],[127.44043,37.9967],[127.44053,37.9967],[127.44052,37.99675],[127.44043,37.99675]]]}},{"type":"Feature","properties":{"valleyId":"domachi","layer":"shadow","date":"2026-08-01","timeLocal":"18:00"},"geometry":{"type":"Polygon","coordinates":[[[127.43998,37.99684],[127.43998,37.99662],[127.44019,37.99662],[127.44023,37.99673],[127.44009,37.99671],[127.44007,37.99684],[127.43998,37.99684]]]}},{"type":"Feature","properties":{"valleyId":"domachi","layer":"shadow","date":"2026-08-01","timeLocal":"18:00"},"geometry":{"type":"Polygon","coordinates":[[[127.44141,37.99666],[127.44142,37.99658],[127.44148,37.99658],[127.44148,37.99666],[127.44141,37.99666]]]}},{"type":"Feature","properties":{"valleyId":"domachi","layer":"shadow","date":"2026-08-01","timeLocal":"18:00"},"geometry":{"type":"Polygon","coordinates":[[[127.43588,37.99644],[127.43598,37.99619],[127.43619,37.99617],[127.43618,37.99623],[127.43614,37.99623],[127.43614,37.99626],[127.43598,37.99633],[127.43598,37.99642],[127.43588,37.99644]]]}},{"type":"Feature","properties":{"valleyId":"domachi","layer":"shadow","date":"2026-08-01","timeLocal":"18:00"},"geometry":{"type":"Polygon","coordinates":[[[127.4365,37.99619],[127.43644,37.99616],[127.43644,37.9961],[127.43657,37.9961],[127.43657,37.9962],[127.4365,37.99619]]]}},{"type":"Feature","properties":{"valleyId":"domachi","layer":"shadow","date":"2026-08-01","timeLocal":"18:00"},"geometry":{"type":"Polygon","coordinates":[[[127.43923,37.99632],[127.43924,37.99625],[127.43933,37.99621],[127.43942,37.99611],[127.43949,37.99611],[127.43949,37.9962],[127.43935,37.99625],[127.43935,37.99632],[127.43923,37.99632]]]}},{"type":"Feature","properties":{"valleyId":"domachi","layer":"shadow","date":"2026-08-01","timeLocal":"18:00"},"geometry":{"type":"Polygon","coordinates":[[[127.43954,37.99611],[127.43954,37.99605],[127.43963,37.99604],[127.43963,37.99611],[127.43954,37.99611]]]}},{"type":"Feature","properties":{"valleyId":"domachi","layer":"shadow","date":"2026-08-01","timeLocal":"18:00"},"geometry":{"type":"Polygon","coordinates":[[[127.43961,37.99602],[127.43961,37.99596],[127.43968,37.99591],[127.43972,37.99591],[127.43975,37.99586],[127.43984,37.99586],[127.43984,37.99591],[127.43974,37.99593],[127.43974,37.99598],[127.4397,37.99602],[127.43961,37.99602]]]}},{"type":"Feature","properties":{"valleyId":"domachi","layer":"shadow","date":"2026-08-01","timeLocal":"18:00"},"geometry":{"type":"Polygon","coordinates":[[[127.43804,37.99584],[127.43806,37.99576],[127.43811,37.99576],[127.43818,37.99569],[127.43825,37.99569],[127.43824,37.9958],[127.4382,37.9958],[127.43817,37.99584],[127.43804,37.99584]]]}},{"type":"Feature","properties":{"valleyId":"domachi","layer":"shadow","date":"2026-08-01","timeLocal":"18:00"},"geometry":{"type":"Polygon","coordinates":[[[127.43647,37.99571],[127.43647,37.99565],[127.43658,37.99564],[127.43658,37.99569],[127.43647,37.99571]]]}},{"type":"Feature","properties":{"valleyId":"domachi","layer":"shadow","date":"2026-08-01","timeLocal":"18:00"},"geometry":{"type":"Polygon","coordinates":[[[127.43825,37.99569],[127.43827,37.99557],[127.43834,37.99557],[127.43834,37.99568],[127.43825,37.99569]]]}},{"type":"Feature","properties":{"valleyId":"domachi","layer":"shadow","date":"2026-08-01","timeLocal":"18:00"},"geometry":{"type":"Polygon","coordinates":[[[127.43818,37.99553],[127.43818,37.99548],[127.43825,37.99548],[127.43825,37.99553],[127.43818,37.99553]]]}},{"type":"Feature","properties":{"valleyId":"domachi","layer":"shadow","date":"2026-08-01","timeLocal":"18:00"},"geometry":{"type":"Polygon","coordinates":[[[127.44167,37.99527],[127.44167,37.9952],[127.44174,37.9952],[127.44176,37.99527],[127.44167,37.99527]]]}},{"type":"Feature","properties":{"valleyId":"domachi","layer":"shadow","date":"2026-08-01","timeLocal":"18:00"},"geometry":{"type":"Polygon","coordinates":[[[127.4414,37.99527],[127.4414,37.99516],[127.44151,37.99518],[127.44151,37.99523],[127.44147,37.99527],[127.4414,37.99527]]]}},{"type":"Feature","properties":{"valleyId":"domachi","layer":"shadow","date":"2026-08-01","timeLocal":"18:00"},"geometry":{"type":"Polygon","coordinates":[[[127.43844,37.99746],[127.43839,37.99743],[127.43812,37.99744],[127.438,37.99742],[127.43801,37.99739],[127.43787,37.9974],[127.4378,37.99733],[127.43773,37.99733],[127.43771,37.99736],[127.4376,37.99736],[127.4376,37.99729],[127.43742,37.99727],[127.43742,37.99713],[127.43737,37.99711],[127.4374,37.997],[127.43744,37.99696],[127.43776,37.99695],[127.43776,37.9969],[127.4377,37.99686],[127.4377,37.99682],[127.43761,37.9968],[127.43759,37.99673],[127.43747,37.99668],[127.43745,37.9966],[127.43729,37.99655],[127.4373,37.99649],[127.43718,37.99637],[127.43719,37.99629],[127.43725,37.99629],[127.43726,37.99622],[127.4371,37.99622],[127.4371,37.99617],[127.43719,37.99617],[127.43719,37.99606],[127.43715,37.996],[127.43708,37.99575],[127.43699,37.99573],[127.43699,37.9957],[127.43693,37.99566],[127.43693,37.9956],[127.43697,37.99561],[127.437,37.99555],[127.4372,37.99559],[127.43745,37.99543],[127.43743,37.99532],[127.43725,37.99534],[127.43725,37.99528],[127.43732,37.99529],[127.43737,37.9952],[127.43787,37.99513],[127.43799,37.99504],[127.43831,37.9949],[127.43838,37.9949],[127.43837,37.99523],[127.43821,37.99526],[127.43818,37.99535],[127.43798,37.99551],[127.43793,37.99567],[127.43786,37.99569],[127.43786,37.99573],[127.43781,37.99574],[127.43772,37.99596],[127.43771,37.99625],[127.43784,37.99648],[127.43798,37.99657],[127.43814,37.99659],[127.43825,37.99667],[127.43836,37.99667],[127.43848,37.99662],[127.43868,37.99662],[127.43868,37.99671],[127.43902,37.99671],[127.43899,37.99693],[127.43879,37.99691],[127.4387,37.99698],[127.43849,37.997],[127.43842,37.99705],[127.43833,37.99705],[127.43828,37.99708],[127.43822,37.99708],[127.43817,37.99701],[127.43806,37.99701],[127.43797,37.99704],[127.43797,37.9971],[127.4381,37.9971],[127.4381,37.99715],[127.43821,37.99724],[127.4383,37.99725],[127.43837,37.9973],[127.43851,37.9973],[127.43865,37.99723],[127.43874,37.99725],[127.43873,37.99736],[127.43862,37.99736],[127.4386,37.99747],[127.43844,37.99746]],[[127.43806,37.99695],[127.43822,37.99696],[127.43822,37.99688],[127.43804,37.99685],[127.43804,37.99674],[127.43791,37.99674],[127.4379,37.99679],[127.43802,37.99681],[127.43802,37.9969],[127.43806,37.99695]]]}}]}
