{"type":"FeatureCollection","metadata":{"description":"개방지(CHM ≤ 2 m)에 드리운 나무·지형 그림자, 2026-08-01 18:00 KST. canopy 위에 겹쳐 그린다","source":"위성 기반 추정 — Copernicus GLO-30 지형(30 m) + Meta/WRI 수관 높이(1 m CHM, 2015~2016 촬영). 그늘 = 수관(CHM > 2 m) ∪ 나무·지형 그림자 ∪ 원거리 지형 마스크. 현장과 다를 수 있음.","datasetVersion":"2026-09-06.0","collectedAt":"2026-09-06","coordinateOrder":"[longitude, latitude]","crs":"EPSG:4326","representativeDate":"2026-08-01","hours":["10:00","11:00","12:00","13:00","14:00","15:00","16:00","17:00","18:00"],"chmAcquisition":["2015-07","2016-06"],"assets":{"glo30":{"dataset":"Copernicus DEM GLO-30 (COG, s3://copernicus-dem-30m)","tiles":["Copernicus_DSM_COG_10_N37_00_E127_00_DEM"]},"chm":{"dataset":"Meta/WRI Global Canopy Height Map v1 (alsgedi_global_v6_float, 1 m, CC-BY 4.0)","quadkeys":["132110303"],"acquisition":["2015-07","2016-06"]}},"method":{"gridResM":2,"canopyThresholdM":2,"bufferHalfM":25,"corridorHalfM":200,"simplifyTolM":2,"minAreaM2":25,"coordDecimals":5},"generator":"scripts/shade 0.1.0","builtAt":"2026-09-06T05:59:39Z","layer":"shadow","timeLocal":"18:00"},"features":[{"type":"Feature","properties":{"valleyId":"gyeongban","layer":"shadow","date":"2026-08-01","timeLocal":"18:00"},"geometry":{"type":"Polygon","coordinates":[[[127.45561,37.84311],[127.45563,37.8429],[127.45568,37.84283],[127.45575,37.84283],[127.45572,37.84308],[127.45568,37.84311],[127.45561,37.84311]]]}},{"type":"Feature","properties":{"valleyId":"gyeongban","layer":"shadow","date":"2026-08-01","timeLocal":"18:00"},"geometry":{"type":"Polygon","coordinates":[[[127.45575,37.84279],[127.45578,37.84261],[127.45585,37.84261],[127.45587,37.84274],[127.45582,37.84279],[127.45575,37.84279]]]}},{"type":"Feature","properties":{"valleyId":"gyeongban","layer":"shadow","date":"2026-08-01","timeLocal":"18:00"},"geometry":{"type":"Polygon","coordinates":[[[127.45594,37.84259],[127.45594,37.84252],[127.45601,37.84252],[127.456,37.8426],[127.45594,37.84259]]]}},{"type":"Feature","properties":{"valleyId":"gyeongban","layer":"shadow","date":"2026-08-01","timeLocal":"18:00"},"geometry":{"type":"Polygon","coordinates":[[[127.45716,37.84257],[127.45717,37.84252],[127.45723,37.84252],[127.45723,37.84258],[127.45716,37.84257]]]}},{"type":"Feature","properties":{"valleyId":"gyeongban","layer":"shadow","date":"2026-08-01","timeLocal":"18:00"},"geometry":{"type":"Polygon","coordinates":[[[127.45596,37.84241],[127.45597,37.84229],[127.45606,37.84227],[127.45605,37.84238],[127.45603,37.84242],[127.45596,37.84241]]]}},{"type":"Feature","properties":{"valleyId":"gyeongban","layer":"shadow","date":"2026-08-01","timeLocal":"18:00"},"geometry":{"type":"Polygon","coordinates":[[[127.45311,37.84304],[127.45314,37.84285],[127.45318,37.84277],[127.45323,37.84278],[127.45325,37.84269],[127.4533,37.84267],[127.45333,37.84243],[127.45339,37.8424],[127.45342,37.84233],[127.45358,37.84224],[127.45361,37.84206],[127.45367,37.84206],[127.45372,37.84211],[127.45379,37.84213],[127.4539,37.84214],[127.45395,37.84217],[127.45394,37.84232],[127.45387,37.84233],[127.45387,37.84251],[127.45373,37.84253],[127.45364,37.84264],[127.45364,37.84269],[127.45359,37.84269],[127.45359,37.84273],[127.45352,37.84274],[127.45352,37.8428],[127.45341,37.8428],[127.45331,37.84297],[127.4532,37.84305],[127.45311,37.84304]]]}},{"type":"Feature","properties":{"valleyId":"gyeongban","layer":"shadow","date":"2026-08-01","timeLocal":"18:00"},"geometry":{"type":"Polygon","coordinates":[[[127.45606,37.84224],[127.45606,37.84207],[127.45611,37.84204],[127.45618,37.84204],[127.45617,37.84218],[127.45613,37.84224],[127.45606,37.84224]]]}},{"type":"Feature","properties":{"valleyId":"gyeongban","layer":"shadow","date":"2026-08-01","timeLocal":"18:00"},"geometry":{"type":"Polygon","coordinates":[[[127.45411,37.84189],[127.45409,37.84181],[127.45414,37.84178],[127.45427,37.84178],[127.45422,37.84189],[127.45411,37.84189]]]}},{"type":"Feature","properties":{"valleyId":"gyeongban","layer":"shadow","date":"2026-08-01","timeLocal":"18:00"},"geometry":{"type":"Polygon","coordinates":[[[127.4562,37.84195],[127.45613,37.84184],[127.45614,37.84177],[127.4562,37.84177],[127.45627,37.84188],[127.45627,37.84195],[127.4562,37.84195]]]}},{"type":"Feature","properties":{"valleyId":"gyeongban","layer":"shadow","date":"2026-08-01","timeLocal":"18:00"},"geometry":{"type":"Polygon","coordinates":[[[127.45659,37.8419],[127.45657,37.84177],[127.45664,37.84177],[127.45668,37.84179],[127.45668,37.84185],[127.45672,37.84185],[127.45672,37.8419],[127.45659,37.8419]]]}},{"type":"Feature","properties":{"valleyId":"gyeongban","layer":"shadow","date":"2026-08-01","timeLocal":"18:00"},"geometry":{"type":"Polygon","coordinates":[[[127.45731,37.84193],[127.45732,37.84178],[127.45741,37.84177],[127.45743,37.84191],[127.45731,37.84193]]]}},{"type":"Feature","properties":{"valleyId":"gyeongban","layer":"shadow","date":"2026-08-01","timeLocal":"18:00"},"geometry":{"type":"Polygon","coordinates":[[[127.45479,37.84179],[127.4548,37.84168],[127.45491,37.84166],[127.45491,37.84175],[127.45486,37.84179],[127.45479,37.84179]]]}},{"type":"Feature","properties":{"valleyId":"gyeongban","layer":"shadow","date":"2026-08-01","timeLocal":"18:00"},"geometry":{"type":"Polygon","coordinates":[[[127.45595,37.84177],[127.45591,37.84173],[127.45591,37.8416],[127.45605,37.84159],[127.45602,37.84177],[127.45595,37.84177]]]}},{"type":"Feature","properties":{"valleyId":"gyeongban","layer":"shadow","date":"2026-08-01","timeLocal":"18:00"},"geometry":{"type":"Polygon","coordinates":[[[127.45607,37.84157],[127.4561,37.84144],[127.45621,37.84144],[127.45616,37.84157],[127.45607,37.84157]]]}},{"type":"Feature","properties":{"valleyId":"gyeongban","layer":"shadow","date":"2026-08-01","timeLocal":"18:00"},"geometry":{"type":"Polygon","coordinates":[[[127.45626,37.84139],[127.45628,37.84125],[127.45633,37.84121],[127.4564,37.84121],[127.45637,37.84136],[127.45633,37.84136],[127.45633,37.84139],[127.45626,37.84139]]]}},{"type":"Feature","properties":{"valleyId":"gyeongban","layer":"shadow","date":"2026-08-01","timeLocal":"18:00"},"geometry":{"type":"Polygon","coordinates":[[[127.45756,37.84123],[127.45756,37.84117],[127.45765,37.84116],[127.45765,37.84121],[127.45756,37.84123]]]}},{"type":"Feature","properties":{"valleyId":"gyeongban","layer":"shadow","date":"2026-08-01","timeLocal":"18:00"},"geometry":{"type":"Polygon","coordinates":[[[127.45441,37.84156],[127.45441,37.84147],[127.45448,37.8414],[127.45458,37.84137],[127.45462,37.84128],[127.45481,37.84126],[127.45499,37.84112],[127.45524,37.84109],[127.45533,37.84109],[127.45538,37.84113],[127.45538,37.84118],[127.45524,37.8412],[127.45524,37.84123],[127.45519,37.84125],[127.45503,37.84127],[127.45501,37.84123],[127.45494,37.84123],[127.45485,37.8413],[127.45485,37.84134],[127.45478,37.84135],[127.4546,37.84151],[127.45455,37.84151],[127.4545,37.84157],[127.45441,37.84156]]]}},{"type":"Feature","properties":{"valleyId":"gyeongban","layer":"shadow","date":"2026-08-01","timeLocal":"18:00"},"geometry":{"type":"Polygon","coordinates":[[[127.4564,37.84118],[127.4564,37.84109],[127.45656,37.84109],[127.45656,37.84114],[127.45651,37.84114],[127.45649,37.84118],[127.4564,37.84118]]]}},{"type":"Feature","properties":{"valleyId":"gyeongban","layer":"shadow","date":"2026-08-01","timeLocal":"18:00"},"geometry":{"type":"Polygon","coordinates":[[[127.45324,37.84115],[127.45322,37.84103],[127.45331,37.84103],[127.45331,37.84115],[127.45324,37.84115]]]}},{"type":"Feature","properties":{"valleyId":"gyeongban","layer":"shadow","date":"2026-08-01","timeLocal":"18:00"},"geometry":{"type":"Polygon","coordinates":[[[127.45577,37.84097],[127.45577,37.8409],[127.45588,37.84081],[127.45597,37.84081],[127.45595,37.84092],[127.45588,37.84097],[127.45577,37.84097]]]}},{"type":"Feature","properties":{"valleyId":"gyeongban","layer":"shadow","date":"2026-08-01","timeLocal":"18:00"},"geometry":{"type":"Polygon","coordinates":[[[127.45661,37.84098],[127.45661,37.84082],[127.4567,37.84082],[127.45667,37.84098],[127.45661,37.84098]]]}},{"type":"Feature","properties":{"valleyId":"gyeongban","layer":"shadow","date":"2026-08-01","timeLocal":"18:00"},"geometry":{"type":"Polygon","coordinates":[[[127.45688,37.84077],[127.45691,37.84059],[127.45705,37.84061],[127.45704,37.8407],[127.45695,37.84077],[127.45688,37.84077]]]}},{"type":"Feature","properties":{"valleyId":"gyeongban","layer":"shadow","date":"2026-08-01","timeLocal":"18:00"},"geometry":{"type":"Polygon","coordinates":[[[127.45634,37.84058],[127.45634,37.84049],[127.45648,37.84044],[127.45651,37.8404],[127.45657,37.8404],[127.45657,37.84046],[127.45648,37.84049],[127.45646,37.84056],[127.45634,37.84058]]]}},{"type":"Feature","properties":{"valleyId":"gyeongban","layer":"shadow","date":"2026-08-01","timeLocal":"18:00"},"geometry":{"type":"Polygon","coordinates":[[[127.45707,37.84055],[127.4571,37.84041],[127.45717,37.84034],[127.45717,37.84021],[127.45726,37.84021],[127.45726,37.84016],[127.45731,37.84016],[127.45733,37.84009],[127.45733,37.83996],[127.45742,37.83995],[127.45744,37.84011],[127.4574,37.84016],[127.45733,37.84016],[127.45733,37.84023],[127.45728,37.84023],[127.45725,37.84047],[127.45723,37.8405],[127.45718,37.8405],[127.45718,37.84054],[127.45707,37.84055]]]}},{"type":"Feature","properties":{"valleyId":"gyeongban","layer":"shadow","date":"2026-08-01","timeLocal":"18:00"},"geometry":{"type":"Polygon","coordinates":[[[127.45716,37.83973],[127.45716,37.83965],[127.45723,37.83966],[127.45722,37.83973],[127.45716,37.83973]]]}},{"type":"Feature","properties":{"valleyId":"gyeongban","layer":"shadow","date":"2026-08-01","timeLocal":"18:00"},"geometry":{"type":"Polygon","coordinates":[[[127.45824,37.8399],[127.45825,37.83974],[127.45832,37.83969],[127.45832,37.8396],[127.45836,37.83956],[127.45843,37.83956],[127.45843,37.83965],[127.45838,37.83969],[127.45838,37.83983],[127.45831,37.8399],[127.45824,37.8399]]]}},{"type":"Feature","properties":{"valleyId":"gyeongban","layer":"shadow","date":"2026-08-01","timeLocal":"18:00"},"geometry":{"type":"Polygon","coordinates":[[[127.45754,37.83961],[127.45755,37.83957],[127.4575,37.83955],[127.4575,37.83942],[127.45764,37.83943],[127.45766,37.83957],[127.45761,37.83961],[127.45754,37.83961]]]}},{"type":"Feature","properties":{"valleyId":"gyeongban","layer":"shadow","date":"2026-08-01","timeLocal":"18:00"},"geometry":{"type":"Polygon","coordinates":[[[127.45987,37.83924],[127.45983,37.8392],[127.45983,37.83915],[127.45994,37.83917],[127.45994,37.83924],[127.45987,37.83924]]]}},{"type":"Feature","properties":{"valleyId":"gyeongban","layer":"shadow","date":"2026-08-01","timeLocal":"18:00"},"geometry":{"type":"Polygon","coordinates":[[[127.45778,37.83918],[127.45776,37.8391],[127.45781,37.83907],[127.45797,37.83902],[127.45806,37.83902],[127.45806,37.83907],[127.45794,37.83911],[127.45792,37.83918],[127.45778,37.83918]]]}},{"type":"Feature","properties":{"valleyId":"gyeongban","layer":"shadow","date":"2026-08-01","timeLocal":"18:00"},"geometry":{"type":"Polygon","coordinates":[[[127.45763,37.83885],[127.45761,37.83878],[127.45765,37.83874],[127.45779,37.83874],[127.45779,37.8388],[127.45774,37.83883],[127.45763,37.83885]]]}},{"type":"Feature","properties":{"valleyId":"gyeongban","layer":"shadow","date":"2026-08-01","timeLocal":"18:00"},"geometry":{"type":"Polygon","coordinates":[[[127.45963,37.83898],[127.45963,37.83891],[127.45976,37.83886],[127.45979,37.83875],[127.46002,37.83875],[127.46002,37.83881],[127.4599,37.83884],[127.4599,37.83893],[127.45976,37.83895],[127.45976,37.83899],[127.45963,37.83898]]]}},{"type":"Feature","properties":{"valleyId":"gyeongban","layer":"shadow","date":"2026-08-01","timeLocal":"18:00"},"geometry":{"type":"Polygon","coordinates":[[[127.46004,37.83872],[127.46004,37.83861],[127.46016,37.83861],[127.46015,37.83868],[127.46011,37.83872],[127.46004,37.83872]]]}},{"type":"Feature","properties":{"valleyId":"gyeongban","layer":"shadow","date":"2026-08-01","timeLocal":"18:00"},"geometry":{"type":"Polygon","coordinates":[[[127.46022,37.83858],[127.46025,37.83851],[127.46034,37.83851],[127.46034,37.83858],[127.46022,37.83858]]]}},{"type":"Feature","properties":{"valleyId":"gyeongban","layer":"shadow","date":"2026-08-01","timeLocal":"18:00"},"geometry":{"type":"Polygon","coordinates":[[[127.46163,37.83854],[127.46152,37.83849],[127.46152,37.83843],[127.46164,37.83843],[127.4617,37.83849],[127.4617,37.83854],[127.46163,37.83854]]]}},{"type":"Feature","properties":{"valleyId":"gyeongban","layer":"shadow","date":"2026-08-01","timeLocal":"18:00"},"geometry":{"type":"Polygon","coordinates":[[[127.46132,37.83841],[127.46132,37.83836],[127.46139,37.83836],[127.46139,37.83841],[127.46132,37.83841]]]}},{"type":"Feature","properties":{"valleyId":"gyeongban","layer":"shadow","date":"2026-08-01","timeLocal":"18:00"},"geometry":{"type":"Polygon","coordinates":[[[127.46086,37.83841],[127.46087,37.83833],[127.46094,37.83828],[127.46107,37.8383],[127.46107,37.83837],[127.46086,37.83841]]]}},{"type":"Feature","properties":{"valleyId":"gyeongban","layer":"shadow","date":"2026-08-01","timeLocal":"18:00"},"geometry":{"type":"Polygon","coordinates":[[[127.46582,37.83843],[127.46584,37.83829],[127.46591,37.83829],[127.46596,37.83833],[127.46596,37.83842],[127.46582,37.83843]]]}},{"type":"Feature","properties":{"valleyId":"gyeongban","layer":"shadow","date":"2026-08-01","timeLocal":"18:00"},"geometry":{"type":"Polygon","coordinates":[[[127.46114,37.83828],[127.46114,37.83823],[127.46121,37.83823],[127.46121,37.83828],[127.46114,37.83828]]]}},{"type":"Feature","properties":{"valleyId":"gyeongban","layer":"shadow","date":"2026-08-01","timeLocal":"18:00"},"geometry":{"type":"Polygon","coordinates":[[[127.45993,37.83846],[127.45989,37.83845],[127.4598,37.83826],[127.45973,37.83823],[127.45974,37.83808],[127.4598,37.83808],[127.4598,37.83817],[127.45998,37.83821],[127.46,37.83847],[127.45993,37.83846]]]}},{"type":"Feature","properties":{"valleyId":"gyeongban","layer":"shadow","date":"2026-08-01","timeLocal":"18:00"},"geometry":{"type":"Polygon","coordinates":[[[127.46035,37.83804],[127.46035,37.83798],[127.46049,37.83799],[127.46049,37.83804],[127.46035,37.83804]]]}},{"type":"Feature","properties":{"valleyId":"gyeongban","layer":"shadow","date":"2026-08-01","timeLocal":"18:00"},"geometry":{"type":"Polygon","coordinates":[[[127.46083,37.83806],[127.46083,37.83799],[127.46094,37.83797],[127.46094,37.83805],[127.46083,37.83806]]]}},{"type":"Feature","properties":{"valleyId":"gyeongban","layer":"shadow","date":"2026-08-01","timeLocal":"18:00"},"geometry":{"type":"Polygon","coordinates":[[[127.46228,37.83806],[127.46235,37.8379],[127.46249,37.83785],[127.46251,37.83778],[127.46261,37.83778],[127.4626,37.83787],[127.46251,37.83787],[127.46251,37.8379],[127.46244,37.83794],[127.46244,37.83803],[127.46237,37.83803],[127.46237,37.83806],[127.46228,37.83806]]]}},{"type":"Feature","properties":{"valleyId":"gyeongban","layer":"shadow","date":"2026-08-01","timeLocal":"18:00"},"geometry":{"type":"Polygon","coordinates":[[[127.46281,37.83784],[127.46281,37.83778],[127.4629,37.83776],[127.4629,37.83784],[127.46281,37.83784]]]}},{"type":"Feature","properties":{"valleyId":"gyeongban","layer":"shadow","date":"2026-08-01","timeLocal":"18:00"},"geometry":{"type":"Polygon","coordinates":[[[127.46031,37.83773],[127.46031,37.83768],[127.46038,37.83768],[127.46038,37.83773],[127.46031,37.83773]]]}},{"type":"Feature","properties":{"valleyId":"gyeongban","layer":"shadow","date":"2026-08-01","timeLocal":"18:00"},"geometry":{"type":"Polygon","coordinates":[[[127.46101,37.83779],[127.46099,37.83765],[127.46106,37.83765],[127.46108,37.8378],[127.46101,37.83779]]]}},{"type":"Feature","properties":{"valleyId":"gyeongban","layer":"shadow","date":"2026-08-01","timeLocal":"18:00"},"geometry":{"type":"Polygon","coordinates":[[[127.46706,37.83773],[127.46706,37.83767],[127.46718,37.83768],[127.46717,37.83773],[127.46706,37.83773]]]}},{"type":"Feature","properties":{"valleyId":"gyeongban","layer":"shadow","date":"2026-08-01","timeLocal":"18:00"},"geometry":{"type":"Polygon","coordinates":[[[127.4652,37.83752],[127.4652,37.83742],[127.46525,37.83738],[127.46532,37.83738],[127.46534,37.83749],[127.46529,37.83749],[127.46529,37.83753],[127.4652,37.83752]]]}},{"type":"Feature","properties":{"valleyId":"gyeongban","layer":"shadow","date":"2026-08-01","timeLocal":"18:00"},"geometry":{"type":"Polygon","coordinates":[[[127.46627,37.83752],[127.46613,37.83746],[127.46614,37.83739],[127.4662,37.83739],[127.46625,37.83745],[127.46634,37.83747],[127.46634,37.83752],[127.46627,37.83752]]]}},{"type":"Feature","properties":{"valleyId":"gyeongban","layer":"shadow","date":"2026-08-01","timeLocal":"18:00"},"geometry":{"type":"Polygon","coordinates":[[[127.46124,37.83765],[127.46125,37.8376],[127.46134,37.8376],[127.46136,37.83747],[127.46123,37.83744],[127.46123,37.83736],[127.46136,37.83737],[127.46136,37.83742],[127.46145,37.83742],[127.46146,37.83731],[127.46152,37.83731],[127.46154,37.8374],[127.46152,37.83744],[127.46145,37.83744],[127.4614,37.83762],[127.46136,37.83762],[127.46136,37.83765],[127.46124,37.83765]]]}},{"type":"Feature","properties":{"valleyId":"gyeongban","layer":"shadow","date":"2026-08-01","timeLocal":"18:00"},"geometry":{"type":"Polygon","coordinates":[[[127.465,37.83747],[127.46498,37.83736],[127.46502,37.83736],[127.46502,37.83732],[127.46509,37.83732],[127.46509,37.83736],[127.46514,37.83736],[127.46514,37.83743],[127.46509,37.83743],[127.46509,37.83747],[127.465,37.83747]]]}},{"type":"Feature","properties":{"valleyId":"gyeongban","layer":"shadow","date":"2026-08-01","timeLocal":"18:00"},"geometry":{"type":"Polygon","coordinates":[[[127.46345,37.83741],[127.46346,37.83729],[127.46352,37.83729],[127.46355,37.83739],[127.46345,37.83741]]]}},{"type":"Feature","properties":{"valleyId":"gyeongban","layer":"shadow","date":"2026-08-01","timeLocal":"18:00"},"geometry":{"type":"Polygon","coordinates":[[[127.46292,37.83775],[127.46293,37.83769],[127.46302,37.8376],[127.46307,37.83739],[127.46314,37.83732],[127.46314,37.83726],[127.46325,37.83725],[127.46322,37.8377],[127.46309,37.83766],[127.46304,37.83768],[127.46304,37.83775],[127.46292,37.83775]]]}},{"type":"Feature","properties":{"valleyId":"gyeongban","layer":"shadow","date":"2026-08-01","timeLocal":"18:00"},"geometry":{"type":"Polygon","coordinates":[[[127.46582,37.83739],[127.46582,37.83735],[127.46575,37.83735],[127.46571,37.83731],[127.46571,37.83726],[127.46578,37.83726],[127.46582,37.83733],[127.46589,37.83734],[127.46589,37.83739],[127.46582,37.83739]]]}},{"type":"Feature","properties":{"valleyId":"gyeongban","layer":"shadow","date":"2026-08-01","timeLocal":"18:00"},"geometry":{"type":"Polygon","coordinates":[[[127.46144,37.8372],[127.4613,37.83719],[127.4613,37.83713],[127.4615,37.83715],[127.4615,37.83721],[127.46144,37.8372]]]}},{"type":"Feature","properties":{"valleyId":"gyeongban","layer":"shadow","date":"2026-08-01","timeLocal":"18:00"},"geometry":{"type":"Polygon","coordinates":[[[127.46527,37.83736],[127.46525,37.83718],[127.46535,37.83717],[127.46546,37.83724],[127.46546,37.83731],[127.46534,37.83731],[127.46534,37.83736],[127.46527,37.83736]]]}},{"type":"Feature","properties":{"valleyId":"gyeongban","layer":"shadow","date":"2026-08-01","timeLocal":"18:00"},"geometry":{"type":"Polygon","coordinates":[[[127.46341,37.83718],[127.46342,37.83709],[127.46362,37.83709],[127.46362,37.83714],[127.46348,37.83714],[127.46348,37.83718],[127.46341,37.83718]]]}},{"type":"Feature","properties":{"valleyId":"gyeongban","layer":"shadow","date":"2026-08-01","timeLocal":"18:00"},"geometry":{"type":"Polygon","coordinates":[[[127.45812,37.83718],[127.45805,37.83712],[127.45798,37.83712],[127.45796,37.83709],[127.45787,37.83707],[127.45787,37.83701],[127.45794,37.83701],[127.45796,37.83698],[127.4581,37.83698],[127.45814,37.83702],[127.45814,37.83711],[127.45819,37.83713],[127.45819,37.83718],[127.45812,37.83718]]]}},{"type":"Feature","properties":{"valleyId":"gyeongban","layer":"shadow","date":"2026-08-01","timeLocal":"18:00"},"geometry":{"type":"Polygon","coordinates":[[[127.4621,37.83702],[127.4621,37.83696],[127.46217,37.83696],[127.46217,37.83702],[127.4621,37.83702]]]}},{"type":"Feature","properties":{"valleyId":"gyeongban","layer":"shadow","date":"2026-08-01","timeLocal":"18:00"},"geometry":{"type":"Polygon","coordinates":[[[127.46374,37.83696],[127.46369,37.83693],[127.46369,37.83687],[127.46374,37.83687],[127.46374,37.8368],[127.46381,37.8368],[127.46381,37.83684],[127.4639,37.83684],[127.46385,37.83695],[127.46374,37.83696]]]}},{"type":"Feature","properties":{"valleyId":"gyeongban","layer":"shadow","date":"2026-08-01","timeLocal":"18:00"},"geometry":{"type":"Polygon","coordinates":[[[127.4654,37.83688],[127.46533,37.83681],[127.46533,37.83675],[127.46547,37.83677],[127.46546,37.83688],[127.4654,37.83688]]]}},{"type":"Feature","properties":{"valleyId":"gyeongban","layer":"shadow","date":"2026-08-01","timeLocal":"18:00"},"geometry":{"type":"Polygon","coordinates":[[[127.46344,37.83678],[127.46347,37.83671],[127.46356,37.83673],[127.46356,37.83678],[127.46344,37.83678]]]}},{"type":"Feature","properties":{"valleyId":"gyeongban","layer":"shadow","date":"2026-08-01","timeLocal":"18:00"},"geometry":{"type":"Polygon","coordinates":[[[127.46374,37.83662],[127.46374,37.83657],[127.46381,37.83657],[127.46381,37.83662],[127.46374,37.83662]]]}},{"type":"Feature","properties":{"valleyId":"gyeongban","layer":"shadow","date":"2026-08-01","timeLocal":"18:00"},"geometry":{"type":"Polygon","coordinates":[[[127.46279,37.83663],[127.46284,37.83648],[127.46293,37.83649],[127.46292,37.83661],[127.46279,37.83663]]]}},{"type":"Feature","properties":{"valleyId":"gyeongban","layer":"shadow","date":"2026-08-01","timeLocal":"18:00"},"geometry":{"type":"Polygon","coordinates":[[[127.46397,37.83789],[127.46383,37.83774],[127.46384,37.83738],[127.46377,37.83736],[127.46371,37.83729],[127.46373,37.83716],[127.4638,37.83716],[127.4638,37.8372],[127.46384,37.8372],[127.46391,37.83727],[127.46398,37.83727],[127.46403,37.83726],[127.46403,37.8372],[127.46409,37.8372],[127.46407,37.83731],[127.46427,37.83728],[127.46432,37.83733],[127.46439,37.83733],[127.46445,37.83742],[127.46452,37.83743],[127.46454,37.83746],[127.46466,37.83746],[127.46468,37.83732],[127.46457,37.83732],[127.46444,37.8371],[127.46426,37.8371],[127.46425,37.83715],[127.46414,37.83715],[127.46412,37.8371],[127.46401,37.83708],[127.46401,37.83702],[127.46408,37.83701],[127.46406,37.83688],[127.46413,37.83681],[127.46415,37.83672],[127.46456,37.83676],[127.46454,37.83663],[127.4644,37.83659],[127.46438,37.83656],[127.46431,37.83656],[127.46431,37.8365],[127.46456,37.83654],[127.46454,37.83643],[127.46461,37.83644],[127.46461,37.83647],[127.46468,37.83651],[127.46468,37.8366],[127.46472,37.83665],[127.46472,37.83671],[127.46469,37.83674],[127.46463,37.83674],[127.46463,37.8368],[127.4649,37.83682],[127.4649,37.83687],[127.46485,37.83689],[127.46485,37.83698],[127.46494,37.83705],[127.46503,37.83705],[127.46503,37.83722],[127.46496,37.83721],[127.46496,37.83725],[127.46487,37.83729],[127.46484,37.83741],[127.46484,37.83747],[127.46493,37.8375],[127.46497,37.83761],[127.46452,37.83759],[127.46443,37.83753],[127.46436,37.83753],[127.46429,37.83758],[127.46429,37.83764],[127.46422,37.83764],[127.46406,37.83771],[127.46403,37.83789],[127.46397,37.83789]],[[127.46453,37.83696],[127.46462,37.83696],[127.46462,37.83687],[127.46451,37.83688],[127.46453,37.83696]]]}},{"type":"Feature","properties":{"valleyId":"gyeongban","layer":"shadow","date":"2026-08-01","timeLocal":"18:00"},"geometry":{"type":"Polygon","coordinates":[[[127.46309,37.83656],[127.46304,37.83647],[127.46295,37.83647],[127.46295,37.83641],[127.463,37.83641],[127.46302,37.83638],[127.46309,37.83638],[127.46309,37.83645],[127.46318,37.83649],[127.46318,37.83654],[127.46309,37.83656]]]}},{"type":"Feature","properties":{"valleyId":"gyeongban","layer":"shadow","date":"2026-08-01","timeLocal":"18:00"},"geometry":{"type":"Polygon","coordinates":[[[127.46236,37.83632],[127.46241,37.83621],[127.46255,37.83619],[127.46255,37.83626],[127.46248,37.83626],[127.46245,37.83632],[127.46236,37.83632]]]}},{"type":"Feature","properties":{"valleyId":"gyeongban","layer":"shadow","date":"2026-08-01","timeLocal":"18:00"},"geometry":{"type":"Polygon","coordinates":[[[127.46207,37.83611],[127.46205,37.83602],[127.46216,37.83602],[127.46216,37.8361],[127.46207,37.83611]]]}},{"type":"Feature","properties":{"valleyId":"gyeongban","layer":"shadow","date":"2026-08-01","timeLocal":"18:00"},"geometry":{"type":"Polygon","coordinates":[[[127.46267,37.83594],[127.46267,37.83587],[127.46274,37.83587],[127.46273,37.83594],[127.46267,37.83594]]]}},{"type":"Feature","properties":{"valleyId":"gyeongban","layer":"shadow","date":"2026-08-01","timeLocal":"18:00"},"geometry":{"type":"Polygon","coordinates":[[[127.46283,37.83589],[127.46283,37.83584],[127.46296,37.83582],[127.46296,37.83587],[127.46283,37.83589]]]}},{"type":"Feature","properties":{"valleyId":"gyeongban","layer":"shadow","date":"2026-08-01","timeLocal":"18:00"},"geometry":{"type":"Polygon","coordinates":[[[127.46442,37.83596],[127.46442,37.83571],[127.46449,37.83571],[127.46456,37.83579],[127.46455,37.83588],[127.46451,37.83591],[127.46451,37.83597],[127.46442,37.83596]]]}},{"type":"Feature","properties":{"valleyId":"gyeongban","layer":"shadow","date":"2026-08-01","timeLocal":"18:00"},"geometry":{"type":"Polygon","coordinates":[[[127.46212,37.83592],[127.46211,37.83556],[127.46222,37.83554],[127.46227,37.83556],[127.4623,37.83583],[127.46224,37.83585],[127.46223,37.83592],[127.46212,37.83592]]]}},{"type":"Feature","properties":{"valleyId":"gyeongban","layer":"shadow","date":"2026-08-01","timeLocal":"18:00"},"geometry":{"type":"Polygon","coordinates":[[[127.46238,37.83563],[127.46238,37.83559],[127.46229,37.83559],[127.46229,37.83552],[127.46233,37.8355],[127.46245,37.83552],[127.46245,37.83563],[127.46238,37.83563]]]}},{"type":"Feature","properties":{"valleyId":"gyeongban","layer":"shadow","date":"2026-08-01","timeLocal":"18:00"},"geometry":{"type":"Polygon","coordinates":[[[127.46424,37.83564],[127.46408,37.8356],[127.46411,37.83549],[127.46424,37.83548],[127.46436,37.83557],[127.46435,37.83564],[127.46424,37.83564]]]}},{"type":"Feature","properties":{"valleyId":"gyeongban","layer":"shadow","date":"2026-08-01","timeLocal":"18:00"},"geometry":{"type":"Polygon","coordinates":[[[127.45852,37.83879],[127.45854,37.8387],[127.45866,37.83865],[127.45866,37.8385],[127.45859,37.8385],[127.45845,37.83864],[127.45825,37.83861],[127.45822,37.83869],[127.45815,37.83875],[127.45802,37.83875],[127.45795,37.83871],[127.45793,37.83855],[127.45796,37.83842],[127.45809,37.83839],[127.45809,37.83835],[127.45816,37.83833],[127.45821,37.83817],[127.45832,37.83816],[127.45835,37.83807],[127.45851,37.83807],[127.45851,37.838],[127.4586,37.83787],[127.45874,37.83782],[127.45879,37.83777],[127.45879,37.83769],[127.45866,37.83757],[127.45866,37.83742],[127.45882,37.83744],[127.45888,37.8375],[127.45895,37.8375],[127.45902,37.83761],[127.45913,37.83761],[127.45922,37.83752],[127.45936,37.83748],[127.45939,37.83734],[127.4595,37.83732],[127.45962,37.83724],[127.45964,37.83716],[127.45978,37.83715],[127.45987,37.83709],[127.45987,37.83702],[127.46001,37.83688],[127.4601,37.8369],[127.46008,37.83701],[127.46014,37.83701],[127.46019,37.83695],[127.46042,37.83696],[127.46046,37.83692],[127.46055,37.83692],[127.46056,37.83687],[127.46051,37.83685],[127.46015,37.83683],[127.46015,37.83677],[127.4602,37.83674],[127.46042,37.83665],[127.46081,37.83667],[127.46088,37.83664],[127.46088,37.83658],[127.46084,37.83655],[127.46054,37.83654],[127.46045,37.83647],[127.46045,37.8364],[127.46039,37.83633],[127.46036,37.83624],[127.46032,37.83623],[127.46027,37.83618],[127.46014,37.83612],[127.46001,37.836],[127.46001,37.83594],[127.46005,37.83594],[127.4601,37.83587],[127.46028,37.83586],[127.46026,37.83569],[127.46017,37.83566],[127.46017,37.83558],[127.46027,37.8355],[127.46025,37.8353],[127.46043,37.8353],[127.46043,37.83537],[127.46047,37.83541],[127.46054,37.83541],[127.46059,37.83545],[127.46058,37.8355],[127.46074,37.8355],[127.46086,37.83554],[127.46085,37.83572],[127.46115,37.83572],[127.46118,37.83547],[127.46122,37.83547],[127.46122,37.83542],[127.46131,37.83542],[127.46131,37.83545],[127.46138,37.83551],[127.46143,37.83551],[127.46158,37.83562],[127.46158,37.83567],[127.46165,37.83575],[127.46181,37.83579],[127.46187,37.83589],[127.46205,37.83593],[127.46205,37.83602],[127.46198,37.83602],[127.46202,37.83624],[127.46195,37.83631],[127.4619,37.83654],[127.46183,37.83662],[127.46183,37.83669],[127.46176,37.83669],[127.46174,37.83674],[127.4617,37.83674],[127.46167,37.83678],[127.46163,37.83677],[127.4616,37.83683],[127.46149,37.83686],[127.46149,37.83694],[127.46158,37.83695],[127.46158,37.83703],[127.46146,37.83704],[127.46146,37.83697],[127.46128,37.83697],[127.46128,37.83711],[127.46119,37.83711],[127.46119,37.83722],[127.46114,37.83722],[127.46109,37.83727],[127.461,37.83727],[127.461,37.83722],[127.46094,37.8372],[127.46094,37.83709],[127.46107,37.83709],[127.46108,37.83704],[127.46096,37.83702],[127.46092,37.83696],[127.46078,37.83696],[127.46076,37.83702],[127.4606,37.83705],[127.46055,37.8371],[127.46037,37.83714],[127.46034,37.83728],[127.46021,37.83728],[127.46018,37.83735],[127.4603,37.83737],[127.46036,37.83735],[127.46037,37.83728],[127.4605,37.83728],[127.4605,37.83725],[127.46073,37.83721],[127.4608,37.83729],[127.46079,37.83748],[127.46043,37.83748],[127.46041,37.83752],[127.46036,37.83752],[127.46034,37.83757],[127.46018,37.83769],[127.46015,37.8378],[127.4601,37.8378],[127.4601,37.83802],[127.45962,37.83801],[127.4596,37.83805],[127.45951,37.83806],[127.45953,37.83823],[127.45941,37.83822],[127.45941,37.83828],[127.45934,37.83828],[127.45935,37.83815],[127.45926,37.83815],[127.45928,37.83828],[127.45919,37.83827],[127.45916,37.83835],[127.45903,37.83831],[127.45902,37.83836],[127.45898,37.83838],[127.45898,37.83845],[127.45907,37.83845],[127.45907,37.83853],[127.45891,37.83854],[127.45888,37.83861],[127.45884,37.83861],[127.45875,37.83868],[127.45874,37.83877],[127.45852,37.83879]],[[127.45839,37.8383],[127.45848,37.8383],[127.4585,37.83825],[127.45862,37.83823],[127.45871,37.83814],[127.45887,37.83809],[127.45887,37.83802],[127.45867,37.838],[127.45853,37.83814],[127.4585,37.83823],[127.45837,37.83823],[127.45839,37.8383]],[[127.45887,37.83829],[127.45894,37.83829],[127.45894,37.83822],[127.45887,37.83822],[127.45887,37.83829]],[[127.4591,37.83791],[127.45922,37.83791],[127.45926,37.83788],[127.45926,37.83783],[127.45922,37.83779],[127.45913,37.83779],[127.45908,37.83782],[127.4591,37.83791]],[[127.45956,37.83787],[127.45963,37.83787],[127.45963,37.83781],[127.45956,37.83781],[127.45956,37.83787]],[[127.45983,37.83769],[127.45999,37.83767],[127.46004,37.83764],[127.46004,37.83753],[127.45991,37.83755],[127.4599,37.83758],[127.45984,37.83762],[127.45983,37.83769]],[[127.45972,37.83752],[127.45984,37.83753],[127.45984,37.83749],[127.45993,37.83742],[127.45996,37.83719],[127.45989,37.83718],[127.45989,37.83724],[127.4598,37.83727],[127.45972,37.83752]],[[127.46076,37.83687],[127.46085,37.83685],[127.46083,37.83678],[127.46074,37.83678],[127.46076,37.83687]]]}},{"type":"Feature","properties":{"valleyId":"gyeongban","layer":"shadow","date":"2026-08-01","timeLocal":"18:00"},"geometry":{"type":"Polygon","coordinates":[[[127.46702,37.83537],[127.46702,37.83531],[127.46713,37.83531],[127.46713,37.83537],[127.46702,37.83537]]]}},{"type":"Feature","properties":{"valleyId":"gyeongban","layer":"shadow","date":"2026-08-01","timeLocal":"18:00"},"geometry":{"type":"Polygon","coordinates":[[[127.4635,37.83512],[127.46348,37.83505],[127.46353,37.83502],[127.46378,37.835],[127.46377,37.83509],[127.46366,37.83513],[127.4635,37.83512]]]}},{"type":"Feature","properties":{"valleyId":"gyeongban","layer":"shadow","date":"2026-08-01","timeLocal":"18:00"},"geometry":{"type":"Polygon","coordinates":[[[127.46659,37.835],[127.46641,37.83493],[127.46635,37.83493],[127.46633,37.83482],[127.46614,37.83481],[127.46615,37.83472],[127.46635,37.83475],[127.46642,37.8348],[127.46642,37.83484],[127.46648,37.83484],[127.46651,37.83489],[127.46662,37.83489],[127.46664,37.83493],[127.46678,37.83495],[127.46678,37.835],[127.46659,37.835]]]}},{"type":"Feature","properties":{"valleyId":"gyeongban","layer":"shadow","date":"2026-08-01","timeLocal":"18:00"},"geometry":{"type":"Polygon","coordinates":[[[127.46699,37.83479],[127.46694,37.83475],[127.46678,37.83473],[127.46676,37.83466],[127.46705,37.83474],[127.46705,37.83479],[127.46699,37.83479]]]}},{"type":"Feature","properties":{"valleyId":"gyeongban","layer":"shadow","date":"2026-08-01","timeLocal":"18:00"},"geometry":{"type":"Polygon","coordinates":[[[127.46274,37.8347],[127.46267,37.83466],[127.46267,37.83459],[127.46274,37.83459],[127.46281,37.83465],[127.46281,37.8347],[127.46274,37.8347]]]}},{"type":"Feature","properties":{"valleyId":"gyeongban","layer":"shadow","date":"2026-08-01","timeLocal":"18:00"},"geometry":{"type":"Polygon","coordinates":[[[127.46728,37.8347],[127.46728,37.83465],[127.46735,37.83465],[127.46735,37.8347],[127.46728,37.8347]]]}},{"type":"Feature","properties":{"valleyId":"gyeongban","layer":"shadow","date":"2026-08-01","timeLocal":"18:00"},"geometry":{"type":"Polygon","coordinates":[[[127.46776,37.83471],[127.46778,37.8346],[127.46783,37.83457],[127.4679,37.83457],[127.46787,37.83468],[127.46783,37.83471],[127.46776,37.83471]]]}},{"type":"Feature","properties":{"valleyId":"gyeongban","layer":"shadow","date":"2026-08-01","timeLocal":"18:00"},"geometry":{"type":"Polygon","coordinates":[[[127.46254,37.83459],[127.46254,37.8345],[127.46263,37.8345],[127.46263,37.83459],[127.46254,37.83459]]]}},{"type":"Feature","properties":{"valleyId":"gyeongban","layer":"shadow","date":"2026-08-01","timeLocal":"18:00"},"geometry":{"type":"Polygon","coordinates":[[[127.46301,37.8349],[127.46283,37.83475],[127.46283,37.8347],[127.4629,37.8347],[127.46303,37.83476],[127.46303,37.83479],[127.4631,37.83479],[127.4631,37.83467],[127.46319,37.83458],[127.46331,37.83458],[127.46329,37.83442],[127.46338,37.8344],[127.46337,37.83472],[127.4633,37.83476],[127.4633,37.83481],[127.46321,37.83488],[127.46301,37.8349]]]}},{"type":"Feature","properties":{"valleyId":"gyeongban","layer":"shadow","date":"2026-08-01","timeLocal":"18:00"},"geometry":{"type":"Polygon","coordinates":[[[127.47031,37.83458],[127.47022,37.83445],[127.47022,37.8344],[127.47029,37.8344],[127.47031,37.83445],[127.47038,37.83449],[127.47038,37.83458],[127.47031,37.83458]]]}},{"type":"Feature","properties":{"valleyId":"gyeongban","layer":"shadow","date":"2026-08-01","timeLocal":"18:00"},"geometry":{"type":"Polygon","coordinates":[[[127.46677,37.83434],[127.46679,37.83425],[127.46691,37.83423],[127.4669,37.83432],[127.46677,37.83434]]]}},{"type":"Feature","properties":{"valleyId":"gyeongban","layer":"shadow","date":"2026-08-01","timeLocal":"18:00"},"geometry":{"type":"Polygon","coordinates":[[[127.46809,37.83428],[127.46807,37.83419],[127.4682,37.83419],[127.4682,37.83425],[127.46815,37.83428],[127.46809,37.83428]]]}},{"type":"Feature","properties":{"valleyId":"gyeongban","layer":"shadow","date":"2026-08-01","timeLocal":"18:00"},"geometry":{"type":"Polygon","coordinates":[[[127.46693,37.83423],[127.46693,37.8341],[127.46705,37.83411],[127.46702,37.83421],[127.46693,37.83423]]]}},{"type":"Feature","properties":{"valleyId":"gyeongban","layer":"shadow","date":"2026-08-01","timeLocal":"18:00"},"geometry":{"type":"Polygon","coordinates":[[[127.46514,37.83623],[127.46517,37.83594],[127.46512,37.83594],[127.46512,37.83585],[127.46503,37.83574],[127.46499,37.83556],[127.4649,37.83548],[127.46488,37.83541],[127.46479,37.83537],[127.46475,37.8353],[127.46466,37.8353],[127.46466,37.83534],[127.46454,37.83533],[127.46454,37.83528],[127.46461,37.83528],[127.46457,37.83501],[127.46446,37.83501],[127.46443,37.83523],[127.46434,37.83526],[127.46427,37.83526],[127.46423,37.83522],[127.46421,37.8351],[127.46434,37.83506],[127.46435,37.83495],[127.46448,37.8349],[127.46448,37.83483],[127.4646,37.83483],[127.46462,37.83472],[127.46471,37.83469],[127.46479,37.83458],[127.46483,37.83458],[127.46492,37.83442],[127.46502,37.83439],[127.46504,37.83433],[127.46511,37.83431],[127.46525,37.83421],[127.46527,37.83415],[127.46538,37.83416],[127.46548,37.83407],[127.46564,37.83405],[127.46564,37.83391],[127.46571,37.83391],[127.46573,37.83396],[127.46582,37.83398],[127.46582,37.83409],[127.46575,37.83409],[127.46575,37.83416],[127.46588,37.83422],[127.46588,37.83431],[127.46597,37.83431],[127.46597,37.8344],[127.46583,37.8344],[127.46583,37.83445],[127.4659,37.83451],[127.46601,37.83451],[127.46602,37.8344],[127.46613,37.83442],[127.46617,37.8346],[127.46603,37.83463],[127.46603,37.83472],[127.46599,37.83472],[127.46598,37.83483],[127.46594,37.83485],[127.46591,37.83501],[127.46578,37.83501],[127.46564,37.83508],[127.46555,37.83508],[127.4655,37.835],[127.46546,37.835],[127.46539,37.83493],[127.46539,37.83484],[127.46553,37.83482],[127.46567,37.83474],[127.46583,37.8347],[127.46587,37.83467],[127.46585,37.83456],[127.46581,37.83452],[127.46572,37.83452],[127.4657,37.83448],[127.46554,37.83448],[127.46554,37.83441],[127.46545,37.83439],[127.46527,37.83442],[127.46526,37.83446],[127.4652,37.83451],[127.46519,37.83457],[127.46531,37.83457],[127.46521,37.83482],[127.4653,37.83511],[127.46536,37.83517],[127.46545,37.83517],[127.46552,37.8352],[127.46552,37.83528],[127.46561,37.83531],[127.46567,37.83555],[127.46574,37.83558],[127.46579,37.83568],[127.46578,37.83589],[127.46573,37.83595],[127.46578,37.83613],[127.46571,37.83618],[127.46564,37.83618],[127.4656,37.83598],[127.46553,37.83592],[127.46542,37.83592],[127.46542,37.836],[127.46553,37.83603],[127.4655,37.83619],[127.4653,37.83619],[127.46523,37.83623],[127.46514,37.83623]],[[127.46505,37.83509],[127.46514,37.83509],[127.46514,37.83496],[127.46505,37.83496],[127.46505,37.83509]],[[127.46505,37.83487],[127.46512,37.83487],[127.46512,37.83482],[127.46505,37.83482],[127.46505,37.83487]]]}},{"type":"Feature","properties":{"valleyId":"gyeongban","layer":"shadow","date":"2026-08-01","timeLocal":"18:00"},"geometry":{"type":"Polygon","coordinates":[[[127.47114,37.83396],[127.47114,37.83387],[127.47123,37.83387],[127.47123,37.83396],[127.47114,37.83396]]]}},{"type":"Feature","properties":{"valleyId":"gyeongban","layer":"shadow","date":"2026-08-01","timeLocal":"18:00"},"geometry":{"type":"Polygon","coordinates":[[[127.47087,37.8339],[127.47087,37.83383],[127.47094,37.83383],[127.47096,37.8339],[127.47087,37.8339]]]}},{"type":"Feature","properties":{"valleyId":"gyeongban","layer":"shadow","date":"2026-08-01","timeLocal":"18:00"},"geometry":{"type":"Polygon","coordinates":[[[127.46523,37.8339],[127.46516,37.83385],[127.46517,37.83367],[127.46526,37.83365],[127.46526,37.83361],[127.46535,37.83361],[127.46535,37.83372],[127.46539,37.83374],[127.46539,37.8339],[127.46523,37.8339]]]}},{"type":"Feature","properties":{"valleyId":"gyeongban","layer":"shadow","date":"2026-08-01","timeLocal":"18:00"},"geometry":{"type":"Polygon","coordinates":[[[127.46664,37.83369],[127.46667,37.83356],[127.46683,37.83358],[127.46683,37.83363],[127.46678,37.83367],[127.46664,37.83369]]]}},{"type":"Feature","properties":{"valleyId":"gyeongban","layer":"shadow","date":"2026-08-01","timeLocal":"18:00"},"geometry":{"type":"Polygon","coordinates":[[[127.46449,37.83355],[127.4644,37.83353],[127.4644,37.83348],[127.46463,37.83348],[127.4646,37.83355],[127.46449,37.83355]]]}},{"type":"Feature","properties":{"valleyId":"gyeongban","layer":"shadow","date":"2026-08-01","timeLocal":"18:00"},"geometry":{"type":"Polygon","coordinates":[[[127.46599,37.83355],[127.46599,37.8335],[127.46606,37.8335],[127.46606,37.83355],[127.46599,37.83355]]]}},{"type":"Feature","properties":{"valleyId":"gyeongban","layer":"shadow","date":"2026-08-01","timeLocal":"18:00"},"geometry":{"type":"Polygon","coordinates":[[[127.46542,37.83365],[127.46537,37.83363],[127.46538,37.83347],[127.46533,37.83345],[127.46533,37.8334],[127.46547,37.83342],[127.46549,37.83345],[127.46565,37.83346],[127.46565,37.83356],[127.46556,37.83356],[127.46551,37.83358],[127.46551,37.83365],[127.46542,37.83365]]]}},{"type":"Feature","properties":{"valleyId":"gyeongban","layer":"shadow","date":"2026-08-01","timeLocal":"18:00"},"geometry":{"type":"Polygon","coordinates":[[[127.46481,37.83341],[127.46481,37.83336],[127.46488,37.83336],[127.46488,37.83341],[127.46481,37.83341]]]}},{"type":"Feature","properties":{"valleyId":"gyeongban","layer":"shadow","date":"2026-08-01","timeLocal":"18:00"},"geometry":{"type":"Polygon","coordinates":[[[127.4667,37.8334],[127.4667,37.83334],[127.46692,37.83333],[127.46692,37.83338],[127.4667,37.8334]]]}},{"type":"Feature","properties":{"valleyId":"gyeongban","layer":"shadow","date":"2026-08-01","timeLocal":"18:00"},"geometry":{"type":"Polygon","coordinates":[[[127.46331,37.83427],[127.46321,37.83402],[127.46321,37.83393],[127.46325,37.83391],[127.46332,37.83377],[127.46337,37.83375],[127.46337,37.83372],[127.46344,37.83372],[127.46353,37.83377],[127.46389,37.83376],[127.46392,37.83372],[127.46396,37.83372],[127.46396,37.83369],[127.46405,37.83369],[127.46406,37.83362],[127.46392,37.83363],[127.46392,37.83356],[127.46397,37.83352],[127.46392,37.83336],[127.46404,37.83333],[127.46404,37.83327],[127.46411,37.83327],[127.46417,37.83342],[127.46435,37.83346],[127.46435,37.83351],[127.46415,37.83356],[127.46414,37.8338],[127.46405,37.83389],[127.46391,37.83392],[127.46391,37.83399],[127.46393,37.83403],[127.46409,37.83409],[127.46413,37.83416],[127.46418,37.83416],[127.46418,37.83421],[127.46393,37.83428],[127.4637,37.83424],[127.46363,37.83417],[127.46368,37.83397],[127.46359,37.83393],[127.4636,37.83386],[127.46355,37.83383],[127.46348,37.83382],[127.46346,37.83395],[127.46339,37.83399],[127.46341,37.83427],[127.46331,37.83427]]]}},{"type":"Feature","properties":{"valleyId":"gyeongban","layer":"shadow","date":"2026-08-01","timeLocal":"18:00"},"geometry":{"type":"Polygon","coordinates":[[[127.4668,37.83398],[127.46685,37.83376],[127.46696,37.83373],[127.46696,37.83367],[127.46705,37.83364],[127.46706,37.83357],[127.46697,37.83356],[127.46692,37.83342],[127.46713,37.83342],[127.46713,37.83337],[127.46717,37.83335],[127.4672,37.83328],[127.46731,37.8333],[127.4674,37.83341],[127.4674,37.8335],[127.46728,37.8335],[127.46726,37.83353],[127.46722,37.83353],[127.46714,37.83369],[127.46703,37.83378],[127.46703,37.83387],[127.46707,37.83387],[127.46707,37.83393],[127.46696,37.83394],[127.46691,37.83398],[127.4668,37.83398]]]}},{"type":"Feature","properties":{"valleyId":"gyeongban","layer":"shadow","date":"2026-08-01","timeLocal":"18:00"},"geometry":{"type":"Polygon","coordinates":[[[127.46511,37.8334],[127.46511,37.83332],[127.46518,37.83327],[127.46536,37.83324],[127.46536,37.83334],[127.46531,37.83334],[127.46531,37.8334],[127.46511,37.8334]]]}},{"type":"Feature","properties":{"valleyId":"gyeongban","layer":"shadow","date":"2026-08-01","timeLocal":"18:00"},"geometry":{"type":"Polygon","coordinates":[[[127.46576,37.8334],[127.46577,37.83335],[127.4657,37.83333],[127.46568,37.83324],[127.4659,37.83324],[127.4659,37.83341],[127.46576,37.8334]]]}},{"type":"Feature","properties":{"valleyId":"gyeongban","layer":"shadow","date":"2026-08-01","timeLocal":"18:00"},"geometry":{"type":"Polygon","coordinates":[[[127.46538,37.83325],[127.46538,37.8332],[127.46547,37.8332],[127.46547,37.83326],[127.46538,37.83325]]]}},{"type":"Feature","properties":{"valleyId":"gyeongban","layer":"shadow","date":"2026-08-01","timeLocal":"18:00"},"geometry":{"type":"Polygon","coordinates":[[[127.46696,37.83248],[127.4669,37.83246],[127.4669,37.83241],[127.46704,37.83229],[127.46706,37.83221],[127.46713,37.83218],[127.46713,37.83214],[127.46727,37.83216],[127.46733,37.83222],[127.46733,37.83227],[127.46726,37.83232],[127.46726,37.83243],[127.46712,37.83248],[127.46696,37.83248]]]}},{"type":"Feature","properties":{"valleyId":"gyeongban","layer":"shadow","date":"2026-08-01","timeLocal":"18:00"},"geometry":{"type":"Polygon","coordinates":[[[127.47068,37.83185],[127.47068,37.83174],[127.4708,37.83176],[127.4708,37.83185],[127.47068,37.83185]]]}},{"type":"Feature","properties":{"valleyId":"gyeongban","layer":"shadow","date":"2026-08-01","timeLocal":"18:00"},"geometry":{"type":"Polygon","coordinates":[[[127.47168,37.83177],[127.47169,37.83166],[127.47178,37.83166],[127.4718,37.83175],[127.47168,37.83177]]]}},{"type":"Feature","properties":{"valleyId":"gyeongban","layer":"shadow","date":"2026-08-01","timeLocal":"18:00"},"geometry":{"type":"Polygon","coordinates":[[[127.47092,37.83154],[127.47092,37.83145],[127.47099,37.83145],[127.47098,37.83154],[127.47092,37.83154]]]}},{"type":"Feature","properties":{"valleyId":"gyeongban","layer":"shadow","date":"2026-08-01","timeLocal":"18:00"},"geometry":{"type":"Polygon","coordinates":[[[127.4738,37.83154],[127.4738,37.83144],[127.47383,37.8314],[127.4739,37.8314],[127.47389,37.83151],[127.47387,37.83154],[127.4738,37.83154]]]}},{"type":"Feature","properties":{"valleyId":"gyeongban","layer":"shadow","date":"2026-08-01","timeLocal":"18:00"},"geometry":{"type":"Polygon","coordinates":[[[127.47346,37.83147],[127.47342,37.83143],[127.47342,37.83138],[127.47349,37.83138],[127.47353,37.83141],[127.47353,37.83147],[127.47346,37.83147]]]}},{"type":"Feature","properties":{"valleyId":"gyeongban","layer":"shadow","date":"2026-08-01","timeLocal":"18:00"},"geometry":{"type":"Polygon","coordinates":[[[127.47122,37.83126],[127.47122,37.83101],[127.47138,37.83101],[127.4714,37.83112],[127.47131,37.83111],[127.47129,37.83126],[127.47122,37.83126]]]}},{"type":"Feature","properties":{"valleyId":"gyeongban","layer":"shadow","date":"2026-08-01","timeLocal":"18:00"},"geometry":{"type":"Polygon","coordinates":[[[127.47186,37.83112],[127.47179,37.83105],[127.47174,37.83105],[127.47175,37.83098],[127.47184,37.83098],[127.47186,37.83103],[127.47193,37.83103],[127.47192,37.83112],[127.47186,37.83112]]]}},{"type":"Feature","properties":{"valleyId":"gyeongban","layer":"shadow","date":"2026-08-01","timeLocal":"18:00"},"geometry":{"type":"Polygon","coordinates":[[[127.47207,37.83082],[127.47207,37.83075],[127.47218,37.83075],[127.47218,37.8308],[127.47207,37.83082]]]}},{"type":"Feature","properties":{"valleyId":"gyeongban","layer":"shadow","date":"2026-08-01","timeLocal":"18:00"},"geometry":{"type":"Polygon","coordinates":[[[127.47703,37.83036],[127.47703,37.83031],[127.4771,37.83027],[127.4771,37.83022],[127.47724,37.83022],[127.47724,37.83031],[127.47719,37.83036],[127.47703,37.83036]]]}},{"type":"Feature","properties":{"valleyId":"gyeongban","layer":"shadow","date":"2026-08-01","timeLocal":"18:00"},"geometry":{"type":"Polygon","coordinates":[[[127.46734,37.83433],[127.46734,37.83424],[127.46725,37.83423],[127.4672,37.8342],[127.46721,37.83395],[127.46734,37.83391],[127.46737,37.83377],[127.46742,37.83373],[127.46753,37.83372],[127.46758,37.83355],[127.46781,37.83347],[127.46783,37.83341],[127.4679,37.83338],[127.46795,37.83329],[127.46793,37.833],[127.468,37.83298],[127.46816,37.83284],[127.46834,37.83284],[127.46864,37.83292],[127.46873,37.8329],[127.46878,37.83285],[127.46889,37.83283],[127.46894,37.8328],[127.46894,37.83274],[127.46907,37.83269],[127.46935,37.83248],[127.46935,37.83244],[127.46956,37.83232],[127.46956,37.83226],[127.46965,37.83217],[127.46963,37.83208],[127.46947,37.83208],[127.4694,37.83217],[127.46918,37.83217],[127.46893,37.83206],[127.46847,37.83209],[127.46845,37.83214],[127.46834,37.83214],[127.46834,37.83205],[127.46829,37.83203],[127.46827,37.83196],[127.46784,37.83195],[127.46775,37.83186],[127.4675,37.83186],[127.4675,37.83179],[127.46764,37.8317],[127.46766,37.83164],[127.46773,37.83165],[127.46778,37.8317],[127.46784,37.8317],[127.46787,37.83165],[127.46791,37.83165],[127.46791,37.83161],[127.46801,37.83159],[127.46801,37.83154],[127.46787,37.83154],[127.46787,37.83148],[127.46806,37.83134],[127.4681,37.83134],[127.46824,37.83122],[127.46829,37.83122],[127.46838,37.83113],[127.46842,37.83113],[127.46852,37.83104],[127.46856,37.83104],[127.46866,37.83095],[127.4687,37.83095],[127.46897,37.83022],[127.46901,37.83018],[127.46906,37.83004],[127.46917,37.83002],[127.46917,37.83008],[127.46929,37.83012],[127.46931,37.83017],[127.46938,37.83021],[127.46937,37.83033],[127.46944,37.83033],[127.46944,37.83024],[127.46951,37.83024],[127.46956,37.83032],[127.46962,37.83032],[127.46963,37.83021],[127.46969,37.83021],[127.46969,37.83026],[127.46974,37.8303],[127.46981,37.8303],[127.4698,37.83037],[127.46989,37.83039],[127.46996,37.83045],[127.46998,37.83056],[127.47012,37.83058],[127.47016,37.83056],[127.47016,37.83052],[127.47023,37.83052],[127.47025,37.83065],[127.47034,37.83067],[127.47034,37.83081],[127.47038,37.83085],[127.4705,37.83085],[127.4705,37.83089],[127.47063,37.83098],[127.47068,37.83098],[127.47072,37.83104],[127.47072,37.83109],[127.47068,37.83111],[127.47065,37.83118],[127.47056,37.83121],[127.47054,37.83127],[127.47056,37.83134],[127.47067,37.83134],[127.47069,37.83143],[127.47062,37.83145],[127.47062,37.83148],[127.47049,37.8315],[127.47046,37.83166],[127.47007,37.83166],[127.46998,37.83169],[127.46998,37.83173],[127.46991,37.83173],[127.46991,37.83182],[127.46996,37.83182],[127.46995,37.83187],[127.46977,37.83191],[127.46977,37.83194],[127.46968,37.83194],[127.46966,37.83198],[127.46966,37.83203],[127.47022,37.83206],[127.47025,37.83209],[127.47029,37.83209],[127.47029,37.83218],[127.4702,37.83224],[127.47006,37.83225],[127.46999,37.83234],[127.46981,37.83234],[127.46976,37.83239],[127.46967,37.83243],[127.46967,37.83248],[127.46962,37.8325],[127.46958,37.83259],[127.46944,37.83266],[127.46939,37.83278],[127.46925,37.8328],[127.46921,37.83284],[127.4692,37.83296],[127.46914,37.833],[127.46902,37.833],[127.46902,37.83312],[127.46888,37.83312],[127.46888,37.83326],[127.46872,37.83326],[127.46865,37.83333],[127.46861,37.83333],[127.4686,37.83341],[127.46865,37.83342],[127.46867,37.83351],[127.46844,37.83353],[127.46842,37.83371],[127.46835,37.83371],[127.4683,37.83378],[127.46823,37.8338],[127.46819,37.83385],[127.46803,37.83387],[127.46802,37.83406],[127.46768,37.83406],[127.46768,37.83433],[127.46734,37.83433]],[[127.4691,37.83157],[127.46923,37.83156],[127.46924,37.83148],[127.4691,37.83148],[127.4691,37.83157]],[[127.46922,37.83138],[127.46933,37.83138],[127.46935,37.83129],[127.4694,37.83127],[127.46938,37.83116],[127.46931,37.83116],[127.46929,37.83093],[127.4692,37.83093],[127.4692,37.83084],[127.46909,37.83083],[127.46909,37.83087],[127.46902,37.83087],[127.46902,37.83083],[127.46882,37.83085],[127.46882,37.8309],[127.46877,37.8309],[127.46877,37.83103],[127.46881,37.83103],[127.46881,37.8311],[127.46911,37.8311],[127.4691,37.83127],[127.46922,37.83129],[127.46922,37.83138]]]}},{"type":"Feature","properties":{"valleyId":"gyeongban","layer":"shadow","date":"2026-08-01","timeLocal":"18:00"},"geometry":{"type":"Polygon","coordinates":[[[127.47437,37.8304],[127.47442,37.83029],[127.47442,37.83013],[127.4746,37.83015],[127.47461,37.83008],[127.4747,37.83008],[127.47467,37.83019],[127.47463,37.8302],[127.47462,37.83027],[127.47469,37.83031],[127.47469,37.8304],[127.47437,37.8304]]]}},{"type":"Feature","properties":{"valleyId":"gyeongban","layer":"shadow","date":"2026-08-01","timeLocal":"18:00"},"geometry":{"type":"Polygon","coordinates":[[[127.47722,37.8302],[127.4772,37.83009],[127.47724,37.83004],[127.47731,37.83004],[127.47728,37.8302],[127.47722,37.8302]]]}},{"type":"Feature","properties":{"valleyId":"gyeongban","layer":"shadow","date":"2026-08-01","timeLocal":"18:00"},"geometry":{"type":"Polygon","coordinates":[[[127.47604,37.83002],[127.47604,37.82995],[127.47611,37.82995],[127.47611,37.83002],[127.47604,37.83002]]]}},{"type":"Feature","properties":{"valleyId":"gyeongban","layer":"shadow","date":"2026-08-01","timeLocal":"18:00"},"geometry":{"type":"Polygon","coordinates":[[[127.47345,37.82986],[127.47345,37.82979],[127.47352,37.82979],[127.47352,37.82986],[127.47345,37.82986]]]}},{"type":"Feature","properties":{"valleyId":"gyeongban","layer":"shadow","date":"2026-08-01","timeLocal":"18:00"},"geometry":{"type":"Polygon","coordinates":[[[127.47782,37.82974],[127.47782,37.82963],[127.47789,37.82963],[127.47788,37.82974],[127.47782,37.82974]]]}},{"type":"Feature","properties":{"valleyId":"gyeongban","layer":"shadow","date":"2026-08-01","timeLocal":"18:00"},"geometry":{"type":"Polygon","coordinates":[[[127.47766,37.82968],[127.47766,37.82963],[127.47775,37.82963],[127.47775,37.82968],[127.47766,37.82968]]]}},{"type":"Feature","properties":{"valleyId":"gyeongban","layer":"shadow","date":"2026-08-01","timeLocal":"18:00"},"geometry":{"type":"Polygon","coordinates":[[[127.47362,37.82959],[127.47362,37.82954],[127.47368,37.82954],[127.47368,37.8296],[127.47362,37.82959]]]}},{"type":"Feature","properties":{"valleyId":"gyeongban","layer":"shadow","date":"2026-08-01","timeLocal":"18:00"},"geometry":{"type":"Polygon","coordinates":[[[127.47529,37.82978],[127.47529,37.82969],[127.47534,37.82967],[127.47539,37.82951],[127.47553,37.82951],[127.47555,37.82964],[127.47548,37.82969],[127.47543,37.82969],[127.47543,37.82973],[127.47536,37.82978],[127.47529,37.82978]]]}},{"type":"Feature","properties":{"valleyId":"gyeongban","layer":"shadow","date":"2026-08-01","timeLocal":"18:00"},"geometry":{"type":"Polygon","coordinates":[[[127.47739,37.82961],[127.47739,37.82957],[127.47732,37.82957],[127.47732,37.82952],[127.4775,37.82954],[127.4775,37.82961],[127.47739,37.82961]]]}},{"type":"Feature","properties":{"valleyId":"gyeongban","layer":"shadow","date":"2026-08-01","timeLocal":"18:00"},"geometry":{"type":"Polygon","coordinates":[[[127.4728,37.82955],[127.4728,37.82946],[127.47289,37.82944],[127.47289,37.82953],[127.4728,37.82955]]]}},{"type":"Feature","properties":{"valleyId":"gyeongban","layer":"shadow","date":"2026-08-01","timeLocal":"18:00"},"geometry":{"type":"Polygon","coordinates":[[[127.47346,37.82952],[127.47337,37.8295],[127.47337,37.82945],[127.47355,37.82947],[127.47355,37.82952],[127.47346,37.82952]]]}},{"type":"Feature","properties":{"valleyId":"gyeongban","layer":"shadow","date":"2026-08-01","timeLocal":"18:00"},"geometry":{"type":"Polygon","coordinates":[[[127.47032,37.82968],[127.4703,37.82961],[127.47037,37.82959],[127.47037,37.82946],[127.47046,37.82945],[127.47048,37.82939],[127.47062,37.82939],[127.47073,37.8295],[127.47071,37.82963],[127.47066,37.82966],[127.47041,37.82964],[127.47039,37.82968],[127.47032,37.82968]]]}},{"type":"Feature","properties":{"valleyId":"gyeongban","layer":"shadow","date":"2026-08-01","timeLocal":"18:00"},"geometry":{"type":"Polygon","coordinates":[[[127.4766,37.83052],[127.47646,37.83046],[127.47642,37.83037],[127.47633,37.83037],[127.47628,37.8304],[127.47628,37.83046],[127.4761,37.83047],[127.47603,37.83046],[127.47596,37.83038],[127.47578,37.83033],[127.47565,37.83032],[127.4756,37.83036],[127.4756,37.83043],[127.47476,37.8304],[127.47477,37.83001],[127.47488,37.83001],[127.47488,37.82997],[127.47493,37.82997],[127.47497,37.8299],[127.47509,37.8299],[127.47513,37.82985],[127.4752,37.82985],[127.47522,37.8298],[127.47529,37.8298],[127.47527,37.82994],[127.47529,37.83001],[127.47536,37.83007],[127.47542,37.83007],[127.47549,37.83002],[127.47558,37.83002],[127.47565,37.83005],[127.47583,37.83006],[127.47588,37.83007],[127.47588,37.83018],[127.47606,37.83019],[127.47622,37.83012],[127.4762,37.82999],[127.47631,37.82997],[127.47636,37.82994],[127.47636,37.82985],[127.47645,37.82979],[127.47656,37.82981],[127.47656,37.82985],[127.47663,37.8299],[127.4767,37.82991],[127.4767,37.82978],[127.47664,37.82971],[127.47641,37.82968],[127.47634,37.82963],[127.47627,37.82963],[127.47618,37.82956],[127.47618,37.82952],[127.47605,37.82954],[127.47605,37.82945],[127.47648,37.82951],[127.4765,37.82958],[127.47664,37.82958],[127.47664,37.82963],[127.4767,37.82965],[127.4767,37.82969],[127.47682,37.82971],[127.47679,37.82985],[127.47697,37.82985],[127.47697,37.83009],[127.47679,37.83007],[127.47674,37.83012],[127.47665,37.83012],[127.47662,37.83021],[127.47658,37.83025],[127.47658,37.83032],[127.47667,37.83034],[127.47667,37.83041],[127.47676,37.83041],[127.47676,37.83037],[127.47689,37.83038],[127.47689,37.8305],[127.47676,37.83048],[127.47675,37.83052],[127.4766,37.83052]]]}},{"type":"Feature","properties":{"valleyId":"gyeongban","layer":"shadow","date":"2026-08-01","timeLocal":"18:00"},"geometry":{"type":"Polygon","coordinates":[[[127.47373,37.82949],[127.47371,37.82938],[127.47382,37.82938],[127.4738,37.82949],[127.47373,37.82949]]]}},{"type":"Feature","properties":{"valleyId":"gyeongban","layer":"shadow","date":"2026-08-01","timeLocal":"18:00"},"geometry":{"type":"Polygon","coordinates":[[[127.47421,37.82942],[127.47421,37.82937],[127.4743,37.82937],[127.4743,37.82942],[127.47421,37.82942]]]}},{"type":"Feature","properties":{"valleyId":"gyeongban","layer":"shadow","date":"2026-08-01","timeLocal":"18:00"},"geometry":{"type":"Polygon","coordinates":[[[127.46964,37.82929],[127.46965,37.82924],[127.46971,37.82924],[127.46971,37.82929],[127.46964,37.82929]]]}},{"type":"Feature","properties":{"valleyId":"gyeongban","layer":"shadow","date":"2026-08-01","timeLocal":"18:00"},"geometry":{"type":"Polygon","coordinates":[[[127.47505,37.82934],[127.47505,37.82927],[127.47512,37.82927],[127.47512,37.82934],[127.47505,37.82934]]]}},{"type":"Feature","properties":{"valleyId":"gyeongban","layer":"shadow","date":"2026-08-01","timeLocal":"18:00"},"geometry":{"type":"Polygon","coordinates":[[[127.47639,37.82932],[127.47639,37.82925],[127.47635,37.82925],[127.47635,37.8292],[127.47649,37.82924],[127.47648,37.82931],[127.47639,37.82932]]]}},{"type":"Feature","properties":{"valleyId":"gyeongban","layer":"shadow","date":"2026-08-01","timeLocal":"18:00"},"geometry":{"type":"Polygon","coordinates":[[[127.47478,37.82929],[127.47465,37.82919],[127.47465,37.82912],[127.47483,37.82914],[127.47485,37.82929],[127.47478,37.82929]]]}},{"type":"Feature","properties":{"valleyId":"gyeongban","layer":"shadow","date":"2026-08-01","timeLocal":"18:00"},"geometry":{"type":"Polygon","coordinates":[[[127.47578,37.8295],[127.47555,37.82935],[127.47539,37.82935],[127.47539,37.82926],[127.4753,37.82922],[127.47531,37.82918],[127.47521,37.82918],[127.47521,37.82924],[127.47512,37.82924],[127.47512,37.82918],[127.47517,37.82916],[127.47515,37.82904],[127.47529,37.82906],[127.47531,37.82915],[127.47553,37.82919],[127.47555,37.82928],[127.47567,37.8293],[127.47567,37.82933],[127.4758,37.82935],[127.47596,37.82943],[127.47596,37.8295],[127.47578,37.8295]]]}},{"type":"Feature","properties":{"valleyId":"gyeongban","layer":"shadow","date":"2026-08-01","timeLocal":"18:00"},"geometry":{"type":"Polygon","coordinates":[[[127.47624,37.82903],[127.47624,37.82896],[127.47633,37.82896],[127.47633,37.82904],[127.47624,37.82903]]]}},{"type":"Feature","properties":{"valleyId":"gyeongban","layer":"shadow","date":"2026-08-01","timeLocal":"18:00"},"geometry":{"type":"Polygon","coordinates":[[[127.47387,37.82935],[127.4739,37.8292],[127.47374,37.82911],[127.47374,37.82904],[127.47365,37.82893],[127.47365,37.82887],[127.47379,37.82891],[127.47383,37.82906],[127.47401,37.82919],[127.47401,37.82931],[127.47396,37.82935],[127.47387,37.82935]]]}},{"type":"Feature","properties":{"valleyId":"gyeongban","layer":"shadow","date":"2026-08-01","timeLocal":"18:00"},"geometry":{"type":"Polygon","coordinates":[[[127.4739,37.8289],[127.4739,37.82884],[127.47397,37.82884],[127.47397,37.8289],[127.4739,37.8289]]]}},{"type":"Feature","properties":{"valleyId":"gyeongban","layer":"shadow","date":"2026-08-01","timeLocal":"18:00"},"geometry":{"type":"Polygon","coordinates":[[[127.47806,37.82893],[127.47806,37.82888],[127.47813,37.82888],[127.47813,37.82893],[127.47806,37.82893]]]}},{"type":"Feature","properties":{"valleyId":"gyeongban","layer":"shadow","date":"2026-08-01","timeLocal":"18:00"},"geometry":{"type":"Polygon","coordinates":[[[127.47713,37.82881],[127.47713,37.82876],[127.4772,37.82876],[127.4772,37.82881],[127.47713,37.82881]]]}},{"type":"Feature","properties":{"valleyId":"gyeongban","layer":"shadow","date":"2026-08-01","timeLocal":"18:00"},"geometry":{"type":"Polygon","coordinates":[[[127.47329,37.82874],[127.47329,37.82865],[127.47336,37.82865],[127.47336,37.82874],[127.47329,37.82874]]]}},{"type":"Feature","properties":{"valleyId":"gyeongban","layer":"shadow","date":"2026-08-01","timeLocal":"18:00"},"geometry":{"type":"Polygon","coordinates":[[[127.47083,37.83109],[127.47084,37.83102],[127.47088,37.831],[127.47088,37.83095],[127.47095,37.83088],[127.47095,37.83077],[127.47102,37.83071],[127.47107,37.83072],[127.47107,37.83061],[127.47121,37.83059],[127.47132,37.83052],[127.47144,37.83052],[127.47148,37.83049],[127.47173,37.83047],[127.47182,37.83045],[127.47185,37.83042],[127.47194,37.83042],[127.47196,37.83028],[127.47187,37.83026],[127.47187,37.83029],[127.47165,37.83029],[127.4716,37.83022],[127.47142,37.83022],[127.47122,37.83005],[127.47108,37.83001],[127.47102,37.82996],[127.471,37.82981],[127.47109,37.82976],[127.47118,37.8296],[127.47119,37.82924],[127.47104,37.82907],[127.47088,37.82907],[127.47081,37.829],[127.47072,37.82898],[127.47058,37.82887],[127.47059,37.8288],[127.47063,37.82876],[127.4707,37.82876],[127.47072,37.82884],[127.47086,37.82889],[127.47086,37.82893],[127.47106,37.82893],[127.47113,37.82899],[127.47113,37.82902],[127.47122,37.82902],[127.47126,37.82897],[127.47149,37.82895],[127.47156,37.82888],[127.47165,37.82887],[127.47172,37.82881],[127.47179,37.82881],[127.47179,37.82862],[127.47186,37.82862],[127.47188,37.82867],[127.47197,37.82873],[127.47213,37.82873],[127.4722,37.82868],[127.47266,37.82866],[127.47275,37.82863],[127.473,37.82867],[127.473,37.82872],[127.47325,37.82872],[127.47324,37.82894],[127.47288,37.82894],[127.47288,37.82899],[127.47299,37.82901],[127.47301,37.82905],[127.47296,37.82932],[127.47278,37.82933],[127.47271,37.82938],[127.47271,37.82958],[127.47266,37.8296],[127.47266,37.82964],[127.47252,37.82967],[127.47238,37.82976],[127.47238,37.82996],[127.47242,37.83007],[127.47254,37.83009],[127.47253,37.83034],[127.47226,37.83033],[127.47219,37.83039],[127.47219,37.8306],[127.47205,37.8306],[127.47205,37.83049],[127.47189,37.83051],[127.47184,37.8306],[127.47178,37.8306],[127.47175,37.83065],[127.47166,37.83065],[127.47166,37.83058],[127.47155,37.83058],[127.4715,37.83061],[127.4715,37.83067],[127.47134,37.83068],[127.47132,37.83075],[127.47121,37.83075],[127.47118,37.83084],[127.47113,37.83084],[127.47113,37.83088],[127.47107,37.83088],[127.47106,37.83102],[127.47093,37.83106],[127.47093,37.83109],[127.47083,37.83109]],[[127.47202,37.83004],[127.47211,37.83004],[127.47211,37.82983],[127.47197,37.82984],[127.47197,37.82995],[127.47202,37.83004]],[[127.47189,37.82932],[127.47198,37.8293],[127.47199,37.82923],[127.4719,37.82923],[127.47189,37.82932]]]}},{"type":"Feature","properties":{"valleyId":"gyeongban","layer":"shadow","date":"2026-08-01","timeLocal":"18:00"},"geometry":{"type":"Polygon","coordinates":[[[127.47486,37.8286],[127.47484,37.82851],[127.47493,37.82849],[127.47493,37.8286],[127.47486,37.8286]]]}},{"type":"Feature","properties":{"valleyId":"gyeongban","layer":"shadow","date":"2026-08-01","timeLocal":"18:00"},"geometry":{"type":"Polygon","coordinates":[[[127.47695,37.82875],[127.47695,37.82863],[127.47686,37.82848],[127.47687,37.82843],[127.47693,37.82843],[127.47698,37.82854],[127.47705,37.82856],[127.47707,37.82861],[127.47704,37.82874],[127.47695,37.82875]]]}},{"type":"Feature","properties":{"valleyId":"gyeongban","layer":"shadow","date":"2026-08-01","timeLocal":"18:00"},"geometry":{"type":"Polygon","coordinates":[[[127.47732,37.82833],[127.47732,37.82822],[127.47739,37.82822],[127.47739,37.82833],[127.47732,37.82833]]]}},{"type":"Feature","properties":{"valleyId":"gyeongban","layer":"shadow","date":"2026-08-01","timeLocal":"18:00"},"geometry":{"type":"Polygon","coordinates":[[[127.47018,37.8287],[127.47004,37.82868],[127.47005,37.82859],[127.46998,37.82854],[127.46989,37.82854],[127.46989,37.82845],[127.46982,37.82841],[127.46983,37.82823],[127.4699,37.82812],[127.46999,37.82811],[127.46999,37.82802],[127.47013,37.82802],[127.47017,37.82805],[127.47021,37.82829],[127.47032,37.82836],[127.47034,37.82845],[127.47039,37.82849],[127.47039,37.82856],[127.47043,37.8286],[127.47043,37.82869],[127.47018,37.8287]]]}},{"type":"Feature","properties":{"valleyId":"gyeongban","layer":"shadow","date":"2026-08-01","timeLocal":"18:00"},"geometry":{"type":"Polygon","coordinates":[[[127.47415,37.82807],[127.47415,37.82802],[127.47422,37.82802],[127.47421,37.82807],[127.47415,37.82807]]]}},{"type":"Feature","properties":{"valleyId":"gyeongban","layer":"shadow","date":"2026-08-01","timeLocal":"18:00"},"geometry":{"type":"Polygon","coordinates":[[[127.47409,37.82838],[127.47403,37.82832],[127.47398,37.82832],[127.47398,37.82827],[127.47394,37.82827],[127.47385,37.82817],[127.47377,37.82783],[127.47383,37.82783],[127.47385,37.82792],[127.47394,37.82796],[127.47396,37.82816],[127.47401,37.82818],[127.47401,37.82825],[127.4741,37.82825],[127.4741,37.82829],[127.47416,37.82832],[127.47416,37.82838],[127.47409,37.82838]]]}},{"type":"Feature","properties":{"valleyId":"gyeongban","layer":"shadow","date":"2026-08-01","timeLocal":"18:00"},"geometry":{"type":"Polygon","coordinates":[[[127.47183,37.82786],[127.47179,37.82784],[127.47179,37.82779],[127.47192,37.82781],[127.47192,37.82786],[127.47183,37.82786]]]}},{"type":"Feature","properties":{"valleyId":"gyeongban","layer":"shadow","date":"2026-08-01","timeLocal":"18:00"},"geometry":{"type":"Polygon","coordinates":[[[127.4776,37.8279],[127.47761,37.82784],[127.4777,37.82785],[127.47769,37.8279],[127.4776,37.8279]]]}},{"type":"Feature","properties":{"valleyId":"gyeongban","layer":"shadow","date":"2026-08-01","timeLocal":"18:00"},"geometry":{"type":"Polygon","coordinates":[[[127.47417,37.828],[127.47417,37.82796],[127.47413,37.82796],[127.47413,37.82791],[127.47417,37.82789],[127.4742,37.8278],[127.4744,37.82775],[127.47438,37.82786],[127.47426,37.82787],[127.47424,37.828],[127.47417,37.828]]]}},{"type":"Feature","properties":{"valleyId":"gyeongban","layer":"shadow","date":"2026-08-01","timeLocal":"18:00"},"geometry":{"type":"Polygon","coordinates":[[[127.47506,37.82783],[127.47506,37.82776],[127.47513,37.82776],[127.47515,37.82783],[127.47506,37.82783]]]}},{"type":"Feature","properties":{"valleyId":"gyeongban","layer":"shadow","date":"2026-08-01","timeLocal":"18:00"},"geometry":{"type":"Polygon","coordinates":[[[127.47815,37.82781],[127.47813,37.82774],[127.4782,37.82774],[127.47822,37.82782],[127.47815,37.82781]]]}},{"type":"Feature","properties":{"valleyId":"gyeongban","layer":"shadow","date":"2026-08-01","timeLocal":"18:00"},"geometry":{"type":"Polygon","coordinates":[[[127.47365,37.82768],[127.47366,37.82763],[127.47372,37.82763],[127.47372,37.82769],[127.47365,37.82768]]]}},{"type":"Feature","properties":{"valleyId":"gyeongban","layer":"shadow","date":"2026-08-01","timeLocal":"18:00"},"geometry":{"type":"Polygon","coordinates":[[[127.47488,37.8277],[127.47488,37.82765],[127.47495,37.82765],[127.47495,37.8277],[127.47488,37.8277]]]}},{"type":"Feature","properties":{"valleyId":"gyeongban","layer":"shadow","date":"2026-08-01","timeLocal":"18:00"},"geometry":{"type":"Polygon","coordinates":[[[127.47786,37.82779],[127.47784,37.82768],[127.4779,37.82769],[127.4779,37.82772],[127.47797,37.82774],[127.47797,37.82779],[127.47786,37.82779]]]}},{"type":"Feature","properties":{"valleyId":"gyeongban","layer":"shadow","date":"2026-08-01","timeLocal":"18:00"},"geometry":{"type":"Polygon","coordinates":[[[127.47756,37.82766],[127.47754,37.82759],[127.47761,37.82759],[127.47763,37.82766],[127.47756,37.82766]]]}},{"type":"Feature","properties":{"valleyId":"gyeongban","layer":"shadow","date":"2026-08-01","timeLocal":"18:00"},"geometry":{"type":"Polygon","coordinates":[[[127.47813,37.82762],[127.47809,37.82756],[127.47809,37.82751],[127.47816,37.82751],[127.4782,37.82755],[127.4782,37.82762],[127.47813,37.82762]]]}},{"type":"Feature","properties":{"valleyId":"gyeongban","layer":"shadow","date":"2026-08-01","timeLocal":"18:00"},"geometry":{"type":"Polygon","coordinates":[[[127.47784,37.8274],[127.47784,37.82731],[127.47791,37.82731],[127.47791,37.8274],[127.47784,37.8274]]]}},{"type":"Feature","properties":{"valleyId":"gyeongban","layer":"shadow","date":"2026-08-01","timeLocal":"18:00"},"geometry":{"type":"Polygon","coordinates":[[[127.47363,37.82759],[127.47357,37.8275],[127.47353,37.82732],[127.47346,37.82727],[127.47346,37.82721],[127.47339,37.82714],[127.47339,37.82709],[127.47362,37.82711],[127.47359,37.82731],[127.47364,37.82736],[127.47364,37.82745],[127.4737,37.82752],[127.4737,37.8276],[127.47363,37.82759]]]}},{"type":"Feature","properties":{"valleyId":"gyeongban","layer":"shadow","date":"2026-08-01","timeLocal":"18:00"},"geometry":{"type":"Polygon","coordinates":[[[127.4733,37.8271],[127.47328,37.82701],[127.47335,37.82701],[127.47337,37.8271],[127.4733,37.8271]]]}},{"type":"Feature","properties":{"valleyId":"gyeongban","layer":"shadow","date":"2026-08-01","timeLocal":"18:00"},"geometry":{"type":"Polygon","coordinates":[[[127.47626,37.82705],[127.47626,37.827],[127.47633,37.827],[127.47633,37.82705],[127.47626,37.82705]]]}},{"type":"Feature","properties":{"valleyId":"gyeongban","layer":"shadow","date":"2026-08-01","timeLocal":"18:00"},"geometry":{"type":"Polygon","coordinates":[[[127.47315,37.82701],[127.47315,37.82685],[127.47322,37.82685],[127.47322,37.82694],[127.47326,37.82696],[127.47326,37.82701],[127.47315,37.82701]]]}},{"type":"Feature","properties":{"valleyId":"gyeongban","layer":"shadow","date":"2026-08-01","timeLocal":"18:00"},"geometry":{"type":"Polygon","coordinates":[[[127.47551,37.82692],[127.47551,37.82681],[127.4756,37.82681],[127.47558,37.82692],[127.47551,37.82692]]]}}]}
