{"type":"FeatureCollection","metadata":{"description":"개방지(CHM ≤ 2 m)에 드리운 나무·지형 그림자, 2026-08-01 10:00 KST. canopy 위에 겹쳐 그린다","source":"위성 기반 추정 — Copernicus GLO-30 지형(30 m) + Meta/WRI 수관 높이(1 m CHM, 2015~2016 촬영). 그늘 = 수관(CHM > 2 m) ∪ 나무·지형 그림자 ∪ 원거리 지형 마스크. 현장과 다를 수 있음.","datasetVersion":"2026-09-06.0","collectedAt":"2026-09-06","coordinateOrder":"[longitude, latitude]","crs":"EPSG:4326","representativeDate":"2026-08-01","hours":["10:00","11:00","12:00","13:00","14:00","15:00","16:00","17:00","18:00"],"chmAcquisition":["2015-07","2016-06"],"assets":{"glo30":{"dataset":"Copernicus DEM GLO-30 (COG, s3://copernicus-dem-30m)","tiles":["Copernicus_DSM_COG_10_N37_00_E127_00_DEM"]},"chm":{"dataset":"Meta/WRI Global Canopy Height Map v1 (alsgedi_global_v6_float, 1 m, CC-BY 4.0)","quadkeys":["132110303"],"acquisition":["2015-07","2016-06"]}},"method":{"gridResM":2,"canopyThresholdM":2,"bufferHalfM":25,"corridorHalfM":200,"simplifyTolM":2,"minAreaM2":25,"coordDecimals":5},"generator":"scripts/shade 0.1.0","builtAt":"2026-09-06T05:59:39Z","layer":"shadow","timeLocal":"10:00"},"features":[{"type":"Feature","properties":{"valleyId":"gyeongban","layer":"shadow","date":"2026-08-01","timeLocal":"10:00"},"geometry":{"type":"Polygon","coordinates":[[[127.45804,37.84087],[127.458,37.84084],[127.458,37.84075],[127.45807,37.84075],[127.45811,37.84082],[127.45811,37.84087],[127.45804,37.84087]]]}},{"type":"Feature","properties":{"valleyId":"gyeongban","layer":"shadow","date":"2026-08-01","timeLocal":"10:00"},"geometry":{"type":"Polygon","coordinates":[[[127.457,37.84066],[127.457,37.84061],[127.45707,37.84061],[127.45707,37.84066],[127.457,37.84066]]]}},{"type":"Feature","properties":{"valleyId":"gyeongban","layer":"shadow","date":"2026-08-01","timeLocal":"10:00"},"geometry":{"type":"Polygon","coordinates":[[[127.45723,37.84052],[127.45721,37.84041],[127.45728,37.84041],[127.4573,37.84052],[127.45723,37.84052]]]}},{"type":"Feature","properties":{"valleyId":"gyeongban","layer":"shadow","date":"2026-08-01","timeLocal":"10:00"},"geometry":{"type":"Polygon","coordinates":[[[127.45737,37.84011],[127.45735,37.83998],[127.45742,37.83998],[127.45744,37.84011],[127.45737,37.84011]]]}},{"type":"Feature","properties":{"valleyId":"gyeongban","layer":"shadow","date":"2026-08-01","timeLocal":"10:00"},"geometry":{"type":"Polygon","coordinates":[[[127.45827,37.83992],[127.45827,37.8398],[127.45834,37.83974],[127.45834,37.83971],[127.45841,37.83971],[127.45836,37.83989],[127.45833,37.83992],[127.45827,37.83992]]]}},{"type":"Feature","properties":{"valleyId":"gyeongban","layer":"shadow","date":"2026-08-01","timeLocal":"10:00"},"geometry":{"type":"Polygon","coordinates":[[[127.45871,37.83946],[127.45873,37.83935],[127.4588,37.83935],[127.4588,37.83946],[127.45871,37.83946]]]}},{"type":"Feature","properties":{"valleyId":"gyeongban","layer":"shadow","date":"2026-08-01","timeLocal":"10:00"},"geometry":{"type":"Polygon","coordinates":[[[127.46133,37.83769],[127.46134,37.83764],[127.4614,37.83764],[127.4614,37.83769],[127.46133,37.83769]]]}},{"type":"Feature","properties":{"valleyId":"gyeongban","layer":"shadow","date":"2026-08-01","timeLocal":"10:00"},"geometry":{"type":"Polygon","coordinates":[[[127.46629,37.83752],[127.46629,37.83747],[127.46636,37.83747],[127.46636,37.83752],[127.46629,37.83752]]]}},{"type":"Feature","properties":{"valleyId":"gyeongban","layer":"shadow","date":"2026-08-01","timeLocal":"10:00"},"geometry":{"type":"Polygon","coordinates":[[[127.46613,37.83745],[127.46614,37.83739],[127.4662,37.83739],[127.4662,37.83745],[127.46613,37.83745]]]}},{"type":"Feature","properties":{"valleyId":"gyeongban","layer":"shadow","date":"2026-08-01","timeLocal":"10:00"},"geometry":{"type":"Polygon","coordinates":[[[127.46574,37.83656],[127.46575,37.8365],[127.46581,37.8365],[127.46581,37.83656],[127.46574,37.83656]]]}},{"type":"Feature","properties":{"valleyId":"gyeongban","layer":"shadow","date":"2026-08-01","timeLocal":"10:00"},"geometry":{"type":"Polygon","coordinates":[[[127.46584,37.83634],[127.46584,37.83625],[127.46591,37.83625],[127.46591,37.83634],[127.46584,37.83634]]]}},{"type":"Feature","properties":{"valleyId":"gyeongban","layer":"shadow","date":"2026-08-01","timeLocal":"10:00"},"geometry":{"type":"Polygon","coordinates":[[[127.4658,37.83616],[127.46573,37.83596],[127.46574,37.83586],[127.4658,37.83586],[127.46582,37.83605],[127.46587,37.83609],[127.46587,37.83616],[127.4658,37.83616]]]}},{"type":"Feature","properties":{"valleyId":"gyeongban","layer":"shadow","date":"2026-08-01","timeLocal":"10:00"},"geometry":{"type":"Polygon","coordinates":[[[127.47031,37.83458],[127.47031,37.83447],[127.47038,37.83447],[127.47038,37.83458],[127.47031,37.83458]]]}}]}
