{"type":"FeatureCollection","metadata":{"description":"개방지(CHM ≤ 2 m)에 드리운 나무·지형 그림자, 2026-08-01 15:00 KST. canopy 위에 겹쳐 그린다","source":"위성 기반 추정 — Copernicus GLO-30 지형(30 m) + Meta/WRI 수관 높이(1 m CHM, 2015~2016 촬영). 그늘 = 수관(CHM > 2 m) ∪ 나무·지형 그림자 ∪ 원거리 지형 마스크. 현장과 다를 수 있음.","datasetVersion":"2026-09-06.0","collectedAt":"2026-09-06","coordinateOrder":"[longitude, latitude]","crs":"EPSG:4326","representativeDate":"2026-08-01","hours":["10:00","11:00","12:00","13:00","14:00","15:00","16:00","17:00","18:00"],"chmAcquisition":["2015-07","2016-06"],"assets":{"glo30":{"dataset":"Copernicus DEM GLO-30 (COG, s3://copernicus-dem-30m)","tiles":["Copernicus_DSM_COG_10_N37_00_E127_00_DEM"]},"chm":{"dataset":"Meta/WRI Global Canopy Height Map v1 (alsgedi_global_v6_float, 1 m, CC-BY 4.0)","quadkeys":["132110303"],"acquisition":["2015-07","2016-06"]}},"method":{"gridResM":2,"canopyThresholdM":2,"bufferHalfM":25,"corridorHalfM":200,"simplifyTolM":2,"minAreaM2":25,"coordDecimals":5},"generator":"scripts/shade 0.1.0","builtAt":"2026-09-06T05:59:39Z","layer":"shadow","timeLocal":"15:00"},"features":[{"type":"Feature","properties":{"valleyId":"gyeongban","layer":"shadow","date":"2026-08-01","timeLocal":"15:00"},"geometry":{"type":"Polygon","coordinates":[[[127.45322,37.84108],[127.45322,37.84103],[127.45329,37.84103],[127.45329,37.84108],[127.45322,37.84108]]]}},{"type":"Feature","properties":{"valleyId":"gyeongban","layer":"shadow","date":"2026-08-01","timeLocal":"15:00"},"geometry":{"type":"Polygon","coordinates":[[[127.45577,37.84097],[127.45577,37.8409],[127.45581,37.8409],[127.45581,37.84086],[127.45588,37.84081],[127.45595,37.84081],[127.45595,37.84088],[127.45584,37.84092],[127.45583,37.84097],[127.45577,37.84097]]]}},{"type":"Feature","properties":{"valleyId":"gyeongban","layer":"shadow","date":"2026-08-01","timeLocal":"15:00"},"geometry":{"type":"Polygon","coordinates":[[[127.45987,37.83708],[127.45992,37.83695],[127.46001,37.83693],[127.46001,37.83704],[127.45987,37.83708]]]}},{"type":"Feature","properties":{"valleyId":"gyeongban","layer":"shadow","date":"2026-08-01","timeLocal":"15:00"},"geometry":{"type":"Polygon","coordinates":[[[127.46737,37.83391],[127.46737,37.83384],[127.46744,37.83384],[127.46744,37.83391],[127.46737,37.83391]]]}},{"type":"Feature","properties":{"valleyId":"gyeongban","layer":"shadow","date":"2026-08-01","timeLocal":"15:00"},"geometry":{"type":"Polygon","coordinates":[[[127.4656,37.83353],[127.4656,37.83344],[127.46567,37.83344],[127.46567,37.83353],[127.4656,37.83353]]]}},{"type":"Feature","properties":{"valleyId":"gyeongban","layer":"shadow","date":"2026-08-01","timeLocal":"15:00"},"geometry":{"type":"Polygon","coordinates":[[[127.47179,37.82885],[127.47179,37.82876],[127.47186,37.82876],[127.47186,37.82885],[127.47179,37.82885]]]}}]}
