{"type":"FeatureCollection","metadata":{"description":"개방지(CHM ≤ 2 m)에 드리운 나무·지형 그림자, 2026-08-01 16:00 KST. canopy 위에 겹쳐 그린다","source":"위성 기반 추정 — Copernicus GLO-30 지형(30 m) + Meta/WRI 수관 높이(1 m CHM, 2015~2016 촬영). 그늘 = 수관(CHM > 2 m) ∪ 나무·지형 그림자 ∪ 원거리 지형 마스크. 현장과 다를 수 있음.","datasetVersion":"2026-09-06.0","collectedAt":"2026-09-06","coordinateOrder":"[longitude, latitude]","crs":"EPSG:4326","representativeDate":"2026-08-01","hours":["10:00","11:00","12:00","13:00","14:00","15:00","16:00","17:00","18:00"],"chmAcquisition":["2015-07","2016-06"],"assets":{"glo30":{"dataset":"Copernicus DEM GLO-30 (COG, s3://copernicus-dem-30m)","tiles":["Copernicus_DSM_COG_10_N37_00_E127_00_DEM"]},"chm":{"dataset":"Meta/WRI Global Canopy Height Map v1 (alsgedi_global_v6_float, 1 m, CC-BY 4.0)","quadkeys":["132110303"],"acquisition":["2015-07","2016-06"]}},"method":{"gridResM":2,"canopyThresholdM":2,"bufferHalfM":25,"corridorHalfM":200,"simplifyTolM":2,"minAreaM2":25,"coordDecimals":5},"generator":"scripts/shade 0.1.0","builtAt":"2026-09-06T05:59:39Z","layer":"shadow","timeLocal":"16:00"},"features":[{"type":"Feature","properties":{"valleyId":"gyeongban","layer":"shadow","date":"2026-08-01","timeLocal":"16:00"},"geometry":{"type":"Polygon","coordinates":[[[127.45358,37.84222],[127.45358,37.84209],[127.45367,37.8421],[127.45365,37.84222],[127.45358,37.84222]]]}},{"type":"Feature","properties":{"valleyId":"gyeongban","layer":"shadow","date":"2026-08-01","timeLocal":"16:00"},"geometry":{"type":"Polygon","coordinates":[[[127.45458,37.84139],[127.4546,37.8413],[127.45467,37.8413],[127.45464,37.84139],[127.45458,37.84139]]]}},{"type":"Feature","properties":{"valleyId":"gyeongban","layer":"shadow","date":"2026-08-01","timeLocal":"16:00"},"geometry":{"type":"Polygon","coordinates":[[[127.45499,37.84118],[127.45499,37.84112],[127.45506,37.84112],[127.45506,37.84118],[127.45499,37.84118]]]}},{"type":"Feature","properties":{"valleyId":"gyeongban","layer":"shadow","date":"2026-08-01","timeLocal":"16:00"},"geometry":{"type":"Polygon","coordinates":[[[127.45324,37.84115],[127.45322,37.84103],[127.45331,37.84103],[127.45331,37.84115],[127.45324,37.84115]]]}},{"type":"Feature","properties":{"valleyId":"gyeongban","layer":"shadow","date":"2026-08-01","timeLocal":"16:00"},"geometry":{"type":"Polygon","coordinates":[[[127.45577,37.84097],[127.45577,37.8409],[127.45588,37.84081],[127.45597,37.84081],[127.45595,37.84092],[127.45588,37.84097],[127.45577,37.84097]]]}},{"type":"Feature","properties":{"valleyId":"gyeongban","layer":"shadow","date":"2026-08-01","timeLocal":"16:00"},"geometry":{"type":"Polygon","coordinates":[[[127.45634,37.84054],[127.45634,37.84049],[127.45639,37.84046],[127.45648,37.84046],[127.45648,37.84051],[127.45643,37.84055],[127.45634,37.84054]]]}},{"type":"Feature","properties":{"valleyId":"gyeongban","layer":"shadow","date":"2026-08-01","timeLocal":"16:00"},"geometry":{"type":"Polygon","coordinates":[[[127.45731,37.84016],[127.45731,37.84009],[127.45738,37.84009],[127.45737,37.84016],[127.45731,37.84016]]]}},{"type":"Feature","properties":{"valleyId":"gyeongban","layer":"shadow","date":"2026-08-01","timeLocal":"16:00"},"geometry":{"type":"Polygon","coordinates":[[[127.45716,37.83971],[127.45716,37.83965],[127.45723,37.83966],[127.45722,37.83971],[127.45716,37.83971]]]}},{"type":"Feature","properties":{"valleyId":"gyeongban","layer":"shadow","date":"2026-08-01","timeLocal":"16:00"},"geometry":{"type":"Polygon","coordinates":[[[127.45832,37.83967],[127.45832,37.8396],[127.45839,37.8396],[127.45838,37.83967],[127.45832,37.83967]]]}},{"type":"Feature","properties":{"valleyId":"gyeongban","layer":"shadow","date":"2026-08-01","timeLocal":"16:00"},"geometry":{"type":"Polygon","coordinates":[[[127.45752,37.83957],[127.4575,37.83946],[127.45759,37.83946],[127.45761,37.83953],[127.45759,37.83957],[127.45752,37.83957]]]}},{"type":"Feature","properties":{"valleyId":"gyeongban","layer":"shadow","date":"2026-08-01","timeLocal":"16:00"},"geometry":{"type":"Polygon","coordinates":[[[127.45795,37.83867],[127.45796,37.83842],[127.45807,37.8384],[127.45804,37.83862],[127.45802,37.83867],[127.45795,37.83867]]]}},{"type":"Feature","properties":{"valleyId":"gyeongban","layer":"shadow","date":"2026-08-01","timeLocal":"16:00"},"geometry":{"type":"Polygon","coordinates":[[[127.45818,37.83832],[127.45821,37.83817],[127.4583,37.83817],[127.45828,37.8383],[127.45818,37.83832]]]}},{"type":"Feature","properties":{"valleyId":"gyeongban","layer":"shadow","date":"2026-08-01","timeLocal":"16:00"},"geometry":{"type":"Polygon","coordinates":[[[127.45835,37.83816],[127.45835,37.83807],[127.45844,37.83807],[127.45844,37.83814],[127.45835,37.83816]]]}},{"type":"Feature","properties":{"valleyId":"gyeongban","layer":"shadow","date":"2026-08-01","timeLocal":"16:00"},"geometry":{"type":"Polygon","coordinates":[[[127.45882,37.83814],[127.45883,37.83809],[127.45887,37.83809],[127.45887,37.83805],[127.45894,37.83806],[127.45894,37.83811],[127.45889,37.83811],[127.45889,37.83814],[127.45882,37.83814]]]}},{"type":"Feature","properties":{"valleyId":"gyeongban","layer":"shadow","date":"2026-08-01","timeLocal":"16:00"},"geometry":{"type":"Polygon","coordinates":[[[127.45851,37.83807],[127.45853,37.83796],[127.4586,37.83796],[127.45858,37.83807],[127.45851,37.83807]]]}},{"type":"Feature","properties":{"valleyId":"gyeongban","layer":"shadow","date":"2026-08-01","timeLocal":"16:00"},"geometry":{"type":"Polygon","coordinates":[[[127.4586,37.83792],[127.4586,37.83787],[127.45867,37.83787],[127.45867,37.83793],[127.4586,37.83792]]]}},{"type":"Feature","properties":{"valleyId":"gyeongban","layer":"shadow","date":"2026-08-01","timeLocal":"16:00"},"geometry":{"type":"Polygon","coordinates":[[[127.46004,37.83762],[127.46004,37.83757],[127.46011,37.83757],[127.46011,37.83762],[127.46004,37.83762]]]}},{"type":"Feature","properties":{"valleyId":"gyeongban","layer":"shadow","date":"2026-08-01","timeLocal":"16:00"},"geometry":{"type":"Polygon","coordinates":[[[127.46302,37.83759],[127.46302,37.83753],[127.46309,37.83753],[127.46309,37.83759],[127.46302,37.83759]]]}},{"type":"Feature","properties":{"valleyId":"gyeongban","layer":"shadow","date":"2026-08-01","timeLocal":"16:00"},"geometry":{"type":"Polygon","coordinates":[[[127.45938,37.83747],[127.45939,37.83738],[127.45948,37.83738],[127.45948,37.83745],[127.45938,37.83747]]]}},{"type":"Feature","properties":{"valleyId":"gyeongban","layer":"shadow","date":"2026-08-01","timeLocal":"16:00"},"geometry":{"type":"Polygon","coordinates":[[[127.45962,37.83725],[127.45962,37.83718],[127.45975,37.83715],[127.45973,37.83725],[127.45962,37.83725]]]}},{"type":"Feature","properties":{"valleyId":"gyeongban","layer":"shadow","date":"2026-08-01","timeLocal":"16:00"},"geometry":{"type":"Polygon","coordinates":[[[127.46094,37.83716],[127.46094,37.83709],[127.46101,37.83709],[127.461,37.83716],[127.46094,37.83716]]]}},{"type":"Feature","properties":{"valleyId":"gyeongban","layer":"shadow","date":"2026-08-01","timeLocal":"16:00"},"geometry":{"type":"Polygon","coordinates":[[[127.45988,37.83749],[127.45989,37.83744],[127.45995,37.83738],[127.45996,37.83719],[127.45994,37.83715],[127.45985,37.83715],[127.45992,37.83695],[127.46001,37.83688],[127.4601,37.8369],[127.46008,37.83701],[127.46014,37.83701],[127.46019,37.83695],[127.46033,37.83696],[127.46028,37.83708],[127.46001,37.83713],[127.46,37.83719],[127.46007,37.83724],[127.46007,37.83737],[127.45997,37.83749],[127.45988,37.83749]]]}},{"type":"Feature","properties":{"valleyId":"gyeongban","layer":"shadow","date":"2026-08-01","timeLocal":"16:00"},"geometry":{"type":"Polygon","coordinates":[[[127.46403,37.83709],[127.46401,37.83702],[127.46408,37.83701],[127.46406,37.83688],[127.46408,37.83684],[127.46415,37.83684],[127.46412,37.8371],[127.46403,37.83709]]]}},{"type":"Feature","properties":{"valleyId":"gyeongban","layer":"shadow","date":"2026-08-01","timeLocal":"16:00"},"geometry":{"type":"Polygon","coordinates":[[[127.46015,37.83683],[127.46015,37.83677],[127.4602,37.83674],[127.4604,37.83669],[127.4604,37.83674],[127.46035,37.83674],[127.46035,37.83679],[127.46031,37.83683],[127.46015,37.83683]]]}},{"type":"Feature","properties":{"valleyId":"gyeongban","layer":"shadow","date":"2026-08-01","timeLocal":"16:00"},"geometry":{"type":"Polygon","coordinates":[[[127.4621,37.83577],[127.46211,37.83557],[127.46217,37.83557],[127.46217,37.83577],[127.4621,37.83577]]]}},{"type":"Feature","properties":{"valleyId":"gyeongban","layer":"shadow","date":"2026-08-01","timeLocal":"16:00"},"geometry":{"type":"Polygon","coordinates":[[[127.46512,37.83594],[127.46512,37.83585],[127.46503,37.83574],[127.46499,37.83556],[127.46508,37.83558],[127.46513,37.83572],[127.46519,37.83579],[127.46521,37.83592],[127.46512,37.83594]]]}},{"type":"Feature","properties":{"valleyId":"gyeongban","layer":"shadow","date":"2026-08-01","timeLocal":"16:00"},"geometry":{"type":"Polygon","coordinates":[[[127.46493,37.8355],[127.4649,37.83543],[127.46497,37.83543],[127.46499,37.8355],[127.46493,37.8355]]]}},{"type":"Feature","properties":{"valleyId":"gyeongban","layer":"shadow","date":"2026-08-01","timeLocal":"16:00"},"geometry":{"type":"Polygon","coordinates":[[[127.46024,37.83555],[127.46025,37.8353],[127.46032,37.8353],[127.46033,37.83551],[127.46031,37.83555],[127.46024,37.83555]]]}},{"type":"Feature","properties":{"valleyId":"gyeongban","layer":"shadow","date":"2026-08-01","timeLocal":"16:00"},"geometry":{"type":"Polygon","coordinates":[[[127.46427,37.83526],[127.4642,37.83519],[127.46421,37.8351],[127.46434,37.83508],[127.46434,37.83526],[127.46427,37.83526]]]}},{"type":"Feature","properties":{"valleyId":"gyeongban","layer":"shadow","date":"2026-08-01","timeLocal":"16:00"},"geometry":{"type":"Polygon","coordinates":[[[127.46461,37.83526],[127.46459,37.83505],[127.46466,37.83505],[127.46468,37.83526],[127.46461,37.83526]]]}},{"type":"Feature","properties":{"valleyId":"gyeongban","layer":"shadow","date":"2026-08-01","timeLocal":"16:00"},"geometry":{"type":"Polygon","coordinates":[[[127.4635,37.83512],[127.46348,37.83505],[127.46353,37.83502],[127.46359,37.83502],[127.46357,37.83512],[127.4635,37.83512]]]}},{"type":"Feature","properties":{"valleyId":"gyeongban","layer":"shadow","date":"2026-08-01","timeLocal":"16:00"},"geometry":{"type":"Polygon","coordinates":[[[127.46546,37.835],[127.46539,37.83493],[127.46542,37.83482],[127.46548,37.83482],[127.46551,37.83486],[127.46553,37.83501],[127.46546,37.835]]]}},{"type":"Feature","properties":{"valleyId":"gyeongban","layer":"shadow","date":"2026-08-01","timeLocal":"16:00"},"geometry":{"type":"Polygon","coordinates":[[[127.46312,37.83472],[127.46315,37.83461],[127.46319,37.83458],[127.46331,37.83458],[127.46328,37.83467],[127.46319,37.83467],[127.46319,37.83472],[127.46312,37.83472]]]}},{"type":"Feature","properties":{"valleyId":"gyeongban","layer":"shadow","date":"2026-08-01","timeLocal":"16:00"},"geometry":{"type":"Polygon","coordinates":[[[127.46587,37.83469],[127.46588,37.8346],[127.46594,37.8346],[127.46594,37.83469],[127.46587,37.83469]]]}},{"type":"Feature","properties":{"valleyId":"gyeongban","layer":"shadow","date":"2026-08-01","timeLocal":"16:00"},"geometry":{"type":"Polygon","coordinates":[[[127.46485,37.83456],[127.46485,37.83451],[127.4649,37.83449],[127.46492,37.83442],[127.46499,37.83442],[127.46497,37.83453],[127.46492,37.83456],[127.46485,37.83456]]]}},{"type":"Feature","properties":{"valleyId":"gyeongban","layer":"shadow","date":"2026-08-01","timeLocal":"16:00"},"geometry":{"type":"Polygon","coordinates":[[[127.46331,37.83456],[127.46329,37.83442],[127.46338,37.8344],[127.46338,37.83456],[127.46331,37.83456]]]}},{"type":"Feature","properties":{"valleyId":"gyeongban","layer":"shadow","date":"2026-08-01","timeLocal":"16:00"},"geometry":{"type":"Polygon","coordinates":[[[127.46504,37.83439],[127.46506,37.83431],[127.46518,37.8343],[127.46518,37.83435],[127.46504,37.83439]]]}},{"type":"Feature","properties":{"valleyId":"gyeongban","layer":"shadow","date":"2026-08-01","timeLocal":"16:00"},"geometry":{"type":"Polygon","coordinates":[[[127.46525,37.83423],[127.46525,37.83417],[127.46532,37.83417],[127.46532,37.83423],[127.46525,37.83423]]]}},{"type":"Feature","properties":{"valleyId":"gyeongban","layer":"shadow","date":"2026-08-01","timeLocal":"16:00"},"geometry":{"type":"Polygon","coordinates":[[[127.46331,37.83427],[127.46327,37.83413],[127.46323,37.83411],[127.46323,37.834],[127.46334,37.834],[127.46336,37.83404],[127.46341,37.83427],[127.46331,37.83427]]]}},{"type":"Feature","properties":{"valleyId":"gyeongban","layer":"shadow","date":"2026-08-01","timeLocal":"16:00"},"geometry":{"type":"Polygon","coordinates":[[[127.46682,37.83394],[127.46685,37.83378],[127.46692,37.83378],[127.46691,37.83392],[127.46682,37.83394]]]}},{"type":"Feature","properties":{"valleyId":"gyeongban","layer":"shadow","date":"2026-08-01","timeLocal":"16:00"},"geometry":{"type":"Polygon","coordinates":[[[127.46734,37.83393],[127.46737,37.83377],[127.46742,37.83373],[127.46753,37.83373],[127.46753,37.83391],[127.46734,37.83393]]]}},{"type":"Feature","properties":{"valleyId":"gyeongban","layer":"shadow","date":"2026-08-01","timeLocal":"16:00"},"geometry":{"type":"Polygon","coordinates":[[[127.46753,37.83373],[127.46756,37.83361],[127.46762,37.83361],[127.46762,37.83373],[127.46753,37.83373]]]}},{"type":"Feature","properties":{"valleyId":"gyeongban","layer":"shadow","date":"2026-08-01","timeLocal":"16:00"},"geometry":{"type":"Polygon","coordinates":[[[127.46705,37.83366],[127.46706,37.8336],[127.46712,37.8336],[127.46712,37.83366],[127.46705,37.83366]]]}},{"type":"Feature","properties":{"valleyId":"gyeongban","layer":"shadow","date":"2026-08-01","timeLocal":"16:00"},"geometry":{"type":"Polygon","coordinates":[[[127.46394,37.83358],[127.46394,37.83352],[127.46401,37.83353],[127.46401,37.83358],[127.46394,37.83358]]]}},{"type":"Feature","properties":{"valleyId":"gyeongban","layer":"shadow","date":"2026-08-01","timeLocal":"16:00"},"geometry":{"type":"Polygon","coordinates":[[[127.46537,37.83358],[127.46538,37.83353],[127.46547,37.83353],[127.46547,37.83358],[127.46537,37.83358]]]}},{"type":"Feature","properties":{"valleyId":"gyeongban","layer":"shadow","date":"2026-08-01","timeLocal":"16:00"},"geometry":{"type":"Polygon","coordinates":[[[127.46511,37.83338],[127.46511,37.83332],[127.4652,37.83331],[127.4652,37.83338],[127.46511,37.83338]]]}},{"type":"Feature","properties":{"valleyId":"gyeongban","layer":"shadow","date":"2026-08-01","timeLocal":"16:00"},"geometry":{"type":"Polygon","coordinates":[[[127.4672,37.83339],[127.4672,37.83328],[127.46727,37.83328],[127.46731,37.8333],[127.46731,37.83333],[127.46736,37.83333],[127.46736,37.83339],[127.4672,37.83339]]]}},{"type":"Feature","properties":{"valleyId":"gyeongban","layer":"shadow","date":"2026-08-01","timeLocal":"16:00"},"geometry":{"type":"Polygon","coordinates":[[[127.46781,37.8335],[127.46781,37.83345],[127.4679,37.83338],[127.46795,37.83329],[127.46793,37.833],[127.468,37.83298],[127.46814,37.83286],[127.46823,37.83286],[127.46823,37.83297],[127.46814,37.83298],[127.46816,37.83309],[127.46811,37.83333],[127.46804,37.83338],[127.46804,37.83342],[127.46797,37.83343],[127.46794,37.83349],[127.46781,37.8335]]]}},{"type":"Feature","properties":{"valleyId":"gyeongban","layer":"shadow","date":"2026-08-01","timeLocal":"16:00"},"geometry":{"type":"Polygon","coordinates":[[[127.46877,37.8329],[127.46878,37.83285],[127.46887,37.83285],[127.46887,37.8329],[127.46877,37.8329]]]}},{"type":"Feature","properties":{"valleyId":"gyeongban","layer":"shadow","date":"2026-08-01","timeLocal":"16:00"},"geometry":{"type":"Polygon","coordinates":[[[127.46889,37.83287],[127.46894,37.83274],[127.46903,37.83273],[127.46903,37.83269],[127.46912,37.83269],[127.46912,37.83274],[127.46905,37.83274],[127.469,37.83285],[127.46889,37.83287]]]}},{"type":"Feature","properties":{"valleyId":"gyeongban","layer":"shadow","date":"2026-08-01","timeLocal":"16:00"},"geometry":{"type":"Polygon","coordinates":[[[127.46917,37.83266],[127.46917,37.8326],[127.46926,37.83257],[127.46935,37.83244],[127.46944,37.83242],[127.46939,37.83257],[127.46928,37.83258],[127.46926,37.83266],[127.46917,37.83266]]]}},{"type":"Feature","properties":{"valleyId":"gyeongban","layer":"shadow","date":"2026-08-01","timeLocal":"16:00"},"geometry":{"type":"Polygon","coordinates":[[[127.46956,37.83232],[127.46956,37.83226],[127.46963,37.83226],[127.46963,37.83232],[127.46956,37.83232]]]}},{"type":"Feature","properties":{"valleyId":"gyeongban","layer":"shadow","date":"2026-08-01","timeLocal":"16:00"},"geometry":{"type":"Polygon","coordinates":[[[127.4716,37.83024],[127.4716,37.83018],[127.47167,37.83018],[127.47167,37.83024],[127.4716,37.83024]]]}},{"type":"Feature","properties":{"valleyId":"gyeongban","layer":"shadow","date":"2026-08-01","timeLocal":"16:00"},"geometry":{"type":"Polygon","coordinates":[[[127.47108,37.83001],[127.47099,37.82992],[127.471,37.82981],[127.47114,37.82971],[127.47118,37.8296],[127.47119,37.82926],[127.47126,37.82926],[127.47134,37.82967],[127.4713,37.82969],[127.47127,37.82976],[127.4712,37.82978],[127.4712,37.82982],[127.47113,37.82981],[127.47115,37.83001],[127.47108,37.83001]]]}},{"type":"Feature","properties":{"valleyId":"gyeongban","layer":"shadow","date":"2026-08-01","timeLocal":"16:00"},"geometry":{"type":"Polygon","coordinates":[[[127.47179,37.82874],[127.47177,37.82865],[127.47191,37.82867],[127.47191,37.82874],[127.47179,37.82874]]]}}]}
