{"type":"FeatureCollection","metadata":{"description":"수관 아래(CHM > 2 m) — 시각 무관. 구간 회랑 ±200 m 절단","source":"위성 기반 추정 — Copernicus GLO-30 지형(30 m) + Meta/WRI 수관 높이(1 m CHM, 2019 촬영). 그늘 = 수관(CHM > 2 m) ∪ 나무·지형 그림자 ∪ 원거리 지형 마스크. 현장과 다를 수 있음.","datasetVersion":"2026-09-06.0","collectedAt":"2026-09-06","coordinateOrder":"[longitude, latitude]","crs":"EPSG:4326","representativeDate":"2026-08-01","hours":["10:00","11:00","12:00","13:00","14:00","15:00","16:00","17:00","18:00"],"chmAcquisition":["2019-03"],"assets":{"glo30":{"dataset":"Copernicus DEM GLO-30 (COG, s3://copernicus-dem-30m)","tiles":["Copernicus_DSM_COG_10_N37_00_E127_00_DEM","Copernicus_DSM_COG_10_N38_00_E127_00_DEM"]},"chm":{"dataset":"Meta/WRI Global Canopy Height Map v1 (alsgedi_global_v6_float, 1 m, CC-BY 4.0)","quadkeys":["132110303"],"acquisition":["2019-03"]}},"method":{"gridResM":2,"canopyThresholdM":2,"bufferHalfM":25,"corridorHalfM":200,"simplifyTolM":2,"minAreaM2":25,"coordDecimals":5},"generator":"scripts/shade 0.1.0","builtAt":"2026-09-06T05:52:39Z","layer":"canopy"},"features":[{"type":"Feature","properties":{"valleyId":"cheonghakdong","layer":"canopy","date":"2026-08-01"},"geometry":{"type":"Polygon","coordinates":[[[127.31252,37.94706],[127.31252,37.94699],[127.31259,37.94699],[127.31259,37.94706],[127.31252,37.94706]]]}},{"type":"Feature","properties":{"valleyId":"cheonghakdong","layer":"canopy","date":"2026-08-01"},"geometry":{"type":"Polygon","coordinates":[[[127.31154,37.94721],[127.31152,37.94703],[127.31143,37.94695],[127.31143,37.94686],[127.31154,37.94688],[127.31159,37.9471],[127.31163,37.9471],[127.31165,37.94714],[127.31163,37.94721],[127.31154,37.94721]]]}},{"type":"Feature","properties":{"valleyId":"cheonghakdong","layer":"canopy","date":"2026-08-01"},"geometry":{"type":"Polygon","coordinates":[[[127.3125,37.94693],[127.3125,37.94688],[127.31255,37.94686],[127.31271,37.94686],[127.3127,37.94694],[127.3125,37.94693]]]}},{"type":"Feature","properties":{"valleyId":"cheonghakdong","layer":"canopy","date":"2026-08-01"},"geometry":{"type":"Polygon","coordinates":[[[127.31284,37.94688],[127.31273,37.94686],[127.31275,37.94677],[127.31305,37.94676],[127.31305,37.94683],[127.31296,37.94683],[127.31291,37.94685],[127.31291,37.94688],[127.31284,37.94688]]]}},{"type":"Feature","properties":{"valleyId":"cheonghakdong","layer":"canopy","date":"2026-08-01"},"geometry":{"type":"Polygon","coordinates":[[[127.31101,37.94651],[127.31101,37.94646],[127.31108,37.94646],[127.31108,37.94652],[127.31101,37.94651]]]}},{"type":"Feature","properties":{"valleyId":"cheonghakdong","layer":"canopy","date":"2026-08-01"},"geometry":{"type":"Polygon","coordinates":[[[127.31144,37.94632],[127.3114,37.9463],[127.3114,37.94623],[127.31154,37.94622],[127.31156,37.94629],[127.31151,37.94632],[127.31144,37.94632]]]}},{"type":"Feature","properties":{"valleyId":"cheonghakdong","layer":"canopy","date":"2026-08-01"},"geometry":{"type":"Polygon","coordinates":[[[127.31164,37.94582],[127.31164,37.94575],[127.31175,37.94575],[127.31175,37.94582],[127.31164,37.94582]]]}},{"type":"Feature","properties":{"valleyId":"cheonghakdong","layer":"canopy","date":"2026-08-01"},"geometry":{"type":"Polygon","coordinates":[[[127.31178,37.94568],[127.31178,37.94555],[127.31185,37.94555],[127.31185,37.94568],[127.31178,37.94568]]]}},{"type":"Feature","properties":{"valleyId":"cheonghakdong","layer":"canopy","date":"2026-08-01"},"geometry":{"type":"Polygon","coordinates":[[[127.30864,37.94563],[127.30864,37.94558],[127.30871,37.94553],[127.30871,37.94549],[127.30882,37.94547],[127.30887,37.94558],[127.30882,37.94562],[127.30864,37.94563]]]}},{"type":"Feature","properties":{"valleyId":"cheonghakdong","layer":"canopy","date":"2026-08-01"},"geometry":{"type":"Polygon","coordinates":[[[127.31167,37.94548],[127.31162,37.94544],[127.31156,37.94544],[127.31156,37.94531],[127.31161,37.94523],[127.31167,37.94523],[127.31167,37.94526],[127.31172,37.94526],[127.31172,37.94535],[127.31178,37.94537],[127.31174,37.94548],[127.31167,37.94548]]]}},{"type":"Feature","properties":{"valleyId":"cheonghakdong","layer":"canopy","date":"2026-08-01"},"geometry":{"type":"Polygon","coordinates":[[[127.31188,37.94518],[127.31184,37.94514],[127.31184,37.94508],[127.31193,37.94509],[127.31195,37.94512],[127.31195,37.94518],[127.31188,37.94518]]]}},{"type":"Feature","properties":{"valleyId":"cheonghakdong","layer":"canopy","date":"2026-08-01"},"geometry":{"type":"Polygon","coordinates":[[[127.30838,37.94502],[127.30836,37.94494],[127.30843,37.94495],[127.30845,37.94502],[127.30838,37.94502]]]}},{"type":"Feature","properties":{"valleyId":"cheonghakdong","layer":"canopy","date":"2026-08-01"},"geometry":{"type":"Polygon","coordinates":[[[127.30831,37.94493],[127.30829,37.94484],[127.30836,37.94484],[127.30838,37.94493],[127.30831,37.94493]]]}},{"type":"Feature","properties":{"valleyId":"cheonghakdong","layer":"canopy","date":"2026-08-01"},"geometry":{"type":"Polygon","coordinates":[[[127.31096,37.94469],[127.31096,37.94462],[127.31105,37.9446],[127.31105,37.94455],[127.31112,37.94455],[127.31112,37.94462],[127.31107,37.94462],[127.31107,37.94468],[127.31096,37.94469]]]}},{"type":"Feature","properties":{"valleyId":"cheonghakdong","layer":"canopy","date":"2026-08-01"},"geometry":{"type":"Polygon","coordinates":[[[127.31128,37.94443],[127.31124,37.94439],[127.31124,37.94434],[127.3114,37.94436],[127.31137,37.94443],[127.31128,37.94443]]]}},{"type":"Feature","properties":{"valleyId":"cheonghakdong","layer":"canopy","date":"2026-08-01"},"geometry":{"type":"Polygon","coordinates":[[[127.31094,37.94448],[127.31083,37.94437],[127.31083,37.94422],[127.31076,37.9442],[127.31079,37.9441],[127.31084,37.94408],[127.31093,37.94408],[127.31097,37.94412],[127.31097,37.94415],[127.31106,37.94423],[127.31106,37.94428],[127.31117,37.94437],[127.31117,37.94443],[127.31112,37.94446],[127.31094,37.94448]]]}},{"type":"Feature","properties":{"valleyId":"cheonghakdong","layer":"canopy","date":"2026-08-01"},"geometry":{"type":"Polygon","coordinates":[[[127.31204,37.94402],[127.312,37.94397],[127.312,37.9439],[127.31211,37.94392],[127.31213,37.94397],[127.31213,37.94403],[127.31204,37.94402]]]}},{"type":"Feature","properties":{"valleyId":"cheonghakdong","layer":"canopy","date":"2026-08-01"},"geometry":{"type":"Polygon","coordinates":[[[127.31216,37.94374],[127.31214,37.94365],[127.31223,37.94365],[127.31223,37.94374],[127.31216,37.94374]]]}},{"type":"Feature","properties":{"valleyId":"cheonghakdong","layer":"canopy","date":"2026-08-01"},"geometry":{"type":"Polygon","coordinates":[[[127.31205,37.94366],[127.31205,37.94361],[127.31212,37.94361],[127.31212,37.94366],[127.31205,37.94366]]]}},{"type":"Feature","properties":{"valleyId":"cheonghakdong","layer":"canopy","date":"2026-08-01"},"geometry":{"type":"Polygon","coordinates":[[[127.30848,37.94341],[127.30848,37.94336],[127.30855,37.94336],[127.30855,37.94342],[127.30848,37.94341]]]}},{"type":"Feature","properties":{"valleyId":"cheonghakdong","layer":"canopy","date":"2026-08-01"},"geometry":{"type":"Polygon","coordinates":[[[127.30869,37.94336],[127.30869,37.94331],[127.30876,37.94331],[127.30876,37.94336],[127.30869,37.94336]]]}},{"type":"Feature","properties":{"valleyId":"cheonghakdong","layer":"canopy","date":"2026-08-01"},"geometry":{"type":"Polygon","coordinates":[[[127.30899,37.94335],[127.30901,37.94328],[127.30921,37.94328],[127.30919,37.94335],[127.30899,37.94335]]]}},{"type":"Feature","properties":{"valleyId":"cheonghakdong","layer":"canopy","date":"2026-08-01"},"geometry":{"type":"Polygon","coordinates":[[[127.30944,37.9433],[127.30947,37.94323],[127.3096,37.94323],[127.30958,37.9433],[127.30944,37.9433]]]}},{"type":"Feature","properties":{"valleyId":"cheonghakdong","layer":"canopy","date":"2026-08-01"},"geometry":{"type":"Polygon","coordinates":[[[127.30643,37.94283],[127.30636,37.94277],[127.30636,37.94272],[127.30647,37.9427],[127.30652,37.94272],[127.30652,37.94281],[127.30643,37.94283]]]}},{"type":"Feature","properties":{"valleyId":"cheonghakdong","layer":"canopy","date":"2026-08-01"},"geometry":{"type":"Polygon","coordinates":[[[127.30622,37.94275],[127.3062,37.94268],[127.30627,37.94268],[127.30629,37.94275],[127.30622,37.94275]]]}},{"type":"Feature","properties":{"valleyId":"cheonghakdong","layer":"canopy","date":"2026-08-01"},"geometry":{"type":"Polygon","coordinates":[[[127.30584,37.94262],[127.30584,37.94257],[127.30591,37.94257],[127.30591,37.94262],[127.30584,37.94262]]]}},{"type":"Feature","properties":{"valleyId":"cheonghakdong","layer":"canopy","date":"2026-08-01"},"geometry":{"type":"Polygon","coordinates":[[[127.30523,37.94241],[127.30507,37.9423],[127.30503,37.9423],[127.30494,37.94223],[127.30494,37.94217],[127.30503,37.94217],[127.30508,37.9421],[127.30517,37.9421],[127.30521,37.94218],[127.30528,37.94218],[127.30532,37.94225],[127.30541,37.94231],[127.30541,37.94236],[127.30537,37.94236],[127.30534,37.94241],[127.30523,37.94241]]]}},{"type":"Feature","properties":{"valleyId":"cheonghakdong","layer":"canopy","date":"2026-08-01"},"geometry":{"type":"Polygon","coordinates":[[[127.30883,37.94218],[127.30881,37.9421],[127.30888,37.9421],[127.3089,37.94218],[127.30883,37.94218]]]}},{"type":"Feature","properties":{"valleyId":"cheonghakdong","layer":"canopy","date":"2026-08-01"},"geometry":{"type":"Polygon","coordinates":[[[127.30755,37.94223],[127.30756,37.94212],[127.30765,37.94209],[127.30765,37.94203],[127.30774,37.94196],[127.30781,37.94196],[127.30786,37.942],[127.30781,37.94214],[127.30772,37.94218],[127.30771,37.94223],[127.30755,37.94223]]]}},{"type":"Feature","properties":{"valleyId":"cheonghakdong","layer":"canopy","date":"2026-08-01"},"geometry":{"type":"Polygon","coordinates":[[[127.30532,37.94157],[127.3053,37.94149],[127.30541,37.94151],[127.30541,37.94157],[127.30532,37.94157]]]}},{"type":"Feature","properties":{"valleyId":"cheonghakdong","layer":"canopy","date":"2026-08-01"},"geometry":{"type":"Polygon","coordinates":[[[127.30521,37.94147],[127.30518,37.9414],[127.30532,37.94142],[127.30532,37.94148],[127.30521,37.94147]]]}},{"type":"Feature","properties":{"valleyId":"cheonghakdong","layer":"canopy","date":"2026-08-01"},"geometry":{"type":"Polygon","coordinates":[[[127.30828,37.94141],[127.30828,37.94136],[127.30837,37.94136],[127.30837,37.94141],[127.30828,37.94141]]]}},{"type":"Feature","properties":{"valleyId":"cheonghakdong","layer":"canopy","date":"2026-08-01"},"geometry":{"type":"Polygon","coordinates":[[[127.3081,37.94137],[127.30805,37.94134],[127.30805,37.94128],[127.30815,37.94128],[127.30821,37.94132],[127.30821,37.94137],[127.3081,37.94137]]]}},{"type":"Feature","properties":{"valleyId":"cheonghakdong","layer":"canopy","date":"2026-08-01"},"geometry":{"type":"Polygon","coordinates":[[[127.30837,37.94127],[127.30838,37.94116],[127.30847,37.94116],[127.30846,37.94125],[127.30837,37.94127]]]}},{"type":"Feature","properties":{"valleyId":"cheonghakdong","layer":"canopy","date":"2026-08-01"},"geometry":{"type":"Polygon","coordinates":[[[127.30681,37.94117],[127.30681,37.94112],[127.30687,37.94112],[127.30687,37.94117],[127.30681,37.94117]]]}},{"type":"Feature","properties":{"valleyId":"cheonghakdong","layer":"canopy","date":"2026-08-01"},"geometry":{"type":"Polygon","coordinates":[[[127.30797,37.9411],[127.30797,37.94105],[127.30804,37.94105],[127.30804,37.9411],[127.30797,37.9411]]]}},{"type":"Feature","properties":{"valleyId":"cheonghakdong","layer":"canopy","date":"2026-08-01"},"geometry":{"type":"Polygon","coordinates":[[[127.3086,37.94111],[127.30861,37.94104],[127.30872,37.94104],[127.30872,37.94111],[127.3086,37.94111]]]}},{"type":"Feature","properties":{"valleyId":"cheonghakdong","layer":"canopy","date":"2026-08-01"},"geometry":{"type":"Polygon","coordinates":[[[127.30691,37.94054],[127.30693,37.94047],[127.30703,37.94047],[127.30702,37.94055],[127.30691,37.94054]]]}},{"type":"Feature","properties":{"valleyId":"cheonghakdong","layer":"canopy","date":"2026-08-01"},"geometry":{"type":"Polygon","coordinates":[[[127.30491,37.94032],[127.3048,37.94026],[127.3048,37.94021],[127.30505,37.94025],[127.30503,37.94032],[127.30491,37.94032]]]}},{"type":"Feature","properties":{"valleyId":"cheonghakdong","layer":"canopy","date":"2026-08-01"},"geometry":{"type":"Polygon","coordinates":[[[127.30687,37.94036],[127.30673,37.94034],[127.30671,37.94022],[127.30687,37.9402],[127.30687,37.94029],[127.30694,37.94031],[127.30694,37.94036],[127.30687,37.94036]]]}},{"type":"Feature","properties":{"valleyId":"cheonghakdong","layer":"canopy","date":"2026-08-01"},"geometry":{"type":"Polygon","coordinates":[[[127.30812,37.94027],[127.30812,37.94022],[127.30819,37.94022],[127.30819,37.94027],[127.30812,37.94027]]]}},{"type":"Feature","properties":{"valleyId":"cheonghakdong","layer":"canopy","date":"2026-08-01"},"geometry":{"type":"Polygon","coordinates":[[[127.3028,37.94011],[127.30271,37.93998],[127.30272,37.93987],[127.30276,37.93987],[127.30285,37.93978],[127.30295,37.93978],[127.30297,37.93987],[127.30303,37.93995],[127.30303,37.94002],[127.30296,37.94007],[127.30292,37.94007],[127.30292,37.94011],[127.3028,37.94011]]]}},{"type":"Feature","properties":{"valleyId":"cheonghakdong","layer":"canopy","date":"2026-08-01"},"geometry":{"type":"Polygon","coordinates":[[[127.31125,37.94268],[127.31087,37.94264],[127.31082,37.94256],[127.31083,37.94247],[127.31074,37.94244],[127.31069,37.94235],[127.31062,37.94233],[127.31058,37.94227],[127.31058,37.9422],[127.31081,37.94208],[127.31084,37.94199],[127.31087,37.94174],[127.31082,37.94161],[127.31076,37.94159],[127.31076,37.9413],[127.31081,37.94119],[127.3107,37.94119],[127.31065,37.94103],[127.31052,37.94097],[127.3105,37.94094],[127.31027,37.94088],[127.31023,37.94083],[127.31018,37.94083],[127.31018,37.94079],[127.30993,37.94079],[127.30993,37.94075],[127.30984,37.94071],[127.30982,37.94062],[127.30971,37.94062],[127.30957,37.94056],[127.30957,37.94049],[127.30953,37.94049],[127.30946,37.94042],[127.30949,37.94027],[127.30931,37.94024],[127.30931,37.94018],[127.30926,37.94015],[127.30927,37.94004],[127.30895,37.94003],[127.30881,37.9399],[127.30882,37.93978],[127.30889,37.93978],[127.30907,37.93985],[127.30909,37.93989],[127.30927,37.93995],[127.30929,37.93998],[127.30943,37.94002],[127.30945,37.94006],[127.30963,37.94011],[127.30965,37.94015],[127.30983,37.94023],[127.30988,37.94028],[127.30992,37.94028],[127.30997,37.94034],[127.31001,37.94034],[127.31014,37.94046],[127.31019,37.94046],[127.31032,37.94059],[127.31037,37.94059],[127.31066,37.94085],[127.3107,37.94085],[127.31108,37.94116],[127.31108,37.9412],[127.31122,37.94131],[127.31122,37.94134],[127.31126,37.94136],[127.31144,37.94162],[127.31144,37.94169],[127.31137,37.94171],[127.31141,37.94185],[127.3115,37.94191],[127.3115,37.94196],[127.31157,37.94202],[127.31161,37.94213],[127.31168,37.94218],[127.31183,37.94218],[127.31186,37.94222],[127.31183,37.94236],[127.31174,37.94245],[127.31165,37.94245],[127.3116,37.94241],[127.31124,37.94234],[127.31126,37.9425],[127.31162,37.9425],[127.31162,37.94256],[127.31157,37.94259],[127.31144,37.94263],[127.31137,37.94268],[127.31125,37.94268]]]}},{"type":"Feature","properties":{"valleyId":"cheonghakdong","layer":"canopy","date":"2026-08-01"},"geometry":{"type":"Polygon","coordinates":[[[127.30339,37.93907],[127.30337,37.93898],[127.30346,37.93898],[127.30346,37.93907],[127.30339,37.93907]]]}},{"type":"Feature","properties":{"valleyId":"cheonghakdong","layer":"canopy","date":"2026-08-01"},"geometry":{"type":"Polygon","coordinates":[[[127.30662,37.93912],[127.30663,37.93906],[127.30701,37.93901],[127.30701,37.93907],[127.30697,37.9391],[127.30662,37.93912]]]}},{"type":"Feature","properties":{"valleyId":"cheonghakdong","layer":"canopy","date":"2026-08-01"},"geometry":{"type":"Polygon","coordinates":[[[127.30352,37.93869],[127.30352,37.93864],[127.30361,37.93862],[127.30361,37.93868],[127.30352,37.93869]]]}},{"type":"Feature","properties":{"valleyId":"cheonghakdong","layer":"canopy","date":"2026-08-01"},"geometry":{"type":"Polygon","coordinates":[[[127.30359,37.93846],[127.30359,37.93837],[127.30368,37.93837],[127.3037,37.93846],[127.30359,37.93846]]]}},{"type":"Feature","properties":{"valleyId":"cheonghakdong","layer":"canopy","date":"2026-08-01"},"geometry":{"type":"Polygon","coordinates":[[[127.30337,37.93833],[127.30337,37.93828],[127.30344,37.93828],[127.30343,37.93833],[127.30337,37.93833]]]}},{"type":"Feature","properties":{"valleyId":"cheonghakdong","layer":"canopy","date":"2026-08-01"},"geometry":{"type":"Polygon","coordinates":[[[127.30432,37.93845],[127.30425,37.93829],[127.30421,37.93827],[127.30421,37.93816],[127.30428,37.93816],[127.30432,37.93831],[127.30439,37.93834],[127.30439,37.93845],[127.30432,37.93845]]]}},{"type":"Feature","properties":{"valleyId":"cheonghakdong","layer":"canopy","date":"2026-08-01"},"geometry":{"type":"Polygon","coordinates":[[[127.30362,37.93832],[127.30362,37.93794],[127.30367,37.9379],[127.30378,37.9379],[127.30385,37.93785],[127.30401,37.93785],[127.30403,37.93798],[127.30419,37.938],[127.30421,37.93811],[127.30403,37.93811],[127.30394,37.93801],[127.30383,37.93801],[127.30371,37.93815],[127.30368,37.93832],[127.30362,37.93832]]]}},{"type":"Feature","properties":{"valleyId":"cheonghakdong","layer":"canopy","date":"2026-08-01"},"geometry":{"type":"Polygon","coordinates":[[[127.30577,37.93869],[127.30564,37.9386],[127.30543,37.93859],[127.30534,37.93857],[127.30527,37.93852],[127.30523,37.93841],[127.30524,37.93814],[127.30528,37.93812],[127.30528,37.93802],[127.30542,37.93793],[127.30547,37.93793],[127.30554,37.93786],[127.30586,37.93779],[127.30586,37.93784],[127.30565,37.93789],[127.30563,37.93795],[127.30556,37.93795],[127.30558,37.93807],[127.30569,37.93808],[127.30576,37.93802],[127.30583,37.93802],[127.30588,37.93806],[127.30582,37.93838],[127.30594,37.93842],[127.30593,37.93853],[127.30604,37.9386],[127.30604,37.93867],[127.30577,37.93869]]]}},{"type":"Feature","properties":{"valleyId":"cheonghakdong","layer":"canopy","date":"2026-08-01"},"geometry":{"type":"Polygon","coordinates":[[[127.30483,37.93806],[127.30478,37.93803],[127.30479,37.93794],[127.30474,37.93792],[127.30474,37.93786],[127.30463,37.93784],[127.30461,37.93781],[127.30461,37.93757],[127.30468,37.93757],[127.3047,37.93775],[127.3049,37.93776],[127.30502,37.93781],[127.30499,37.93803],[127.30494,37.93806],[127.30483,37.93806]]]}},{"type":"Feature","properties":{"valleyId":"cheonghakdong","layer":"canopy","date":"2026-08-01"},"geometry":{"type":"Polygon","coordinates":[[[127.3043,37.93746],[127.3043,37.93739],[127.30441,37.93739],[127.30439,37.93746],[127.3043,37.93746]]]}},{"type":"Feature","properties":{"valleyId":"cheonghakdong","layer":"canopy","date":"2026-08-01"},"geometry":{"type":"Polygon","coordinates":[[[127.30379,37.93749],[127.30377,37.93738],[127.30387,37.93736],[127.30389,37.93745],[127.30386,37.93749],[127.30379,37.93749]]]}},{"type":"Feature","properties":{"valleyId":"cheonghakdong","layer":"canopy","date":"2026-08-01"},"geometry":{"type":"Polygon","coordinates":[[[127.30455,37.9375],[127.3045,37.93746],[127.3045,37.93741],[127.30455,37.93737],[127.30462,37.93737],[127.30461,37.9375],[127.30455,37.9375]]]}},{"type":"Feature","properties":{"valleyId":"cheonghakdong","layer":"canopy","date":"2026-08-01"},"geometry":{"type":"Polygon","coordinates":[[[127.30352,37.93745],[127.30355,37.93729],[127.30364,37.93729],[127.30364,37.93743],[127.30352,37.93745]]]}},{"type":"Feature","properties":{"valleyId":"cheonghakdong","layer":"canopy","date":"2026-08-01"},"geometry":{"type":"Polygon","coordinates":[[[127.30423,37.93726],[127.30426,37.93719],[127.3043,37.93719],[127.30433,37.93715],[127.30442,37.93716],[127.30442,37.93721],[127.30437,37.93721],[127.30432,37.93726],[127.30423,37.93726]]]}},{"type":"Feature","properties":{"valleyId":"cheonghakdong","layer":"canopy","date":"2026-08-01"},"geometry":{"type":"Polygon","coordinates":[[[127.3048,37.9372],[127.3048,37.93712],[127.30487,37.93713],[127.30487,37.9372],[127.3048,37.9372]]]}},{"type":"Feature","properties":{"valleyId":"cheonghakdong","layer":"canopy","date":"2026-08-01"},"geometry":{"type":"Polygon","coordinates":[[[127.30364,37.93716],[127.30364,37.93709],[127.30369,37.93707],[127.30369,37.93704],[127.30376,37.93704],[127.30373,37.93716],[127.30364,37.93716]]]}},{"type":"Feature","properties":{"valleyId":"cheonghakdong","layer":"canopy","date":"2026-08-01"},"geometry":{"type":"Polygon","coordinates":[[[127.30522,37.93706],[127.30519,37.93697],[127.30529,37.93697],[127.30531,37.93706],[127.30522,37.93706]]]}},{"type":"Feature","properties":{"valleyId":"cheonghakdong","layer":"canopy","date":"2026-08-01"},"geometry":{"type":"Polygon","coordinates":[[[127.30455,37.93712],[127.30451,37.93708],[127.30451,37.93694],[127.30444,37.93694],[127.30431,37.93701],[127.30412,37.93699],[127.30415,37.93683],[127.30424,37.93681],[127.30431,37.93687],[127.30431,37.9369],[127.30438,37.9369],[127.30442,37.93685],[127.30447,37.93685],[127.30447,37.9368],[127.30438,37.93679],[127.30438,37.93672],[127.30447,37.93671],[127.30449,37.93678],[127.30468,37.9368],[127.30467,37.93689],[127.30488,37.93689],[127.30495,37.93682],[127.30491,37.9366],[127.30498,37.93659],[127.30507,37.9365],[127.30518,37.9365],[127.30518,37.93659],[127.30511,37.93662],[127.30511,37.93668],[127.30525,37.93668],[127.30529,37.93679],[127.30522,37.93681],[127.30513,37.93691],[127.30501,37.93691],[127.30494,37.93696],[127.30476,37.93698],[127.30471,37.93712],[127.30455,37.93712]]]}},{"type":"Feature","properties":{"valleyId":"cheonghakdong","layer":"canopy","date":"2026-08-01"},"geometry":{"type":"Polygon","coordinates":[[[127.30483,37.94215],[127.30478,37.9421],[127.30469,37.94208],[127.3046,37.94201],[127.30417,37.94182],[127.30408,37.94175],[127.30399,37.94173],[127.30397,37.94169],[127.30388,37.94167],[127.30375,37.94158],[127.30318,37.94134],[127.30318,37.94127],[127.30325,37.94123],[127.30325,37.94116],[127.3031,37.94117],[127.30307,37.94114],[127.30298,37.94114],[127.30298,37.94108],[127.30314,37.94101],[127.30315,37.94094],[127.3031,37.94094],[127.30303,37.94083],[127.30297,37.94083],[127.30285,37.94074],[127.30274,37.94074],[127.30274,37.94077],[127.30267,37.94083],[127.3026,37.94082],[127.30256,37.94077],[127.30256,37.94063],[127.30245,37.94055],[127.30243,37.94041],[127.30239,37.94037],[127.30225,37.94037],[127.30211,37.94028],[127.302,37.94027],[127.30194,37.94017],[127.30184,37.94013],[127.30176,37.94002],[127.30162,37.93996],[127.30162,37.93987],[127.30183,37.93986],[127.30183,37.9398],[127.30165,37.93978],[127.30165,37.93986],[127.30156,37.93985],[127.30156,37.93982],[127.30149,37.93976],[127.3015,37.93931],[127.30148,37.93928],[127.30139,37.93926],[127.30141,37.93908],[127.30135,37.93902],[127.30135,37.9387],[127.30145,37.93861],[127.30143,37.93846],[127.3015,37.93841],[127.3015,37.93821],[127.30144,37.93816],[127.30144,37.938],[127.30139,37.93796],[127.3014,37.9379],[127.30144,37.93787],[127.30145,37.93764],[127.30154,37.93751],[127.30161,37.93748],[127.30161,37.9374],[127.30157,37.93737],[127.30153,37.9372],[127.30146,37.93718],[127.30146,37.93709],[127.30156,37.93681],[127.30163,37.93681],[127.30162,37.93686],[127.30167,37.9369],[127.30181,37.9369],[127.30183,37.93694],[127.3019,37.93694],[127.3019,37.93687],[127.30185,37.93685],[127.30185,37.93679],[127.30179,37.93678],[127.30179,37.93674],[127.3016,37.93677],[127.30168,37.93659],[127.30174,37.93659],[127.30184,37.93652],[127.30197,37.93651],[127.30211,37.93642],[127.30223,37.9364],[127.30223,37.93637],[127.3023,37.93633],[127.3023,37.93628],[127.30246,37.93628],[127.30253,37.93625],[127.30284,37.93625],[127.30291,37.93632],[127.30302,37.93634],[127.30302,37.93638],[127.30309,37.93642],[127.30313,37.93667],[127.30318,37.93667],[127.30315,37.93678],[127.30329,37.9368],[127.30324,37.93703],[127.30317,37.93707],[127.30316,37.93725],[127.30323,37.93741],[127.30322,37.93757],[127.3032,37.93761],[127.30311,37.93762],[127.30311,37.93771],[127.30315,37.93773],[127.30321,37.938],[127.30317,37.93804],[127.30316,37.93818],[127.30312,37.9382],[127.30309,37.93833],[127.30293,37.93831],[127.30289,37.93834],[127.30289,37.9384],[127.30305,37.93838],[127.30304,37.93847],[127.30298,37.93849],[127.30297,37.93865],[127.30292,37.9387],[127.30286,37.93872],[127.30283,37.93901],[127.30278,37.93908],[127.30278,37.93913],[127.30291,37.93919],[127.30293,37.9393],[127.30282,37.9393],[127.3027,37.93938],[127.30264,37.93938],[127.3025,37.93951],[127.30249,37.93962],[127.30254,37.93965],[127.30251,37.93974],[127.3024,37.93979],[127.30226,37.93976],[127.30224,37.93981],[127.3021,37.93988],[127.3021,37.93992],[127.30203,37.93991],[127.30203,37.93997],[127.30224,37.93992],[127.30237,37.93994],[127.30242,37.93999],[127.30251,37.93999],[127.30251,37.94008],[127.30255,37.94008],[127.30255,37.94014],[127.30262,37.94023],[127.30287,37.94023],[127.303,37.94018],[127.30305,37.94013],[127.30317,37.94011],[127.30319,37.94008],[127.30344,37.94004],[127.30347,37.9399],[127.30342,37.93983],[127.30331,37.93975],[127.30331,37.93963],[127.30338,37.93957],[127.30354,37.93958],[127.30352,37.93941],[127.30343,37.93932],[127.30346,37.93921],[127.30353,37.93922],[127.30353,37.93929],[127.30361,37.93936],[127.30361,37.93941],[127.30375,37.93949],[127.30381,37.9396],[127.30388,37.93962],[127.30397,37.93983],[127.3041,37.93985],[127.30412,37.93996],[127.30431,37.93997],[127.30431,37.94002],[127.30442,37.94011],[127.30442,37.94018],[127.30455,37.9402],[127.30457,37.94029],[127.30469,37.94033],[127.30475,37.94044],[127.30482,37.94046],[127.30486,37.9406],[127.30502,37.94075],[127.30501,37.94097],[127.30492,37.94104],[127.30492,37.94111],[127.30496,37.94113],[127.30496,37.9412],[127.3051,37.94122],[127.3051,37.94127],[127.30496,37.94125],[127.30496,37.94138],[127.3048,37.94143],[127.3048,37.94147],[127.3047,37.9415],[127.3047,37.94159],[127.30475,37.94167],[127.30484,37.94167],[127.30489,37.94152],[127.30504,37.94151],[127.30504,37.94154],[127.3052,37.94156],[127.3052,37.94165],[127.30509,37.94171],[127.30497,37.94171],[127.30493,37.94174],[127.30488,37.94181],[127.30488,37.94196],[127.30494,37.94198],[127.30494,37.94208],[127.30489,37.9421],[127.30489,37.94215],[127.30483,37.94215]],[[127.3045,37.94159],[127.30457,37.94159],[127.30457,37.94145],[127.30448,37.94145],[127.3045,37.94159]],[[127.30361,37.94042],[127.3037,37.94043],[127.30371,37.94035],[127.30364,37.9403],[127.30355,37.9403],[127.30352,37.94037],[127.30357,37.94037],[127.30361,37.94042]],[[127.30172,37.93966],[127.30179,37.93966],[127.30181,37.93953],[127.30188,37.93948],[127.30191,37.93934],[127.30195,37.93934],[127.30198,37.93927],[127.30214,37.93923],[127.30214,37.93916],[127.30205,37.93916],[127.30205,37.9391],[127.30212,37.93907],[127.3023,37.93909],[127.30239,37.939],[127.30237,37.93893],[127.30226,37.93891],[127.30226,37.93882],[127.30215,37.93884],[127.30217,37.939],[127.3021,37.939],[127.3021,37.93896],[127.30189,37.93894],[127.30183,37.93899],[127.30167,37.93899],[127.30164,37.93903],[127.30155,37.93902],[127.30155,37.93908],[127.30171,37.9391],[127.30171,37.93917],[127.30178,37.93917],[127.30177,37.93948],[127.30172,37.9395],[127.30172,37.93953],[127.30156,37.93953],[127.30156,37.9396],[127.30172,37.9396],[127.30172,37.93966]],[[127.30225,37.93932],[127.30234,37.93932],[127.30234,37.93927],[127.30225,37.93925],[127.30225,37.93932]],[[127.30244,37.93884],[127.30263,37.93882],[127.30263,37.93877],[127.30258,37.93877],[127.30252,37.93866],[127.30231,37.93869],[127.30231,37.93878],[127.30244,37.93884]],[[127.30191,37.93845],[127.30197,37.93845],[127.30198,37.93842],[127.30202,37.93842],[127.30207,37.93829],[127.30221,37.9383],[127.30221,37.93824],[127.30196,37.93824],[127.30198,37.93835],[127.30195,37.9384],[127.30191,37.9384],[127.30191,37.93845]],[[127.30238,37.93844],[127.30252,37.93841],[127.30255,37.93834],[127.30239,37.93835],[127.30238,37.93844]],[[127.30187,37.93818],[127.30198,37.93818],[127.30196,37.93806],[127.3021,37.93804],[127.3021,37.93799],[127.30192,37.93798],[127.30192,37.93791],[127.30185,37.93791],[127.30187,37.93818]],[[127.30194,37.93786],[127.30203,37.93786],[127.30203,37.93781],[127.30194,37.93779],[127.30194,37.93786]],[[127.30215,37.93783],[127.30222,37.93783],[127.30224,37.93765],[127.30231,37.93763],[127.30232,37.93747],[127.30225,37.93745],[127.30225,37.93739],[127.30232,37.9374],[127.30232,37.93731],[127.30246,37.93734],[127.30246,37.93729],[127.30234,37.93729],[127.30232,37.93723],[127.30221,37.93723],[127.30221,37.93714],[127.30214,37.93712],[127.30212,37.93707],[127.30207,37.93707],[127.30208,37.93696],[127.30201,37.93696],[127.30196,37.93701],[127.30201,37.93712],[127.30196,37.93712],[127.30193,37.93726],[127.30205,37.93736],[127.30214,37.93736],[127.30216,37.93747],[127.3022,37.93747],[127.3022,37.9375],[127.30225,37.93752],[127.30225,37.93757],[127.30215,37.93761],[127.30208,37.93772],[127.30208,37.93779],[127.30215,37.93783]],[[127.30172,37.93775],[127.30181,37.93775],[127.30181,37.93768],[127.30172,37.93768],[127.30172,37.93775]],[[127.30183,37.9367],[127.3019,37.9367],[127.3019,37.93665],[127.30183,37.93665],[127.30183,37.9367]]]}},{"type":"Feature","properties":{"valleyId":"cheonghakdong","layer":"canopy","date":"2026-08-01"},"geometry":{"type":"Polygon","coordinates":[[[127.30476,37.93617],[127.30481,37.93603],[127.30499,37.93606],[127.30499,37.93612],[127.30492,37.93614],[127.30492,37.93617],[127.30476,37.93617]]]}},{"type":"Feature","properties":{"valleyId":"cheonghakdong","layer":"canopy","date":"2026-08-01"},"geometry":{"type":"Polygon","coordinates":[[[127.3049,37.93505],[127.3049,37.93496],[127.30499,37.93496],[127.30499,37.93504],[127.3049,37.93505]]]}},{"type":"Feature","properties":{"valleyId":"cheonghakdong","layer":"canopy","date":"2026-08-01"},"geometry":{"type":"Polygon","coordinates":[[[127.30055,37.93497],[127.30055,37.9349],[127.30062,37.9349],[127.30062,37.93497],[127.30055,37.93497]]]}},{"type":"Feature","properties":{"valleyId":"cheonghakdong","layer":"canopy","date":"2026-08-01"},"geometry":{"type":"Polygon","coordinates":[[[127.30247,37.93484],[127.30247,37.93475],[127.30254,37.93475],[127.30254,37.93484],[127.30247,37.93484]]]}},{"type":"Feature","properties":{"valleyId":"cheonghakdong","layer":"canopy","date":"2026-08-01"},"geometry":{"type":"Polygon","coordinates":[[[127.30099,37.93556],[127.30086,37.93552],[127.30083,37.93499],[127.30069,37.93488],[127.30069,37.93479],[127.30065,37.93472],[127.3006,37.93469],[127.30035,37.93466],[127.30031,37.93461],[127.30031,37.93454],[127.30015,37.93455],[127.30013,37.93441],[127.29997,37.93441],[127.29976,37.93392],[127.29966,37.93339],[127.29962,37.9328],[127.29969,37.9328],[127.29972,37.93269],[127.29981,37.93269],[127.29992,37.93276],[127.30003,37.93275],[127.30006,37.93268],[127.30013,37.93264],[127.30013,37.93253],[127.30018,37.93252],[127.30038,37.93254],[127.30038,37.93263],[127.30042,37.93263],[127.30049,37.93268],[127.30053,37.93283],[127.30058,37.93285],[127.3006,37.93292],[127.30061,37.93342],[127.30077,37.93357],[127.30072,37.9338],[127.30083,37.93384],[127.30085,37.93413],[127.30078,37.93413],[127.30077,37.93433],[127.30079,37.9344],[127.30084,37.9344],[127.30083,37.9346],[127.30088,37.93473],[127.30094,37.93478],[127.30099,37.93478],[127.30099,37.93483],[127.30108,37.93493],[127.30105,37.93505],[127.3011,37.93509],[127.30109,37.93518],[127.3012,37.93543],[127.3012,37.93554],[127.30099,37.93556]]]}},{"type":"Feature","properties":{"valleyId":"cheonghakdong","layer":"canopy","date":"2026-08-01"},"geometry":{"type":"Polygon","coordinates":[[[127.30095,37.93258],[127.30095,37.93253],[127.30104,37.93251],[127.30104,37.93258],[127.30095,37.93258]]]}},{"type":"Feature","properties":{"valleyId":"cheonghakdong","layer":"canopy","date":"2026-08-01"},"geometry":{"type":"Polygon","coordinates":[[[127.30192,37.93593],[127.30187,37.93589],[127.30171,37.93589],[127.30169,37.93585],[127.30158,37.93582],[127.30154,37.93578],[127.30154,37.93565],[127.30147,37.93562],[127.30147,37.93553],[127.30152,37.93553],[127.30152,37.93546],[127.30157,37.93544],[127.30166,37.9353],[127.30166,37.93519],[127.3016,37.93515],[127.3016,37.93504],[127.30155,37.93501],[127.30156,37.93486],[127.30151,37.93482],[127.30152,37.93466],[127.30147,37.93463],[127.30145,37.93439],[127.30141,37.93435],[127.30141,37.93428],[127.30134,37.93428],[127.30132,37.93419],[127.30128,37.93417],[127.30124,37.93396],[127.30119,37.93392],[127.30119,37.93385],[127.30113,37.93377],[127.30113,37.9337],[127.30106,37.93363],[127.30106,37.93356],[127.301,37.93345],[127.30098,37.93328],[127.30091,37.93323],[127.30087,37.93287],[127.30083,37.9328],[127.30083,37.93272],[127.30097,37.93271],[127.30097,37.93287],[127.30108,37.93291],[127.30121,37.93291],[127.30124,37.93286],[127.30131,37.93282],[127.30129,37.93259],[127.30122,37.93251],[127.30123,37.93222],[127.30134,37.93223],[127.30146,37.93232],[127.30145,37.93244],[127.3015,37.93252],[127.30163,37.93259],[127.30165,37.93279],[127.30171,37.93292],[127.30176,37.93295],[127.30185,37.93295],[127.30189,37.93301],[127.30189,37.93315],[127.30196,37.93323],[127.302,37.93357],[127.30208,37.93366],[127.30208,37.93373],[127.30217,37.93377],[127.30222,37.93392],[127.30233,37.93397],[127.30237,37.93408],[127.30242,37.9341],[127.30244,37.93424],[127.30248,37.93426],[127.30248,37.9343],[127.30255,37.93435],[127.30266,37.93437],[127.30263,37.93448],[127.3025,37.93446],[127.30243,37.93441],[127.30227,37.9344],[127.3022,37.93446],[127.3022,37.93464],[127.30213,37.93465],[127.30217,37.93483],[127.30228,37.93485],[127.30228,37.93493],[127.30233,37.93493],[127.30235,37.93502],[127.30242,37.93502],[127.30242,37.93489],[127.30249,37.93489],[127.30256,37.93497],[127.30255,37.93507],[127.3026,37.93513],[127.30254,37.93552],[127.30259,37.93552],[127.30259,37.93558],[127.30254,37.93563],[127.30247,37.93565],[127.30235,37.93586],[127.30226,37.93588],[127.30226,37.93592],[127.30192,37.93593]],[[127.30211,37.93537],[127.30218,37.93537],[127.30216,37.93521],[127.30228,37.9352],[127.30228,37.93514],[127.30216,37.93514],[127.30214,37.93501],[127.30194,37.93497],[127.30192,37.93501],[127.30183,37.93503],[127.30178,37.93508],[127.30171,37.9351],[127.30175,37.9353],[127.30191,37.93526],[127.30191,37.93532],[127.30209,37.9353],[127.30211,37.93537]],[[127.30188,37.93456],[127.302,37.93454],[127.302,37.93449],[127.30193,37.93447],[127.30193,37.93434],[127.30209,37.93433],[127.30207,37.93417],[127.30196,37.93416],[127.30196,37.93425],[127.30182,37.93423],[127.30171,37.93427],[127.30173,37.93445],[127.30168,37.93447],[127.30168,37.93452],[127.30186,37.93449],[127.30188,37.93456]],[[127.30156,37.93391],[127.30162,37.93391],[127.30169,37.93385],[127.30172,37.93376],[127.30154,37.93378],[127.30156,37.93391]]]}},{"type":"Feature","properties":{"valleyId":"cheonghakdong","layer":"canopy","date":"2026-08-01"},"geometry":{"type":"Polygon","coordinates":[[[127.30021,37.93219],[127.30019,37.93212],[127.30028,37.93212],[127.30028,37.93219],[127.30021,37.93219]]]}},{"type":"Feature","properties":{"valleyId":"cheonghakdong","layer":"canopy","date":"2026-08-01"},"geometry":{"type":"Polygon","coordinates":[[[127.29975,37.93213],[127.29975,37.9321],[127.29969,37.93208],[127.29971,37.93199],[127.29978,37.93199],[127.29985,37.93206],[127.29984,37.93211],[127.29975,37.93213]]]}},{"type":"Feature","properties":{"valleyId":"cheonghakdong","layer":"canopy","date":"2026-08-01"},"geometry":{"type":"Polygon","coordinates":[[[127.30008,37.93194],[127.30003,37.93183],[127.30006,37.93179],[127.30015,37.93179],[127.30014,37.93194],[127.30008,37.93194]]]}},{"type":"Feature","properties":{"valleyId":"cheonghakdong","layer":"canopy","date":"2026-08-01"},"geometry":{"type":"Polygon","coordinates":[[[127.29999,37.93165],[127.29997,37.93156],[127.29981,37.93156],[127.29981,37.93147],[127.29991,37.93125],[127.3,37.93125],[127.3,37.93132],[127.30007,37.93138],[127.30006,37.93147],[127.29997,37.93147],[127.29997,37.93152],[127.30011,37.93152],[127.30008,37.93165],[127.29999,37.93165]]]}},{"type":"Feature","properties":{"valleyId":"cheonghakdong","layer":"canopy","date":"2026-08-01"},"geometry":{"type":"Polygon","coordinates":[[[127.30045,37.93133],[127.30043,37.93128],[127.30034,37.93122],[127.30032,37.93109],[127.30037,37.93108],[127.30037,37.93104],[127.30053,37.93103],[127.30066,37.93112],[127.30066,37.93123],[127.30057,37.9313],[127.30057,37.93133],[127.30045,37.93133]]]}},{"type":"Feature","properties":{"valleyId":"cheonghakdong","layer":"canopy","date":"2026-08-01"},"geometry":{"type":"Polygon","coordinates":[[[127.30503,37.93116],[127.30501,37.93105],[127.30506,37.93102],[127.30506,37.93096],[127.30513,37.93097],[127.3051,37.93116],[127.30503,37.93116]]]}},{"type":"Feature","properties":{"valleyId":"cheonghakdong","layer":"canopy","date":"2026-08-01"},"geometry":{"type":"Polygon","coordinates":[[[127.3006,37.93095],[127.30058,37.93092],[127.30053,37.93092],[127.30053,37.93085],[127.30069,37.93083],[127.30071,37.93096],[127.3006,37.93095]]]}},{"type":"Feature","properties":{"valleyId":"cheonghakdong","layer":"canopy","date":"2026-08-01"},"geometry":{"type":"Polygon","coordinates":[[[127.29966,37.93045],[127.29961,37.93038],[127.29961,37.93033],[127.29968,37.93033],[127.29973,37.93038],[127.29972,37.93045],[127.29966,37.93045]]]}},{"type":"Feature","properties":{"valleyId":"cheonghakdong","layer":"canopy","date":"2026-08-01"},"geometry":{"type":"Polygon","coordinates":[[[127.30495,37.93062],[127.30495,37.93057],[127.30486,37.93057],[127.30484,37.93051],[127.30484,37.93042],[127.30489,37.93039],[127.30496,37.93039],[127.30498,37.93051],[127.30505,37.93053],[127.30505,37.9306],[127.30495,37.93062]]]}},{"type":"Feature","properties":{"valleyId":"cheonghakdong","layer":"canopy","date":"2026-08-01"},"geometry":{"type":"Polygon","coordinates":[[[127.305,37.93039],[127.30501,37.93033],[127.30507,37.93033],[127.30507,37.93039],[127.305,37.93039]]]}},{"type":"Feature","properties":{"valleyId":"cheonghakdong","layer":"canopy","date":"2026-08-01"},"geometry":{"type":"Polygon","coordinates":[[[127.29952,37.93024],[127.29953,37.93018],[127.29959,37.93018],[127.29959,37.93024],[127.29952,37.93024]]]}},{"type":"Feature","properties":{"valleyId":"cheonghakdong","layer":"canopy","date":"2026-08-01"},"geometry":{"type":"Polygon","coordinates":[[[127.30423,37.93023],[127.30424,37.93018],[127.3043,37.93018],[127.3043,37.93023],[127.30423,37.93023]]]}},{"type":"Feature","properties":{"valleyId":"cheonghakdong","layer":"canopy","date":"2026-08-01"},"geometry":{"type":"Polygon","coordinates":[[[127.30426,37.93002],[127.30426,37.92996],[127.30433,37.92996],[127.30433,37.93002],[127.30426,37.93002]]]}},{"type":"Feature","properties":{"valleyId":"cheonghakdong","layer":"canopy","date":"2026-08-01"},"geometry":{"type":"Polygon","coordinates":[[[127.30422,37.92994],[127.30422,37.92987],[127.30431,37.92987],[127.30431,37.92994],[127.30422,37.92994]]]}},{"type":"Feature","properties":{"valleyId":"cheonghakdong","layer":"canopy","date":"2026-08-01"},"geometry":{"type":"Polygon","coordinates":[[[127.29946,37.93014],[127.29935,37.92993],[127.29928,37.92987],[127.29928,37.9298],[127.29933,37.9298],[127.29938,37.92975],[127.29947,37.92975],[127.29951,37.92986],[127.29953,37.93015],[127.29946,37.93014]]]}},{"type":"Feature","properties":{"valleyId":"cheonghakdong","layer":"canopy","date":"2026-08-01"},"geometry":{"type":"Polygon","coordinates":[[[127.30431,37.92982],[127.30431,37.92975],[127.30438,37.92975],[127.30438,37.92982],[127.30431,37.92982]]]}},{"type":"Feature","properties":{"valleyId":"cheonghakdong","layer":"canopy","date":"2026-08-01"},"geometry":{"type":"Polygon","coordinates":[[[127.30034,37.9305],[127.30022,37.93048],[127.30016,37.93043],[127.3,37.9304],[127.29995,37.93037],[127.29996,37.93015],[127.29991,37.93012],[127.29992,37.93004],[127.29987,37.92999],[127.29987,37.92986],[127.29981,37.92983],[127.29978,37.92977],[127.29977,37.92963],[127.29986,37.92954],[127.30002,37.92956],[127.30006,37.92952],[127.30013,37.92952],[127.30013,37.92961],[127.30027,37.92962],[127.30031,37.92958],[127.30038,37.92958],[127.30032,37.92936],[127.30043,37.92931],[127.30071,37.92932],[127.3007,37.92937],[127.30061,37.92944],[127.30065,37.92957],[127.30059,37.92958],[127.30058,37.92964],[127.3004,37.92974],[127.3004,37.92987],[127.30035,37.92989],[127.30035,37.92994],[127.30044,37.92996],[127.30044,37.93],[127.30051,37.93003],[127.3005,37.93014],[127.30059,37.93023],[127.30059,37.93029],[127.3005,37.93038],[127.3005,37.93047],[127.30045,37.9305],[127.30034,37.9305]]]}},{"type":"Feature","properties":{"valleyId":"cheonghakdong","layer":"canopy","date":"2026-08-01"},"geometry":{"type":"Polygon","coordinates":[[[127.29965,37.92881],[127.29965,37.92871],[127.29972,37.92867],[127.29977,37.9286],[127.29977,37.92849],[127.29991,37.92849],[127.2999,37.92853],[127.29997,37.92857],[127.29995,37.92869],[127.29981,37.92873],[127.29974,37.92881],[127.29965,37.92881]]]}},{"type":"Feature","properties":{"valleyId":"cheonghakdong","layer":"canopy","date":"2026-08-01"},"geometry":{"type":"Polygon","coordinates":[[[127.29985,37.92802],[127.29985,37.92793],[127.2998,37.92791],[127.29981,37.92786],[127.2999,37.92786],[127.29996,37.92792],[127.29996,37.92799],[127.29992,37.92802],[127.29985,37.92802]]]}},{"type":"Feature","properties":{"valleyId":"cheonghakdong","layer":"canopy","date":"2026-08-01"},"geometry":{"type":"Polygon","coordinates":[[[127.29957,37.92739],[127.29957,37.92733],[127.29964,37.92734],[127.29963,37.92739],[127.29957,37.92739]]]}},{"type":"Feature","properties":{"valleyId":"cheonghakdong","layer":"canopy","date":"2026-08-01"},"geometry":{"type":"Polygon","coordinates":[[[127.2995,37.9273],[127.29948,37.92717],[127.29962,37.92717],[127.29959,37.9273],[127.2995,37.9273]]]}},{"type":"Feature","properties":{"valleyId":"cheonghakdong","layer":"canopy","date":"2026-08-01"},"geometry":{"type":"Polygon","coordinates":[[[127.29853,37.92791],[127.29844,37.9277],[127.29833,37.92753],[127.29834,37.92748],[127.29829,37.92744],[127.29829,37.92739],[127.29822,37.92737],[127.29816,37.9273],[127.29811,37.9273],[127.29793,37.92715],[127.29794,37.92709],[127.29805,37.9271],[127.29805,37.92704],[127.29823,37.92692],[127.29828,37.92692],[127.29831,37.92674],[127.29835,37.9267],[127.29847,37.92672],[127.29844,37.92687],[127.29851,37.92687],[127.2985,37.9271],[127.29857,37.92719],[127.29857,37.92739],[127.29863,37.92747],[127.29863,37.92761],[127.29874,37.92768],[127.29881,37.92768],[127.29881,37.92774],[127.29865,37.92775],[127.2986,37.92792],[127.29853,37.92791]]]}},{"type":"Feature","properties":{"valleyId":"cheonghakdong","layer":"canopy","date":"2026-08-01"},"geometry":{"type":"Polygon","coordinates":[[[127.2991,37.92401],[127.2991,37.92396],[127.29917,37.92396],[127.29917,37.92401],[127.2991,37.92401]]]}},{"type":"Feature","properties":{"valleyId":"cheonghakdong","layer":"canopy","date":"2026-08-01"},"geometry":{"type":"Polygon","coordinates":[[[127.29964,37.92315],[127.29962,37.92306],[127.29971,37.92305],[127.29973,37.92312],[127.29971,37.92315],[127.29964,37.92315]]]}},{"type":"Feature","properties":{"valleyId":"cheonghakdong","layer":"canopy","date":"2026-08-01"},"geometry":{"type":"Polygon","coordinates":[[[127.29949,37.92294],[127.29949,37.92288],[127.29956,37.92288],[127.29956,37.92294],[127.29949,37.92294]]]}},{"type":"Feature","properties":{"valleyId":"cheonghakdong","layer":"canopy","date":"2026-08-01"},"geometry":{"type":"Polygon","coordinates":[[[127.29961,37.9227],[127.29963,37.92256],[127.29972,37.92254],[127.29972,37.92265],[127.29968,37.92267],[127.29967,37.9227],[127.29961,37.9227]]]}},{"type":"Feature","properties":{"valleyId":"cheonghakdong","layer":"canopy","date":"2026-08-01"},"geometry":{"type":"Polygon","coordinates":[[[127.2998,37.9224],[127.2998,37.92235],[127.29986,37.92235],[127.29986,37.9224],[127.2998,37.9224]]]}},{"type":"Feature","properties":{"valleyId":"cheonghakdong","layer":"canopy","date":"2026-08-01"},"geometry":{"type":"Polygon","coordinates":[[[127.29784,37.92708],[127.29785,37.92704],[127.29773,37.92697],[127.29771,37.92689],[127.29767,37.92689],[127.2976,37.92684],[127.2976,37.9268],[127.29744,37.92665],[127.2972,37.9262],[127.29698,37.92508],[127.29703,37.92495],[127.29712,37.92488],[127.29712,37.92481],[127.29703,37.92477],[127.29704,37.92463],[127.29695,37.92445],[127.29686,37.92443],[127.29679,37.92437],[127.29677,37.92416],[127.29684,37.92414],[127.29691,37.92407],[127.29712,37.92405],[127.29721,37.924],[127.29719,37.92393],[127.29694,37.92394],[127.29692,37.92384],[127.29683,37.92383],[127.29685,37.92369],[127.297,37.92337],[127.29704,37.92333],[127.29712,37.92312],[127.29716,37.92308],[127.29719,37.92297],[127.29723,37.92294],[127.29724,37.92288],[127.29738,37.92267],[127.29754,37.92253],[127.29754,37.92249],[127.29766,37.92242],[127.29766,37.92239],[127.29803,37.92214],[127.29809,37.92214],[127.29813,37.9225],[127.2982,37.92257],[127.29831,37.92259],[127.29833,37.92274],[127.29845,37.92274],[127.29844,37.92283],[127.29828,37.92281],[127.29828,37.92285],[127.29821,37.9229],[127.29823,37.92304],[127.29832,37.92312],[127.29832,37.92319],[127.29848,37.92321],[127.29847,37.92346],[127.29843,37.92348],[127.29844,37.92393],[127.29839,37.92409],[127.2983,37.92414],[127.2983,37.9242],[127.29834,37.92422],[127.29836,37.92429],[127.29831,37.92454],[127.29836,37.92454],[127.29838,37.92458],[127.29837,37.92492],[127.29832,37.92505],[127.29834,37.92523],[127.29829,37.92539],[127.29825,37.92542],[127.29811,37.92542],[127.29809,37.92546],[127.298,37.92546],[127.298,37.92537],[127.29791,37.92535],[127.29793,37.92554],[127.29783,37.9256],[127.29783,37.92563],[127.29779,37.92563],[127.29765,37.92577],[127.29737,37.92582],[127.29737,37.9259],[127.29742,37.92592],[127.29744,37.92599],[127.29753,37.92603],[127.29755,37.92617],[127.29761,37.92622],[127.29768,37.92623],[127.2977,37.92626],[127.2978,37.92626],[127.29784,37.92632],[127.29791,37.92632],[127.29797,37.92639],[127.29797,37.92659],[127.2979,37.92666],[127.29791,37.92708],[127.29784,37.92708]],[[127.29725,37.92516],[127.29737,37.92514],[127.29735,37.92503],[127.29725,37.92503],[127.29725,37.92516]],[[127.29748,37.92494],[127.29758,37.92494],[127.2976,37.92487],[127.29749,37.92487],[127.29748,37.92494]],[[127.29742,37.92476],[127.29756,37.92476],[127.29756,37.92469],[127.29749,37.92464],[127.29738,37.92465],[127.29737,37.92474],[127.29742,37.92476]]]}}]}
