{"type":"FeatureCollection","metadata":{"description":"개방지(CHM ≤ 2 m)에 드리운 나무·지형 그림자, 2026-08-01 10:00 KST. canopy 위에 겹쳐 그린다","source":"위성 기반 추정 — Copernicus GLO-30 지형(30 m) + Meta/WRI 수관 높이(1 m CHM, 2019 촬영). 그늘 = 수관(CHM > 2 m) ∪ 나무·지형 그림자 ∪ 원거리 지형 마스크. 현장과 다를 수 있음.","datasetVersion":"2026-09-06.0","collectedAt":"2026-09-06","coordinateOrder":"[longitude, latitude]","crs":"EPSG:4326","representativeDate":"2026-08-01","hours":["10:00","11:00","12:00","13:00","14:00","15:00","16:00","17:00","18:00"],"chmAcquisition":["2019-03"],"assets":{"glo30":{"dataset":"Copernicus DEM GLO-30 (COG, s3://copernicus-dem-30m)","tiles":["Copernicus_DSM_COG_10_N37_00_E127_00_DEM","Copernicus_DSM_COG_10_N38_00_E127_00_DEM"]},"chm":{"dataset":"Meta/WRI Global Canopy Height Map v1 (alsgedi_global_v6_float, 1 m, CC-BY 4.0)","quadkeys":["132110303"],"acquisition":["2019-03"]}},"method":{"gridResM":2,"canopyThresholdM":2,"bufferHalfM":25,"corridorHalfM":200,"simplifyTolM":2,"minAreaM2":25,"coordDecimals":5},"generator":"scripts/shade 0.1.0","builtAt":"2026-09-06T05:52:39Z","layer":"shadow","timeLocal":"10:00"},"features":[{"type":"Feature","properties":{"valleyId":"cheonghakdong","layer":"shadow","date":"2026-08-01","timeLocal":"10:00"},"geometry":{"type":"Polygon","coordinates":[[[127.30849,37.94114],[127.30849,37.94109],[127.3086,37.94109],[127.3086,37.94114],[127.30849,37.94114]]]}},{"type":"Feature","properties":{"valleyId":"cheonghakdong","layer":"shadow","date":"2026-08-01","timeLocal":"10:00"},"geometry":{"type":"Polygon","coordinates":[[[127.30483,37.93509],[127.30481,37.93502],[127.3049,37.935],[127.3049,37.93509],[127.30483,37.93509]]]}},{"type":"Feature","properties":{"valleyId":"cheonghakdong","layer":"shadow","date":"2026-08-01","timeLocal":"10:00"},"geometry":{"type":"Polygon","coordinates":[[[127.29941,37.9273],[127.29941,37.92722],[127.29948,37.92723],[127.29948,37.9273],[127.29941,37.9273]]]}},{"type":"Feature","properties":{"valleyId":"cheonghakdong","layer":"shadow","date":"2026-08-01","timeLocal":"10:00"},"geometry":{"type":"Polygon","coordinates":[[[127.2973,37.92514],[127.2973,37.92505],[127.29737,37.92505],[127.29737,37.92514],[127.2973,37.92514]]]}},{"type":"Feature","properties":{"valleyId":"cheonghakdong","layer":"shadow","date":"2026-08-01","timeLocal":"10:00"},"geometry":{"type":"Polygon","coordinates":[[[127.29751,37.92494],[127.29751,37.92487],[127.2976,37.92487],[127.2976,37.92493],[127.29751,37.92494]]]}},{"type":"Feature","properties":{"valleyId":"cheonghakdong","layer":"shadow","date":"2026-08-01","timeLocal":"10:00"},"geometry":{"type":"Polygon","coordinates":[[[127.29749,37.92476],[127.29747,37.92467],[127.29754,37.92467],[127.29756,37.92476],[127.29749,37.92476]]]}}]}
