{"type":"FeatureCollection","metadata":{"description":"개방지(CHM ≤ 2 m)에 드리운 나무·지형 그림자, 2026-08-01 16:00 KST. canopy 위에 겹쳐 그린다","source":"위성 기반 추정 — Copernicus GLO-30 지형(30 m) + Meta/WRI 수관 높이(1 m CHM, 2019 촬영). 그늘 = 수관(CHM > 2 m) ∪ 나무·지형 그림자 ∪ 원거리 지형 마스크. 현장과 다를 수 있음.","datasetVersion":"2026-09-06.0","collectedAt":"2026-09-06","coordinateOrder":"[longitude, latitude]","crs":"EPSG:4326","representativeDate":"2026-08-01","hours":["10:00","11:00","12:00","13:00","14:00","15:00","16:00","17:00","18:00"],"chmAcquisition":["2019-03"],"assets":{"glo30":{"dataset":"Copernicus DEM GLO-30 (COG, s3://copernicus-dem-30m)","tiles":["Copernicus_DSM_COG_10_N37_00_E127_00_DEM","Copernicus_DSM_COG_10_N38_00_E127_00_DEM"]},"chm":{"dataset":"Meta/WRI Global Canopy Height Map v1 (alsgedi_global_v6_float, 1 m, CC-BY 4.0)","quadkeys":["132110303"],"acquisition":["2019-03"]}},"method":{"gridResM":2,"canopyThresholdM":2,"bufferHalfM":25,"corridorHalfM":200,"simplifyTolM":2,"minAreaM2":25,"coordDecimals":5},"generator":"scripts/shade 0.1.0","builtAt":"2026-09-06T05:52:39Z","layer":"shadow","timeLocal":"16:00"},"features":[{"type":"Feature","properties":{"valleyId":"cheonghakdong","layer":"shadow","date":"2026-08-01","timeLocal":"16:00"},"geometry":{"type":"Polygon","coordinates":[[[127.31185,37.9457],[127.31185,37.94557],[127.31192,37.94557],[127.31191,37.9457],[127.31185,37.9457]]]}},{"type":"Feature","properties":{"valleyId":"cheonghakdong","layer":"shadow","date":"2026-08-01","timeLocal":"16:00"},"geometry":{"type":"Polygon","coordinates":[[[127.30847,37.94502],[127.30847,37.94496],[127.30854,37.94497],[127.30854,37.94502],[127.30847,37.94502]]]}},{"type":"Feature","properties":{"valleyId":"cheonghakdong","layer":"shadow","date":"2026-08-01","timeLocal":"16:00"},"geometry":{"type":"Polygon","coordinates":[[[127.3084,37.94495],[127.3084,37.94489],[127.30847,37.94489],[127.30847,37.94495],[127.3084,37.94495]]]}},{"type":"Feature","properties":{"valleyId":"cheonghakdong","layer":"shadow","date":"2026-08-01","timeLocal":"16:00"},"geometry":{"type":"Polygon","coordinates":[[[127.31223,37.94374],[127.31223,37.94368],[127.3123,37.94369],[127.3123,37.94374],[127.31223,37.94374]]]}},{"type":"Feature","properties":{"valleyId":"cheonghakdong","layer":"shadow","date":"2026-08-01","timeLocal":"16:00"},"geometry":{"type":"Polygon","coordinates":[[[127.31181,37.94242],[127.31183,37.94229],[127.3119,37.94229],[127.31187,37.94242],[127.31181,37.94242]]]}},{"type":"Feature","properties":{"valleyId":"cheonghakdong","layer":"shadow","date":"2026-08-01","timeLocal":"16:00"},"geometry":{"type":"Polygon","coordinates":[[[127.30489,37.94215],[127.30489,37.9421],[127.30496,37.9421],[127.30496,37.94216],[127.30489,37.94215]]]}},{"type":"Feature","properties":{"valleyId":"cheonghakdong","layer":"shadow","date":"2026-08-01","timeLocal":"16:00"},"geometry":{"type":"Polygon","coordinates":[[[127.30781,37.94216],[127.30781,37.94211],[127.30788,37.94211],[127.30787,37.94216],[127.30781,37.94216]]]}},{"type":"Feature","properties":{"valleyId":"cheonghakdong","layer":"shadow","date":"2026-08-01","timeLocal":"16:00"},"geometry":{"type":"Polygon","coordinates":[[[127.30494,37.94208],[127.30494,37.94201],[127.30501,37.94201],[127.30501,37.94208],[127.30494,37.94208]]]}},{"type":"Feature","properties":{"valleyId":"cheonghakdong","layer":"shadow","date":"2026-08-01","timeLocal":"16:00"},"geometry":{"type":"Polygon","coordinates":[[[127.30488,37.9419],[127.30488,37.94181],[127.30493,37.94174],[127.30499,37.94174],[127.30494,37.9419],[127.30488,37.9419]]]}},{"type":"Feature","properties":{"valleyId":"cheonghakdong","layer":"shadow","date":"2026-08-01","timeLocal":"16:00"},"geometry":{"type":"Polygon","coordinates":[[[127.31139,37.9418],[127.31137,37.94171],[127.31146,37.94171],[127.31146,37.9418],[127.31139,37.9418]]]}},{"type":"Feature","properties":{"valleyId":"cheonghakdong","layer":"shadow","date":"2026-08-01","timeLocal":"16:00"},"geometry":{"type":"Polygon","coordinates":[[[127.3052,37.94164],[127.3052,37.94158],[127.30527,37.94158],[127.30527,37.94164],[127.3052,37.94164]]]}},{"type":"Feature","properties":{"valleyId":"cheonghakdong","layer":"shadow","date":"2026-08-01","timeLocal":"16:00"},"geometry":{"type":"Polygon","coordinates":[[[127.3045,37.94159],[127.30448,37.94145],[127.30457,37.94145],[127.30457,37.94159],[127.3045,37.94159]]]}},{"type":"Feature","properties":{"valleyId":"cheonghakdong","layer":"shadow","date":"2026-08-01","timeLocal":"16:00"},"geometry":{"type":"Polygon","coordinates":[[[127.30872,37.94113],[127.30872,37.94106],[127.30888,37.94108],[127.30888,37.94113],[127.30872,37.94113]]]}},{"type":"Feature","properties":{"valleyId":"cheonghakdong","layer":"shadow","date":"2026-08-01","timeLocal":"16:00"},"geometry":{"type":"Polygon","coordinates":[[[127.30252,37.93965],[127.3025,37.93951],[127.30257,37.93947],[127.30257,37.93944],[127.30263,37.93944],[127.30263,37.93949],[127.30259,37.93953],[127.30258,37.93965],[127.30252,37.93965]]]}},{"type":"Feature","properties":{"valleyId":"cheonghakdong","layer":"shadow","date":"2026-08-01","timeLocal":"16:00"},"geometry":{"type":"Polygon","coordinates":[[[127.30701,37.9391],[127.30701,37.93905],[127.3071,37.93905],[127.3071,37.9391],[127.30701,37.9391]]]}},{"type":"Feature","properties":{"valleyId":"cheonghakdong","layer":"shadow","date":"2026-08-01","timeLocal":"16:00"},"geometry":{"type":"Polygon","coordinates":[[[127.30285,37.93877],[127.30286,37.93872],[127.30292,37.93872],[127.30292,37.93877],[127.30285,37.93877]]]}},{"type":"Feature","properties":{"valleyId":"cheonghakdong","layer":"shadow","date":"2026-08-01","timeLocal":"16:00"},"geometry":{"type":"Polygon","coordinates":[[[127.30233,37.9388],[127.30231,37.93869],[127.30247,37.93871],[127.30247,37.9388],[127.30233,37.9388]]]}},{"type":"Feature","properties":{"valleyId":"cheonghakdong","layer":"shadow","date":"2026-08-01","timeLocal":"16:00"},"geometry":{"type":"Polygon","coordinates":[[[127.30593,37.93853],[127.30593,37.93846],[127.306,37.93846],[127.306,37.93853],[127.30593,37.93853]]]}},{"type":"Feature","properties":{"valleyId":"cheonghakdong","layer":"shadow","date":"2026-08-01","timeLocal":"16:00"},"geometry":{"type":"Polygon","coordinates":[[[127.30191,37.93845],[127.30191,37.9384],[127.30198,37.9384],[127.30197,37.93845],[127.30191,37.93845]]]}},{"type":"Feature","properties":{"valleyId":"cheonghakdong","layer":"shadow","date":"2026-08-01","timeLocal":"16:00"},"geometry":{"type":"Polygon","coordinates":[[[127.30289,37.9384],[127.30289,37.93834],[127.30296,37.93834],[127.30295,37.9384],[127.30289,37.9384]]]}},{"type":"Feature","properties":{"valleyId":"cheonghakdong","layer":"shadow","date":"2026-08-01","timeLocal":"16:00"},"geometry":{"type":"Polygon","coordinates":[[[127.30439,37.93845],[127.30439,37.93834],[127.30446,37.93835],[127.30448,37.93845],[127.30439,37.93845]]]}},{"type":"Feature","properties":{"valleyId":"cheonghakdong","layer":"shadow","date":"2026-08-01","timeLocal":"16:00"},"geometry":{"type":"Polygon","coordinates":[[[127.30322,37.93753],[127.30323,37.93741],[127.30316,37.93725],[127.30317,37.93707],[127.30324,37.93703],[127.30329,37.93683],[127.30335,37.93683],[127.30335,37.93703],[127.3033,37.93705],[127.30328,37.93718],[127.30332,37.9375],[127.30329,37.93754],[127.30322,37.93753]]]}},{"type":"Feature","properties":{"valleyId":"cheonghakdong","layer":"shadow","date":"2026-08-01","timeLocal":"16:00"},"geometry":{"type":"Polygon","coordinates":[[[127.30256,37.9356],[127.30256,37.93554],[127.30263,37.93554],[127.30263,37.9356],[127.30256,37.9356]]]}},{"type":"Feature","properties":{"valleyId":"cheonghakdong","layer":"shadow","date":"2026-08-01","timeLocal":"16:00"},"geometry":{"type":"Polygon","coordinates":[[[127.30254,37.93545],[127.30255,37.93536],[127.30261,37.93536],[127.30261,37.93545],[127.30254,37.93545]]]}},{"type":"Feature","properties":{"valleyId":"cheonghakdong","layer":"shadow","date":"2026-08-01","timeLocal":"16:00"},"geometry":{"type":"Polygon","coordinates":[[[127.30499,37.93507],[127.30499,37.93498],[127.30506,37.93498],[127.30508,37.93507],[127.30499,37.93507]]]}},{"type":"Feature","properties":{"valleyId":"cheonghakdong","layer":"shadow","date":"2026-08-01","timeLocal":"16:00"},"geometry":{"type":"Polygon","coordinates":[[[127.30088,37.93473],[127.30088,37.93467],[127.30095,37.93467],[127.30095,37.93473],[127.30088,37.93473]]]}},{"type":"Feature","properties":{"valleyId":"cheonghakdong","layer":"shadow","date":"2026-08-01","timeLocal":"16:00"},"geometry":{"type":"Polygon","coordinates":[[[127.30083,37.9346],[127.30084,37.93453],[127.3009,37.93453],[127.3009,37.9346],[127.30083,37.9346]]]}},{"type":"Feature","properties":{"valleyId":"cheonghakdong","layer":"shadow","date":"2026-08-01","timeLocal":"16:00"},"geometry":{"type":"Polygon","coordinates":[[[127.3022,37.93464],[127.3022,37.93446],[127.30227,37.93446],[127.30231,37.93462],[127.3022,37.93464]]]}},{"type":"Feature","properties":{"valleyId":"cheonghakdong","layer":"shadow","date":"2026-08-01","timeLocal":"16:00"},"geometry":{"type":"Polygon","coordinates":[[[127.30173,37.93443],[127.30173,37.93438],[127.3018,37.93438],[127.30179,37.93443],[127.30173,37.93443]]]}},{"type":"Feature","properties":{"valleyId":"cheonghakdong","layer":"shadow","date":"2026-08-01","timeLocal":"16:00"},"geometry":{"type":"Polygon","coordinates":[[[127.30219,37.93388],[127.30219,37.93382],[127.30226,37.93383],[127.30226,37.93388],[127.30219,37.93388]]]}},{"type":"Feature","properties":{"valleyId":"cheonghakdong","layer":"shadow","date":"2026-08-01","timeLocal":"16:00"},"geometry":{"type":"Polygon","coordinates":[[[127.30061,37.93342],[127.30061,37.93335],[127.30068,37.93335],[127.30068,37.93342],[127.30061,37.93342]]]}},{"type":"Feature","properties":{"valleyId":"cheonghakdong","layer":"shadow","date":"2026-08-01","timeLocal":"16:00"},"geometry":{"type":"Polygon","coordinates":[[[127.302,37.93355],[127.30198,37.93335],[127.30205,37.93335],[127.30209,37.93354],[127.302,37.93355]]]}},{"type":"Feature","properties":{"valleyId":"cheonghakdong","layer":"shadow","date":"2026-08-01","timeLocal":"16:00"},"geometry":{"type":"Polygon","coordinates":[[[127.30196,37.93333],[127.30196,37.93328],[127.30203,37.93328],[127.30202,37.93334],[127.30196,37.93333]]]}},{"type":"Feature","properties":{"valleyId":"cheonghakdong","layer":"shadow","date":"2026-08-01","timeLocal":"16:00"},"geometry":{"type":"Polygon","coordinates":[[[127.30189,37.93315],[127.30189,37.93303],[127.30196,37.93303],[127.30196,37.93315],[127.30189,37.93315]]]}},{"type":"Feature","properties":{"valleyId":"cheonghakdong","layer":"shadow","date":"2026-08-01","timeLocal":"16:00"},"geometry":{"type":"Polygon","coordinates":[[[127.30097,37.93287],[127.30097,37.93278],[127.30104,37.93278],[127.30103,37.93287],[127.30097,37.93287]]]}},{"type":"Feature","properties":{"valleyId":"cheonghakdong","layer":"shadow","date":"2026-08-01","timeLocal":"16:00"},"geometry":{"type":"Polygon","coordinates":[[[127.30051,37.93281],[127.30051,37.93276],[127.30058,37.93276],[127.30058,37.93281],[127.30051,37.93281]]]}},{"type":"Feature","properties":{"valleyId":"cheonghakdong","layer":"shadow","date":"2026-08-01","timeLocal":"16:00"},"geometry":{"type":"Polygon","coordinates":[[[127.2996,37.9328],[127.2996,37.93272],[127.29967,37.93273],[127.29967,37.9328],[127.2996,37.9328]]]}},{"type":"Feature","properties":{"valleyId":"cheonghakdong","layer":"shadow","date":"2026-08-01","timeLocal":"16:00"},"geometry":{"type":"Polygon","coordinates":[[[127.30496,37.93046],[127.30496,37.9304],[127.30503,37.93041],[127.30503,37.93046],[127.30496,37.93046]]]}},{"type":"Feature","properties":{"valleyId":"cheonghakdong","layer":"shadow","date":"2026-08-01","timeLocal":"16:00"},"geometry":{"type":"Polygon","coordinates":[[[127.30058,37.92966],[127.30059,37.92958],[127.30065,37.92959],[127.30065,37.92966],[127.30058,37.92966]]]}},{"type":"Feature","properties":{"valleyId":"cheonghakdong","layer":"shadow","date":"2026-08-01","timeLocal":"16:00"},"geometry":{"type":"Polygon","coordinates":[[[127.29959,37.92732],[127.29962,37.92717],[127.29969,37.92717],[127.29968,37.92721],[127.29975,37.92723],[127.29975,37.92728],[127.29968,37.92732],[127.29959,37.92732]]]}},{"type":"Feature","properties":{"valleyId":"cheonghakdong","layer":"shadow","date":"2026-08-01","timeLocal":"16:00"},"geometry":{"type":"Polygon","coordinates":[[[127.29757,37.92619],[127.29755,37.92617],[127.29753,37.92603],[127.2976,37.92603],[127.29764,37.92613],[127.29764,37.92619],[127.29757,37.92619]]]}},{"type":"Feature","properties":{"valleyId":"cheonghakdong","layer":"shadow","date":"2026-08-01","timeLocal":"16:00"},"geometry":{"type":"Polygon","coordinates":[[[127.29725,37.92508],[127.29725,37.92503],[127.29732,37.92503],[127.29732,37.92508],[127.29725,37.92508]]]}},{"type":"Feature","properties":{"valleyId":"cheonghakdong","layer":"shadow","date":"2026-08-01","timeLocal":"16:00"},"geometry":{"type":"Polygon","coordinates":[[[127.29748,37.92494],[127.29749,37.92487],[127.29755,37.92487],[127.29755,37.92494],[127.29748,37.92494]]]}},{"type":"Feature","properties":{"valleyId":"cheonghakdong","layer":"shadow","date":"2026-08-01","timeLocal":"16:00"},"geometry":{"type":"Polygon","coordinates":[[[127.29837,37.92492],[127.29837,37.92487],[127.29844,37.92487],[127.29844,37.92492],[127.29837,37.92492]]]}},{"type":"Feature","properties":{"valleyId":"cheonghakdong","layer":"shadow","date":"2026-08-01","timeLocal":"16:00"},"geometry":{"type":"Polygon","coordinates":[[[127.29737,37.92474],[127.29738,37.92465],[127.29745,37.92465],[127.29744,37.92474],[127.29737,37.92474]]]}},{"type":"Feature","properties":{"valleyId":"cheonghakdong","layer":"shadow","date":"2026-08-01","timeLocal":"16:00"},"geometry":{"type":"Polygon","coordinates":[[[127.29973,37.92314],[127.29973,37.92308],[127.2998,37.92308],[127.2998,37.92314],[127.29973,37.92314]]]}},{"type":"Feature","properties":{"valleyId":"cheonghakdong","layer":"shadow","date":"2026-08-01","timeLocal":"16:00"},"geometry":{"type":"Polygon","coordinates":[[[127.29972,37.92263],[127.29972,37.92258],[127.29979,37.92258],[127.29979,37.92263],[127.29972,37.92263]]]}},{"type":"Feature","properties":{"valleyId":"cheonghakdong","layer":"shadow","date":"2026-08-01","timeLocal":"16:00"},"geometry":{"type":"Polygon","coordinates":[[[127.29811,37.92241],[127.29811,37.92232],[127.29818,37.92232],[127.29818,37.92241],[127.29811,37.92241]]]}},{"type":"Feature","properties":{"valleyId":"cheonghakdong","layer":"shadow","date":"2026-08-01","timeLocal":"16:00"},"geometry":{"type":"Polygon","coordinates":[[[127.29809,37.92223],[127.2981,37.9221],[127.29816,37.92211],[127.29816,37.92223],[127.29809,37.92223]]]}}]}
