{"type":"FeatureCollection","metadata":{"description":"수관 아래(CHM > 2 m) — 시각 무관. 구간 회랑 ±200 m 절단","source":"위성 기반 추정 — Copernicus GLO-30 지형(30 m) + Meta/WRI 수관 높이(1 m CHM, 2019 촬영). 그늘 = 수관(CHM > 2 m) ∪ 나무·지형 그림자 ∪ 원거리 지형 마스크. 현장과 다를 수 있음.","datasetVersion":"2026-09-06.0","collectedAt":"2026-09-06","coordinateOrder":"[longitude, latitude]","crs":"EPSG:4326","representativeDate":"2026-08-01","hours":["10:00","11:00","12:00","13:00","14:00","15:00","16:00","17:00","18:00"],"chmAcquisition":["2019-03","2019-05"],"assets":{"glo30":{"dataset":"Copernicus DEM GLO-30 (COG, s3://copernicus-dem-30m)","tiles":["Copernicus_DSM_COG_10_N37_00_E127_00_DEM"]},"chm":{"dataset":"Meta/WRI Global Canopy Height Map v1 (alsgedi_global_v6_float, 1 m, CC-BY 4.0)","quadkeys":["132110303"],"acquisition":["2019-03","2019-05"]}},"method":{"gridResM":2,"canopyThresholdM":2,"bufferHalfM":25,"corridorHalfM":200,"simplifyTolM":2,"minAreaM2":25,"coordDecimals":5},"generator":"scripts/shade 0.1.0","builtAt":"2026-09-06T06:02:12Z","layer":"canopy"},"features":[{"type":"Feature","properties":{"valleyId":"sudong","layer":"canopy","date":"2026-08-01"},"geometry":{"type":"Polygon","coordinates":[[[127.28135,37.76527],[127.28133,37.76523],[127.28124,37.76521],[127.28122,37.76517],[127.28104,37.7651],[127.28095,37.76501],[127.28091,37.76501],[127.28073,37.76486],[127.28073,37.76481],[127.28084,37.76481],[127.28086,37.76484],[127.28091,37.76485],[127.28093,37.76494],[127.28097,37.76497],[127.28113,37.76496],[127.28123,37.76483],[127.28134,37.76483],[127.28138,37.76489],[127.28159,37.76485],[127.28161,37.765],[127.28156,37.76503],[127.28151,37.76521],[127.28147,37.76523],[127.28147,37.76527],[127.28135,37.76527]]]}},{"type":"Feature","properties":{"valleyId":"sudong","layer":"canopy","date":"2026-08-01"},"geometry":{"type":"Polygon","coordinates":[[[127.28379,37.7651],[127.28379,37.76507],[127.28374,37.76505],[127.28374,37.76496],[127.28357,37.76487],[127.28359,37.76476],[127.28354,37.76476],[127.28352,37.76465],[127.28359,37.76465],[127.28366,37.7647],[127.28377,37.76472],[127.28379,37.76487],[127.28393,37.76487],[127.28395,37.76505],[127.28385,37.7651],[127.28379,37.7651]]]}},{"type":"Feature","properties":{"valleyId":"sudong","layer":"canopy","date":"2026-08-01"},"geometry":{"type":"Polygon","coordinates":[[[127.28291,37.76459],[127.28292,37.76448],[127.28298,37.76448],[127.28298,37.76459],[127.28291,37.76459]]]}},{"type":"Feature","properties":{"valleyId":"sudong","layer":"canopy","date":"2026-08-01"},"geometry":{"type":"Polygon","coordinates":[[[127.28046,37.76459],[127.28039,37.76453],[127.2804,37.76444],[127.28046,37.76444],[127.28053,37.7645],[127.28053,37.76459],[127.28046,37.76459]]]}},{"type":"Feature","properties":{"valleyId":"sudong","layer":"canopy","date":"2026-08-01"},"geometry":{"type":"Polygon","coordinates":[[[127.28384,37.76458],[127.28362,37.7644],[127.28362,37.76431],[127.28367,37.76429],[127.28367,37.76425],[127.28376,37.76427],[127.28378,37.76444],[127.28382,37.76444],[127.28391,37.76451],[127.28391,37.76458],[127.28384,37.76458]]]}},{"type":"Feature","properties":{"valleyId":"sudong","layer":"canopy","date":"2026-08-01"},"geometry":{"type":"Polygon","coordinates":[[[127.28356,37.76423],[127.28356,37.76414],[127.28365,37.76415],[127.28367,37.76424],[127.28356,37.76423]]]}},{"type":"Feature","properties":{"valleyId":"sudong","layer":"canopy","date":"2026-08-01"},"geometry":{"type":"Polygon","coordinates":[[[127.28219,37.76548],[127.28169,37.76538],[127.28169,37.76531],[127.28174,37.76531],[127.28176,37.76524],[127.28177,37.76502],[127.28184,37.76502],[127.28183,37.76509],[127.28192,37.76517],[127.28231,37.76517],[127.28249,37.76521],[127.2826,37.76528],[127.28272,37.76529],[127.28274,37.76523],[127.28274,37.76516],[127.28267,37.76516],[127.2827,37.76489],[127.28263,37.76487],[127.28261,37.7648],[127.28252,37.76478],[127.2825,37.76474],[127.28243,37.76474],[127.28223,37.76456],[127.28223,37.76452],[127.28205,37.76441],[127.28206,37.76425],[127.28211,37.76416],[127.2822,37.76416],[127.2822,37.76409],[127.28229,37.76409],[127.28236,37.76411],[127.28235,37.76418],[127.28231,37.76418],[127.28231,37.76423],[127.28256,37.76422],[127.2826,37.76426],[127.28264,37.76447],[127.28269,37.76449],[127.28269,37.76453],[127.28285,37.76458],[127.28284,37.76469],[127.28302,37.76486],[127.28304,37.76497],[127.28309,37.765],[127.28308,37.76511],[127.28305,37.76533],[127.28299,37.76538],[127.28298,37.76543],[127.28264,37.76548],[127.28219,37.76548]]]}},{"type":"Feature","properties":{"valleyId":"sudong","layer":"canopy","date":"2026-08-01"},"geometry":{"type":"Polygon","coordinates":[[[127.28095,37.76412],[127.28095,37.76405],[127.28104,37.76405],[127.28104,37.76413],[127.28095,37.76412]]]}},{"type":"Feature","properties":{"valleyId":"sudong","layer":"canopy","date":"2026-08-01"},"geometry":{"type":"Polygon","coordinates":[[[127.28383,37.76426],[127.28383,37.76406],[127.28392,37.76406],[127.28392,37.76411],[127.28399,37.76411],[127.28399,37.76424],[127.28383,37.76426]]]}},{"type":"Feature","properties":{"valleyId":"sudong","layer":"canopy","date":"2026-08-01"},"geometry":{"type":"Polygon","coordinates":[[[127.28002,37.76415],[127.27993,37.76406],[127.27988,37.76406],[127.27982,37.764],[127.27982,37.76395],[127.28,37.76395],[127.28009,37.764],[127.28009,37.76415],[127.28002,37.76415]]]}},{"type":"Feature","properties":{"valleyId":"sudong","layer":"canopy","date":"2026-08-01"},"geometry":{"type":"Polygon","coordinates":[[[127.28274,37.76417],[127.28272,37.76411],[127.28265,37.76408],[127.28265,37.76402],[127.28272,37.76399],[127.28272,37.76395],[127.28281,37.76395],[127.28283,37.76417],[127.28274,37.76417]]]}},{"type":"Feature","properties":{"valleyId":"sudong","layer":"canopy","date":"2026-08-01"},"geometry":{"type":"Polygon","coordinates":[[[127.28437,37.76446],[127.2843,37.76443],[127.28428,37.76437],[127.28408,37.76433],[127.28406,37.76421],[127.28413,37.76421],[127.28413,37.76417],[127.28447,37.76414],[127.28458,37.76407],[127.28459,37.76396],[127.28463,37.76393],[127.2847,37.76393],[127.28467,37.76411],[127.28455,37.76439],[127.28451,37.76446],[127.28437,37.76446]]]}},{"type":"Feature","properties":{"valleyId":"sudong","layer":"canopy","date":"2026-08-01"},"geometry":{"type":"Polygon","coordinates":[[[127.27982,37.76387],[127.2798,37.76384],[127.27975,37.76384],[127.27975,37.76376],[127.2798,37.76373],[127.27994,37.76375],[127.27998,37.76379],[127.27998,37.76386],[127.27982,37.76387]]]}},{"type":"Feature","properties":{"valleyId":"sudong","layer":"canopy","date":"2026-08-01"},"geometry":{"type":"Polygon","coordinates":[[[127.28188,37.76416],[127.28188,37.76407],[127.28184,37.76399],[127.28172,37.76399],[127.2817,37.76403],[127.28159,37.76404],[127.28157,37.76395],[127.28163,37.7639],[127.28175,37.76388],[127.28175,37.76383],[127.28159,37.76385],[127.28159,37.76376],[127.28184,37.76376],[127.28186,37.7638],[127.28198,37.7638],[127.28193,37.76398],[127.28195,37.76401],[127.28211,37.76405],[127.28211,37.76411],[127.28199,37.7641],[127.28195,37.76416],[127.28188,37.76416]]]}},{"type":"Feature","properties":{"valleyId":"sudong","layer":"canopy","date":"2026-08-01"},"geometry":{"type":"Polygon","coordinates":[[[127.27955,37.76378],[127.27953,37.76369],[127.27964,37.76369],[127.27964,37.76376],[127.27955,37.76378]]]}},{"type":"Feature","properties":{"valleyId":"sudong","layer":"canopy","date":"2026-08-01"},"geometry":{"type":"Polygon","coordinates":[[[127.28137,37.7637],[127.28137,37.76364],[127.28144,37.76365],[127.28144,37.7637],[127.28137,37.7637]]]}},{"type":"Feature","properties":{"valleyId":"sudong","layer":"canopy","date":"2026-08-01"},"geometry":{"type":"Polygon","coordinates":[[[127.28112,37.76368],[127.28091,37.76362],[127.28089,37.76355],[127.28119,37.76357],[127.28119,37.76368],[127.28112,37.76368]]]}},{"type":"Feature","properties":{"valleyId":"sudong","layer":"canopy","date":"2026-08-01"},"geometry":{"type":"Polygon","coordinates":[[[127.2797,37.76306],[127.2797,37.76301],[127.27975,37.76297],[127.27986,37.76296],[127.27986,37.76303],[127.27982,37.76306],[127.2797,37.76306]]]}},{"type":"Feature","properties":{"valleyId":"sudong","layer":"canopy","date":"2026-08-01"},"geometry":{"type":"Polygon","coordinates":[[[127.27998,37.76299],[127.27998,37.76288],[127.28014,37.76289],[127.28014,37.76296],[127.28009,37.76299],[127.27998,37.76299]]]}},{"type":"Feature","properties":{"valleyId":"sudong","layer":"canopy","date":"2026-08-01"},"geometry":{"type":"Polygon","coordinates":[[[127.28033,37.7633],[127.28036,37.76309],[127.28018,37.76298],[127.28018,37.76292],[127.28023,37.76289],[127.28032,37.76289],[127.28034,37.76294],[127.28041,37.76298],[127.28052,37.76298],[127.28052,37.76305],[127.28045,37.76311],[127.28045,37.76327],[127.2804,37.76331],[127.28033,37.7633]]]}},{"type":"Feature","properties":{"valleyId":"sudong","layer":"canopy","date":"2026-08-01"},"geometry":{"type":"Polygon","coordinates":[[[127.28215,37.7634],[127.28208,37.76329],[127.28208,37.76322],[127.28199,37.76315],[127.28195,37.76315],[127.28168,37.76293],[127.28168,37.76289],[127.28155,37.76284],[127.28155,37.76276],[127.28166,37.76277],[127.28175,37.76286],[127.28188,37.76291],[127.28202,37.76291],[127.28211,37.76299],[127.28234,37.76299],[127.28233,37.7631],[127.28222,37.76317],[127.28222,37.76322],[127.28229,37.76324],[127.28228,37.7633],[127.28224,37.76331],[127.28224,37.76339],[127.28215,37.7634]]]}},{"type":"Feature","properties":{"valleyId":"sudong","layer":"canopy","date":"2026-08-01"},"geometry":{"type":"Polygon","coordinates":[[[127.28146,37.76276],[127.28139,37.76273],[127.28141,37.76265],[127.2815,37.76265],[127.28153,37.76269],[127.28152,37.76276],[127.28146,37.76276]]]}},{"type":"Feature","properties":{"valleyId":"sudong","layer":"canopy","date":"2026-08-01"},"geometry":{"type":"Polygon","coordinates":[[[127.2807,37.76221],[127.28072,37.76214],[127.28081,37.76214],[127.28081,37.76219],[127.2807,37.76221]]]}},{"type":"Feature","properties":{"valleyId":"sudong","layer":"canopy","date":"2026-08-01"},"geometry":{"type":"Polygon","coordinates":[[[127.28145,37.76226],[127.2814,37.76222],[127.2814,37.76217],[127.28147,37.76213],[127.28152,37.76206],[127.28159,37.76206],[127.28158,37.76215],[127.28163,37.76215],[127.28163,37.76222],[127.28158,37.76226],[127.28145,37.76226]]]}},{"type":"Feature","properties":{"valleyId":"sudong","layer":"canopy","date":"2026-08-01"},"geometry":{"type":"Polygon","coordinates":[[[127.28175,37.76199],[127.28175,37.76192],[127.28182,37.76192],[127.28182,37.76199],[127.28175,37.76199]]]}},{"type":"Feature","properties":{"valleyId":"sudong","layer":"canopy","date":"2026-08-01"},"geometry":{"type":"Polygon","coordinates":[[[127.28009,37.76191],[127.28009,37.76186],[127.28018,37.76184],[127.28018,37.76191],[127.28009,37.76191]]]}},{"type":"Feature","properties":{"valleyId":"sudong","layer":"canopy","date":"2026-08-01"},"geometry":{"type":"Polygon","coordinates":[[[127.28003,37.7618],[127.27994,37.76175],[127.27989,37.76164],[127.27996,37.76164],[127.28001,37.76171],[127.2801,37.76175],[127.28009,37.76181],[127.28003,37.7618]]]}},{"type":"Feature","properties":{"valleyId":"sudong","layer":"canopy","date":"2026-08-01"},"geometry":{"type":"Polygon","coordinates":[[[127.2808,37.76167],[127.2808,37.76158],[127.28087,37.76158],[127.28087,37.76167],[127.2808,37.76167]]]}},{"type":"Feature","properties":{"valleyId":"sudong","layer":"canopy","date":"2026-08-01"},"geometry":{"type":"Polygon","coordinates":[[[127.2796,37.76054],[127.2796,37.76045],[127.27972,37.76045],[127.27972,37.76052],[127.2796,37.76054]]]}},{"type":"Feature","properties":{"valleyId":"sudong","layer":"canopy","date":"2026-08-01"},"geometry":{"type":"Polygon","coordinates":[[[127.28169,37.76044],[127.28169,37.76039],[127.28176,37.76039],[127.28176,37.76044],[127.28169,37.76044]]]}},{"type":"Feature","properties":{"valleyId":"sudong","layer":"canopy","date":"2026-08-01"},"geometry":{"type":"Polygon","coordinates":[[[127.28136,37.76018],[127.28136,37.76013],[127.28143,37.76013],[127.28143,37.76018],[127.28136,37.76018]]]}},{"type":"Feature","properties":{"valleyId":"sudong","layer":"canopy","date":"2026-08-01"},"geometry":{"type":"Polygon","coordinates":[[[127.2817,37.76024],[127.28168,37.76008],[127.28177,37.76008],[127.28176,37.76024],[127.2817,37.76024]]]}},{"type":"Feature","properties":{"valleyId":"sudong","layer":"canopy","date":"2026-08-01"},"geometry":{"type":"Polygon","coordinates":[[[127.27895,37.76033],[127.27881,37.76024],[127.27873,37.76007],[127.27873,37.76],[127.2788,37.75998],[127.27874,37.75966],[127.2788,37.75966],[127.27885,37.75979],[127.27894,37.75986],[127.27893,37.75995],[127.27887,37.75997],[127.27886,37.76004],[127.27895,37.76018],[127.27902,37.76022],[127.27902,37.76033],[127.27895,37.76033]]]}},{"type":"Feature","properties":{"valleyId":"sudong","layer":"canopy","date":"2026-08-01"},"geometry":{"type":"Polygon","coordinates":[[[127.28209,37.76001],[127.28193,37.75998],[127.28186,37.75987],[127.28173,37.75985],[127.28173,37.75977],[127.28182,37.75963],[127.28196,37.75967],[127.28229,37.75994],[127.28229,37.76],[127.28209,37.76001]]]}},{"type":"Feature","properties":{"valleyId":"sudong","layer":"canopy","date":"2026-08-01"},"geometry":{"type":"Polygon","coordinates":[[[127.27822,37.75947],[127.2782,37.7594],[127.27804,37.75941],[127.27802,37.75932],[127.27811,37.75929],[127.27825,37.75929],[127.27829,37.75935],[127.27838,37.75938],[127.27838,37.75944],[127.27833,37.75947],[127.27822,37.75947]]]}},{"type":"Feature","properties":{"valleyId":"sudong","layer":"canopy","date":"2026-08-01"},"geometry":{"type":"Polygon","coordinates":[[[127.27784,37.75914],[127.2778,37.7591],[127.2778,37.75901],[127.27791,37.759],[127.27796,37.75903],[127.27795,37.75911],[127.27791,37.75914],[127.27784,37.75914]]]}},{"type":"Feature","properties":{"valleyId":"sudong","layer":"canopy","date":"2026-08-01"},"geometry":{"type":"Polygon","coordinates":[[[127.27499,37.75953],[127.27477,37.75922],[127.27478,37.75911],[127.27496,37.75892],[127.27508,37.7589],[127.27517,37.75892],[127.27518,37.75917],[127.27514,37.75919],[127.27513,37.75944],[127.27506,37.75953],[127.27499,37.75953]]]}},{"type":"Feature","properties":{"valleyId":"sudong","layer":"canopy","date":"2026-08-01"},"geometry":{"type":"Polygon","coordinates":[[[127.27755,37.75906],[127.27748,37.75901],[127.27748,37.75894],[127.27755,37.75894],[127.27755,37.75897],[127.27762,37.75899],[127.27761,37.75907],[127.27755,37.75906]]]}},{"type":"Feature","properties":{"valleyId":"sudong","layer":"canopy","date":"2026-08-01"},"geometry":{"type":"Polygon","coordinates":[[[127.27728,37.75893],[127.27728,37.75886],[127.27737,37.75886],[127.27737,37.75894],[127.27728,37.75893]]]}},{"type":"Feature","properties":{"valleyId":"sudong","layer":"canopy","date":"2026-08-01"},"geometry":{"type":"Polygon","coordinates":[[[127.27816,37.75895],[127.27816,37.75887],[127.27823,37.75888],[127.27823,37.75895],[127.27816,37.75895]]]}},{"type":"Feature","properties":{"valleyId":"sudong","layer":"canopy","date":"2026-08-01"},"geometry":{"type":"Polygon","coordinates":[[[127.27744,37.75859],[127.27738,37.75854],[127.27738,37.75848],[127.27758,37.75847],[127.2776,37.75854],[127.27751,37.7586],[127.27744,37.75859]]]}},{"type":"Feature","properties":{"valleyId":"sudong","layer":"canopy","date":"2026-08-01"},"geometry":{"type":"Polygon","coordinates":[[[127.2771,37.75859],[127.27699,37.75853],[127.27699,37.75843],[127.27704,37.75841],[127.27704,37.75837],[127.27718,37.75839],[127.27717,37.75859],[127.2771,37.75859]]]}},{"type":"Feature","properties":{"valleyId":"sudong","layer":"canopy","date":"2026-08-01"},"geometry":{"type":"Polygon","coordinates":[[[127.27475,37.75845],[127.27475,37.75836],[127.27479,37.75834],[127.27479,37.7583],[127.27489,37.7583],[127.27486,37.75843],[127.27475,37.75845]]]}},{"type":"Feature","properties":{"valleyId":"sudong","layer":"canopy","date":"2026-08-01"},"geometry":{"type":"Polygon","coordinates":[[[127.2801,37.76263],[127.28003,37.76254],[127.2799,37.76252],[127.27915,37.76251],[127.27903,37.76244],[127.27892,37.76242],[127.2789,37.76238],[127.27879,37.76238],[127.27872,37.76243],[127.27872,37.76247],[127.27865,37.76247],[127.27863,37.76238],[127.27854,37.76236],[127.27836,37.76223],[127.27831,37.76223],[127.27798,37.76195],[127.27798,37.76192],[127.27785,37.76181],[127.27785,37.76177],[127.2778,37.76175],[127.27771,37.76161],[127.27765,37.76157],[127.27756,37.76143],[127.27749,37.76139],[127.27741,37.76124],[127.27734,37.76121],[127.27725,37.76106],[127.27687,37.76096],[127.2766,37.76085],[127.27658,37.76082],[127.27644,37.76078],[127.27642,37.76074],[127.27633,37.76072],[127.27631,37.76069],[127.27622,37.76067],[127.2761,37.76058],[127.27606,37.76057],[127.27572,37.76032],[127.27572,37.76028],[127.27555,37.76015],[127.27555,37.76012],[127.27541,37.76002],[127.27541,37.75999],[127.27524,37.75982],[127.27524,37.75975],[127.27531,37.75972],[127.27531,37.75963],[127.27536,37.75957],[127.27545,37.75957],[127.27551,37.75968],[127.2756,37.7597],[127.27558,37.75958],[127.27538,37.75947],[127.27538,37.75937],[127.27545,37.75932],[127.27548,37.75918],[127.27564,37.75918],[127.27568,37.75922],[127.27575,37.75922],[127.27584,37.75917],[127.27584,37.75911],[127.2758,37.75911],[127.27571,37.759],[127.27569,37.75889],[127.2756,37.75887],[127.27558,37.75884],[127.27551,37.75884],[127.27542,37.75876],[127.27542,37.75871],[127.27549,37.75866],[127.27549,37.75855],[127.27559,37.75848],[127.27586,37.75848],[127.27588,37.75839],[127.27604,37.75838],[127.27616,37.7583],[127.27632,37.75831],[127.27631,37.7584],[127.27627,37.7584],[127.27627,37.75845],[127.27636,37.75847],[127.27638,37.75852],[127.27647,37.75853],[127.27652,37.75847],[127.27661,37.75849],[127.2766,37.75858],[127.27674,37.75866],[127.27674,37.75873],[127.27694,37.75889],[127.27694,37.75893],[127.277,37.75898],[127.277,37.75906],[127.27707,37.75908],[127.27709,37.75915],[127.27732,37.75926],[127.27734,37.75937],[127.27758,37.75939],[127.27759,37.75934],[127.27768,37.75934],[127.27774,37.75937],[127.27776,37.75948],[127.27792,37.75948],[127.27815,37.75954],[127.27815,37.75961],[127.27801,37.75963],[127.27801,37.75976],[127.27814,37.75979],[127.27816,37.75983],[127.27821,37.75983],[127.27823,37.75989],[127.27832,37.7599],[127.27841,37.75998],[127.27839,37.7601],[127.27856,37.76023],[127.27859,37.76029],[127.27865,37.76031],[127.27865,37.76034],[127.27874,37.76042],[127.27892,37.76044],[127.27899,37.76038],[127.27911,37.76038],[127.27919,37.76046],[127.27919,37.76049],[127.27924,37.76049],[127.27933,37.76064],[127.2793,37.7608],[127.27934,37.76093],[127.27939,37.76097],[127.27943,37.76097],[127.27945,37.761],[127.27961,37.761],[127.27988,37.76112],[127.27993,37.76117],[127.28002,37.76121],[127.28011,37.76121],[127.28011,37.76116],[127.28004,37.7611],[127.28004,37.76103],[127.28009,37.76101],[127.28029,37.76105],[127.28036,37.76111],[127.28043,37.76111],[127.28054,37.7612],[127.28058,37.7612],[127.2806,37.76134],[127.28065,37.76136],[127.28064,37.76167],[127.28073,37.76174],[127.28078,37.76174],[127.28075,37.76183],[127.28064,37.76192],[127.28055,37.7619],[127.28055,37.76178],[127.2805,37.76177],[127.28048,37.76165],[127.28035,37.76148],[127.28022,37.76148],[127.28015,37.76143],[127.28015,37.76139],[127.28008,37.76137],[127.28006,37.76132],[127.27997,37.7613],[127.2799,37.76123],[127.27981,37.76121],[127.27963,37.7611],[127.2795,37.76109],[127.27945,37.76115],[127.27942,37.76133],[127.27954,37.76142],[127.27967,37.76138],[127.27978,37.76146],[127.27978,37.76155],[127.2796,37.76153],[127.2796,37.76164],[127.27964,37.76171],[127.27975,37.76178],[127.27975,37.76184],[127.27982,37.76189],[127.27982,37.76196],[127.27986,37.762],[127.28,37.76197],[127.28002,37.76204],[127.28016,37.76202],[127.28016,37.76199],[127.28027,37.76197],[127.28027,37.76208],[127.28009,37.76209],[127.28008,37.76231],[127.2801,37.76236],[127.28033,37.76237],[127.28035,37.76249],[127.28028,37.76251],[127.28028,37.76258],[127.28023,37.76264],[127.2801,37.76263]],[[127.27838,37.76219],[127.27845,37.7622],[127.2785,37.76214],[127.27857,37.76213],[127.27857,37.76198],[127.27825,37.76196],[127.27825,37.76201],[127.27834,37.76203],[127.27834,37.76212],[127.27838,37.76219]],[[127.2793,37.7619],[127.27937,37.7619],[127.27948,37.76183],[127.27948,37.76174],[127.27939,37.76174],[127.27935,37.76178],[127.2793,37.7619]],[[127.28042,37.7614],[127.28051,37.7614],[127.28054,37.76132],[127.2804,37.76129],[127.28042,37.7614]]]}},{"type":"Feature","properties":{"valleyId":"sudong","layer":"canopy","date":"2026-08-01"},"geometry":{"type":"Polygon","coordinates":[[[127.2752,37.75836],[127.2752,37.75829],[127.27529,37.75829],[127.27529,37.75836],[127.2752,37.75836]]]}},{"type":"Feature","properties":{"valleyId":"sudong","layer":"canopy","date":"2026-08-01"},"geometry":{"type":"Polygon","coordinates":[[[127.27893,37.75827],[127.27893,37.75822],[127.27897,37.75818],[127.27909,37.7582],[127.27909,37.75828],[127.27893,37.75827]]]}},{"type":"Feature","properties":{"valleyId":"sudong","layer":"canopy","date":"2026-08-01"},"geometry":{"type":"Polygon","coordinates":[[[127.27582,37.75832],[127.2758,37.75821],[127.27589,37.75814],[127.27602,37.75812],[127.27607,37.75816],[127.27607,37.75823],[127.27593,37.75827],[127.27588,37.75832],[127.27582,37.75832]]]}},{"type":"Feature","properties":{"valleyId":"sudong","layer":"canopy","date":"2026-08-01"},"geometry":{"type":"Polygon","coordinates":[[[127.27702,37.75821],[127.277,37.75806],[127.27709,37.75807],[127.27711,37.75819],[127.27702,37.75821]]]}},{"type":"Feature","properties":{"valleyId":"sudong","layer":"canopy","date":"2026-08-01"},"geometry":{"type":"Polygon","coordinates":[[[127.27763,37.75825],[127.27761,37.75811],[127.27766,37.75807],[127.2778,37.75808],[127.27782,37.75804],[127.27789,37.75804],[127.27789,37.75811],[127.27782,37.75813],[127.27779,37.75822],[127.27772,37.75826],[127.27763,37.75825]]]}},{"type":"Feature","properties":{"valleyId":"sudong","layer":"canopy","date":"2026-08-01"},"geometry":{"type":"Polygon","coordinates":[[[127.28358,37.76402],[127.28338,37.764],[127.28338,37.76394],[127.28345,37.76384],[127.2835,37.76384],[127.2835,37.7638],[127.28359,37.7638],[127.28359,37.76377],[127.28364,37.76375],[127.28364,37.76368],[127.28343,37.76366],[127.28332,37.76358],[127.28332,37.76351],[127.28314,37.76349],[127.28317,37.76329],[127.2831,37.76329],[127.28296,37.7634],[127.28296,37.76343],[127.28278,37.76345],[127.28265,37.76327],[127.28268,37.76309],[127.28261,37.76303],[127.28261,37.76276],[127.2823,37.76276],[127.28212,37.76265],[127.28212,37.76261],[127.28205,37.76255],[127.28205,37.7625],[127.28201,37.7625],[127.28201,37.76246],[127.28194,37.76244],[127.28194,37.7623],[127.28224,37.76227],[127.28242,37.7622],[127.28242,37.76215],[127.28236,37.76207],[127.28236,37.76198],[127.28229,37.76196],[127.28223,37.76189],[127.28221,37.76178],[127.282,37.76176],[127.282,37.76172],[127.28194,37.76167],[127.28185,37.76167],[127.28178,37.76174],[127.28166,37.76174],[127.28164,37.7617],[127.28157,37.7617],[127.28143,37.76177],[127.28125,37.7618],[127.28121,37.76186],[127.28105,37.76185],[127.28103,37.7618],[127.28096,37.76178],[127.28098,37.76167],[127.28103,37.76166],[127.28104,37.76131],[127.28099,37.7613],[127.28099,37.76122],[127.28088,37.76119],[127.28084,37.76108],[127.28057,37.76107],[127.28025,37.76094],[127.28023,37.76073],[127.28005,37.76072],[127.28005,37.76061],[127.28019,37.7606],[127.28019,37.76051],[127.28003,37.76047],[127.28001,37.76034],[127.2799,37.76025],[127.27977,37.7602],[127.27977,37.76009],[127.27973,37.76005],[127.27964,37.76005],[127.27963,37.7601],[127.27954,37.76017],[127.27952,37.76026],[127.27931,37.76026],[127.27927,37.76021],[127.27918,37.76019],[127.27911,37.76004],[127.27909,37.75986],[127.27919,37.75986],[127.27917,37.7597],[127.27924,37.75963],[127.2793,37.75963],[127.27935,37.75958],[127.2794,37.75958],[127.27944,37.75954],[127.27944,37.75949],[127.27924,37.75934],[127.27904,37.75932],[127.27899,37.75928],[127.279,37.75919],[127.27909,37.75914],[127.27909,37.75907],[127.27896,37.75899],[127.27896,37.75887],[127.27883,37.75876],[127.27883,37.75869],[127.27871,37.75867],[127.27872,37.75858],[127.27876,37.75856],[127.27879,37.75847],[127.27874,37.75843],[127.27854,37.75841],[127.27854,37.75836],[127.27863,37.75832],[127.2787,37.75825],[127.2789,37.75827],[127.2789,37.75834],[127.27904,37.75835],[127.27904,37.75844],[127.27892,37.75849],[127.27892,37.75856],[127.27899,37.75856],[127.27915,37.75842],[127.27915,37.75833],[127.27925,37.75826],[127.27943,37.75826],[127.27943,37.75823],[127.2795,37.75819],[127.27956,37.75819],[127.27961,37.75823],[127.27988,37.7582],[127.27995,37.75816],[127.27998,37.75802],[127.28005,37.75802],[127.28054,37.7584],[127.28054,37.75844],[127.2806,37.75848],[127.2806,37.75851],[127.28078,37.7587],[127.2808,37.75877],[127.28085,37.75879],[127.28087,37.75886],[127.28091,37.75888],[127.28093,37.75895],[127.28098,37.75897],[127.281,37.75904],[127.28113,37.75919],[127.28113,37.75924],[127.28108,37.75926],[127.28106,37.75948],[127.28101,37.75951],[127.28105,37.75967],[127.28078,37.75963],[127.28078,37.75967],[127.28071,37.75972],[127.28071,37.75985],[127.28078,37.75985],[127.28082,37.75991],[127.28086,37.75991],[127.28095,37.75998],[127.281,37.76007],[127.28104,37.76007],[127.28104,37.76011],[127.28109,37.76013],[127.28104,37.76027],[127.28124,37.76027],[127.28129,37.76031],[127.28128,37.76043],[127.28142,37.76056],[127.28151,37.76056],[127.28153,37.76047],[127.2816,37.76048],[127.2816,37.76051],[127.28176,37.7605],[127.2818,37.76053],[127.2818,37.76059],[127.28189,37.76061],[127.28189,37.76066],[127.28182,37.76066],[127.2818,37.7606],[127.28171,37.7606],[127.28171,37.76066],[127.28178,37.76071],[127.28189,37.76071],[127.28189,37.76068],[127.28219,37.76068],[127.2823,37.76063],[127.28244,37.76061],[127.28251,37.76054],[127.28251,37.76049],[127.28239,37.76049],[127.2824,37.7604],[127.28244,37.76036],[127.28256,37.76036],[127.28255,37.76047],[127.28274,37.76049],[127.28299,37.76113],[127.28303,37.76142],[127.28319,37.76154],[127.28323,37.76154],[127.28325,37.7616],[127.28341,37.76171],[127.28341,37.76175],[127.28352,37.76182],[127.28361,37.76195],[127.28372,37.76202],[127.28372,37.76206],[127.28381,37.76211],[127.28381,37.76215],[127.28392,37.76222],[127.28392,37.76226],[127.28401,37.76231],[127.28401,37.76235],[127.28412,37.76242],[127.28412,37.76246],[127.28434,37.76266],[127.28434,37.7627],[127.28445,37.76281],[127.28445,37.76286],[127.28429,37.76286],[127.28429,37.76298],[127.28456,37.76299],[127.28469,37.76331],[127.28471,37.76358],[127.28448,37.76358],[127.28448,37.76355],[127.28441,37.76349],[127.28425,37.76351],[127.28418,37.76361],[127.28405,37.76367],[127.28404,37.76376],[127.28384,37.76386],[127.28381,37.76395],[127.28368,37.76402],[127.28358,37.76402]],[[127.28362,37.7633],[127.28374,37.7633],[127.28385,37.76321],[127.28401,37.7632],[127.28411,37.76311],[127.28411,37.76304],[127.28392,37.76305],[127.28388,37.76316],[127.28356,37.76315],[127.28353,37.76324],[127.28362,37.7633]],[[127.28386,37.76271],[127.28393,37.76271],[127.28393,37.76265],[127.28387,37.76265],[127.28386,37.76271]],[[127.28035,37.7606],[127.28064,37.76061],[127.2808,37.76054],[127.28085,37.76048],[127.28101,37.76048],[127.28101,37.76043],[127.28097,37.76036],[127.28063,37.76035],[127.28058,37.76039],[127.28058,37.76046],[127.28044,37.76046],[127.28035,37.76049],[127.28035,37.7606]],[[127.28056,37.7601],[127.28063,37.7601],[127.28064,37.76001],[127.28057,37.76001],[127.28056,37.7601]],[[127.27945,37.76003],[127.27957,37.76001],[127.27957,37.75996],[127.27952,37.75992],[127.27943,37.75992],[127.27945,37.76003]],[[127.28056,37.7592],[127.28065,37.75918],[127.28066,37.75909],[127.28057,37.75911],[127.28056,37.7592]],[[127.27941,37.75891],[127.27968,37.7589],[127.27973,37.75886],[127.27973,37.75881],[127.2796,37.75879],[127.27941,37.75886],[127.27941,37.75891]]]}},{"type":"Feature","properties":{"valleyId":"sudong","layer":"canopy","date":"2026-08-01"},"geometry":{"type":"Polygon","coordinates":[[[127.27707,37.75805],[127.27707,37.75798],[127.27723,37.75794],[127.27723,37.75789],[127.27732,37.75791],[127.27732,37.75796],[127.27725,37.75796],[127.27721,37.75803],[127.27707,37.75805]]]}},{"type":"Feature","properties":{"valleyId":"sudong","layer":"canopy","date":"2026-08-01"},"geometry":{"type":"Polygon","coordinates":[[[127.27757,37.758],[127.27753,37.75796],[127.27753,37.75789],[127.27767,37.75788],[127.27769,37.75798],[127.27757,37.758]]]}},{"type":"Feature","properties":{"valleyId":"sudong","layer":"canopy","date":"2026-08-01"},"geometry":{"type":"Polygon","coordinates":[[[127.27671,37.75804],[127.27667,37.75786],[127.27685,37.7579],[127.27687,37.75777],[127.27696,37.75778],[127.27707,37.75787],[127.27705,37.75798],[127.27691,37.75797],[127.27691,37.75805],[127.27671,37.75804]]]}},{"type":"Feature","properties":{"valleyId":"sudong","layer":"canopy","date":"2026-08-01"},"geometry":{"type":"Polygon","coordinates":[[[127.27642,37.75786],[127.2764,37.75777],[127.27653,37.75777],[127.27653,37.75784],[127.27642,37.75786]]]}},{"type":"Feature","properties":{"valleyId":"sudong","layer":"canopy","date":"2026-08-01"},"geometry":{"type":"Polygon","coordinates":[[[127.27433,37.75885],[127.27422,37.75878],[127.27413,37.75876],[127.2741,37.75873],[127.27406,37.75872],[127.27404,37.75869],[127.27399,37.75869],[127.27395,37.75863],[127.2739,37.75863],[127.27357,37.75836],[127.27357,37.75827],[127.27366,37.75823],[127.27389,37.75822],[127.27387,37.75811],[127.27398,37.75802],[127.2741,37.758],[127.27421,37.75784],[127.27431,37.75777],[127.2744,37.75776],[127.27447,37.75767],[127.27456,37.75767],[127.2746,37.75772],[127.2746,37.75781],[127.27467,37.75783],[127.27467,37.75789],[127.27449,37.75787],[127.27444,37.75797],[127.27439,37.75799],[127.27439,37.75804],[127.27446,37.75805],[127.27448,37.75801],[127.2746,37.75801],[127.27464,37.75803],[127.27464,37.75812],[127.2745,37.75821],[127.27439,37.75822],[127.27434,37.75826],[127.27438,37.75839],[127.27434,37.75846],[127.27425,37.75849],[127.27424,37.75855],[127.27447,37.75853],[127.27447,37.75862],[127.2744,37.75864],[127.27444,37.75886],[127.27433,37.75885]]]}},{"type":"Feature","properties":{"valleyId":"sudong","layer":"canopy","date":"2026-08-01"},"geometry":{"type":"Polygon","coordinates":[[[127.27637,37.75773],[127.27638,37.75768],[127.27644,37.75768],[127.27644,37.75773],[127.27637,37.75773]]]}},{"type":"Feature","properties":{"valleyId":"sudong","layer":"canopy","date":"2026-08-01"},"geometry":{"type":"Polygon","coordinates":[[[127.27479,37.75771],[127.27474,37.75767],[127.27463,37.75765],[127.27463,37.75756],[127.27468,37.75753],[127.27474,37.75753],[127.27474,37.75756],[127.27492,37.75762],[127.27492,37.75771],[127.27479,37.75771]]]}},{"type":"Feature","properties":{"valleyId":"sudong","layer":"canopy","date":"2026-08-01"},"geometry":{"type":"Polygon","coordinates":[[[127.27508,37.75791],[127.27503,37.75789],[127.27501,37.75771],[127.27508,37.75769],[127.27508,37.75766],[127.27513,37.75764],[127.27511,37.7575],[127.27518,37.75746],[127.27531,37.75746],[127.27531,37.75768],[127.27526,37.75771],[127.27526,37.75784],[127.27519,37.75791],[127.27508,37.75791]]]}},{"type":"Feature","properties":{"valleyId":"sudong","layer":"canopy","date":"2026-08-01"},"geometry":{"type":"Polygon","coordinates":[[[127.27531,37.75746],[127.27532,37.75739],[127.27527,37.75739],[127.27527,37.75734],[127.27543,37.75736],[127.27543,37.75745],[127.27531,37.75746]]]}},{"type":"Feature","properties":{"valleyId":"sudong","layer":"canopy","date":"2026-08-01"},"geometry":{"type":"Polygon","coordinates":[[[127.27489,37.75729],[127.27489,37.7572],[127.27503,37.75717],[127.27502,37.75724],[127.27495,37.7573],[127.27489,37.75729]]]}},{"type":"Feature","properties":{"valleyId":"sudong","layer":"canopy","date":"2026-08-01"},"geometry":{"type":"Polygon","coordinates":[[[127.2756,37.75684],[127.27558,37.75673],[127.27565,37.75673],[127.27569,37.75684],[127.2756,37.75684]]]}},{"type":"Feature","properties":{"valleyId":"sudong","layer":"canopy","date":"2026-08-01"},"geometry":{"type":"Polygon","coordinates":[[[127.27462,37.75617],[127.27455,37.75614],[127.27441,37.75613],[127.27437,37.7561],[127.27437,37.75604],[127.27473,37.7561],[127.27473,37.75618],[127.27462,37.75617]]]}},{"type":"Feature","properties":{"valleyId":"sudong","layer":"canopy","date":"2026-08-01"},"geometry":{"type":"Polygon","coordinates":[[[127.2775,37.756],[127.27744,37.75596],[127.27744,37.75575],[127.27751,37.75575],[127.27771,37.75591],[127.27771,37.75597],[127.27766,37.756],[127.2775,37.756]]]}},{"type":"Feature","properties":{"valleyId":"sudong","layer":"canopy","date":"2026-08-01"},"geometry":{"type":"Polygon","coordinates":[[[127.27704,37.75552],[127.27704,37.75547],[127.27713,37.75547],[127.27713,37.75553],[127.27704,37.75552]]]}},{"type":"Feature","properties":{"valleyId":"sudong","layer":"canopy","date":"2026-08-01"},"geometry":{"type":"Polygon","coordinates":[[[127.27563,37.75455],[127.27559,37.75453],[127.27559,37.75442],[127.27566,37.75442],[127.27572,37.75448],[127.27581,37.7545],[127.27581,37.75455],[127.27563,37.75455]]]}},{"type":"Feature","properties":{"valleyId":"sudong","layer":"canopy","date":"2026-08-01"},"geometry":{"type":"Polygon","coordinates":[[[127.2726,37.75227],[127.27262,37.75218],[127.27269,37.75218],[127.27266,37.75227],[127.2726,37.75227]]]}},{"type":"Feature","properties":{"valleyId":"sudong","layer":"canopy","date":"2026-08-01"},"geometry":{"type":"Polygon","coordinates":[[[127.27267,37.75211],[127.27267,37.75205],[127.27274,37.75205],[127.27274,37.75211],[127.27267,37.75211]]]}},{"type":"Feature","properties":{"valleyId":"sudong","layer":"canopy","date":"2026-08-01"},"geometry":{"type":"Polygon","coordinates":[[[127.27662,37.74925],[127.27662,37.74919],[127.27669,37.74919],[127.27668,37.74925],[127.27662,37.74925]]]}},{"type":"Feature","properties":{"valleyId":"sudong","layer":"canopy","date":"2026-08-01"},"geometry":{"type":"Polygon","coordinates":[[[127.27844,37.75783],[127.27815,37.75772],[127.2781,37.75759],[127.27797,37.75748],[127.27797,37.75734],[127.2779,37.75734],[127.27786,37.75728],[127.27763,37.75728],[127.27759,37.75721],[127.27762,37.75706],[127.27728,37.75704],[127.27721,37.75697],[127.27712,37.75695],[127.27699,37.7568],[127.27687,37.7568],[127.27683,37.75687],[127.27667,37.75689],[127.27662,37.75692],[127.27662,37.75707],[127.27646,37.75707],[127.27646,37.75717],[127.27652,37.75725],[127.27652,37.75735],[127.27645,37.75735],[127.27645,37.75732],[127.27627,37.75717],[127.2763,37.75701],[127.27637,37.75697],[127.27637,37.75692],[127.27601,37.75688],[127.27592,37.75684],[127.27592,37.75681],[127.27587,37.75679],[127.27588,37.75668],[127.27576,37.7566],[127.27577,37.75633],[127.27566,37.75622],[127.27525,37.75611],[127.27503,37.75614],[127.27494,37.75605],[127.27476,37.756],[127.27471,37.75594],[127.27465,37.75592],[127.27431,37.7559],[127.27428,37.75593],[127.27412,37.75593],[127.27408,37.7559],[127.27392,37.75589],[127.27385,37.75584],[127.27381,37.75584],[127.27376,37.75576],[127.2737,37.75575],[127.27365,37.75562],[127.2735,37.75549],[127.27346,37.75536],[127.27339,37.75531],[127.27334,37.75531],[127.27334,37.75527],[127.27323,37.75518],[127.27317,37.75503],[127.27308,37.75496],[127.27301,37.75483],[127.27295,37.7548],[127.27295,37.75476],[127.27283,37.75472],[127.27277,37.75467],[127.27275,37.7546],[127.27266,37.75454],[127.27249,37.75409],[127.2725,37.7534],[127.27246,37.75335],[127.27241,37.75335],[127.27239,37.75315],[127.27242,37.75311],[127.27253,37.75308],[127.27253,37.75302],[127.27249,37.75301],[127.27247,37.75293],[127.27247,37.75283],[127.27254,37.75266],[127.27259,37.75259],[127.27273,37.7525],[127.27273,37.75245],[127.2728,37.7524],[127.27285,37.75227],[127.27289,37.75224],[127.27292,37.75189],[127.27304,37.75186],[127.27304,37.75175],[127.27309,37.7517],[127.27309,37.75163],[127.27313,37.75159],[127.27321,37.75123],[127.2733,37.75109],[127.27331,37.75096],[127.27338,37.75084],[127.27334,37.75068],[127.27337,37.75042],[127.27332,37.75035],[127.27325,37.75031],[127.27321,37.75017],[127.27308,37.75006],[127.27306,37.74988],[127.27295,37.74961],[127.27294,37.74912],[127.27324,37.74912],[127.27337,37.74918],[127.27346,37.74927],[127.27357,37.74927],[127.27358,37.7492],[127.27369,37.74918],[127.27378,37.74928],[127.27382,37.74928],[127.27389,37.74933],[127.27398,37.74933],[127.27398,37.74924],[127.27412,37.74921],[127.27419,37.74926],[127.27432,37.74928],[127.27441,37.74936],[127.27446,37.74936],[127.27446,37.74945],[127.27482,37.74944],[127.27493,37.7494],[127.27516,37.7494],[127.27518,37.74933],[127.27528,37.74928],[127.27532,37.74915],[127.27539,37.74912],[127.27544,37.74896],[127.27551,37.74889],[127.2756,37.74889],[127.2756,37.74907],[127.27567,37.74912],[127.27564,37.74939],[127.2757,37.74947],[127.27579,37.74947],[127.27577,37.74932],[127.27582,37.74929],[127.27603,37.74925],[127.27605,37.74918],[127.27621,37.74917],[127.27621,37.7492],[127.27637,37.74922],[127.27641,37.74926],[127.27641,37.74939],[127.27634,37.74942],[127.27634,37.74948],[127.27643,37.74948],[127.27645,37.74953],[127.27654,37.74959],[127.27679,37.74954],[127.27686,37.74948],[127.27686,37.74939],[127.27691,37.74936],[127.27709,37.74931],[127.27721,37.7492],[127.27728,37.7492],[127.27732,37.74917],[127.2775,37.74919],[127.27755,37.74926],[127.27771,37.74928],[127.2777,37.74933],[127.27766,37.74937],[127.27759,37.74937],[127.27755,37.74933],[127.27736,37.74933],[127.27734,37.74945],[127.2774,37.74953],[127.2774,37.74962],[127.27731,37.74987],[127.27712,37.75015],[127.27696,37.7503],[127.27695,37.75033],[127.27684,37.7504],[127.27684,37.75044],[127.27636,37.75074],[127.27578,37.75096],[127.27571,37.75096],[127.27562,37.75102],[127.27553,37.75101],[127.27546,37.75107],[127.27546,37.75119],[127.27531,37.75177],[127.27519,37.75196],[127.27519,37.75202],[127.27498,37.75232],[127.27493,37.7525],[127.27452,37.75338],[127.27452,37.75356],[127.27456,37.75365],[127.27462,37.75408],[127.27448,37.75404],[127.27446,37.75395],[127.27435,37.75386],[127.27426,37.75384],[127.27431,37.75374],[127.27424,37.75373],[127.27422,37.75361],[127.27404,37.75359],[127.27402,37.75355],[127.27388,37.75353],[127.27381,37.75358],[127.27381,37.75366],[127.27386,37.75366],[127.27388,37.75369],[127.27397,37.75369],[127.27397,37.75375],[127.27392,37.75375],[127.27392,37.7538],[127.27397,37.75382],[127.2742,37.75381],[127.27419,37.75411],[127.27442,37.75408],[127.27455,37.75423],[127.2748,37.75428],[127.27482,37.75432],[127.27493,37.75436],[127.27509,37.75458],[127.27534,37.75456],[127.27533,37.75463],[127.27542,37.75464],[127.2754,37.75478],[127.27556,37.75482],[127.27569,37.75482],[127.27574,37.75478],[127.27581,37.75478],[127.27592,37.75502],[127.27596,37.75506],[127.27612,37.7551],[127.27627,37.75524],[127.27636,37.75526],[127.27638,37.75539],[127.27665,37.75543],[127.27664,37.75521],[127.27643,37.75521],[127.27625,37.75506],[127.27603,37.755],[127.27603,37.75497],[127.27594,37.75491],[127.27597,37.7547],[127.27601,37.75466],[127.27613,37.75466],[127.27631,37.75479],[127.27635,37.75479],[127.2764,37.75485],[127.27644,37.75485],[127.2766,37.75499],[127.27664,37.755],[127.27666,37.75505],[127.2768,37.75514],[127.2768,37.75518],[127.277,37.75536],[127.277,37.75543],[127.27681,37.75545],[127.27681,37.7555],[127.2769,37.75552],[127.2769,37.7557],[127.27685,37.75572],[127.27685,37.75579],[127.27692,37.75579],[127.27694,37.7557],[127.27703,37.75569],[127.27717,37.75556],[127.27726,37.75556],[127.27738,37.75566],[127.27735,37.75578],[127.2773,37.75583],[127.2773,37.75598],[127.27737,37.75605],[127.27736,37.7562],[127.27741,37.75627],[127.2775,37.75631],[127.27754,37.7564],[127.27768,37.75638],[127.27784,37.75624],[127.27784,37.75618],[127.27791,37.75619],[127.27791,37.75624],[127.27811,37.75626],[127.27811,37.7563],[127.27816,37.75632],[127.27818,37.75639],[127.27826,37.75648],[127.27826,37.75653],[127.27822,37.75657],[127.27808,37.75658],[127.27803,37.75673],[127.27815,37.75673],[127.27815,37.75669],[127.27819,37.75669],[127.27822,37.75666],[127.27837,37.75668],[127.27852,37.75704],[127.27857,37.75708],[127.27857,37.75713],[127.27861,37.75717],[127.27861,37.75722],[127.27866,37.75726],[127.27865,37.75731],[127.27876,37.75746],[127.27876,37.75751],[127.27888,37.75753],[127.27887,37.75759],[127.27881,37.75759],[127.27881,37.75762],[127.27871,37.75766],[127.27871,37.75771],[127.2786,37.75784],[127.27844,37.75783]],[[127.27768,37.75703],[127.27775,37.75703],[127.27775,37.75698],[127.27769,37.75698],[127.27768,37.75703]],[[127.27775,37.75696],[127.27782,37.75696],[127.27796,37.75689],[127.27799,37.75673],[127.27785,37.75676],[127.27782,37.75687],[127.27776,37.7569],[127.27775,37.75696]],[[127.27395,37.7556],[127.27402,37.75561],[127.27402,37.75553],[127.27395,37.75553],[127.27395,37.7556]],[[127.27482,37.75513],[127.27491,37.75513],[127.27491,37.75508],[127.27482,37.75508],[127.27482,37.75513]],[[127.27457,37.75509],[127.27469,37.75507],[127.27471,37.75497],[127.27494,37.75493],[127.27499,37.7549],[127.27521,37.7549],[127.27522,37.75485],[127.27503,37.75481],[127.27494,37.75486],[127.27449,37.75493],[127.27449,37.75498],[127.27453,37.755],[127.27457,37.75509]],[[127.27392,37.75496],[127.27403,37.75496],[127.27401,37.75483],[127.27394,37.75483],[127.27392,37.75496]],[[127.2742,37.7544],[127.27427,37.7544],[127.27423,37.75424],[127.27421,37.7542],[127.2741,37.7542],[127.27409,37.75427],[127.27416,37.75427],[127.27416,37.75435],[127.2742,37.7544]],[[127.2726,37.75308],[127.27269,37.75308],[127.27269,37.75303],[127.2726,37.75303],[127.2726,37.75308]],[[127.27399,37.75306],[127.27414,37.75307],[127.27415,37.75296],[127.27399,37.75294],[127.27394,37.75297],[127.27394,37.75303],[127.27399,37.75306]],[[127.27379,37.75265],[127.27393,37.75265],[127.27397,37.7526],[127.27404,37.75258],[127.274,37.7524],[127.27384,37.75238],[127.27384,37.75234],[127.27378,37.75234],[127.27375,37.75241],[127.27371,37.75243],[127.2737,37.75248],[127.27379,37.75248],[127.27379,37.75265]],[[127.27387,37.75229],[127.274,37.75229],[127.27401,37.75222],[127.27396,37.75222],[127.27399,37.75207],[127.27385,37.75209],[127.27385,37.75214],[127.27389,37.75216],[127.27387,37.75229]],[[127.27351,37.75001],[127.27358,37.75001],[127.27363,37.74998],[127.2737,37.74983],[127.27374,37.74982],[127.27374,37.74976],[127.27395,37.74971],[127.27395,37.74966],[127.27391,37.74966],[127.2738,37.74953],[127.27359,37.74951],[127.27352,37.74949],[127.27344,37.7494],[127.27332,37.7494],[127.27332,37.74959],[127.27343,37.7496],[127.27348,37.74963],[127.2737,37.74967],[127.27372,37.74971],[127.27372,37.74976],[127.2734,37.74977],[127.2734,37.74988],[127.27347,37.7499],[127.27351,37.75001]],[[127.27635,37.74976],[127.27647,37.74975],[127.27645,37.74964],[127.27633,37.74966],[127.27635,37.74976]]]}},{"type":"Feature","properties":{"valleyId":"sudong","layer":"canopy","date":"2026-08-01"},"geometry":{"type":"Polygon","coordinates":[[[127.27513,37.74895],[127.27513,37.74888],[127.27519,37.74888],[127.27519,37.74895],[127.27513,37.74895]]]}},{"type":"Feature","properties":{"valleyId":"sudong","layer":"canopy","date":"2026-08-01"},"geometry":{"type":"Polygon","coordinates":[[[127.27424,37.74905],[127.27422,37.74901],[127.2741,37.74899],[127.27408,37.74896],[127.27388,37.74893],[127.27383,37.7489],[127.27383,37.74881],[127.27422,37.74883],[127.27422,37.74896],[127.27433,37.749],[127.27433,37.74905],[127.27424,37.74905]]]}},{"type":"Feature","properties":{"valleyId":"sudong","layer":"canopy","date":"2026-08-01"},"geometry":{"type":"Polygon","coordinates":[[[127.2752,37.74879],[127.27522,37.74872],[127.27531,37.74872],[127.27529,37.74879],[127.2752,37.74879]]]}},{"type":"Feature","properties":{"valleyId":"sudong","layer":"canopy","date":"2026-08-01"},"geometry":{"type":"Polygon","coordinates":[[[127.27624,37.74875],[127.27622,37.74872],[127.27617,37.74872],[127.27618,37.74863],[127.27634,37.74863],[127.27638,37.74859],[127.27645,37.74859],[127.27649,37.74863],[127.27649,37.74872],[127.27624,37.74875]]]}},{"type":"Feature","properties":{"valleyId":"sudong","layer":"canopy","date":"2026-08-01"},"geometry":{"type":"Polygon","coordinates":[[[127.27341,37.75816],[127.27328,37.75797],[127.27324,37.75785],[127.27297,37.75783],[127.27281,37.75777],[127.27272,37.75777],[127.27171,37.75737],[127.27151,37.75723],[127.27146,37.75723],[127.27095,37.7568],[127.27095,37.75677],[127.27081,37.75668],[127.27077,37.75659],[127.27066,37.75649],[127.2704,37.75606],[127.27036,37.75589],[127.27045,37.75586],[127.27045,37.75581],[127.27027,37.75579],[127.27027,37.75571],[127.27031,37.75571],[127.27032,37.75561],[127.27027,37.75557],[127.2702,37.75557],[127.27021,37.75546],[127.27016,37.75542],[127.2701,37.75432],[127.26995,37.75369],[127.26996,37.75355],[127.27023,37.75362],[127.27036,37.75362],[127.27034,37.75348],[127.27025,37.75342],[127.27026,37.75335],[127.27035,37.75335],[127.27035,37.7533],[127.2703,37.7533],[127.27028,37.75326],[127.2701,37.75328],[127.26994,37.75324],[127.26994,37.75309],[127.27017,37.75236],[127.27031,37.75209],[127.27031,37.75202],[127.27052,37.75159],[127.27053,37.75152],[127.27067,37.75119],[127.27045,37.75099],[127.27021,37.75063],[127.2701,37.75032],[127.27006,37.74987],[127.27017,37.74944],[127.27036,37.74908],[127.27059,37.74885],[127.27061,37.74865],[127.27069,37.74847],[127.27089,37.74848],[127.27107,37.74852],[127.27148,37.7485],[127.27166,37.74858],[127.27168,37.74878],[127.27161,37.74885],[127.27161,37.7489],[127.27174,37.74901],[127.27176,37.74921],[127.27142,37.74922],[127.27139,37.74935],[127.27178,37.74935],[127.2718,37.74923],[127.27199,37.74921],[127.27201,37.74905],[127.27213,37.74907],[127.27217,37.74916],[127.27214,37.74927],[127.27219,37.74929],[127.27228,37.74929],[127.27237,37.74924],[127.27249,37.74924],[127.27257,37.74929],[127.27276,37.74926],[127.27278,37.74941],[127.27259,37.74942],[127.27257,37.74962],[127.27261,37.74967],[127.27261,37.74978],[127.27256,37.74982],[127.27215,37.74983],[127.27195,37.74988],[127.27188,37.74993],[127.27188,37.75004],[127.27192,37.7501],[127.27206,37.75012],[127.2721,37.75015],[127.27214,37.75037],[127.27221,37.75037],[127.27221,37.75028],[127.27233,37.75025],[127.27248,37.75027],[127.27255,37.75034],[127.27276,37.75031],[127.27276,37.7502],[127.27269,37.75007],[127.2727,37.74958],[127.2728,37.74957],[127.27281,37.74977],[127.27288,37.74984],[127.27292,37.74998],[127.27299,37.75004],[127.27301,37.7502],[127.2731,37.75026],[127.2731,37.75033],[127.27319,37.75038],[127.27318,37.75044],[127.27323,37.75046],[127.27327,37.75058],[127.27327,37.75085],[127.27313,37.75098],[127.27312,37.75114],[127.27308,37.75121],[127.27305,37.75137],[127.27296,37.75143],[127.27289,37.75153],[127.27288,37.75168],[127.27283,37.75179],[127.2727,37.75178],[127.2727,37.75191],[127.27274,37.75191],[127.27274,37.75196],[127.27263,37.75196],[127.27258,37.75211],[127.27244,37.75225],[127.27239,37.75243],[127.2723,37.75244],[127.27228,37.75241],[127.27216,37.75241],[127.27216,37.75232],[127.27208,37.75224],[127.27187,37.75226],[127.27187,37.75233],[127.27196,37.75239],[127.27209,37.75239],[127.27207,37.75251],[127.272,37.75255],[127.272,37.7526],[127.27211,37.7526],[127.27214,37.7525],[127.27221,37.7525],[127.27225,37.75253],[127.2722,37.75277],[127.27199,37.75293],[127.27199,37.75305],[127.27201,37.75311],[127.27205,37.75311],[127.27212,37.75316],[127.27212,37.75322],[127.27207,37.75323],[127.27207,37.75334],[127.27216,37.7534],[127.27216,37.75354],[127.27224,37.75374],[127.27224,37.7539],[127.27231,37.75399],[127.27231,37.75407],[127.27224,37.75412],[127.27223,37.75419],[127.27232,37.75421],[127.27235,37.75425],[127.27236,37.7545],[127.27232,37.75452],[127.27231,37.75466],[127.27227,37.7547],[127.27226,37.75508],[127.27235,37.75511],[127.27239,37.75517],[127.27239,37.75537],[127.27248,37.75537],[127.27248,37.75549],[127.27243,37.7556],[127.2725,37.75564],[127.27263,37.75564],[127.27268,37.75569],[127.27272,37.7557],[127.27274,37.75582],[127.27279,37.75582],[127.27279,37.75586],[127.27285,37.75591],[127.27297,37.75593],[127.27301,37.75599],[127.27312,37.75603],[127.27312,37.75608],[127.27319,37.75613],[127.27319,37.75621],[127.27325,37.75623],[127.27325,37.75626],[127.27332,37.75626],[127.27361,37.75641],[127.2738,37.75638],[127.27409,37.75638],[127.27413,37.75645],[127.27413,37.75665],[127.27419,37.75676],[127.27426,37.7568],[127.27426,37.75691],[127.27421,37.75691],[127.27421,37.75694],[127.27407,37.75703],[127.27407,37.7571],[127.27414,37.75716],[127.27414,37.75719],[127.27425,37.75725],[127.27432,37.75738],[127.27431,37.75745],[127.27408,37.75761],[127.27406,37.75775],[127.27399,37.7578],[127.27394,37.75798],[127.27378,37.75798],[127.27366,37.75807],[127.27362,37.75807],[127.27353,37.75816],[127.27341,37.75816]],[[127.27195,37.75567],[127.27218,37.75565],[127.27225,37.75554],[127.27225,37.75547],[127.27205,37.75547],[127.272,37.75543],[127.27196,37.75525],[127.27187,37.75523],[127.27185,37.75516],[127.27178,37.75516],[127.27178,37.75536],[127.27166,37.75546],[127.27166,37.75554],[127.27189,37.7555],[127.27195,37.75567]],[[127.27275,37.75133],[127.27285,37.75132],[127.27283,37.75123],[127.27276,37.75123],[127.27275,37.75133]],[[127.27278,37.75114],[127.27287,37.75112],[127.2729,37.75098],[127.27297,37.7509],[127.27297,37.75065],[127.27296,37.75051],[127.27289,37.7504],[127.27282,37.75033],[127.27276,37.75032],[127.27279,37.7507],[127.27286,37.75078],[127.27285,37.75096],[127.27278,37.75106],[127.27278,37.75114]],[[127.27156,37.75087],[127.2717,37.75083],[127.27177,37.75062],[127.27189,37.75053],[127.27193,37.75053],[127.27198,37.75044],[127.27203,37.75044],[127.27203,37.75039],[127.27189,37.75035],[127.27185,37.75029],[127.27162,37.75029],[127.27142,37.75034],[127.27136,37.75059],[127.27143,37.7507],[127.27147,37.75072],[127.2715,37.75081],[127.27156,37.75087]]]}},{"type":"Feature","properties":{"valleyId":"sudong","layer":"canopy","date":"2026-08-01"},"geometry":{"type":"Polygon","coordinates":[[[127.2766,37.74878],[127.27661,37.74851],[127.27668,37.74851],[127.27668,37.74854],[127.27675,37.7486],[127.27679,37.7486],[127.27679,37.74876],[127.2766,37.74878]]]}},{"type":"Feature","properties":{"valleyId":"sudong","layer":"canopy","date":"2026-08-01"},"geometry":{"type":"Polygon","coordinates":[[[127.27586,37.74853],[127.27586,37.74848],[127.27595,37.74848],[127.27595,37.74853],[127.27586,37.74853]]]}},{"type":"Feature","properties":{"valleyId":"sudong","layer":"canopy","date":"2026-08-01"},"geometry":{"type":"Polygon","coordinates":[[[127.27589,37.74824],[127.27585,37.74822],[127.27587,37.74815],[127.27601,37.74812],[127.2761,37.74814],[127.2761,37.74821],[127.276,37.74824],[127.27589,37.74824]]]}},{"type":"Feature","properties":{"valleyId":"sudong","layer":"canopy","date":"2026-08-01"},"geometry":{"type":"Polygon","coordinates":[[[127.27721,37.74819],[127.27719,37.74812],[127.27723,37.74808],[127.27751,37.74807],[127.2775,37.74819],[127.27744,37.74819],[127.27744,37.74816],[127.27721,37.74819]]]}},{"type":"Feature","properties":{"valleyId":"sudong","layer":"canopy","date":"2026-08-01"},"geometry":{"type":"Polygon","coordinates":[[[127.27787,37.74809],[127.27785,37.748],[127.27794,37.74795],[127.27801,37.74795],[127.27796,37.74809],[127.27787,37.74809]]]}},{"type":"Feature","properties":{"valleyId":"sudong","layer":"canopy","date":"2026-08-01"},"geometry":{"type":"Polygon","coordinates":[[[127.27833,37.74792],[127.27835,37.74781],[127.27842,37.74781],[127.27842,37.7479],[127.27833,37.74792]]]}},{"type":"Feature","properties":{"valleyId":"sudong","layer":"canopy","date":"2026-08-01"},"geometry":{"type":"Polygon","coordinates":[[[127.27662,37.74813],[127.2766,37.74784],[127.27665,37.7478],[127.27706,37.74774],[127.27713,37.74767],[127.27727,37.74761],[127.27743,37.7476],[127.27743,37.74756],[127.27761,37.74742],[127.27782,37.74744],[127.27779,37.74753],[127.27761,37.74755],[127.27761,37.74771],[127.27733,37.74776],[127.27719,37.74787],[127.27694,37.74795],[127.2768,37.74811],[127.27662,37.74813]]]}},{"type":"Feature","properties":{"valleyId":"sudong","layer":"canopy","date":"2026-08-01"},"geometry":{"type":"Polygon","coordinates":[[[127.27604,37.74781],[127.27602,37.74769],[127.27609,37.74763],[127.27618,37.74763],[127.27627,37.74753],[127.27661,37.74748],[127.27661,37.74744],[127.27675,37.74741],[127.27704,37.74743],[127.27704,37.7475],[127.277,37.74754],[127.27677,37.74754],[127.27672,37.74761],[127.27668,37.74764],[127.27661,37.74764],[127.27656,37.74771],[127.2764,37.74771],[127.2762,37.7478],[127.27604,37.74781]]]}},{"type":"Feature","properties":{"valleyId":"sudong","layer":"canopy","date":"2026-08-01"},"geometry":{"type":"Polygon","coordinates":[[[127.279,37.74746],[127.27898,37.74739],[127.27927,37.74737],[127.27927,37.74743],[127.27922,37.74744],[127.279,37.74746]]]}},{"type":"Feature","properties":{"valleyId":"sudong","layer":"canopy","date":"2026-08-01"},"geometry":{"type":"Polygon","coordinates":[[[127.27793,37.74737],[127.27791,37.74726],[127.27805,37.74727],[127.27807,37.74736],[127.27793,37.74737]]]}},{"type":"Feature","properties":{"valleyId":"sudong","layer":"canopy","date":"2026-08-01"},"geometry":{"type":"Polygon","coordinates":[[[127.27941,37.7472],[127.27937,37.74718],[127.27937,37.74707],[127.27946,37.74707],[127.27955,37.74713],[127.27952,37.7472],[127.27941,37.7472]]]}},{"type":"Feature","properties":{"valleyId":"sudong","layer":"canopy","date":"2026-08-01"},"geometry":{"type":"Polygon","coordinates":[[[127.27926,37.74705],[127.27923,37.74696],[127.27933,37.74696],[127.27937,37.747],[127.27937,37.74705],[127.27926,37.74705]]]}},{"type":"Feature","properties":{"valleyId":"sudong","layer":"canopy","date":"2026-08-01"},"geometry":{"type":"Polygon","coordinates":[[[127.27692,37.74673],[127.27693,37.74667],[127.27699,37.74667],[127.27699,37.74673],[127.27692,37.74673]]]}},{"type":"Feature","properties":{"valleyId":"sudong","layer":"canopy","date":"2026-08-01"},"geometry":{"type":"Polygon","coordinates":[[[127.27951,37.74671],[127.27954,37.74664],[127.27963,37.74664],[127.27963,37.74671],[127.27951,37.74671]]]}},{"type":"Feature","properties":{"valleyId":"sudong","layer":"canopy","date":"2026-08-01"},"geometry":{"type":"Polygon","coordinates":[[[127.27904,37.74672],[127.27904,37.74669],[127.27899,37.74668],[127.27899,37.74661],[127.27909,37.74656],[127.27915,37.74656],[127.2792,37.7466],[127.2792,37.74669],[127.27915,37.74672],[127.27904,37.74672]]]}},{"type":"Feature","properties":{"valleyId":"sudong","layer":"canopy","date":"2026-08-01"},"geometry":{"type":"Polygon","coordinates":[[[127.28194,37.74662],[127.28195,37.74657],[127.28201,37.74657],[127.28201,37.74662],[127.28194,37.74662]]]}},{"type":"Feature","properties":{"valleyId":"sudong","layer":"canopy","date":"2026-08-01"},"geometry":{"type":"Polygon","coordinates":[[[127.2772,37.74752],[127.2772,37.74742],[127.27727,37.74742],[127.27736,37.74733],[127.27748,37.74731],[127.2775,37.74726],[127.27769,37.74715],[127.27771,37.74708],[127.27776,37.74706],[127.27776,37.74703],[127.27785,37.74699],[127.27785,37.74696],[127.27801,37.74689],[127.27808,37.74683],[127.27808,37.7468],[127.27824,37.74675],[127.27829,37.74667],[127.27829,37.74657],[127.27836,37.74657],[127.27836,37.7466],[127.27847,37.7466],[127.27856,37.74648],[127.27861,37.74648],[127.27877,37.74637],[127.2788,37.7463],[127.27884,37.7463],[127.27889,37.74625],[127.27898,37.74625],[127.27898,37.74634],[127.27882,37.74641],[127.27881,37.74647],[127.27868,37.74655],[127.27865,37.74661],[127.27854,37.74662],[127.27847,37.74677],[127.27833,37.7468],[127.27828,37.74689],[127.27815,37.74694],[127.27817,37.74707],[127.27812,37.7471],[127.27805,37.7471],[127.27787,37.74717],[127.27787,37.74728],[127.27771,37.74728],[127.27764,37.74733],[127.27755,37.74733],[127.2775,37.74735],[127.27748,37.74744],[127.27738,37.74745],[127.27729,37.74752],[127.2772,37.74752]]]}},{"type":"Feature","properties":{"valleyId":"sudong","layer":"canopy","date":"2026-08-01"},"geometry":{"type":"Polygon","coordinates":[[[127.279,37.7462],[127.279,37.74614],[127.27905,37.74611],[127.27912,37.74611],[127.27912,37.74616],[127.27907,37.7462],[127.279,37.7462]]]}},{"type":"Feature","properties":{"valleyId":"sudong","layer":"canopy","date":"2026-08-01"},"geometry":{"type":"Polygon","coordinates":[[[127.27945,37.74635],[127.27945,37.74629],[127.27962,37.74617],[127.27971,37.74615],[127.2798,37.74607],[127.27989,37.74608],[127.27991,37.74619],[127.27982,37.74628],[127.2797,37.74628],[127.27964,37.74633],[127.27945,37.74635]]]}},{"type":"Feature","properties":{"valleyId":"sudong","layer":"canopy","date":"2026-08-01"},"geometry":{"type":"Polygon","coordinates":[[[127.27453,37.74921],[127.27444,37.74918],[127.27444,37.74909],[127.27449,37.74905],[127.27449,37.749],[127.27456,37.74898],[127.27461,37.74877],[127.27447,37.74876],[127.27445,37.74883],[127.27436,37.74885],[127.27429,37.74878],[127.27429,37.74867],[127.27393,37.74867],[127.27393,37.74859],[127.27386,37.74857],[127.27377,37.74848],[127.27373,37.74832],[127.27366,37.74832],[127.27364,37.74846],[127.27355,37.7485],[127.27352,37.74864],[127.27334,37.74864],[127.27332,37.7486],[127.27325,37.7486],[127.27318,37.74865],[127.27297,37.74869],[127.27295,37.74872],[127.27281,37.74876],[127.2727,37.74876],[127.2727,37.7487],[127.27257,37.7487],[127.27256,37.74875],[127.27268,37.74877],[127.27268,37.74881],[127.27274,37.74883],[127.27274,37.7489],[127.2727,37.74892],[127.27267,37.74899],[127.2726,37.74902],[127.27256,37.7491],[127.27242,37.74908],[127.2724,37.74899],[127.27227,37.74895],[127.2722,37.74889],[127.27222,37.7488],[127.27236,37.74879],[127.27245,37.74872],[127.27243,37.74861],[127.27239,37.74857],[127.27225,37.74855],[127.27225,37.74848],[127.27209,37.74846],[127.2721,37.7484],[127.27203,37.7484],[127.27203,37.74844],[127.27196,37.74844],[127.27191,37.7484],[127.27194,37.74828],[127.27199,37.74828],[127.27208,37.74819],[127.27208,37.7481],[127.27204,37.74804],[127.27195,37.74801],[127.27186,37.74775],[127.27166,37.7478],[127.27147,37.7478],[127.27143,37.74776],[127.27132,37.74776],[127.27132,37.74771],[127.27155,37.74755],[127.27182,37.74744],[127.27185,37.74741],[127.27256,37.74717],[127.27269,37.74717],[127.27269,37.74726],[127.27262,37.74731],[127.27262,37.74738],[127.27269,37.74739],[127.27271,37.74733],[127.27294,37.74735],[127.27294,37.74724],[127.27287,37.74724],[127.27283,37.74721],[127.27283,37.74713],[127.27288,37.74712],[127.27312,37.74712],[127.27312,37.74716],[127.27319,37.74718],[127.27319,37.74725],[127.2731,37.74728],[127.27307,37.74734],[127.27296,37.74735],[127.27296,37.74743],[127.27305,37.74748],[127.27312,37.74748],[127.27318,37.74754],[127.27325,37.74754],[127.27327,37.74759],[127.27348,37.74763],[127.2735,37.74756],[127.27346,37.74732],[127.27339,37.74727],[127.2733,37.74725],[127.2733,37.7472],[127.27335,37.74716],[127.27374,37.74715],[127.27399,37.74694],[127.27413,37.74688],[127.2742,37.74681],[127.27424,37.74681],[127.27431,37.74674],[127.27436,37.74674],[127.27459,37.74658],[127.27532,37.74629],[127.27541,37.74629],[127.27555,37.74636],[127.27568,37.74637],[127.27571,37.74626],[127.27587,37.74619],[127.27587,37.74615],[127.27626,37.74616],[127.27628,37.74612],[127.27651,37.74614],[127.27651,37.74602],[127.27644,37.74602],[127.27644,37.74596],[127.27671,37.74598],[127.27678,37.74609],[127.27694,37.74619],[127.27695,37.74646],[127.27691,37.74649],[127.27682,37.74649],[127.27679,37.74654],[127.27668,37.74656],[127.27668,37.7467],[127.27658,37.74674],[127.27658,37.74678],[127.27647,37.74688],[127.27638,37.74692],[127.27617,37.74691],[127.27603,37.74695],[127.27596,37.74705],[127.27587,37.74711],[127.27586,37.74749],[127.27591,37.74756],[127.2759,37.74767],[127.27586,37.7477],[127.27586,37.74776],[127.2759,37.74776],[127.27595,37.74783],[127.27601,37.74783],[127.27599,37.74794],[127.27594,37.74797],[127.27587,37.74797],[127.27588,37.74792],[127.27576,37.74786],[127.27576,37.74781],[127.27558,37.74784],[127.27556,37.74795],[127.27562,37.74797],[127.27564,37.74815],[127.27557,37.7482],[127.27553,37.7482],[127.2755,37.74829],[127.27539,37.74836],[127.27539,37.74847],[127.27532,37.74854],[127.27509,37.74854],[127.27493,37.74866],[127.27493,37.7487],[127.27484,37.74873],[127.27483,37.7488],[127.27472,37.74884],[127.27472,37.74897],[127.27462,37.74902],[127.27462,37.74914],[127.27469,37.74916],[127.27469,37.74922],[127.27453,37.74921]],[[127.27447,37.74862],[127.27461,37.74862],[127.27463,37.74859],[127.27473,37.74857],[127.2748,37.74848],[127.27489,37.74848],[127.27493,37.74845],[127.27493,37.74839],[127.27482,37.74839],[127.27477,37.74844],[127.2745,37.74855],[127.27447,37.74862]],[[127.27394,37.74825],[127.27403,37.74823],[127.27401,37.74805],[127.27394,37.74805],[127.27394,37.74825]],[[127.27507,37.74827],[127.27519,37.74825],[127.27521,37.74818],[127.2751,37.74818],[127.27507,37.74827]],[[127.27355,37.74823],[127.27362,37.74823],[127.27365,37.74817],[127.27363,37.74805],[127.27356,37.74805],[127.27355,37.74823]],[[127.27532,37.74818],[127.27539,37.74818],[127.27544,37.748],[127.27537,37.748],[127.2753,37.74805],[127.27526,37.74805],[127.27523,37.74814],[127.27532,37.74818]],[[127.27336,37.74786],[127.27343,37.74786],[127.27343,37.74781],[127.27331,37.74779],[127.27327,37.74775],[127.27313,37.74775],[127.27313,37.74781],[127.27336,37.74786]],[[127.27273,37.74771],[127.27279,37.74771],[127.27279,37.74766],[127.27266,37.74762],[127.27266,37.74767],[127.27273,37.74771]],[[127.27236,37.74769],[127.27243,37.74769],[127.27243,37.74763],[127.27236,37.74763],[127.27236,37.74769]],[[127.27549,37.7477],[127.27556,37.7477],[127.27556,37.74764],[127.27575,37.74766],[127.27575,37.74743],[127.27561,37.74745],[127.27561,37.74748],[127.27554,37.74754],[127.27554,37.74764],[127.2755,37.74764],[127.27549,37.7477]]]}},{"type":"Feature","properties":{"valleyId":"sudong","layer":"canopy","date":"2026-08-01"},"geometry":{"type":"Polygon","coordinates":[[[127.27864,37.74603],[127.27862,37.74596],[127.27871,37.74594],[127.27873,37.74603],[127.27864,37.74603]]]}},{"type":"Feature","properties":{"valleyId":"sudong","layer":"canopy","date":"2026-08-01"},"geometry":{"type":"Polygon","coordinates":[[[127.27805,37.74921],[127.27805,37.74916],[127.27812,37.74916],[127.27817,37.74885],[127.27822,37.74884],[127.27824,37.74876],[127.27833,37.74873],[127.27838,37.74868],[127.27842,37.74868],[127.27856,37.74855],[127.27856,37.74846],[127.27873,37.74837],[127.27875,37.74827],[127.27882,37.74821],[127.27889,37.74807],[127.279,37.74807],[127.27903,37.748],[127.27912,37.74797],[127.27935,37.74801],[127.27933,37.74791],[127.27924,37.7479],[127.27921,37.74782],[127.27929,37.7475],[127.27934,37.74745],[127.27945,37.74745],[127.27947,37.74738],[127.27959,37.74734],[127.27964,37.74727],[127.27962,37.74713],[127.27973,37.74707],[127.27976,37.747],[127.27982,37.74697],[127.27983,37.74693],[127.27987,37.74693],[127.2799,37.74686],[127.2799,37.74677],[127.27985,37.74675],[127.27985,37.7467],[127.27981,37.74666],[127.27974,37.74666],[127.27972,37.74659],[127.27988,37.74657],[127.27988,37.74645],[127.27995,37.74645],[127.28,37.74646],[127.27999,37.74652],[127.27995,37.74657],[127.2799,37.74657],[127.2799,37.74663],[127.28013,37.74663],[127.28018,37.74652],[127.28016,37.74638],[127.28023,37.74627],[127.2803,37.74625],[127.28034,37.7462],[127.28052,37.74615],[127.28066,37.74617],[127.28068,37.74622],[127.28079,37.74631],[127.28084,37.74631],[127.28084,37.74635],[127.28097,37.74644],[127.28099,37.74652],[127.28108,37.74653],[127.28106,37.74637],[127.28104,37.74634],[127.28097,37.74633],[127.28093,37.7463],[127.28091,37.74621],[127.28086,37.74617],[127.28087,37.7461],[127.28091,37.7461],[127.28094,37.74605],[127.28103,37.74601],[127.28107,37.74592],[127.28114,37.74592],[127.28114,37.74598],[127.28107,37.74603],[127.28107,37.7461],[127.28118,37.74612],[127.28118,37.74616],[127.28125,37.74621],[127.28129,37.74621],[127.28136,37.74641],[127.28165,37.74638],[127.28165,37.74651],[127.28185,37.74667],[127.2819,37.74667],[127.2819,37.74674],[127.28166,37.74694],[127.2816,37.74694],[127.2816,37.74687],[127.28148,37.74685],[127.28144,37.74681],[127.28137,37.74681],[127.28132,37.74688],[127.28128,37.74688],[127.28126,37.74692],[127.28117,37.74691],[127.28112,37.74682],[127.28113,37.74663],[127.28104,37.74661],[127.28098,37.74693],[127.28105,37.74698],[127.28105,37.74715],[127.28095,37.74722],[127.28084,37.74725],[127.28077,37.74725],[127.2807,37.7472],[127.28071,37.74716],[127.28066,37.74716],[127.28053,37.74705],[127.28048,37.74696],[127.28028,37.74697],[127.28023,37.74706],[127.28014,37.74713],[127.28014,37.74726],[127.28027,37.74732],[127.28029,37.74744],[127.28006,37.74758],[127.28008,37.74769],[127.28026,37.74784],[127.28026,37.74789],[127.27892,37.74883],[127.27887,37.74883],[127.27864,37.74897],[127.27855,37.74899],[127.27853,37.74902],[127.27844,37.74904],[127.27841,37.74907],[127.27832,37.74909],[127.27823,37.74916],[127.27812,37.74918],[127.27812,37.74921],[127.27805,37.74921]],[[127.27979,37.74742],[127.27986,37.74742],[127.27986,37.74736],[127.27979,37.74736],[127.27979,37.74742]],[[127.28021,37.74692],[127.28028,37.74692],[127.28026,37.74681],[127.28019,37.74681],[127.28021,37.74692]],[[127.28058,37.74669],[127.28067,37.74669],[127.28067,37.74662],[127.28058,37.7466],[127.28056,37.74649],[127.28049,37.74649],[127.28049,37.74658],[127.28051,37.74662],[127.28056,37.74662],[127.28058,37.74669]]]}},{"type":"Feature","properties":{"valleyId":"sudong","layer":"canopy","date":"2026-08-01"},"geometry":{"type":"Polygon","coordinates":[[[127.28114,37.7459],[127.28114,37.74585],[127.28121,37.74583],[127.28128,37.74578],[127.28128,37.74574],[127.28137,37.74575],[127.28135,37.74585],[127.28126,37.74587],[127.28123,37.74591],[127.28114,37.7459]]]}},{"type":"Feature","properties":{"valleyId":"sudong","layer":"canopy","date":"2026-08-01"},"geometry":{"type":"Polygon","coordinates":[[[127.27967,37.74576],[127.2797,37.74567],[127.27979,37.74567],[127.27979,37.74572],[127.27974,37.74576],[127.27967,37.74576]]]}},{"type":"Feature","properties":{"valleyId":"sudong","layer":"canopy","date":"2026-08-01"},"geometry":{"type":"Polygon","coordinates":[[[127.27995,37.74556],[127.27995,37.74551],[127.28,37.74547],[127.28006,37.74547],[127.28006,37.74553],[127.28002,37.74556],[127.27995,37.74556]]]}},{"type":"Feature","properties":{"valleyId":"sudong","layer":"canopy","date":"2026-08-01"},"geometry":{"type":"Polygon","coordinates":[[[127.28061,37.74557],[127.28059,37.7455],[127.28068,37.74548],[127.2807,37.74556],[127.28061,37.74557]]]}},{"type":"Feature","properties":{"valleyId":"sudong","layer":"canopy","date":"2026-08-01"},"geometry":{"type":"Polygon","coordinates":[[[127.28213,37.74639],[127.28213,37.74632],[127.28209,37.74628],[127.28214,37.74583],[127.28219,37.74578],[127.28235,37.74576],[127.28237,37.74571],[127.28242,37.74571],[127.28242,37.74565],[127.28256,37.7456],[127.28258,37.74549],[127.28245,37.74544],[127.28245,37.74533],[127.28259,37.74531],[127.28265,37.74539],[127.28277,37.74539],[127.28269,37.74567],[127.28264,37.74575],[127.28249,37.74574],[127.28248,37.74583],[127.28255,37.74585],[127.28255,37.74593],[127.28246,37.74601],[127.28243,37.74609],[127.28239,37.7461],[127.28236,37.74617],[127.28232,37.74619],[127.2822,37.74639],[127.28213,37.74639]]]}},{"type":"Feature","properties":{"valleyId":"sudong","layer":"canopy","date":"2026-08-01"},"geometry":{"type":"Polygon","coordinates":[[[127.28002,37.74529],[127.28005,37.7452],[127.28021,37.74521],[127.2802,37.7453],[127.28002,37.74529]]]}},{"type":"Feature","properties":{"valleyId":"sudong","layer":"canopy","date":"2026-08-01"},"geometry":{"type":"Polygon","coordinates":[[[127.2813,37.74517],[127.2813,37.7451],[127.28137,37.7451],[127.28136,37.74517],[127.2813,37.74517]]]}},{"type":"Feature","properties":{"valleyId":"sudong","layer":"canopy","date":"2026-08-01"},"geometry":{"type":"Polygon","coordinates":[[[127.28106,37.74462],[127.28102,37.74453],[127.28102,37.74433],[127.28104,37.74426],[127.28114,37.74425],[127.28113,37.74435],[127.28118,37.74436],[127.2812,37.74446],[127.28113,37.74452],[127.28113,37.74462],[127.28106,37.74462]]]}},{"type":"Feature","properties":{"valleyId":"sudong","layer":"canopy","date":"2026-08-01"},"geometry":{"type":"Polygon","coordinates":[[[127.28068,37.74428],[127.28068,37.7442],[127.28077,37.74419],[127.28077,37.74426],[127.28068,37.74428]]]}},{"type":"Feature","properties":{"valleyId":"sudong","layer":"canopy","date":"2026-08-01"},"geometry":{"type":"Polygon","coordinates":[[[127.28109,37.74408],[127.2811,37.74401],[127.28119,37.74401],[127.28119,37.74407],[127.28109,37.74408]]]}},{"type":"Feature","properties":{"valleyId":"sudong","layer":"canopy","date":"2026-08-01"},"geometry":{"type":"Polygon","coordinates":[[[127.28078,37.74404],[127.2808,37.74395],[127.28087,37.74395],[127.28087,37.74403],[127.28078,37.74404]]]}},{"type":"Feature","properties":{"valleyId":"sudong","layer":"canopy","date":"2026-08-01"},"geometry":{"type":"Polygon","coordinates":[[[127.28083,37.74388],[127.28081,37.74377],[127.2809,37.74376],[127.28089,37.74388],[127.28083,37.74388]]]}},{"type":"Feature","properties":{"valleyId":"sudong","layer":"canopy","date":"2026-08-01"},"geometry":{"type":"Polygon","coordinates":[[[127.28115,37.74367],[127.28115,37.74362],[127.28122,37.74356],[127.28131,37.74356],[127.28131,37.74364],[127.28126,37.74367],[127.28115,37.74367]]]}}]}
