{"type":"FeatureCollection","metadata":{"description":"개방지(CHM ≤ 2 m)에 드리운 나무·지형 그림자, 2026-08-01 16:00 KST. canopy 위에 겹쳐 그린다","source":"위성 기반 추정 — Copernicus GLO-30 지형(30 m) + Meta/WRI 수관 높이(1 m CHM, 2019 촬영). 그늘 = 수관(CHM > 2 m) ∪ 나무·지형 그림자 ∪ 원거리 지형 마스크. 현장과 다를 수 있음.","datasetVersion":"2026-09-06.0","collectedAt":"2026-09-06","coordinateOrder":"[longitude, latitude]","crs":"EPSG:4326","representativeDate":"2026-08-01","hours":["10:00","11:00","12:00","13:00","14:00","15:00","16:00","17:00","18:00"],"chmAcquisition":["2019-03","2019-05"],"assets":{"glo30":{"dataset":"Copernicus DEM GLO-30 (COG, s3://copernicus-dem-30m)","tiles":["Copernicus_DSM_COG_10_N37_00_E127_00_DEM"]},"chm":{"dataset":"Meta/WRI Global Canopy Height Map v1 (alsgedi_global_v6_float, 1 m, CC-BY 4.0)","quadkeys":["132110303"],"acquisition":["2019-03","2019-05"]}},"method":{"gridResM":2,"canopyThresholdM":2,"bufferHalfM":25,"corridorHalfM":200,"simplifyTolM":2,"minAreaM2":25,"coordDecimals":5},"generator":"scripts/shade 0.1.0","builtAt":"2026-09-06T06:02:12Z","layer":"shadow","timeLocal":"16:00"},"features":[{"type":"Feature","properties":{"valleyId":"sudong","layer":"shadow","date":"2026-08-01","timeLocal":"16:00"},"geometry":{"type":"Polygon","coordinates":[[[127.28306,37.76518],[127.28306,37.76511],[127.28313,37.76511],[127.28313,37.76518],[127.28306,37.76518]]]}},{"type":"Feature","properties":{"valleyId":"sudong","layer":"shadow","date":"2026-08-01","timeLocal":"16:00"},"geometry":{"type":"Polygon","coordinates":[[[127.28009,37.76409],[127.28009,37.76404],[127.28016,37.76404],[127.28015,37.7641],[127.28009,37.76409]]]}},{"type":"Feature","properties":{"valleyId":"sudong","layer":"shadow","date":"2026-08-01","timeLocal":"16:00"},"geometry":{"type":"Polygon","coordinates":[[[127.28028,37.76258],[127.28028,37.76253],[127.28035,37.76253],[127.28035,37.76258],[127.28028,37.76258]]]}},{"type":"Feature","properties":{"valleyId":"sudong","layer":"shadow","date":"2026-08-01","timeLocal":"16:00"},"geometry":{"type":"Polygon","coordinates":[[[127.27869,37.76256],[127.27872,37.76243],[127.27879,37.76243],[127.27876,37.76256],[127.27869,37.76256]]]}},{"type":"Feature","properties":{"valleyId":"sudong","layer":"shadow","date":"2026-08-01","timeLocal":"16:00"},"geometry":{"type":"Polygon","coordinates":[[[127.27838,37.76219],[127.27836,37.7621],[127.27843,37.76211],[127.27845,37.7622],[127.27838,37.76219]]]}},{"type":"Feature","properties":{"valleyId":"sudong","layer":"shadow","date":"2026-08-01","timeLocal":"16:00"},"geometry":{"type":"Polygon","coordinates":[[[127.28027,37.76206],[127.28027,37.76199],[127.28034,37.76199],[127.28034,37.76206],[127.28027,37.76206]]]}},{"type":"Feature","properties":{"valleyId":"sudong","layer":"shadow","date":"2026-08-01","timeLocal":"16:00"},"geometry":{"type":"Polygon","coordinates":[[[127.2796,37.76164],[127.2796,37.76153],[127.27967,37.76153],[127.27967,37.76164],[127.2796,37.76164]]]}},{"type":"Feature","properties":{"valleyId":"sudong","layer":"shadow","date":"2026-08-01","timeLocal":"16:00"},"geometry":{"type":"Polygon","coordinates":[[[127.27942,37.76133],[127.27943,37.76122],[127.27949,37.76122],[127.27949,37.76133],[127.27942,37.76133]]]}},{"type":"Feature","properties":{"valleyId":"sudong","layer":"shadow","date":"2026-08-01","timeLocal":"16:00"},"geometry":{"type":"Polygon","coordinates":[[[127.27936,37.76095],[127.2793,37.7608],[127.27933,37.76064],[127.27931,37.76057],[127.27926,37.76057],[127.27926,37.76051],[127.27933,37.76051],[127.27933,37.76057],[127.27937,37.76057],[127.27937,37.7606],[127.27944,37.76064],[127.27943,37.76095],[127.27936,37.76095]]]}},{"type":"Feature","properties":{"valleyId":"sudong","layer":"shadow","date":"2026-08-01","timeLocal":"16:00"},"geometry":{"type":"Polygon","coordinates":[[[127.28128,37.76043],[127.28129,37.76034],[127.28135,37.76035],[127.28135,37.76044],[127.28128,37.76043]]]}},{"type":"Feature","properties":{"valleyId":"sudong","layer":"shadow","date":"2026-08-01","timeLocal":"16:00"},"geometry":{"type":"Polygon","coordinates":[[[127.27902,37.76029],[127.27902,37.76024],[127.27909,37.76024],[127.27908,37.76029],[127.27902,37.76029]]]}},{"type":"Feature","properties":{"valleyId":"sudong","layer":"shadow","date":"2026-08-01","timeLocal":"16:00"},"geometry":{"type":"Polygon","coordinates":[[[127.27801,37.75976],[127.27801,37.75963],[127.2781,37.75963],[127.2781,37.75976],[127.27801,37.75976]]]}},{"type":"Feature","properties":{"valleyId":"sudong","layer":"shadow","date":"2026-08-01","timeLocal":"16:00"},"geometry":{"type":"Polygon","coordinates":[[[127.27731,37.75935],[127.27731,37.7593],[127.27738,37.7593],[127.27738,37.75935],[127.27731,37.75935]]]}},{"type":"Feature","properties":{"valleyId":"sudong","layer":"shadow","date":"2026-08-01","timeLocal":"16:00"},"geometry":{"type":"Polygon","coordinates":[[[127.28108,37.75939],[127.28108,37.75926],[127.2812,37.75926],[127.28117,37.75937],[127.28108,37.75939]]]}},{"type":"Feature","properties":{"valleyId":"sudong","layer":"shadow","date":"2026-08-01","timeLocal":"16:00"},"geometry":{"type":"Polygon","coordinates":[[[127.27702,37.75907],[127.27698,37.75898],[127.27698,37.75891],[127.27705,37.75891],[127.27709,37.759],[127.27709,37.75908],[127.27702,37.75907]]]}},{"type":"Feature","properties":{"valleyId":"sudong","layer":"shadow","date":"2026-08-01","timeLocal":"16:00"},"geometry":{"type":"Polygon","coordinates":[[[127.27779,37.75824],[127.27779,37.75817],[127.27786,37.75817],[127.27786,37.75824],[127.27779,37.75824]]]}},{"type":"Feature","properties":{"valleyId":"sudong","layer":"shadow","date":"2026-08-01","timeLocal":"16:00"},"geometry":{"type":"Polygon","coordinates":[[[127.2736,37.75814],[127.2736,37.75809],[127.27369,37.75807],[127.27369,37.75812],[127.2736,37.75814]]]}},{"type":"Feature","properties":{"valleyId":"sudong","layer":"shadow","date":"2026-08-01","timeLocal":"16:00"},"geometry":{"type":"Polygon","coordinates":[[[127.27769,37.75798],[127.27769,37.75791],[127.27775,37.75791],[127.27778,37.75799],[127.27769,37.75798]]]}},{"type":"Feature","properties":{"valleyId":"sudong","layer":"shadow","date":"2026-08-01","timeLocal":"16:00"},"geometry":{"type":"Polygon","coordinates":[[[127.27394,37.75797],[127.27399,37.75782],[127.27406,37.75782],[127.27403,37.75795],[127.27394,37.75797]]]}},{"type":"Feature","properties":{"valleyId":"sudong","layer":"shadow","date":"2026-08-01","timeLocal":"16:00"},"geometry":{"type":"Polygon","coordinates":[[[127.27406,37.75775],[127.27406,37.75764],[127.27408,37.75761],[127.27415,37.75761],[127.27415,37.75772],[127.27413,37.75775],[127.27406,37.75775]]]}},{"type":"Feature","properties":{"valleyId":"sudong","layer":"shadow","date":"2026-08-01","timeLocal":"16:00"},"geometry":{"type":"Polygon","coordinates":[[[127.27869,37.75777],[127.27871,37.75766],[127.27881,37.75764],[127.27881,37.75759],[127.2789,37.75759],[127.2789,37.75764],[127.27883,37.75766],[127.27878,37.75775],[127.27869,37.75777]]]}},{"type":"Feature","properties":{"valleyId":"sudong","layer":"shadow","date":"2026-08-01","timeLocal":"16:00"},"geometry":{"type":"Polygon","coordinates":[[[127.27543,37.75743],[127.27543,37.75737],[127.27552,37.75738],[127.27552,37.75743],[127.27543,37.75743]]]}},{"type":"Feature","properties":{"valleyId":"sudong","layer":"shadow","date":"2026-08-01","timeLocal":"16:00"},"geometry":{"type":"Polygon","coordinates":[[[127.2742,37.75757],[127.2742,37.75752],[127.27431,37.75745],[127.2743,37.7573],[127.27436,37.75731],[127.27441,37.75734],[127.27441,37.75745],[127.27434,37.75756],[127.2742,37.75757]]]}},{"type":"Feature","properties":{"valleyId":"sudong","layer":"shadow","date":"2026-08-01","timeLocal":"16:00"},"geometry":{"type":"Polygon","coordinates":[[[127.27407,37.7571],[127.27407,37.75703],[127.27412,37.757],[127.27419,37.757],[127.27414,37.7571],[127.27407,37.7571]]]}},{"type":"Feature","properties":{"valleyId":"sudong","layer":"shadow","date":"2026-08-01","timeLocal":"16:00"},"geometry":{"type":"Polygon","coordinates":[[[127.27421,37.75696],[127.27421,37.75691],[127.27426,37.75691],[127.27426,37.75682],[127.27433,37.75682],[127.27433,37.75693],[127.27428,37.75693],[127.27428,37.75696],[127.27421,37.75696]]]}},{"type":"Feature","properties":{"valleyId":"sudong","layer":"shadow","date":"2026-08-01","timeLocal":"16:00"},"geometry":{"type":"Polygon","coordinates":[[[127.27783,37.75685],[127.27785,37.75676],[127.27794,37.75674],[127.27794,37.75682],[127.27789,37.75685],[127.27783,37.75685]]]}},{"type":"Feature","properties":{"valleyId":"sudong","layer":"shadow","date":"2026-08-01","timeLocal":"16:00"},"geometry":{"type":"Polygon","coordinates":[[[127.27395,37.75559],[127.27395,37.75553],[127.27402,37.75553],[127.27402,37.75559],[127.27395,37.75559]]]}},{"type":"Feature","properties":{"valleyId":"sudong","layer":"shadow","date":"2026-08-01","timeLocal":"16:00"},"geometry":{"type":"Polygon","coordinates":[[[127.27193,37.75565],[127.27191,37.75548],[127.27198,37.75549],[127.27198,37.75554],[127.27202,37.75554],[127.27202,37.75565],[127.27193,37.75565]]]}},{"type":"Feature","properties":{"valleyId":"sudong","layer":"shadow","date":"2026-08-01","timeLocal":"16:00"},"geometry":{"type":"Polygon","coordinates":[[[127.27166,37.75552],[127.27166,37.75546],[127.27178,37.75536],[127.27178,37.75521],[127.27187,37.75521],[127.27196,37.75534],[127.27196,37.75541],[127.27189,37.75541],[127.27184,37.75543],[127.27184,37.75547],[127.27175,37.75546],[127.27173,37.75552],[127.27166,37.75552]]]}},{"type":"Feature","properties":{"valleyId":"sudong","layer":"shadow","date":"2026-08-01","timeLocal":"16:00"},"geometry":{"type":"Polygon","coordinates":[[[127.2723,37.75511],[127.27226,37.75508],[127.27226,37.75486],[127.27235,37.75488],[127.27235,37.75497],[127.2724,37.75504],[127.27239,37.75511],[127.2723,37.75511]]]}},{"type":"Feature","properties":{"valleyId":"sudong","layer":"shadow","date":"2026-08-01","timeLocal":"16:00"},"geometry":{"type":"Polygon","coordinates":[[[127.27392,37.75496],[127.27392,37.75487],[127.27399,37.75487],[127.27399,37.75496],[127.27392,37.75496]]]}},{"type":"Feature","properties":{"valleyId":"sudong","layer":"shadow","date":"2026-08-01","timeLocal":"16:00"},"geometry":{"type":"Polygon","coordinates":[[[127.27227,37.75479],[127.27227,37.75473],[127.27233,37.75473],[127.27233,37.75479],[127.27227,37.75479]]]}},{"type":"Feature","properties":{"valleyId":"sudong","layer":"shadow","date":"2026-08-01","timeLocal":"16:00"},"geometry":{"type":"Polygon","coordinates":[[[127.27199,37.75305],[127.27199,37.75293],[127.27206,37.75293],[127.27206,37.75305],[127.27199,37.75305]]]}},{"type":"Feature","properties":{"valleyId":"sudong","layer":"shadow","date":"2026-08-01","timeLocal":"16:00"},"geometry":{"type":"Polygon","coordinates":[[[127.27222,37.75271],[127.27222,37.75264],[127.27229,37.75264],[127.27229,37.75271],[127.27222,37.75271]]]}},{"type":"Feature","properties":{"valleyId":"sudong","layer":"shadow","date":"2026-08-01","timeLocal":"16:00"},"geometry":{"type":"Polygon","coordinates":[[[127.272,37.7526],[127.272,37.75255],[127.27205,37.75251],[127.27211,37.75251],[127.27211,37.75259],[127.272,37.7526]]]}},{"type":"Feature","properties":{"valleyId":"sudong","layer":"shadow","date":"2026-08-01","timeLocal":"16:00"},"geometry":{"type":"Polygon","coordinates":[[[127.27209,37.75248],[127.27209,37.75242],[127.27216,37.75242],[127.27216,37.75248],[127.27209,37.75248]]]}},{"type":"Feature","properties":{"valleyId":"sudong","layer":"shadow","date":"2026-08-01","timeLocal":"16:00"},"geometry":{"type":"Polygon","coordinates":[[[127.27189,37.75235],[127.27187,37.75226],[127.27196,37.75226],[127.27196,37.75235],[127.27189,37.75235]]]}},{"type":"Feature","properties":{"valleyId":"sudong","layer":"shadow","date":"2026-08-01","timeLocal":"16:00"},"geometry":{"type":"Polygon","coordinates":[[[127.27275,37.75133],[127.27276,37.75123],[127.27283,37.75123],[127.27282,37.75133],[127.27275,37.75133]]]}},{"type":"Feature","properties":{"valleyId":"sudong","layer":"shadow","date":"2026-08-01","timeLocal":"16:00"},"geometry":{"type":"Polygon","coordinates":[[[127.27307,37.75134],[127.27308,37.75121],[127.27314,37.75121],[127.27314,37.75134],[127.27307,37.75134]]]}},{"type":"Feature","properties":{"valleyId":"sudong","layer":"shadow","date":"2026-08-01","timeLocal":"16:00"},"geometry":{"type":"Polygon","coordinates":[[[127.2731,37.75119],[127.2731,37.75114],[127.27317,37.75114],[127.27317,37.7512],[127.2731,37.75119]]]}},{"type":"Feature","properties":{"valleyId":"sudong","layer":"shadow","date":"2026-08-01","timeLocal":"16:00"},"geometry":{"type":"Polygon","coordinates":[[[127.27278,37.75112],[127.27278,37.75106],[127.27285,37.75106],[127.27285,37.75112],[127.27278,37.75112]]]}},{"type":"Feature","properties":{"valleyId":"sudong","layer":"shadow","date":"2026-08-01","timeLocal":"16:00"},"geometry":{"type":"Polygon","coordinates":[[[127.27283,37.75101],[127.27286,37.75078],[127.27293,37.75078],[127.27295,37.7509],[127.2729,37.75101],[127.27283,37.75101]]]}},{"type":"Feature","properties":{"valleyId":"sudong","layer":"shadow","date":"2026-08-01","timeLocal":"16:00"},"geometry":{"type":"Polygon","coordinates":[[[127.27327,37.75067],[127.27327,37.75062],[127.27334,37.75062],[127.27334,37.75068],[127.27327,37.75067]]]}},{"type":"Feature","properties":{"valleyId":"sudong","layer":"shadow","date":"2026-08-01","timeLocal":"16:00"},"geometry":{"type":"Polygon","coordinates":[[[127.27281,37.75074],[127.27279,37.75058],[127.27286,37.75058],[127.27288,37.75074],[127.27281,37.75074]]]}},{"type":"Feature","properties":{"valleyId":"sudong","layer":"shadow","date":"2026-08-01","timeLocal":"16:00"},"geometry":{"type":"Polygon","coordinates":[[[127.27325,37.75058],[127.27325,37.75053],[127.27332,37.75053],[127.27332,37.75058],[127.27325,37.75058]]]}},{"type":"Feature","properties":{"valleyId":"sudong","layer":"shadow","date":"2026-08-01","timeLocal":"16:00"},"geometry":{"type":"Polygon","coordinates":[[[127.27156,37.75087],[127.2715,37.75081],[127.27147,37.75072],[127.27139,37.75065],[127.27137,37.75048],[127.27143,37.75049],[127.27146,37.75059],[127.27154,37.75065],[127.27154,37.75068],[127.27159,37.75069],[127.27168,37.75076],[127.27168,37.75085],[127.27156,37.75087]]]}},{"type":"Feature","properties":{"valleyId":"sudong","layer":"shadow","date":"2026-08-01","timeLocal":"16:00"},"geometry":{"type":"Polygon","coordinates":[[[127.27277,37.75056],[127.27275,37.75045],[127.27282,37.75045],[127.27284,37.75056],[127.27277,37.75056]]]}},{"type":"Feature","properties":{"valleyId":"sudong","layer":"shadow","date":"2026-08-01","timeLocal":"16:00"},"geometry":{"type":"Polygon","coordinates":[[[127.27139,37.75045],[127.27139,37.75039],[127.27146,37.7504],[127.27146,37.75045],[127.27139,37.75045]]]}},{"type":"Feature","properties":{"valleyId":"sudong","layer":"shadow","date":"2026-08-01","timeLocal":"16:00"},"geometry":{"type":"Polygon","coordinates":[[[127.27212,37.75033],[127.27212,37.75017],[127.27219,37.75017],[127.27221,37.75032],[127.27212,37.75033]]]}},{"type":"Feature","properties":{"valleyId":"sudong","layer":"shadow","date":"2026-08-01","timeLocal":"16:00"},"geometry":{"type":"Polygon","coordinates":[[[127.27301,37.7502],[127.27301,37.75013],[127.27308,37.75013],[127.27308,37.7502],[127.27301,37.7502]]]}},{"type":"Feature","properties":{"valleyId":"sudong","layer":"shadow","date":"2026-08-01","timeLocal":"16:00"},"geometry":{"type":"Polygon","coordinates":[[[127.27261,37.74978],[127.27261,37.74971],[127.27268,37.74971],[127.27268,37.74978],[127.27261,37.74978]]]}},{"type":"Feature","properties":{"valleyId":"sudong","layer":"shadow","date":"2026-08-01","timeLocal":"16:00"},"geometry":{"type":"Polygon","coordinates":[[[127.27332,37.74959],[127.27332,37.7495],[127.27339,37.7495],[127.27339,37.74959],[127.27332,37.74959]]]}},{"type":"Feature","properties":{"valleyId":"sudong","layer":"shadow","date":"2026-08-01","timeLocal":"16:00"},"geometry":{"type":"Polygon","coordinates":[[[127.27139,37.74931],[127.2714,37.74924],[127.27146,37.74924],[127.27146,37.74931],[127.27139,37.74931]]]}},{"type":"Feature","properties":{"valleyId":"sudong","layer":"shadow","date":"2026-08-01","timeLocal":"16:00"},"geometry":{"type":"Polygon","coordinates":[[[127.27214,37.74927],[127.27217,37.74918],[127.27224,37.74918],[127.27223,37.74927],[127.27214,37.74927]]]}},{"type":"Feature","properties":{"valleyId":"sudong","layer":"shadow","date":"2026-08-01","timeLocal":"16:00"},"geometry":{"type":"Polygon","coordinates":[[[127.27472,37.74895],[127.27472,37.74889],[127.27479,37.74889],[127.27478,37.74895],[127.27472,37.74895]]]}},{"type":"Feature","properties":{"valleyId":"sudong","layer":"shadow","date":"2026-08-01","timeLocal":"16:00"},"geometry":{"type":"Polygon","coordinates":[[[127.27495,37.7487],[127.27495,37.74864],[127.27502,37.74865],[127.27502,37.7487],[127.27495,37.7487]]]}},{"type":"Feature","properties":{"valleyId":"sudong","layer":"shadow","date":"2026-08-01","timeLocal":"16:00"},"geometry":{"type":"Polygon","coordinates":[[[127.27447,37.74862],[127.27448,37.74857],[127.27454,37.74857],[127.27454,37.74862],[127.27447,37.74862]]]}},{"type":"Feature","properties":{"valleyId":"sudong","layer":"shadow","date":"2026-08-01","timeLocal":"16:00"},"geometry":{"type":"Polygon","coordinates":[[[127.27355,37.74855],[127.27355,37.7485],[127.27361,37.7485],[127.27361,37.74855],[127.27355,37.74855]]]}},{"type":"Feature","properties":{"valleyId":"sudong","layer":"shadow","date":"2026-08-01","timeLocal":"16:00"},"geometry":{"type":"Polygon","coordinates":[[[127.27459,37.74857],[127.27459,37.74851],[127.27468,37.7485],[127.27468,37.74855],[127.27459,37.74857]]]}},{"type":"Feature","properties":{"valleyId":"sudong","layer":"shadow","date":"2026-08-01","timeLocal":"16:00"},"geometry":{"type":"Polygon","coordinates":[[[127.27482,37.74844],[127.27482,37.74839],[127.27489,37.74839],[127.27489,37.74844],[127.27482,37.74844]]]}},{"type":"Feature","properties":{"valleyId":"sudong","layer":"shadow","date":"2026-08-01","timeLocal":"16:00"},"geometry":{"type":"Polygon","coordinates":[[[127.27364,37.74844],[127.27366,37.74835],[127.27373,37.74836],[127.27373,37.74843],[127.27364,37.74844]]]}},{"type":"Feature","properties":{"valleyId":"sudong","layer":"shadow","date":"2026-08-01","timeLocal":"16:00"},"geometry":{"type":"Polygon","coordinates":[[[127.27394,37.74825],[127.27394,37.74805],[127.27401,37.74805],[127.27401,37.74825],[127.27394,37.74825]]]}},{"type":"Feature","properties":{"valleyId":"sudong","layer":"shadow","date":"2026-08-01","timeLocal":"16:00"},"geometry":{"type":"Polygon","coordinates":[[[127.27358,37.74825],[127.27356,37.74805],[127.27363,37.74805],[127.27364,37.74825],[127.27358,37.74825]]]}},{"type":"Feature","properties":{"valleyId":"sudong","layer":"shadow","date":"2026-08-01","timeLocal":"16:00"},"geometry":{"type":"Polygon","coordinates":[[[127.27526,37.74811],[127.27526,37.74805],[127.27533,37.74805],[127.27533,37.74811],[127.27526,37.74811]]]}},{"type":"Feature","properties":{"valleyId":"sudong","layer":"shadow","date":"2026-08-01","timeLocal":"16:00"},"geometry":{"type":"Polygon","coordinates":[[[127.27564,37.74815],[127.27565,37.74804],[127.27571,37.74804],[127.27571,37.74815],[127.27564,37.74815]]]}},{"type":"Feature","properties":{"valleyId":"sudong","layer":"shadow","date":"2026-08-01","timeLocal":"16:00"},"geometry":{"type":"Polygon","coordinates":[[[127.27549,37.7477],[127.2755,37.74764],[127.27556,37.74764],[127.27556,37.7477],[127.27549,37.7477]]]}},{"type":"Feature","properties":{"valleyId":"sudong","layer":"shadow","date":"2026-08-01","timeLocal":"16:00"},"geometry":{"type":"Polygon","coordinates":[[[127.27554,37.74763],[127.27554,37.74754],[127.27561,37.74748],[127.27561,37.74745],[127.27575,37.74743],[127.27575,37.7475],[127.27561,37.74759],[127.27561,37.74763],[127.27554,37.74763]]]}},{"type":"Feature","properties":{"valleyId":"sudong","layer":"shadow","date":"2026-08-01","timeLocal":"16:00"},"geometry":{"type":"Polygon","coordinates":[[[127.28029,37.74744],[127.28029,37.74739],[127.28036,37.74739],[127.28036,37.74744],[127.28029,37.74744]]]}},{"type":"Feature","properties":{"valleyId":"sudong","layer":"shadow","date":"2026-08-01","timeLocal":"16:00"},"geometry":{"type":"Polygon","coordinates":[[[127.2759,37.74768],[127.27591,37.74756],[127.27586,37.74749],[127.27587,37.74729],[127.27594,37.74729],[127.27593,37.74745],[127.27598,37.74749],[127.276,37.7476],[127.27599,37.74767],[127.2759,37.74768]]]}},{"type":"Feature","properties":{"valleyId":"sudong","layer":"shadow","date":"2026-08-01","timeLocal":"16:00"},"geometry":{"type":"Polygon","coordinates":[[[127.27849,37.74677],[127.27852,37.74666],[127.27858,37.74666],[127.27858,37.74677],[127.27849,37.74677]]]}},{"type":"Feature","properties":{"valleyId":"sudong","layer":"shadow","date":"2026-08-01","timeLocal":"16:00"},"geometry":{"type":"Polygon","coordinates":[[[127.2792,37.74669],[127.2792,37.74663],[127.27926,37.74663],[127.27926,37.74669],[127.2792,37.74669]]]}},{"type":"Feature","properties":{"valleyId":"sudong","layer":"shadow","date":"2026-08-01","timeLocal":"16:00"},"geometry":{"type":"Polygon","coordinates":[[[127.28098,37.74693],[127.28101,37.74662],[127.28108,37.74662],[127.28105,37.74693],[127.28098,37.74693]]]}},{"type":"Feature","properties":{"valleyId":"sudong","layer":"shadow","date":"2026-08-01","timeLocal":"16:00"},"geometry":{"type":"Polygon","coordinates":[[[127.27651,37.74688],[127.27651,37.74683],[127.27658,37.74678],[127.27658,37.74674],[127.27668,37.7467],[127.27668,37.74656],[127.27675,37.74656],[127.27682,37.74649],[127.27688,37.74649],[127.27688,37.74655],[127.27682,37.74656],[127.27677,37.74674],[127.2767,37.7468],[127.27665,37.74679],[127.27658,37.74688],[127.27651,37.74688]]]}},{"type":"Feature","properties":{"valleyId":"sudong","layer":"shadow","date":"2026-08-01","timeLocal":"16:00"},"geometry":{"type":"Polygon","coordinates":[[[127.28051,37.74662],[127.28049,37.74651],[127.28056,37.74651],[127.28058,37.74662],[127.28051,37.74662]]]}},{"type":"Feature","properties":{"valleyId":"sudong","layer":"shadow","date":"2026-08-01","timeLocal":"16:00"},"geometry":{"type":"Polygon","coordinates":[[[127.27695,37.74647],[127.27696,37.74628],[127.27703,37.74628],[127.27702,37.74648],[127.27695,37.74647]]]}},{"type":"Feature","properties":{"valleyId":"sudong","layer":"shadow","date":"2026-08-01","timeLocal":"16:00"},"geometry":{"type":"Polygon","coordinates":[[[127.2802,37.7453],[127.28021,37.74524],[127.28027,37.74524],[127.28027,37.7453],[127.2802,37.7453]]]}}]}
