{"type":"FeatureCollection","metadata":{"description":"개방지(CHM ≤ 2 m)에 드리운 나무·지형 그림자, 2026-08-01 10:00 KST. canopy 위에 겹쳐 그린다","source":"위성 기반 추정 — Copernicus GLO-30 지형(30 m) + Meta/WRI 수관 높이(1 m CHM, 2019 촬영). 그늘 = 수관(CHM > 2 m) ∪ 나무·지형 그림자 ∪ 원거리 지형 마스크. 현장과 다를 수 있음.","datasetVersion":"2026-09-06.0","collectedAt":"2026-09-06","coordinateOrder":"[longitude, latitude]","crs":"EPSG:4326","representativeDate":"2026-08-01","hours":["10:00","11:00","12:00","13:00","14:00","15:00","16:00","17:00","18:00"],"chmAcquisition":["2019-03","2019-05"],"assets":{"glo30":{"dataset":"Copernicus DEM GLO-30 (COG, s3://copernicus-dem-30m)","tiles":["Copernicus_DSM_COG_10_N37_00_E127_00_DEM"]},"chm":{"dataset":"Meta/WRI Global Canopy Height Map v1 (alsgedi_global_v6_float, 1 m, CC-BY 4.0)","quadkeys":["132110303"],"acquisition":["2019-03","2019-05"]}},"method":{"gridResM":2,"canopyThresholdM":2,"bufferHalfM":25,"corridorHalfM":200,"simplifyTolM":2,"minAreaM2":25,"coordDecimals":5},"generator":"scripts/shade 0.1.0","builtAt":"2026-09-06T06:02:12Z","layer":"shadow","timeLocal":"10:00"},"features":[{"type":"Feature","properties":{"valleyId":"sudong","layer":"shadow","date":"2026-08-01","timeLocal":"10:00"},"geometry":{"type":"Polygon","coordinates":[[[127.28369,37.76454],[127.28367,37.76447],[127.28373,37.76447],[127.28375,37.76454],[127.28369,37.76454]]]}},{"type":"Feature","properties":{"valleyId":"sudong","layer":"shadow","date":"2026-08-01","timeLocal":"10:00"},"geometry":{"type":"Polygon","coordinates":[[[127.28307,37.76349],[127.28308,37.76343],[127.28314,37.76344],[127.28314,37.76349],[127.28307,37.76349]]]}},{"type":"Feature","properties":{"valleyId":"sudong","layer":"shadow","date":"2026-08-01","timeLocal":"10:00"},"geometry":{"type":"Polygon","coordinates":[[[127.28261,37.76318],[127.28261,37.76314],[127.28256,37.76312],[127.28256,37.76303],[127.28263,37.76303],[127.28263,37.76307],[127.28268,37.76309],[127.28267,37.76318],[127.28261,37.76318]]]}},{"type":"Feature","properties":{"valleyId":"sudong","layer":"shadow","date":"2026-08-01","timeLocal":"10:00"},"geometry":{"type":"Polygon","coordinates":[[[127.28172,37.76307],[127.2817,37.76304],[127.28165,37.76304],[127.28163,37.76293],[127.2817,37.76293],[127.28181,37.76302],[127.28181,37.76307],[127.28172,37.76307]]]}},{"type":"Feature","properties":{"valleyId":"sudong","layer":"shadow","date":"2026-08-01","timeLocal":"10:00"},"geometry":{"type":"Polygon","coordinates":[[[127.28255,37.76281],[127.28255,37.76276],[127.28261,37.76276],[127.28261,37.76282],[127.28255,37.76281]]]}},{"type":"Feature","properties":{"valleyId":"sudong","layer":"shadow","date":"2026-08-01","timeLocal":"10:00"},"geometry":{"type":"Polygon","coordinates":[[[127.27986,37.76032],[127.27983,37.76025],[127.2799,37.76025],[127.27992,37.76032],[127.27986,37.76032]]]}},{"type":"Feature","properties":{"valleyId":"sudong","layer":"shadow","date":"2026-08-01","timeLocal":"10:00"},"geometry":{"type":"Polygon","coordinates":[[[127.2797,37.76018],[127.2797,37.76009],[127.27977,37.76009],[127.27977,37.76018],[127.2797,37.76018]]]}},{"type":"Feature","properties":{"valleyId":"sudong","layer":"shadow","date":"2026-08-01","timeLocal":"10:00"},"geometry":{"type":"Polygon","coordinates":[[[127.27933,37.75952],[127.27933,37.75945],[127.27942,37.75945],[127.27942,37.75952],[127.27933,37.75952]]]}},{"type":"Feature","properties":{"valleyId":"sudong","layer":"shadow","date":"2026-08-01","timeLocal":"10:00"},"geometry":{"type":"Polygon","coordinates":[[[127.27757,37.75827],[127.27755,37.75814],[127.27761,37.75815],[127.27763,37.75827],[127.27757,37.75827]]]}},{"type":"Feature","properties":{"valleyId":"sudong","layer":"shadow","date":"2026-08-01","timeLocal":"10:00"},"geometry":{"type":"Polygon","coordinates":[[[127.27693,37.75817],[127.27693,37.75812],[127.277,37.75812],[127.277,37.75817],[127.27693,37.75817]]]}},{"type":"Feature","properties":{"valleyId":"sudong","layer":"shadow","date":"2026-08-01","timeLocal":"10:00"},"geometry":{"type":"Polygon","coordinates":[[[127.27743,37.75802],[127.27746,37.75793],[127.27753,37.75793],[127.27755,37.75802],[127.27743,37.75802]]]}},{"type":"Feature","properties":{"valleyId":"sudong","layer":"shadow","date":"2026-08-01","timeLocal":"10:00"},"geometry":{"type":"Polygon","coordinates":[[[127.27752,37.75724],[127.27752,37.75715],[127.27759,37.75715],[127.27759,37.75724],[127.27752,37.75724]]]}},{"type":"Feature","properties":{"valleyId":"sudong","layer":"shadow","date":"2026-08-01","timeLocal":"10:00"},"geometry":{"type":"Polygon","coordinates":[[[127.27755,37.75714],[127.27755,37.75706],[127.27762,37.75706],[127.27761,37.75714],[127.27755,37.75714]]]}},{"type":"Feature","properties":{"valleyId":"sudong","layer":"shadow","date":"2026-08-01","timeLocal":"10:00"},"geometry":{"type":"Polygon","coordinates":[[[127.27694,37.75691],[127.27694,37.75682],[127.27701,37.75682],[127.27703,37.75691],[127.27694,37.75691]]]}},{"type":"Feature","properties":{"valleyId":"sudong","layer":"shadow","date":"2026-08-01","timeLocal":"10:00"},"geometry":{"type":"Polygon","coordinates":[[[127.27343,37.75549],[127.27343,37.75544],[127.2735,37.75544],[127.2735,37.75549],[127.27343,37.75549]]]}},{"type":"Feature","properties":{"valleyId":"sudong","layer":"shadow","date":"2026-08-01","timeLocal":"10:00"},"geometry":{"type":"Polygon","coordinates":[[[127.27619,37.75511],[127.27619,37.75506],[127.27625,37.75506],[127.27625,37.75512],[127.27619,37.75511]]]}},{"type":"Feature","properties":{"valleyId":"sudong","layer":"shadow","date":"2026-08-01","timeLocal":"10:00"},"geometry":{"type":"Polygon","coordinates":[[[127.27312,37.75512],[127.2731,37.75505],[127.27305,37.75505],[127.27306,37.75498],[127.27312,37.75498],[127.27312,37.75503],[127.27317,37.75503],[127.27319,37.75507],[127.27319,37.75513],[127.27312,37.75512]]]}},{"type":"Feature","properties":{"valleyId":"sudong","layer":"shadow","date":"2026-08-01","timeLocal":"10:00"},"geometry":{"type":"Polygon","coordinates":[[[127.27394,37.75496],[127.27394,37.75488],[127.27403,37.75487],[127.27403,37.75496],[127.27394,37.75496]]]}},{"type":"Feature","properties":{"valleyId":"sudong","layer":"shadow","date":"2026-08-01","timeLocal":"10:00"},"geometry":{"type":"Polygon","coordinates":[[[127.27594,37.75502],[127.27585,37.75489],[127.27588,37.75475],[127.27594,37.75475],[127.27594,37.75491],[127.27603,37.75497],[127.27603,37.75502],[127.27594,37.75502]]]}},{"type":"Feature","properties":{"valleyId":"sudong","layer":"shadow","date":"2026-08-01","timeLocal":"10:00"},"geometry":{"type":"Polygon","coordinates":[[[127.2742,37.75438],[127.27421,37.75433],[127.27427,37.75433],[127.27427,37.75438],[127.2742,37.75438]]]}},{"type":"Feature","properties":{"valleyId":"sudong","layer":"shadow","date":"2026-08-01","timeLocal":"10:00"},"geometry":{"type":"Polygon","coordinates":[[[127.27453,37.75414],[127.27453,37.7541],[127.27446,37.7541],[127.27446,37.75404],[127.2746,37.75408],[127.2746,37.75414],[127.27453,37.75414]]]}},{"type":"Feature","properties":{"valleyId":"sudong","layer":"shadow","date":"2026-08-01","timeLocal":"10:00"},"geometry":{"type":"Polygon","coordinates":[[[127.27439,37.75404],[127.27437,37.75393],[127.27444,37.75394],[127.27446,37.75404],[127.27439,37.75404]]]}},{"type":"Feature","properties":{"valleyId":"sudong","layer":"shadow","date":"2026-08-01","timeLocal":"10:00"},"geometry":{"type":"Polygon","coordinates":[[[127.27329,37.75091],[127.2733,37.75049],[127.27323,37.75033],[127.2733,37.75033],[127.27337,37.75042],[127.27334,37.75062],[127.27338,37.75084],[127.27335,37.75091],[127.27329,37.75091]]]}},{"type":"Feature","properties":{"valleyId":"sudong","layer":"shadow","date":"2026-08-01","timeLocal":"10:00"},"geometry":{"type":"Polygon","coordinates":[[[127.27396,37.74814],[127.27394,37.74805],[127.27401,37.74805],[127.27403,37.74814],[127.27396,37.74814]]]}},{"type":"Feature","properties":{"valleyId":"sudong","layer":"shadow","date":"2026-08-01","timeLocal":"10:00"},"geometry":{"type":"Polygon","coordinates":[[[127.28049,37.74658],[127.28049,37.74649],[127.28056,37.74649],[127.28056,37.74658],[127.28049,37.74658]]]}}]}
