{"type":"FeatureCollection","metadata":{"description":"개방지(CHM ≤ 2 m)에 드리운 나무·지형 그림자, 2026-08-01 17:00 KST. canopy 위에 겹쳐 그린다","source":"위성 기반 추정 — Copernicus GLO-30 지형(30 m) + Meta/WRI 수관 높이(1 m CHM, 2019 촬영). 그늘 = 수관(CHM > 2 m) ∪ 나무·지형 그림자 ∪ 원거리 지형 마스크. 현장과 다를 수 있음.","datasetVersion":"2026-09-06.0","collectedAt":"2026-09-06","coordinateOrder":"[longitude, latitude]","crs":"EPSG:4326","representativeDate":"2026-08-01","hours":["10:00","11:00","12:00","13:00","14:00","15:00","16:00","17:00","18:00"],"chmAcquisition":["2019-03","2019-05"],"assets":{"glo30":{"dataset":"Copernicus DEM GLO-30 (COG, s3://copernicus-dem-30m)","tiles":["Copernicus_DSM_COG_10_N37_00_E127_00_DEM"]},"chm":{"dataset":"Meta/WRI Global Canopy Height Map v1 (alsgedi_global_v6_float, 1 m, CC-BY 4.0)","quadkeys":["132110303"],"acquisition":["2019-03","2019-05"]}},"method":{"gridResM":2,"canopyThresholdM":2,"bufferHalfM":25,"corridorHalfM":200,"simplifyTolM":2,"minAreaM2":25,"coordDecimals":5},"generator":"scripts/shade 0.1.0","builtAt":"2026-09-06T06:02:12Z","layer":"shadow","timeLocal":"17:00"},"features":[{"type":"Feature","properties":{"valleyId":"sudong","layer":"shadow","date":"2026-08-01","timeLocal":"17:00"},"geometry":{"type":"Polygon","coordinates":[[[127.2826,37.76528],[127.2826,37.76523],[127.28267,37.76523],[127.28267,37.76529],[127.2826,37.76528]]]}},{"type":"Feature","properties":{"valleyId":"sudong","layer":"shadow","date":"2026-08-01","timeLocal":"17:00"},"geometry":{"type":"Polygon","coordinates":[[[127.28242,37.76521],[127.28242,37.76517],[127.28233,37.76517],[127.28233,37.7651],[127.28242,37.7651],[127.28245,37.76516],[127.28249,37.76516],[127.28249,37.76521],[127.28242,37.76521]]]}},{"type":"Feature","properties":{"valleyId":"sudong","layer":"shadow","date":"2026-08-01","timeLocal":"17:00"},"geometry":{"type":"Polygon","coordinates":[[[127.28095,37.76495],[127.28095,37.7649],[127.28102,37.7649],[127.28102,37.76495],[127.28095,37.76495]]]}},{"type":"Feature","properties":{"valleyId":"sudong","layer":"shadow","date":"2026-08-01","timeLocal":"17:00"},"geometry":{"type":"Polygon","coordinates":[[[127.28151,37.76521],[127.28152,37.76514],[127.28161,37.765],[127.28161,37.76489],[127.28168,37.76489],[127.28163,37.76518],[127.28158,37.76522],[127.28151,37.76521]]]}},{"type":"Feature","properties":{"valleyId":"sudong","layer":"shadow","date":"2026-08-01","timeLocal":"17:00"},"geometry":{"type":"Polygon","coordinates":[[[127.28301,37.76542],[127.28301,37.76536],[127.28305,37.76533],[127.28309,37.765],[127.28304,37.76497],[127.283,37.76482],[127.28284,37.76469],[127.28284,37.7646],[127.28291,37.7646],[127.28293,37.76468],[127.28298,37.76468],[127.28305,37.76473],[127.28305,37.76477],[127.28311,37.76479],[127.28311,37.7649],[127.28322,37.76506],[127.28322,37.76513],[127.28315,37.76522],[127.28317,37.76536],[127.2831,37.76542],[127.28301,37.76542]]]}},{"type":"Feature","properties":{"valleyId":"sudong","layer":"shadow","date":"2026-08-01","timeLocal":"17:00"},"geometry":{"type":"Polygon","coordinates":[[[127.28298,37.76457],[127.28298,37.76451],[127.28305,37.76452],[127.28305,37.76457],[127.28298,37.76457]]]}},{"type":"Feature","properties":{"valleyId":"sudong","layer":"shadow","date":"2026-08-01","timeLocal":"17:00"},"geometry":{"type":"Polygon","coordinates":[[[127.28053,37.76466],[127.28053,37.76446],[127.2806,37.76446],[127.28067,37.7645],[127.28066,37.76461],[127.2806,37.76466],[127.28053,37.76466]]]}},{"type":"Feature","properties":{"valleyId":"sudong","layer":"shadow","date":"2026-08-01","timeLocal":"17:00"},"geometry":{"type":"Polygon","coordinates":[[[127.28046,37.76446],[127.28044,37.76439],[127.28053,37.76439],[127.28053,37.76446],[127.28046,37.76446]]]}},{"type":"Feature","properties":{"valleyId":"sudong","layer":"shadow","date":"2026-08-01","timeLocal":"17:00"},"geometry":{"type":"Polygon","coordinates":[[[127.28269,37.76453],[127.28269,37.76449],[127.28264,37.76447],[127.28264,37.7644],[127.28271,37.7644],[127.28276,37.76448],[127.28276,37.76453],[127.28269,37.76453]]]}},{"type":"Feature","properties":{"valleyId":"sudong","layer":"shadow","date":"2026-08-01","timeLocal":"17:00"},"geometry":{"type":"Polygon","coordinates":[[[127.28108,37.76413],[127.28109,37.76407],[127.28115,37.76407],[127.28115,37.76413],[127.28108,37.76413]]]}},{"type":"Feature","properties":{"valleyId":"sudong","layer":"shadow","date":"2026-08-01","timeLocal":"17:00"},"geometry":{"type":"Polygon","coordinates":[[[127.28008,37.7642],[127.28009,37.76399],[127.28016,37.76399],[127.2802,37.76402],[127.2802,37.76413],[127.28015,37.7642],[127.28008,37.7642]]]}},{"type":"Feature","properties":{"valleyId":"sudong","layer":"shadow","date":"2026-08-01","timeLocal":"17:00"},"geometry":{"type":"Polygon","coordinates":[[[127.2797,37.76393],[127.27968,37.76385],[127.27977,37.76384],[127.27977,37.76393],[127.2797,37.76393]]]}},{"type":"Feature","properties":{"valleyId":"sudong","layer":"shadow","date":"2026-08-01","timeLocal":"17:00"},"geometry":{"type":"Polygon","coordinates":[[[127.28195,37.76401],[127.28193,37.7639],[127.28198,37.76389],[127.28198,37.76382],[127.28207,37.76382],[127.28207,37.76392],[127.28202,37.76394],[127.28202,37.76401],[127.28195,37.76401]]]}},{"type":"Feature","properties":{"valleyId":"sudong","layer":"shadow","date":"2026-08-01","timeLocal":"17:00"},"geometry":{"type":"Polygon","coordinates":[[[127.27998,37.76386],[127.27998,37.76377],[127.28005,37.76377],[127.28007,37.76386],[127.27998,37.76386]]]}},{"type":"Feature","properties":{"valleyId":"sudong","layer":"shadow","date":"2026-08-01","timeLocal":"17:00"},"geometry":{"type":"Polygon","coordinates":[[[127.27964,37.76376],[127.27964,37.76369],[127.27973,37.76369],[127.27973,37.76376],[127.27964,37.76376]]]}},{"type":"Feature","properties":{"valleyId":"sudong","layer":"shadow","date":"2026-08-01","timeLocal":"17:00"},"geometry":{"type":"Polygon","coordinates":[[[127.28119,37.76364],[127.28119,37.76359],[127.28126,37.76359],[127.28125,37.76364],[127.28119,37.76364]]]}},{"type":"Feature","properties":{"valleyId":"sudong","layer":"shadow","date":"2026-08-01","timeLocal":"17:00"},"geometry":{"type":"Polygon","coordinates":[[[127.28045,37.76327],[127.28045,37.76311],[127.28052,37.76311],[127.28052,37.7632],[127.28056,37.7632],[127.28056,37.76325],[127.28045,37.76327]]]}},{"type":"Feature","properties":{"valleyId":"sudong","layer":"shadow","date":"2026-08-01","timeLocal":"17:00"},"geometry":{"type":"Polygon","coordinates":[[[127.28052,37.76307],[127.28052,37.76298],[127.28059,37.76298],[127.28059,37.76307],[127.28052,37.76307]]]}},{"type":"Feature","properties":{"valleyId":"sudong","layer":"shadow","date":"2026-08-01","timeLocal":"17:00"},"geometry":{"type":"Polygon","coordinates":[[[127.28233,37.7631],[127.28234,37.76301],[127.2824,37.76301],[127.2824,37.7631],[127.28233,37.7631]]]}},{"type":"Feature","properties":{"valleyId":"sudong","layer":"shadow","date":"2026-08-01","timeLocal":"17:00"},"geometry":{"type":"Polygon","coordinates":[[[127.28026,37.76264],[127.28028,37.76251],[127.2804,37.76251],[127.28039,37.7626],[127.28026,37.76264]]]}},{"type":"Feature","properties":{"valleyId":"sudong","layer":"shadow","date":"2026-08-01","timeLocal":"17:00"},"geometry":{"type":"Polygon","coordinates":[[[127.27871,37.76258],[127.27869,37.76247],[127.27876,37.7624],[127.27883,37.7624],[127.27885,37.76253],[127.27878,37.76258],[127.27871,37.76258]]]}},{"type":"Feature","properties":{"valleyId":"sudong","layer":"shadow","date":"2026-08-01","timeLocal":"17:00"},"geometry":{"type":"Polygon","coordinates":[[[127.28035,37.76249],[127.28035,37.7624],[127.28044,37.7624],[127.28046,37.76248],[127.28035,37.76249]]]}},{"type":"Feature","properties":{"valleyId":"sudong","layer":"shadow","date":"2026-08-01","timeLocal":"17:00"},"geometry":{"type":"Polygon","coordinates":[[[127.2801,37.76236],[127.28009,37.76209],[127.28018,37.76208],[127.28017,37.76236],[127.2801,37.76236]]]}},{"type":"Feature","properties":{"valleyId":"sudong","layer":"shadow","date":"2026-08-01","timeLocal":"17:00"},"geometry":{"type":"Polygon","coordinates":[[[127.27838,37.76219],[127.27834,37.76212],[127.27834,37.76203],[127.27825,37.76201],[127.27825,37.76196],[127.2785,37.76198],[127.2785,37.76203],[127.27857,37.76205],[127.27857,37.76213],[127.2785,37.76214],[127.27845,37.7622],[127.27838,37.76219]]]}},{"type":"Feature","properties":{"valleyId":"sudong","layer":"shadow","date":"2026-08-01","timeLocal":"17:00"},"geometry":{"type":"Polygon","coordinates":[[[127.28027,37.76208],[127.28027,37.76197],[127.28036,37.76197],[127.28043,37.76201],[127.28043,37.76206],[127.28027,37.76208]]]}},{"type":"Feature","properties":{"valleyId":"sudong","layer":"shadow","date":"2026-08-01","timeLocal":"17:00"},"geometry":{"type":"Polygon","coordinates":[[[127.28018,37.76191],[127.28018,37.76186],[127.28025,37.76186],[127.28025,37.76192],[127.28018,37.76191]]]}},{"type":"Feature","properties":{"valleyId":"sudong","layer":"shadow","date":"2026-08-01","timeLocal":"17:00"},"geometry":{"type":"Polygon","coordinates":[[[127.27991,37.76204],[127.27982,37.76196],[127.27982,37.76189],[127.27977,37.76187],[127.27975,37.76178],[127.27984,37.76178],[127.27989,37.76182],[127.27989,37.76189],[127.28002,37.76195],[127.28002,37.762],[127.27998,37.762],[127.27998,37.76204],[127.27991,37.76204]]]}},{"type":"Feature","properties":{"valleyId":"sudong","layer":"shadow","date":"2026-08-01","timeLocal":"17:00"},"geometry":{"type":"Polygon","coordinates":[[[127.27932,37.76187],[127.27935,37.76178],[127.27939,37.76174],[127.27948,37.76174],[127.27948,37.7618],[127.27941,37.76183],[127.27941,37.76187],[127.27932,37.76187]]]}},{"type":"Feature","properties":{"valleyId":"sudong","layer":"shadow","date":"2026-08-01","timeLocal":"17:00"},"geometry":{"type":"Polygon","coordinates":[[[127.27971,37.76176],[127.2796,37.76164],[127.2796,37.76153],[127.27974,37.76155],[127.27971,37.76167],[127.27978,37.76171],[127.27978,37.76176],[127.27971,37.76176]]]}},{"type":"Feature","properties":{"valleyId":"sudong","layer":"shadow","date":"2026-08-01","timeLocal":"17:00"},"geometry":{"type":"Polygon","coordinates":[[[127.27978,37.76155],[127.27978,37.76144],[127.27985,37.76144],[127.27987,37.76155],[127.27978,37.76155]]]}},{"type":"Feature","properties":{"valleyId":"sudong","layer":"shadow","date":"2026-08-01","timeLocal":"17:00"},"geometry":{"type":"Polygon","coordinates":[[[127.28066,37.76169],[127.28065,37.76136],[127.28072,37.76136],[127.28073,37.76169],[127.28066,37.76169]]]}},{"type":"Feature","properties":{"valleyId":"sudong","layer":"shadow","date":"2026-08-01","timeLocal":"17:00"},"geometry":{"type":"Polygon","coordinates":[[[127.28042,37.7614],[127.2804,37.7613],[127.28049,37.76131],[127.28051,37.76138],[127.28042,37.7614]]]}},{"type":"Feature","properties":{"valleyId":"sudong","layer":"shadow","date":"2026-08-01","timeLocal":"17:00"},"geometry":{"type":"Polygon","coordinates":[[[127.2806,37.76133],[127.28061,37.76124],[127.28067,37.76124],[127.28067,37.76133],[127.2806,37.76133]]]}},{"type":"Feature","properties":{"valleyId":"sudong","layer":"shadow","date":"2026-08-01","timeLocal":"17:00"},"geometry":{"type":"Polygon","coordinates":[[[127.27954,37.76142],[127.27942,37.76133],[127.27943,37.76122],[127.2795,37.76109],[127.27961,37.7611],[127.27968,37.76115],[127.2797,37.76138],[127.2796,37.76138],[127.2796,37.76142],[127.27954,37.76142]]]}},{"type":"Feature","properties":{"valleyId":"sudong","layer":"shadow","date":"2026-08-01","timeLocal":"17:00"},"geometry":{"type":"Polygon","coordinates":[[[127.28171,37.76066],[127.28171,37.7606],[127.28178,37.7606],[127.28178,37.76066],[127.28171,37.76066]]]}},{"type":"Feature","properties":{"valleyId":"sudong","layer":"shadow","date":"2026-08-01","timeLocal":"17:00"},"geometry":{"type":"Polygon","coordinates":[[[127.27945,37.761],[127.27934,37.76093],[127.2793,37.7608],[127.27933,37.76064],[127.27924,37.76049],[127.27919,37.76049],[127.27917,37.7604],[127.27935,37.76044],[127.27944,37.76057],[127.27955,37.76063],[127.27955,37.76081],[127.27964,37.76093],[127.27964,37.76101],[127.27945,37.761]]]}},{"type":"Feature","properties":{"valleyId":"sudong","layer":"shadow","date":"2026-08-01","timeLocal":"17:00"},"geometry":{"type":"Polygon","coordinates":[[[127.28137,37.76053],[127.28128,37.76043],[127.28129,37.76029],[127.28136,37.76029],[127.2814,37.76033],[127.2814,37.76042],[127.28146,37.76046],[127.28146,37.76051],[127.28137,37.76053]]]}},{"type":"Feature","properties":{"valleyId":"sudong","layer":"shadow","date":"2026-08-01","timeLocal":"17:00"},"geometry":{"type":"Polygon","coordinates":[[[127.27902,37.76031],[127.27902,37.76022],[127.27895,37.76018],[127.27889,37.76002],[127.279,37.76002],[127.27916,37.76019],[127.27915,37.76028],[127.27911,37.76031],[127.27902,37.76031]]]}},{"type":"Feature","properties":{"valleyId":"sudong","layer":"shadow","date":"2026-08-01","timeLocal":"17:00"},"geometry":{"type":"Polygon","coordinates":[[[127.28071,37.7598],[127.28073,37.75969],[127.28085,37.75967],[127.28085,37.75973],[127.28078,37.75974],[127.28078,37.7598],[127.28071,37.7598]]]}},{"type":"Feature","properties":{"valleyId":"sudong","layer":"shadow","date":"2026-08-01","timeLocal":"17:00"},"geometry":{"type":"Polygon","coordinates":[[[127.27879,37.76043],[127.27839,37.7601],[127.27841,37.75998],[127.27832,37.7599],[127.27823,37.75989],[127.27821,37.75983],[127.27801,37.75976],[127.27799,37.75967],[127.27806,37.75961],[127.27815,37.75961],[127.27815,37.75954],[127.27824,37.75954],[127.27824,37.75969],[127.27828,37.7598],[127.27851,37.7598],[127.2785,37.75989],[127.27862,37.75998],[127.27868,37.75998],[127.27872,37.76016],[127.27895,37.76035],[127.27892,37.76044],[127.27879,37.76043]]]}},{"type":"Feature","properties":{"valleyId":"sudong","layer":"shadow","date":"2026-08-01","timeLocal":"17:00"},"geometry":{"type":"Polygon","coordinates":[[[127.27508,37.75964],[127.27506,37.75951],[127.27509,37.75948],[127.27515,37.75948],[127.27515,37.75964],[127.27508,37.75964]]]}},{"type":"Feature","properties":{"valleyId":"sudong","layer":"shadow","date":"2026-08-01","timeLocal":"17:00"},"geometry":{"type":"Polygon","coordinates":[[[127.28103,37.7596],[127.28101,37.75951],[127.28103,37.75948],[127.2811,37.75948],[127.28112,37.75957],[127.2811,37.7596],[127.28103,37.7596]]]}},{"type":"Feature","properties":{"valleyId":"sudong","layer":"shadow","date":"2026-08-01","timeLocal":"17:00"},"geometry":{"type":"Polygon","coordinates":[[[127.27774,37.75946],[127.27774,37.75937],[127.27781,37.75937],[127.27781,37.75946],[127.27774,37.75946]]]}},{"type":"Feature","properties":{"valleyId":"sudong","layer":"shadow","date":"2026-08-01","timeLocal":"17:00"},"geometry":{"type":"Polygon","coordinates":[[[127.27513,37.75946],[127.27516,37.75928],[127.27523,37.75928],[127.27522,37.75943],[127.2752,37.75946],[127.27513,37.75946]]]}},{"type":"Feature","properties":{"valleyId":"sudong","layer":"shadow","date":"2026-08-01","timeLocal":"17:00"},"geometry":{"type":"Polygon","coordinates":[[[127.28106,37.75944],[127.28108,37.75926],[127.28118,37.75924],[127.28124,37.75932],[127.28124,37.75937],[127.28117,37.75939],[127.28113,37.75944],[127.28106,37.75944]]]}},{"type":"Feature","properties":{"valleyId":"sudong","layer":"shadow","date":"2026-08-01","timeLocal":"17:00"},"geometry":{"type":"Polygon","coordinates":[[[127.27795,37.75909],[127.27796,37.75903],[127.27802,37.75904],[127.27802,37.75909],[127.27795,37.75909]]]}},{"type":"Feature","properties":{"valleyId":"sudong","layer":"shadow","date":"2026-08-01","timeLocal":"17:00"},"geometry":{"type":"Polygon","coordinates":[[[127.27737,37.75894],[127.27737,37.75888],[127.27744,37.75888],[127.27744,37.75894],[127.27737,37.75894]]]}},{"type":"Feature","properties":{"valleyId":"sudong","layer":"shadow","date":"2026-08-01","timeLocal":"17:00"},"geometry":{"type":"Polygon","coordinates":[[[127.27462,37.75879],[127.27463,37.75873],[127.27469,37.75873],[127.27469,37.75879],[127.27462,37.75879]]]}},{"type":"Feature","properties":{"valleyId":"sudong","layer":"shadow","date":"2026-08-01","timeLocal":"17:00"},"geometry":{"type":"Polygon","coordinates":[[[127.27449,37.75891],[127.27444,37.75889],[127.2744,37.75864],[127.27451,37.75864],[127.27451,37.75879],[127.2746,37.75886],[127.2746,37.75891],[127.27449,37.75891]]]}},{"type":"Feature","properties":{"valleyId":"sudong","layer":"shadow","date":"2026-08-01","timeLocal":"17:00"},"geometry":{"type":"Polygon","coordinates":[[[127.27738,37.75939],[127.27731,37.75935],[127.27732,37.75926],[127.27711,37.75917],[127.27707,37.75908],[127.277,37.75906],[127.27698,37.75895],[127.27674,37.75873],[127.27672,37.7586],[127.27685,37.75864],[127.27699,37.75879],[127.27712,37.75884],[127.2773,37.75899],[127.27727,37.7591],[127.27739,37.75913],[127.27741,37.75922],[127.27747,37.75923],[127.27754,37.75932],[127.27754,37.75939],[127.27738,37.75939]]]}},{"type":"Feature","properties":{"valleyId":"sudong","layer":"shadow","date":"2026-08-01","timeLocal":"17:00"},"geometry":{"type":"Polygon","coordinates":[[[127.27663,37.7586],[127.27661,37.75849],[127.27667,37.75849],[127.27672,37.75853],[127.27672,37.7586],[127.27663,37.7586]]]}},{"type":"Feature","properties":{"valleyId":"sudong","layer":"shadow","date":"2026-08-01","timeLocal":"17:00"},"geometry":{"type":"Polygon","coordinates":[[[127.27424,37.75855],[127.27425,37.75849],[127.27434,37.75846],[127.27436,37.75839],[127.27445,37.75837],[127.27447,37.75846],[127.27443,37.75848],[127.27443,37.75851],[127.27424,37.75855]]]}},{"type":"Feature","properties":{"valleyId":"sudong","layer":"shadow","date":"2026-08-01","timeLocal":"17:00"},"geometry":{"type":"Polygon","coordinates":[[[127.27717,37.75857],[127.27718,37.75841],[127.27724,37.75841],[127.27729,37.75856],[127.27717,37.75857]]]}},{"type":"Feature","properties":{"valleyId":"sudong","layer":"shadow","date":"2026-08-01","timeLocal":"17:00"},"geometry":{"type":"Polygon","coordinates":[[[127.27631,37.7584],[127.27632,37.75833],[127.27638,37.75833],[127.27638,37.7584],[127.27631,37.7584]]]}},{"type":"Feature","properties":{"valleyId":"sudong","layer":"shadow","date":"2026-08-01","timeLocal":"17:00"},"geometry":{"type":"Polygon","coordinates":[[[127.27486,37.75843],[127.27489,37.75829],[127.27495,37.75829],[127.27495,37.7584],[127.27493,37.75843],[127.27486,37.75843]]]}},{"type":"Feature","properties":{"valleyId":"sudong","layer":"shadow","date":"2026-08-01","timeLocal":"17:00"},"geometry":{"type":"Polygon","coordinates":[[[127.27434,37.75831],[127.27434,37.75826],[127.27441,37.75826],[127.27441,37.75832],[127.27434,37.75831]]]}},{"type":"Feature","properties":{"valleyId":"sudong","layer":"shadow","date":"2026-08-01","timeLocal":"17:00"},"geometry":{"type":"Polygon","coordinates":[[[127.27529,37.75835],[127.27529,37.75829],[127.27525,37.75826],[127.27525,37.75818],[127.27534,37.7582],[127.27536,37.75835],[127.27529,37.75835]]]}},{"type":"Feature","properties":{"valleyId":"sudong","layer":"shadow","date":"2026-08-01","timeLocal":"17:00"},"geometry":{"type":"Polygon","coordinates":[[[127.27607,37.75823],[127.27607,37.75816],[127.27614,37.75816],[127.27614,37.75823],[127.27607,37.75823]]]}},{"type":"Feature","properties":{"valleyId":"sudong","layer":"shadow","date":"2026-08-01","timeLocal":"17:00"},"geometry":{"type":"Polygon","coordinates":[[[127.27779,37.75824],[127.27782,37.75813],[127.27791,37.75813],[127.27791,37.75822],[127.27779,37.75824]]]}},{"type":"Feature","properties":{"valleyId":"sudong","layer":"shadow","date":"2026-08-01","timeLocal":"17:00"},"geometry":{"type":"Polygon","coordinates":[[[127.27462,37.75817],[127.27464,37.75803],[127.27473,37.75803],[127.27478,37.75807],[127.27478,37.75814],[127.27462,37.75817]]]}},{"type":"Feature","properties":{"valleyId":"sudong","layer":"shadow","date":"2026-08-01","timeLocal":"17:00"},"geometry":{"type":"Polygon","coordinates":[[[127.2736,37.75814],[127.27362,37.75807],[127.27366,37.75807],[127.27371,37.75802],[127.27378,37.75802],[127.27373,37.75813],[127.2736,37.75814]]]}},{"type":"Feature","properties":{"valleyId":"sudong","layer":"shadow","date":"2026-08-01","timeLocal":"17:00"},"geometry":{"type":"Polygon","coordinates":[[[127.27711,37.75819],[127.27709,37.75807],[127.27716,37.75807],[127.27718,37.75819],[127.27711,37.75819]]]}},{"type":"Feature","properties":{"valleyId":"sudong","layer":"shadow","date":"2026-08-01","timeLocal":"17:00"},"geometry":{"type":"Polygon","coordinates":[[[127.27444,37.75797],[127.27446,37.75788],[127.27453,37.75788],[127.27451,37.75797],[127.27444,37.75797]]]}},{"type":"Feature","properties":{"valleyId":"sudong","layer":"shadow","date":"2026-08-01","timeLocal":"17:00"},"geometry":{"type":"Polygon","coordinates":[[[127.27769,37.75798],[127.27769,37.75789],[127.2778,37.75791],[127.27778,37.75799],[127.27769,37.75798]]]}},{"type":"Feature","properties":{"valleyId":"sudong","layer":"shadow","date":"2026-08-01","timeLocal":"17:00"},"geometry":{"type":"Polygon","coordinates":[[[127.2746,37.7578],[127.2746,37.75771],[127.27467,37.75771],[127.27467,37.7578],[127.2746,37.7578]]]}},{"type":"Feature","properties":{"valleyId":"sudong","layer":"shadow","date":"2026-08-01","timeLocal":"17:00"},"geometry":{"type":"Polygon","coordinates":[[[127.27524,37.75789],[127.27526,37.75771],[127.27531,37.75768],[127.27531,37.7575],[127.27538,37.7575],[127.27537,37.75784],[127.2753,37.7579],[127.27524,37.75789]]]}},{"type":"Feature","properties":{"valleyId":"sudong","layer":"shadow","date":"2026-08-01","timeLocal":"17:00"},"geometry":{"type":"Polygon","coordinates":[[[127.27869,37.75777],[127.27871,37.75766],[127.27878,37.75764],[127.27881,37.75759],[127.27899,37.75755],[127.27899,37.75761],[127.27892,37.75762],[127.2789,37.7577],[127.27883,37.75775],[127.27869,37.75777]]]}},{"type":"Feature","properties":{"valleyId":"sudong","layer":"shadow","date":"2026-08-01","timeLocal":"17:00"},"geometry":{"type":"Polygon","coordinates":[[[127.27543,37.75745],[127.27543,37.75736],[127.27559,37.75738],[127.27559,37.75743],[127.27543,37.75745]]]}},{"type":"Feature","properties":{"valleyId":"sudong","layer":"shadow","date":"2026-08-01","timeLocal":"17:00"},"geometry":{"type":"Polygon","coordinates":[[[127.27394,37.75798],[127.27399,37.7578],[127.27406,37.75775],[127.27408,37.75761],[127.27431,37.75745],[127.27432,37.75738],[127.27425,37.75725],[127.27416,37.75721],[127.27407,37.7571],[127.27407,37.75703],[127.27421,37.75694],[127.27421,37.75691],[127.27426,37.75691],[127.27426,37.7568],[127.27433,37.7568],[127.27442,37.75684],[127.27442,37.75695],[127.27433,37.75698],[127.27428,37.75712],[127.27437,37.75718],[127.27441,37.75725],[127.27446,37.75725],[127.27452,37.75731],[127.27454,37.75745],[127.27449,37.75752],[127.27429,37.75759],[127.27429,37.7577],[127.27424,37.7577],[127.27424,37.75779],[127.27415,37.75791],[127.2741,37.75791],[127.2741,37.75795],[127.27403,37.75799],[127.27394,37.75798]]]}},{"type":"Feature","properties":{"valleyId":"sudong","layer":"shadow","date":"2026-08-01","timeLocal":"17:00"},"geometry":{"type":"Polygon","coordinates":[[[127.27571,37.75684],[127.27572,37.75678],[127.27578,37.75679],[127.27578,37.75684],[127.27571,37.75684]]]}},{"type":"Feature","properties":{"valleyId":"sudong","layer":"shadow","date":"2026-08-01","timeLocal":"17:00"},"geometry":{"type":"Polygon","coordinates":[[[127.27778,37.75694],[127.27778,37.75689],[127.27782,37.75689],[127.27785,37.75676],[127.27796,37.75675],[127.27796,37.75682],[127.27789,37.75685],[127.27789,37.75691],[127.27785,37.75691],[127.27785,37.75694],[127.27778,37.75694]]]}},{"type":"Feature","properties":{"valleyId":"sudong","layer":"shadow","date":"2026-08-01","timeLocal":"17:00"},"geometry":{"type":"Polygon","coordinates":[[[127.27808,37.75664],[127.27808,37.75658],[127.27817,37.75659],[127.27817,37.75664],[127.27808,37.75664]]]}},{"type":"Feature","properties":{"valleyId":"sudong","layer":"shadow","date":"2026-08-01","timeLocal":"17:00"},"geometry":{"type":"Polygon","coordinates":[[[127.27413,37.75665],[127.27413,37.75645],[127.2742,37.75646],[127.27422,37.75664],[127.27413,37.75665]]]}},{"type":"Feature","properties":{"valleyId":"sudong","layer":"shadow","date":"2026-08-01","timeLocal":"17:00"},"geometry":{"type":"Polygon","coordinates":[[[127.27791,37.75622],[127.27791,37.75615],[127.27798,37.75615],[127.27798,37.75622],[127.27791,37.75622]]]}},{"type":"Feature","properties":{"valleyId":"sudong","layer":"shadow","date":"2026-08-01","timeLocal":"17:00"},"geometry":{"type":"Polygon","coordinates":[[[127.27332,37.75628],[127.27319,37.75621],[127.27319,37.75613],[127.27312,37.75608],[127.27312,37.75603],[127.27321,37.75603],[127.27323,37.7561],[127.27328,37.7561],[127.27332,37.75617],[127.27339,37.75621],[127.27339,37.75628],[127.27332,37.75628]]]}},{"type":"Feature","properties":{"valleyId":"sudong","layer":"shadow","date":"2026-08-01","timeLocal":"17:00"},"geometry":{"type":"Polygon","coordinates":[[[127.27031,37.75586],[127.27031,37.7558],[127.27038,37.7558],[127.27038,37.75586],[127.27031,37.75586]]]}},{"type":"Feature","properties":{"valleyId":"sudong","layer":"shadow","date":"2026-08-01","timeLocal":"17:00"},"geometry":{"type":"Polygon","coordinates":[[[127.27285,37.75591],[127.27285,37.75588],[127.27281,37.75588],[127.27281,37.75582],[127.27274,37.75582],[127.27272,37.75579],[127.27272,37.75568],[127.27279,37.75568],[127.27283,37.75582],[127.27292,37.75586],[127.27292,37.75591],[127.27285,37.75591]]]}},{"type":"Feature","properties":{"valleyId":"sudong","layer":"shadow","date":"2026-08-01","timeLocal":"17:00"},"geometry":{"type":"Polygon","coordinates":[[[127.27395,37.7556],[127.27395,37.75553],[127.27402,37.75553],[127.27402,37.75561],[127.27395,37.7556]]]}},{"type":"Feature","properties":{"valleyId":"sudong","layer":"shadow","date":"2026-08-01","timeLocal":"17:00"},"geometry":{"type":"Polygon","coordinates":[[[127.27245,37.75562],[127.27243,37.75555],[127.27248,37.75549],[127.27248,37.75539],[127.27255,37.75539],[127.27252,37.75562],[127.27245,37.75562]]]}},{"type":"Feature","properties":{"valleyId":"sudong","layer":"shadow","date":"2026-08-01","timeLocal":"17:00"},"geometry":{"type":"Polygon","coordinates":[[[127.27195,37.75567],[127.27191,37.75563],[127.27189,37.7555],[127.27166,37.75554],[127.27166,37.75546],[127.27178,37.75536],[127.27178,37.75516],[127.27185,37.75516],[127.27185,37.75521],[127.27196,37.75525],[127.272,37.75543],[127.27205,37.75547],[127.27225,37.75547],[127.27225,37.75554],[127.27218,37.75565],[127.27195,37.75567]]]}},{"type":"Feature","properties":{"valleyId":"sudong","layer":"shadow","date":"2026-08-01","timeLocal":"17:00"},"geometry":{"type":"Polygon","coordinates":[[[127.27457,37.75509],[127.27455,37.75502],[127.27464,37.75502],[127.27464,37.75509],[127.27457,37.75509]]]}},{"type":"Feature","properties":{"valleyId":"sudong","layer":"shadow","date":"2026-08-01","timeLocal":"17:00"},"geometry":{"type":"Polygon","coordinates":[[[127.27392,37.75496],[127.27394,37.75483],[127.27401,37.75483],[127.27401,37.75494],[127.27392,37.75496]]]}},{"type":"Feature","properties":{"valleyId":"sudong","layer":"shadow","date":"2026-08-01","timeLocal":"17:00"},"geometry":{"type":"Polygon","coordinates":[[[127.27239,37.75537],[127.27239,37.75517],[127.27235,37.75511],[127.27226,37.75508],[127.27227,37.7547],[127.27231,37.75466],[127.27232,37.75452],[127.27239,37.75452],[127.27238,37.75486],[127.27245,37.75488],[127.27246,37.75501],[127.27253,37.75508],[127.27253,37.75531],[127.27248,37.75533],[127.27248,37.75537],[127.27239,37.75537]]]}},{"type":"Feature","properties":{"valleyId":"sudong","layer":"shadow","date":"2026-08-01","timeLocal":"17:00"},"geometry":{"type":"Polygon","coordinates":[[[127.27223,37.75417],[127.27224,37.75412],[127.2723,37.75412],[127.2723,37.75417],[127.27223,37.75417]]]}},{"type":"Feature","properties":{"valleyId":"sudong","layer":"shadow","date":"2026-08-01","timeLocal":"17:00"},"geometry":{"type":"Polygon","coordinates":[[[127.27014,37.7536],[127.26993,37.75351],[127.26994,37.75346],[127.27005,37.75346],[127.27012,37.75349],[127.27012,37.75353],[127.27023,37.75355],[127.27023,37.7536],[127.27014,37.7536]]]}},{"type":"Feature","properties":{"valleyId":"sudong","layer":"shadow","date":"2026-08-01","timeLocal":"17:00"},"geometry":{"type":"Polygon","coordinates":[[[127.27224,37.7539],[127.27224,37.75374],[127.27216,37.75354],[127.27216,37.7534],[127.27207,37.75334],[127.27207,37.75323],[127.27212,37.75322],[127.27212,37.75316],[127.27205,37.75311],[127.27201,37.75311],[127.27199,37.75305],[127.27199,37.75293],[127.2722,37.75277],[127.27225,37.75253],[127.27221,37.7525],[127.27214,37.7525],[127.27214,37.75259],[127.272,37.7526],[127.272,37.75255],[127.27207,37.75251],[127.27209,37.75239],[127.27196,37.75239],[127.27194,37.75235],[127.27189,37.75235],[127.27187,37.75226],[127.27208,37.75224],[127.27216,37.75232],[127.27216,37.75241],[127.27228,37.75241],[127.2723,37.75244],[127.27237,37.75245],[127.27241,37.75239],[127.27244,37.75225],[127.27248,37.75223],[127.27248,37.75219],[127.27255,37.7522],[127.27255,37.75229],[127.27248,37.75234],[127.27248,37.75241],[127.27255,37.75241],[127.27254,37.75272],[127.27247,37.75283],[127.27247,37.75295],[127.27231,37.75295],[127.27228,37.75298],[127.27228,37.75306],[127.27235,37.75313],[127.27235,37.75329],[127.27232,37.75336],[127.27225,37.75336],[127.27225,37.75345],[127.27227,37.75362],[127.27234,37.75367],[127.27233,37.75385],[127.27231,37.7539],[127.27224,37.7539]]]}},{"type":"Feature","properties":{"valleyId":"sudong","layer":"shadow","date":"2026-08-01","timeLocal":"17:00"},"geometry":{"type":"Polygon","coordinates":[[[127.2727,37.75193],[127.2727,37.75178],[127.27281,37.7518],[127.27279,37.75193],[127.2727,37.75193]]]}},{"type":"Feature","properties":{"valleyId":"sudong","layer":"shadow","date":"2026-08-01","timeLocal":"17:00"},"geometry":{"type":"Polygon","coordinates":[[[127.27288,37.75164],[127.27288,37.75159],[127.27295,37.75159],[127.27295,37.75164],[127.27288,37.75164]]]}},{"type":"Feature","properties":{"valleyId":"sudong","layer":"shadow","date":"2026-08-01","timeLocal":"17:00"},"geometry":{"type":"Polygon","coordinates":[[[127.27275,37.75133],[127.27276,37.75123],[127.27283,37.75123],[127.27285,37.75132],[127.27275,37.75133]]]}},{"type":"Feature","properties":{"valleyId":"sudong","layer":"shadow","date":"2026-08-01","timeLocal":"17:00"},"geometry":{"type":"Polygon","coordinates":[[[127.273,37.75145],[127.27312,37.75114],[127.27313,37.75098],[127.27322,37.75096],[127.27319,37.75132],[127.27307,37.75145],[127.273,37.75145]]]}},{"type":"Feature","properties":{"valleyId":"sudong","layer":"shadow","date":"2026-08-01","timeLocal":"17:00"},"geometry":{"type":"Polygon","coordinates":[[[127.27278,37.75114],[127.27278,37.75106],[127.27285,37.75096],[127.27286,37.75078],[127.27279,37.7507],[127.27275,37.75034],[127.27282,37.75034],[127.27282,37.75038],[127.27289,37.75042],[127.27297,37.75065],[127.27297,37.7509],[127.27292,37.75094],[127.27287,37.75112],[127.27278,37.75114]]]}},{"type":"Feature","properties":{"valleyId":"sudong","layer":"shadow","date":"2026-08-01","timeLocal":"17:00"},"geometry":{"type":"Polygon","coordinates":[[[127.27156,37.75087],[127.2715,37.75081],[127.27147,37.75072],[127.27143,37.7507],[127.27136,37.75059],[127.27142,37.75034],[127.27164,37.75031],[127.27169,37.75045],[127.27175,37.75045],[127.27178,37.75036],[127.27203,37.75039],[127.27203,37.75044],[127.27196,37.75044],[127.27193,37.75051],[127.27187,37.75053],[127.27186,37.75056],[127.27177,37.75062],[127.2717,37.75083],[127.27156,37.75087]]]}},{"type":"Feature","properties":{"valleyId":"sudong","layer":"shadow","date":"2026-08-01","timeLocal":"17:00"},"geometry":{"type":"Polygon","coordinates":[[[127.27214,37.75037],[127.2721,37.75012],[127.27228,37.75014],[127.27251,37.75021],[127.27251,37.75027],[127.27233,37.75025],[127.27221,37.75028],[127.27221,37.75037],[127.27214,37.75037]]]}},{"type":"Feature","properties":{"valleyId":"sudong","layer":"shadow","date":"2026-08-01","timeLocal":"17:00"},"geometry":{"type":"Polygon","coordinates":[[[127.27199,37.75011],[127.27192,37.7501],[127.27188,37.75004],[127.2719,37.7499],[127.27199,37.7499],[127.27199,37.75001],[127.27206,37.75004],[127.27206,37.75012],[127.27199,37.75011]]]}},{"type":"Feature","properties":{"valleyId":"sudong","layer":"shadow","date":"2026-08-01","timeLocal":"17:00"},"geometry":{"type":"Polygon","coordinates":[[[127.27349,37.74997],[127.27349,37.74992],[127.27356,37.74992],[127.27356,37.74998],[127.27349,37.74997]]]}},{"type":"Feature","properties":{"valleyId":"sudong","layer":"shadow","date":"2026-08-01","timeLocal":"17:00"},"geometry":{"type":"Polygon","coordinates":[[[127.2734,37.74988],[127.2734,37.74977],[127.27352,37.74978],[127.27349,37.74988],[127.2734,37.74988]]]}},{"type":"Feature","properties":{"valleyId":"sudong","layer":"shadow","date":"2026-08-01","timeLocal":"17:00"},"geometry":{"type":"Polygon","coordinates":[[[127.27633,37.74975],[127.27633,37.74969],[127.2764,37.74969],[127.2764,37.74975],[127.27633,37.74975]]]}},{"type":"Feature","properties":{"valleyId":"sudong","layer":"shadow","date":"2026-08-01","timeLocal":"17:00"},"geometry":{"type":"Polygon","coordinates":[[[127.27326,37.75087],[127.27325,37.75051],[127.27318,37.75044],[127.27319,37.75038],[127.2731,37.75033],[127.2731,37.75026],[127.27301,37.7502],[127.27299,37.75004],[127.27292,37.74998],[127.27288,37.74984],[127.27281,37.74977],[127.27282,37.74957],[127.27291,37.74957],[127.27295,37.74961],[127.27295,37.74966],[127.27291,37.74966],[127.27288,37.74975],[127.27301,37.7499],[127.27308,37.75008],[127.27315,37.75013],[127.27319,37.75029],[127.2733,37.75039],[127.2733,37.75046],[127.27334,37.75048],[127.27336,37.75086],[127.27326,37.75087]]]}},{"type":"Feature","properties":{"valleyId":"sudong","layer":"shadow","date":"2026-08-01","timeLocal":"17:00"},"geometry":{"type":"Polygon","coordinates":[[[127.27256,37.74985],[127.27256,37.7498],[127.27261,37.7498],[127.27261,37.74967],[127.27257,37.74962],[127.27259,37.74942],[127.27278,37.74944],[127.27277,37.74951],[127.27271,37.74951],[127.27268,37.74962],[127.2727,37.74978],[127.27263,37.7498],[127.27263,37.74985],[127.27256,37.74985]]]}},{"type":"Feature","properties":{"valleyId":"sudong","layer":"shadow","date":"2026-08-01","timeLocal":"17:00"},"geometry":{"type":"Polygon","coordinates":[[[127.27332,37.74959],[127.2733,37.74941],[127.27337,37.74941],[127.27337,37.74945],[127.27343,37.74949],[127.27343,37.7496],[127.27332,37.74959]]]}},{"type":"Feature","properties":{"valleyId":"sudong","layer":"shadow","date":"2026-08-01","timeLocal":"17:00"},"geometry":{"type":"Polygon","coordinates":[[[127.27446,37.74943],[127.27446,37.74938],[127.27453,37.74938],[127.27452,37.74943],[127.27446,37.74943]]]}},{"type":"Feature","properties":{"valleyId":"sudong","layer":"shadow","date":"2026-08-01","timeLocal":"17:00"},"geometry":{"type":"Polygon","coordinates":[[[127.27139,37.74935],[127.27142,37.74922],[127.27158,37.74923],[127.27158,37.74932],[127.27139,37.74935]]]}},{"type":"Feature","properties":{"valleyId":"sudong","layer":"shadow","date":"2026-08-01","timeLocal":"17:00"},"geometry":{"type":"Polygon","coordinates":[[[127.27278,37.74942],[127.27276,37.74922],[127.27283,37.74923],[127.27289,37.74939],[127.27284,37.74942],[127.27278,37.74942]]]}},{"type":"Feature","properties":{"valleyId":"sudong","layer":"shadow","date":"2026-08-01","timeLocal":"17:00"},"geometry":{"type":"Polygon","coordinates":[[[127.27257,37.74929],[127.27255,37.74922],[127.27262,37.74922],[127.27264,37.7493],[127.27257,37.74929]]]}},{"type":"Feature","properties":{"valleyId":"sudong","layer":"shadow","date":"2026-08-01","timeLocal":"17:00"},"geometry":{"type":"Polygon","coordinates":[[[127.27344,37.74925],[127.27344,37.7492],[127.27351,37.7492],[127.27351,37.74925],[127.27344,37.74925]]]}},{"type":"Feature","properties":{"valleyId":"sudong","layer":"shadow","date":"2026-08-01","timeLocal":"17:00"},"geometry":{"type":"Polygon","coordinates":[[[127.27219,37.74929],[127.27214,37.74927],[127.27217,37.74916],[127.27213,37.74905],[127.27222,37.74905],[127.27226,37.74907],[127.27226,37.74911],[127.2724,37.74917],[127.2724,37.74922],[127.27235,37.74922],[127.27228,37.74929],[127.27219,37.74929]]]}},{"type":"Feature","properties":{"valleyId":"sudong","layer":"shadow","date":"2026-08-01","timeLocal":"17:00"},"geometry":{"type":"Polygon","coordinates":[[[127.2726,37.74908],[127.2726,37.74902],[127.27274,37.7489],[127.27275,37.74881],[127.27286,37.74881],[127.27288,37.7489],[127.27283,37.74892],[127.27281,37.74899],[127.27272,37.74906],[127.2726,37.74908]]]}},{"type":"Feature","properties":{"valleyId":"sudong","layer":"shadow","date":"2026-08-01","timeLocal":"17:00"},"geometry":{"type":"Polygon","coordinates":[[[127.27472,37.74897],[127.27472,37.74884],[127.27481,37.74882],[127.27481,37.74895],[127.27472,37.74897]]]}},{"type":"Feature","properties":{"valleyId":"sudong","layer":"shadow","date":"2026-08-01","timeLocal":"17:00"},"geometry":{"type":"Polygon","coordinates":[[[127.27445,37.74883],[127.27445,37.74878],[127.27454,37.74876],[127.27454,37.74884],[127.27445,37.74883]]]}},{"type":"Feature","properties":{"valleyId":"sudong","layer":"shadow","date":"2026-08-01","timeLocal":"17:00"},"geometry":{"type":"Polygon","coordinates":[[[127.27483,37.7488],[127.27484,37.74873],[127.2749,37.74873],[127.2749,37.74881],[127.27483,37.7488]]]}},{"type":"Feature","properties":{"valleyId":"sudong","layer":"shadow","date":"2026-08-01","timeLocal":"17:00"},"geometry":{"type":"Polygon","coordinates":[[[127.27649,37.7487],[127.27649,37.74865],[127.27656,37.74865],[127.27656,37.7487],[127.27649,37.7487]]]}},{"type":"Feature","properties":{"valleyId":"sudong","layer":"shadow","date":"2026-08-01","timeLocal":"17:00"},"geometry":{"type":"Polygon","coordinates":[[[127.27677,37.74871],[127.27677,37.74865],[127.27683,37.74865],[127.27683,37.74871],[127.27677,37.74871]]]}},{"type":"Feature","properties":{"valleyId":"sudong","layer":"shadow","date":"2026-08-01","timeLocal":"17:00"},"geometry":{"type":"Polygon","coordinates":[[[127.27176,37.74921],[127.27174,37.74901],[127.27161,37.7489],[127.27161,37.74885],[127.27168,37.74878],[127.27166,37.74856],[127.27182,37.74858],[127.27184,37.74871],[127.27184,37.74876],[127.27179,37.74876],[127.27179,37.74881],[127.27172,37.74883],[127.27172,37.74889],[127.27186,37.74894],[127.27187,37.74921],[127.27176,37.74921]]]}},{"type":"Feature","properties":{"valleyId":"sudong","layer":"shadow","date":"2026-08-01","timeLocal":"17:00"},"geometry":{"type":"Polygon","coordinates":[[[127.27495,37.7487],[127.27495,37.74864],[127.27502,37.74859],[127.27509,37.74859],[127.27509,37.74868],[127.27495,37.7487]]]}},{"type":"Feature","properties":{"valleyId":"sudong","layer":"shadow","date":"2026-08-01","timeLocal":"17:00"},"geometry":{"type":"Polygon","coordinates":[[[127.27071,37.74847],[127.27074,37.74837],[127.2708,37.74837],[127.27085,37.7484],[127.27085,37.74846],[127.27071,37.74847]]]}},{"type":"Feature","properties":{"valleyId":"sudong","layer":"shadow","date":"2026-08-01","timeLocal":"17:00"},"geometry":{"type":"Polygon","coordinates":[[[127.27447,37.74862],[127.2745,37.74855],[127.27477,37.74844],[127.27482,37.74839],[127.27491,37.74839],[127.27491,37.74845],[127.27486,37.74848],[127.27475,37.7485],[127.27459,37.74862],[127.27447,37.74862]]]}},{"type":"Feature","properties":{"valleyId":"sudong","layer":"shadow","date":"2026-08-01","timeLocal":"17:00"},"geometry":{"type":"Polygon","coordinates":[[[127.27355,37.74855],[127.27355,37.7485],[127.27364,37.74846],[127.27366,37.74832],[127.27373,37.74832],[127.27375,37.74846],[127.27371,37.74846],[127.27364,37.74855],[127.27355,37.74855]]]}},{"type":"Feature","properties":{"valleyId":"sudong","layer":"shadow","date":"2026-08-01","timeLocal":"17:00"},"geometry":{"type":"Polygon","coordinates":[[[127.27752,37.74832],[127.27752,37.74827],[127.27759,37.74827],[127.27759,37.74832],[127.27752,37.74832]]]}},{"type":"Feature","properties":{"valleyId":"sudong","layer":"shadow","date":"2026-08-01","timeLocal":"17:00"},"geometry":{"type":"Polygon","coordinates":[[[127.27539,37.74849],[127.27539,37.74836],[127.2755,37.74829],[127.27553,37.7482],[127.27564,37.74819],[127.27564,37.74826],[127.27559,37.74827],[127.27559,37.74833],[127.2755,37.74838],[127.2755,37.74845],[127.27545,37.74849],[127.27539,37.74849]]]}},{"type":"Feature","properties":{"valleyId":"sudong","layer":"shadow","date":"2026-08-01","timeLocal":"17:00"},"geometry":{"type":"Polygon","coordinates":[[[127.27507,37.74827],[127.27507,37.7482],[127.27519,37.74818],[127.27519,37.74825],[127.27507,37.74827]]]}},{"type":"Feature","properties":{"valleyId":"sudong","layer":"shadow","date":"2026-08-01","timeLocal":"17:00"},"geometry":{"type":"Polygon","coordinates":[[[127.2761,37.74821],[127.2761,37.74814],[127.27617,37.74814],[127.27616,37.74821],[127.2761,37.74821]]]}},{"type":"Feature","properties":{"valleyId":"sudong","layer":"shadow","date":"2026-08-01","timeLocal":"17:00"},"geometry":{"type":"Polygon","coordinates":[[[127.27358,37.74825],[127.27356,37.74805],[127.27363,37.74805],[127.27364,37.74825],[127.27358,37.74825]]]}},{"type":"Feature","properties":{"valleyId":"sudong","layer":"shadow","date":"2026-08-01","timeLocal":"17:00"},"geometry":{"type":"Polygon","coordinates":[[[127.27394,37.74825],[127.27394,37.74803],[127.27401,37.74804],[127.27403,37.74823],[127.27394,37.74825]]]}},{"type":"Feature","properties":{"valleyId":"sudong","layer":"shadow","date":"2026-08-01","timeLocal":"17:00"},"geometry":{"type":"Polygon","coordinates":[[[127.27528,37.74816],[127.27523,37.74814],[127.27526,37.74805],[127.2753,37.74805],[127.27537,37.748],[127.27544,37.748],[127.27544,37.74807],[127.27539,37.74809],[127.27539,37.74813],[127.27535,37.74816],[127.27528,37.74816]]]}},{"type":"Feature","properties":{"valleyId":"sudong","layer":"shadow","date":"2026-08-01","timeLocal":"17:00"},"geometry":{"type":"Polygon","coordinates":[[[127.27798,37.74806],[127.27798,37.748],[127.27805,37.748],[127.27805,37.74806],[127.27798,37.74806]]]}},{"type":"Feature","properties":{"valleyId":"sudong","layer":"shadow","date":"2026-08-01","timeLocal":"17:00"},"geometry":{"type":"Polygon","coordinates":[[[127.27601,37.74792],[127.27601,37.74783],[127.27608,37.74783],[127.27608,37.74792],[127.27601,37.74792]]]}},{"type":"Feature","properties":{"valleyId":"sudong","layer":"shadow","date":"2026-08-01","timeLocal":"17:00"},"geometry":{"type":"Polygon","coordinates":[[[127.27564,37.74817],[127.27565,37.74802],[127.27562,37.74797],[127.27556,37.74795],[127.27556,37.74788],[127.27558,37.74784],[127.27574,37.74781],[127.27574,37.74788],[127.27567,37.7479],[127.27567,37.74797],[127.27572,37.74797],[127.27578,37.74803],[127.27578,37.74813],[127.27573,37.74817],[127.27564,37.74817]]]}},{"type":"Feature","properties":{"valleyId":"sudong","layer":"shadow","date":"2026-08-01","timeLocal":"17:00"},"geometry":{"type":"Polygon","coordinates":[[[127.27842,37.74788],[127.27842,37.74781],[127.27849,37.74781],[127.27849,37.74788],[127.27842,37.74788]]]}},{"type":"Feature","properties":{"valleyId":"sudong","layer":"shadow","date":"2026-08-01","timeLocal":"17:00"},"geometry":{"type":"Polygon","coordinates":[[[127.27549,37.7477],[127.2755,37.74764],[127.27554,37.74764],[127.27554,37.74754],[127.27561,37.74748],[127.27561,37.74745],[127.27575,37.74743],[127.27572,37.74765],[127.27556,37.74764],[127.27556,37.7477],[127.27549,37.7477]]]}},{"type":"Feature","properties":{"valleyId":"sudong","layer":"shadow","date":"2026-08-01","timeLocal":"17:00"},"geometry":{"type":"Polygon","coordinates":[[[127.2775,37.74742],[127.2775,37.74737],[127.27757,37.74737],[127.27757,37.74742],[127.2775,37.74742]]]}},{"type":"Feature","properties":{"valleyId":"sudong","layer":"shadow","date":"2026-08-01","timeLocal":"17:00"},"geometry":{"type":"Polygon","coordinates":[[[127.28029,37.74744],[127.28029,37.74733],[127.28036,37.74734],[127.28041,37.74737],[127.2804,37.74743],[127.28029,37.74744]]]}},{"type":"Feature","properties":{"valleyId":"sudong","layer":"shadow","date":"2026-08-01","timeLocal":"17:00"},"geometry":{"type":"Polygon","coordinates":[[[127.27319,37.74725],[127.27319,37.74719],[127.27326,37.7472],[127.27326,37.74725],[127.27319,37.74725]]]}},{"type":"Feature","properties":{"valleyId":"sudong","layer":"shadow","date":"2026-08-01","timeLocal":"17:00"},"geometry":{"type":"Polygon","coordinates":[[[127.27269,37.74728],[127.27269,37.74715],[127.27281,37.74713],[127.27278,37.74728],[127.27269,37.74728]]]}},{"type":"Feature","properties":{"valleyId":"sudong","layer":"shadow","date":"2026-08-01","timeLocal":"17:00"},"geometry":{"type":"Polygon","coordinates":[[[127.27312,37.74716],[127.27313,37.7471],[127.27322,37.7471],[127.27321,37.74716],[127.27312,37.74716]]]}},{"type":"Feature","properties":{"valleyId":"sudong","layer":"shadow","date":"2026-08-01","timeLocal":"17:00"},"geometry":{"type":"Polygon","coordinates":[[[127.27787,37.74724],[127.27787,37.74717],[127.27798,37.74716],[127.27798,37.74723],[127.27787,37.74724]]]}},{"type":"Feature","properties":{"valleyId":"sudong","layer":"shadow","date":"2026-08-01","timeLocal":"17:00"},"geometry":{"type":"Polygon","coordinates":[[[127.27586,37.74776],[127.27586,37.7477],[127.2759,37.74767],[127.27591,37.74756],[127.27586,37.74749],[127.27587,37.74711],[127.27596,37.74705],[127.27603,37.74695],[127.27619,37.74693],[127.27619,37.74699],[127.27615,37.74702],[127.27614,37.74708],[127.276,37.74731],[127.276,37.74743],[127.27607,37.74747],[127.27606,37.74763],[127.27602,37.74765],[127.27602,37.74769],[127.27595,37.7477],[127.27595,37.74776],[127.27586,37.74776]]]}},{"type":"Feature","properties":{"valleyId":"sudong","layer":"shadow","date":"2026-08-01","timeLocal":"17:00"},"geometry":{"type":"Polygon","coordinates":[[[127.27817,37.74707],[127.27815,37.74694],[127.27821,37.74694],[127.27823,37.74707],[127.27817,37.74707]]]}},{"type":"Feature","properties":{"valleyId":"sudong","layer":"shadow","date":"2026-08-01","timeLocal":"17:00"},"geometry":{"type":"Polygon","coordinates":[[[127.27831,37.74689],[127.27831,37.74682],[127.2784,37.7468],[127.2784,37.74687],[127.27831,37.74689]]]}},{"type":"Feature","properties":{"valleyId":"sudong","layer":"shadow","date":"2026-08-01","timeLocal":"17:00"},"geometry":{"type":"Polygon","coordinates":[[[127.28019,37.74688],[127.28019,37.74681],[127.28026,37.74681],[127.28026,37.74688],[127.28019,37.74688]]]}},{"type":"Feature","properties":{"valleyId":"sudong","layer":"shadow","date":"2026-08-01","timeLocal":"17:00"},"geometry":{"type":"Polygon","coordinates":[[[127.27849,37.74677],[127.27854,37.74662],[127.27861,37.74662],[127.27865,37.74666],[127.27865,37.74673],[127.2786,37.74673],[127.27858,37.74677],[127.27849,37.74677]]]}},{"type":"Feature","properties":{"valleyId":"sudong","layer":"shadow","date":"2026-08-01","timeLocal":"17:00"},"geometry":{"type":"Polygon","coordinates":[[[127.28105,37.74717],[127.28105,37.74698],[127.28098,37.74693],[127.28099,37.74679],[127.28101,37.74662],[127.2811,37.74661],[127.2811,37.74695],[127.28114,37.747],[127.28114,37.74715],[127.28105,37.74717]]]}},{"type":"Feature","properties":{"valleyId":"sudong","layer":"shadow","date":"2026-08-01","timeLocal":"17:00"},"geometry":{"type":"Polygon","coordinates":[[[127.2792,37.74671],[127.2792,37.74658],[127.27931,37.7466],[127.27933,37.74667],[127.2792,37.74671]]]}},{"type":"Feature","properties":{"valleyId":"sudong","layer":"shadow","date":"2026-08-01","timeLocal":"17:00"},"geometry":{"type":"Polygon","coordinates":[[[127.28058,37.74669],[127.28056,37.74662],[127.28051,37.74662],[127.28049,37.74658],[127.28049,37.74649],[127.28056,37.74649],[127.28058,37.7466],[127.28067,37.74662],[127.28067,37.74669],[127.28058,37.74669]]]}},{"type":"Feature","properties":{"valleyId":"sudong","layer":"shadow","date":"2026-08-01","timeLocal":"17:00"},"geometry":{"type":"Polygon","coordinates":[[[127.28099,37.74652],[127.28099,37.74646],[127.28106,37.74646],[127.28106,37.74652],[127.28099,37.74652]]]}},{"type":"Feature","properties":{"valleyId":"sudong","layer":"shadow","date":"2026-08-01","timeLocal":"17:00"},"geometry":{"type":"Polygon","coordinates":[[[127.27874,37.74655],[127.27875,37.7465],[127.27879,37.7465],[127.27882,37.74641],[127.27888,37.74641],[127.27886,37.74652],[127.27881,37.74652],[127.27881,37.74656],[127.27874,37.74655]]]}},{"type":"Feature","properties":{"valleyId":"sudong","layer":"shadow","date":"2026-08-01","timeLocal":"17:00"},"geometry":{"type":"Polygon","coordinates":[[[127.27898,37.74634],[127.27898,37.74629],[127.27905,37.74629],[127.27904,37.74634],[127.27898,37.74634]]]}},{"type":"Feature","properties":{"valleyId":"sudong","layer":"shadow","date":"2026-08-01","timeLocal":"17:00"},"geometry":{"type":"Polygon","coordinates":[[[127.28136,37.74641],[127.28131,37.74634],[127.28132,37.74627],[127.28138,37.74627],[127.28138,37.74632],[127.28143,37.74636],[127.28143,37.74641],[127.28136,37.74641]]]}},{"type":"Feature","properties":{"valleyId":"sudong","layer":"shadow","date":"2026-08-01","timeLocal":"17:00"},"geometry":{"type":"Polygon","coordinates":[[[127.27651,37.74688],[127.27651,37.74683],[127.27658,37.74678],[127.27658,37.74674],[127.27668,37.7467],[127.27668,37.74656],[127.27675,37.74656],[127.27682,37.74649],[127.27691,37.74649],[127.27695,37.74646],[127.27694,37.74617],[127.27701,37.74617],[127.27707,37.74622],[127.27719,37.74623],[127.27714,37.74644],[127.27707,37.74651],[127.27702,37.74651],[127.27699,37.74666],[127.27693,37.74665],[127.2769,37.74673],[127.27686,37.74673],[127.27667,37.74687],[127.27651,37.74688]]]}},{"type":"Feature","properties":{"valleyId":"sudong","layer":"shadow","date":"2026-08-01","timeLocal":"17:00"},"geometry":{"type":"Polygon","coordinates":[[[127.27685,37.74613],[127.27678,37.74609],[127.27676,37.746],[127.27687,37.74602],[127.27687,37.74606],[127.27692,37.74608],[127.27692,37.74613],[127.27685,37.74613]]]}},{"type":"Feature","properties":{"valleyId":"sudong","layer":"shadow","date":"2026-08-01","timeLocal":"17:00"},"geometry":{"type":"Polygon","coordinates":[[[127.27981,37.74572],[127.27981,37.74567],[127.27988,37.74567],[127.27988,37.74572],[127.27981,37.74572]]]}},{"type":"Feature","properties":{"valleyId":"sudong","layer":"shadow","date":"2026-08-01","timeLocal":"17:00"},"geometry":{"type":"Polygon","coordinates":[[[127.28006,37.74553],[127.28006,37.74547],[127.28013,37.74548],[127.28013,37.74553],[127.28006,37.74553]]]}},{"type":"Feature","properties":{"valleyId":"sudong","layer":"shadow","date":"2026-08-01","timeLocal":"17:00"},"geometry":{"type":"Polygon","coordinates":[[[127.28023,37.74528],[127.28023,37.74522],[127.28032,37.74523],[127.28032,37.74528],[127.28023,37.74528]]]}},{"type":"Feature","properties":{"valleyId":"sudong","layer":"shadow","date":"2026-08-01","timeLocal":"17:00"},"geometry":{"type":"Polygon","coordinates":[[[127.28113,37.74461],[127.28113,37.74455],[127.2812,37.74455],[127.2812,37.74461],[127.28113,37.74461]]]}},{"type":"Feature","properties":{"valleyId":"sudong","layer":"shadow","date":"2026-08-01","timeLocal":"17:00"},"geometry":{"type":"Polygon","coordinates":[[[127.28087,37.74401],[127.28087,37.74394],[127.28094,37.74394],[127.28094,37.74401],[127.28087,37.74401]]]}},{"type":"Feature","properties":{"valleyId":"sudong","layer":"shadow","date":"2026-08-01","timeLocal":"17:00"},"geometry":{"type":"Polygon","coordinates":[[[127.28131,37.74364],[127.28131,37.74356],[127.2814,37.74357],[127.2814,37.74362],[127.28131,37.74364]]]}}]}
