{"type":"FeatureCollection","metadata":{"description":"개방지(CHM ≤ 2 m)에 드리운 나무·지형 그림자, 2026-08-01 16:00 KST. canopy 위에 겹쳐 그린다","source":"위성 기반 추정 — Copernicus GLO-30 지형(30 m) + Meta/WRI 수관 높이(1 m CHM, 2019 촬영). 그늘 = 수관(CHM > 2 m) ∪ 나무·지형 그림자 ∪ 원거리 지형 마스크. 현장과 다를 수 있음.","datasetVersion":"2026-09-06.0","collectedAt":"2026-09-06","coordinateOrder":"[longitude, latitude]","crs":"EPSG:4326","representativeDate":"2026-08-01","hours":["10:00","11:00","12:00","13:00","14:00","15:00","16:00","17:00","18:00"],"chmAcquisition":["2019-03"],"assets":{"glo30":{"dataset":"Copernicus DEM GLO-30 (COG, s3://copernicus-dem-30m)","tiles":["Copernicus_DSM_COG_10_N37_00_E126_00_DEM","Copernicus_DSM_COG_10_N37_00_E127_00_DEM"]},"chm":{"dataset":"Meta/WRI Global Canopy Height Map v1 (alsgedi_global_v6_float, 1 m, CC-BY 4.0)","quadkeys":["132110302"],"acquisition":["2019-03"]}},"method":{"gridResM":2,"canopyThresholdM":2,"bufferHalfM":25,"corridorHalfM":200,"simplifyTolM":2,"minAreaM2":25,"coordDecimals":5},"generator":"scripts/shade 0.1.0","builtAt":"2026-09-06T06:08:22Z","layer":"shadow","timeLocal":"16:00"},"features":[{"type":"Feature","properties":{"valleyId":"gamaksan","layer":"shadow","date":"2026-08-01","timeLocal":"16:00"},"geometry":{"type":"Polygon","coordinates":[[[126.94175,37.94054],[126.94173,37.94045],[126.94169,37.94042],[126.94169,37.94034],[126.94165,37.94031],[126.94165,37.9402],[126.94174,37.94013],[126.94174,37.94007],[126.94168,37.93996],[126.94163,37.93995],[126.94163,37.93987],[126.94171,37.9398],[126.94175,37.9398],[126.94175,37.93968],[126.94185,37.93961],[126.94187,37.93952],[126.94192,37.9395],[126.94192,37.93939],[126.94206,37.93938],[126.94208,37.93956],[126.94201,37.93965],[126.942,37.93979],[126.94196,37.93979],[126.94193,37.93986],[126.94184,37.93993],[126.94184,37.94],[126.94188,37.94],[126.94192,37.94015],[126.9419,37.9402],[126.94181,37.94022],[126.94178,37.94025],[126.94178,37.94033],[126.94183,37.94035],[126.94182,37.94054],[126.94175,37.94054]]]}},{"type":"Feature","properties":{"valleyId":"gamaksan","layer":"shadow","date":"2026-08-01","timeLocal":"16:00"},"geometry":{"type":"Polygon","coordinates":[[[126.9421,37.93934],[126.94211,37.93929],[126.94217,37.93929],[126.94217,37.93934],[126.9421,37.93934]]]}},{"type":"Feature","properties":{"valleyId":"gamaksan","layer":"shadow","date":"2026-08-01","timeLocal":"16:00"},"geometry":{"type":"Polygon","coordinates":[[[126.94616,37.93932],[126.94623,37.93912],[126.9463,37.93913],[126.9463,37.93922],[126.94622,37.93932],[126.94616,37.93932]]]}},{"type":"Feature","properties":{"valleyId":"gamaksan","layer":"shadow","date":"2026-08-01","timeLocal":"16:00"},"geometry":{"type":"Polygon","coordinates":[[[126.94147,37.93911],[126.94148,37.93904],[126.94154,37.93904],[126.94154,37.93912],[126.94147,37.93911]]]}},{"type":"Feature","properties":{"valleyId":"gamaksan","layer":"shadow","date":"2026-08-01","timeLocal":"16:00"},"geometry":{"type":"Polygon","coordinates":[[[126.94635,37.93904],[126.94635,37.93893],[126.94642,37.93893],[126.94641,37.93904],[126.94635,37.93904]]]}},{"type":"Feature","properties":{"valleyId":"gamaksan","layer":"shadow","date":"2026-08-01","timeLocal":"16:00"},"geometry":{"type":"Polygon","coordinates":[[[126.94635,37.93884],[126.94635,37.93878],[126.94642,37.93879],[126.94642,37.93884],[126.94635,37.93884]]]}},{"type":"Feature","properties":{"valleyId":"gamaksan","layer":"shadow","date":"2026-08-01","timeLocal":"16:00"},"geometry":{"type":"Polygon","coordinates":[[[126.94638,37.93877],[126.94638,37.93871],[126.94645,37.93871],[126.94644,37.93877],[126.94638,37.93877]]]}},{"type":"Feature","properties":{"valleyId":"gamaksan","layer":"shadow","date":"2026-08-01","timeLocal":"16:00"},"geometry":{"type":"Polygon","coordinates":[[[126.94433,37.93882],[126.94433,37.93873],[126.94426,37.93864],[126.94429,37.9385],[126.94425,37.93848],[126.94425,37.93842],[126.94432,37.93839],[126.94432,37.9383],[126.94423,37.93804],[126.94435,37.93805],[126.94441,37.93832],[126.9444,37.93882],[126.94433,37.93882]]]}},{"type":"Feature","properties":{"valleyId":"gamaksan","layer":"shadow","date":"2026-08-01","timeLocal":"16:00"},"geometry":{"type":"Polygon","coordinates":[[[126.94433,37.93803],[126.94433,37.93792],[126.94426,37.9379],[126.94429,37.93763],[126.94436,37.93763],[126.94433,37.93778],[126.94438,37.93778],[126.94437,37.93792],[126.94442,37.93796],[126.94442,37.93801],[126.94433,37.93803]]]}},{"type":"Feature","properties":{"valleyId":"gamaksan","layer":"shadow","date":"2026-08-01","timeLocal":"16:00"},"geometry":{"type":"Polygon","coordinates":[[[126.94425,37.93759],[126.9442,37.93758],[126.9442,37.93749],[126.94432,37.93751],[126.94432,37.9376],[126.94425,37.93759]]]}},{"type":"Feature","properties":{"valleyId":"gamaksan","layer":"shadow","date":"2026-08-01","timeLocal":"16:00"},"geometry":{"type":"Polygon","coordinates":[[[126.94416,37.93743],[126.94414,37.93725],[126.94421,37.93725],[126.94423,37.93743],[126.94416,37.93743]]]}},{"type":"Feature","properties":{"valleyId":"gamaksan","layer":"shadow","date":"2026-08-01","timeLocal":"16:00"},"geometry":{"type":"Polygon","coordinates":[[[126.9441,37.9372],[126.9441,37.93712],[126.94417,37.93712],[126.94417,37.9372],[126.9441,37.9372]]]}},{"type":"Feature","properties":{"valleyId":"gamaksan","layer":"shadow","date":"2026-08-01","timeLocal":"16:00"},"geometry":{"type":"Polygon","coordinates":[[[126.94382,37.93665],[126.94382,37.9366],[126.94391,37.9366],[126.94391,37.93665],[126.94382,37.93665]]]}},{"type":"Feature","properties":{"valleyId":"gamaksan","layer":"shadow","date":"2026-08-01","timeLocal":"16:00"},"geometry":{"type":"Polygon","coordinates":[[[126.9438,37.93642],[126.9438,37.93636],[126.94387,37.93636],[126.94387,37.93642],[126.9438,37.93642]]]}},{"type":"Feature","properties":{"valleyId":"gamaksan","layer":"shadow","date":"2026-08-01","timeLocal":"16:00"},"geometry":{"type":"Polygon","coordinates":[[[126.94606,37.93609],[126.94609,37.93599],[126.94616,37.93599],[126.94613,37.9361],[126.94606,37.93609]]]}},{"type":"Feature","properties":{"valleyId":"gamaksan","layer":"shadow","date":"2026-08-01","timeLocal":"16:00"},"geometry":{"type":"Polygon","coordinates":[[[126.946,37.93584],[126.94599,37.93561],[126.94596,37.93557],[126.94592,37.93557],[126.94592,37.93551],[126.94599,37.93552],[126.94599,37.93555],[126.94612,37.93559],[126.94612,37.93582],[126.946,37.93584]]]}},{"type":"Feature","properties":{"valleyId":"gamaksan","layer":"shadow","date":"2026-08-01","timeLocal":"16:00"},"geometry":{"type":"Polygon","coordinates":[[[126.94568,37.93528],[126.94568,37.9352],[126.94575,37.93521],[126.94575,37.93528],[126.94568,37.93528]]]}},{"type":"Feature","properties":{"valleyId":"gamaksan","layer":"shadow","date":"2026-08-01","timeLocal":"16:00"},"geometry":{"type":"Polygon","coordinates":[[[126.94568,37.93508],[126.94571,37.93499],[126.94578,37.93499],[126.94575,37.93508],[126.94568,37.93508]]]}},{"type":"Feature","properties":{"valleyId":"gamaksan","layer":"shadow","date":"2026-08-01","timeLocal":"16:00"},"geometry":{"type":"Polygon","coordinates":[[[126.94703,37.93508],[126.94703,37.93498],[126.9471,37.93498],[126.94709,37.93508],[126.94703,37.93508]]]}},{"type":"Feature","properties":{"valleyId":"gamaksan","layer":"shadow","date":"2026-08-01","timeLocal":"16:00"},"geometry":{"type":"Polygon","coordinates":[[[126.9458,37.93425],[126.94578,37.93418],[126.94587,37.93418],[126.94586,37.93425],[126.9458,37.93425]]]}},{"type":"Feature","properties":{"valleyId":"gamaksan","layer":"shadow","date":"2026-08-01","timeLocal":"16:00"},"geometry":{"type":"Polygon","coordinates":[[[126.94564,37.9341],[126.94564,37.93407],[126.9456,37.93407],[126.94561,37.93378],[126.9457,37.93378],[126.9457,37.93382],[126.94576,37.93382],[126.94576,37.93378],[126.94581,37.93378],[126.94581,37.93371],[126.9459,37.93371],[126.9459,37.93382],[126.94576,37.93387],[126.94576,37.93394],[126.94571,37.93398],[126.94571,37.93411],[126.94564,37.9341]]]}},{"type":"Feature","properties":{"valleyId":"gamaksan","layer":"shadow","date":"2026-08-01","timeLocal":"16:00"},"geometry":{"type":"Polygon","coordinates":[[[126.9457,37.93373],[126.94568,37.93362],[126.94579,37.93362],[126.94579,37.93373],[126.9457,37.93373]]]}},{"type":"Feature","properties":{"valleyId":"gamaksan","layer":"shadow","date":"2026-08-01","timeLocal":"16:00"},"geometry":{"type":"Polygon","coordinates":[[[126.94586,37.93366],[126.94586,37.9336],[126.94591,37.9336],[126.94593,37.93348],[126.946,37.93344],[126.94603,37.93339],[126.94603,37.9333],[126.94607,37.93325],[126.94608,37.93317],[126.94612,37.93314],[126.94613,37.93305],[126.94625,37.93284],[126.94625,37.93276],[126.94632,37.93276],[126.94631,37.93291],[126.94627,37.93293],[126.94626,37.93298],[126.94622,37.93301],[126.94621,37.93314],[126.94619,37.93319],[126.94614,37.93319],[126.94614,37.93328],[126.9461,37.93332],[126.94607,37.93355],[126.94593,37.9336],[126.94593,37.93366],[126.94586,37.93366]]]}},{"type":"Feature","properties":{"valleyId":"gamaksan","layer":"shadow","date":"2026-08-01","timeLocal":"16:00"},"geometry":{"type":"Polygon","coordinates":[[[126.94548,37.93271],[126.94548,37.93266],[126.94552,37.93262],[126.94564,37.93263],[126.94561,37.9327],[126.94548,37.93271]]]}},{"type":"Feature","properties":{"valleyId":"gamaksan","layer":"shadow","date":"2026-08-01","timeLocal":"16:00"},"geometry":{"type":"Polygon","coordinates":[[[126.94625,37.93264],[126.94625,37.93258],[126.9463,37.93255],[126.9463,37.93239],[126.9464,37.93237],[126.94637,37.9326],[126.94632,37.93264],[126.94625,37.93264]]]}},{"type":"Feature","properties":{"valleyId":"gamaksan","layer":"shadow","date":"2026-08-01","timeLocal":"16:00"},"geometry":{"type":"Polygon","coordinates":[[[126.94631,37.93233],[126.94631,37.93224],[126.94638,37.93224],[126.94637,37.93233],[126.94631,37.93233]]]}},{"type":"Feature","properties":{"valleyId":"gamaksan","layer":"shadow","date":"2026-08-01","timeLocal":"16:00"},"geometry":{"type":"Polygon","coordinates":[[[126.94629,37.93215],[126.94625,37.93202],[126.94623,37.93174],[126.9463,37.93174],[126.94634,37.93185],[126.94636,37.93215],[126.94629,37.93215]]]}},{"type":"Feature","properties":{"valleyId":"gamaksan","layer":"shadow","date":"2026-08-01","timeLocal":"16:00"},"geometry":{"type":"Polygon","coordinates":[[[126.94495,37.93115],[126.94495,37.93101],[126.94511,37.93098],[126.94506,37.93112],[126.94502,37.93116],[126.94495,37.93115]]]}},{"type":"Feature","properties":{"valleyId":"gamaksan","layer":"shadow","date":"2026-08-01","timeLocal":"16:00"},"geometry":{"type":"Polygon","coordinates":[[[126.94532,37.931],[126.94532,37.93094],[126.94537,37.93093],[126.94537,37.93084],[126.9453,37.93075],[126.9453,37.93069],[126.94537,37.93069],[126.94544,37.93078],[126.94548,37.93095],[126.94541,37.931],[126.94532,37.931]]]}},{"type":"Feature","properties":{"valleyId":"gamaksan","layer":"shadow","date":"2026-08-01","timeLocal":"16:00"},"geometry":{"type":"Polygon","coordinates":[[[126.94526,37.93067],[126.94526,37.93064],[126.94521,37.93064],[126.94522,37.93058],[126.94528,37.93058],[126.94528,37.93062],[126.94533,37.93062],[126.94533,37.93067],[126.94526,37.93067]]]}},{"type":"Feature","properties":{"valleyId":"gamaksan","layer":"shadow","date":"2026-08-01","timeLocal":"16:00"},"geometry":{"type":"Polygon","coordinates":[[[126.94488,37.93025],[126.94489,37.9302],[126.9448,37.93018],[126.9448,37.93012],[126.94489,37.93013],[126.94491,37.9302],[126.94495,37.9302],[126.94495,37.93025],[126.94488,37.93025]]]}},{"type":"Feature","properties":{"valleyId":"gamaksan","layer":"shadow","date":"2026-08-01","timeLocal":"16:00"},"geometry":{"type":"Polygon","coordinates":[[[126.94466,37.9301],[126.94464,37.93],[126.94471,37.93],[126.94473,37.93011],[126.94466,37.9301]]]}},{"type":"Feature","properties":{"valleyId":"gamaksan","layer":"shadow","date":"2026-08-01","timeLocal":"16:00"},"geometry":{"type":"Polygon","coordinates":[[[126.94482,37.93005],[126.94483,37.92991],[126.94489,37.92991],[126.94489,37.93005],[126.94482,37.93005]]]}},{"type":"Feature","properties":{"valleyId":"gamaksan","layer":"shadow","date":"2026-08-01","timeLocal":"16:00"},"geometry":{"type":"Polygon","coordinates":[[[126.9448,37.92989],[126.94476,37.92971],[126.94488,37.92971],[126.94493,37.92953],[126.94502,37.92953],[126.94499,37.92968],[126.94495,37.92969],[126.94494,37.92975],[126.94487,37.9298],[126.94487,37.92989],[126.9448,37.92989]]]}},{"type":"Feature","properties":{"valleyId":"gamaksan","layer":"shadow","date":"2026-08-01","timeLocal":"16:00"},"geometry":{"type":"Polygon","coordinates":[[[126.94468,37.92953],[126.94468,37.92949],[126.94463,37.92947],[126.94463,37.9294],[126.9447,37.9294],[126.94472,37.92947],[126.94477,37.92948],[126.94477,37.92953],[126.94468,37.92953]]]}},{"type":"Feature","properties":{"valleyId":"gamaksan","layer":"shadow","date":"2026-08-01","timeLocal":"16:00"},"geometry":{"type":"Polygon","coordinates":[[[126.94512,37.92912],[126.94517,37.92887],[126.94524,37.92887],[126.94521,37.92909],[126.94519,37.92912],[126.94512,37.92912]]]}},{"type":"Feature","properties":{"valleyId":"gamaksan","layer":"shadow","date":"2026-08-01","timeLocal":"16:00"},"geometry":{"type":"Polygon","coordinates":[[[126.94522,37.92883],[126.94524,37.92874],[126.94531,37.92875],[126.94531,37.92882],[126.94522,37.92883]]]}},{"type":"Feature","properties":{"valleyId":"gamaksan","layer":"shadow","date":"2026-08-01","timeLocal":"16:00"},"geometry":{"type":"Polygon","coordinates":[[[126.94529,37.92873],[126.94529,37.92867],[126.94536,37.92867],[126.94536,37.92873],[126.94529,37.92873]]]}},{"type":"Feature","properties":{"valleyId":"gamaksan","layer":"shadow","date":"2026-08-01","timeLocal":"16:00"},"geometry":{"type":"Polygon","coordinates":[[[126.94519,37.92827],[126.94524,37.92808],[126.94531,37.92808],[126.94528,37.92826],[126.94519,37.92827]]]}},{"type":"Feature","properties":{"valleyId":"gamaksan","layer":"shadow","date":"2026-08-01","timeLocal":"16:00"},"geometry":{"type":"Polygon","coordinates":[[[126.94466,37.92672],[126.94464,37.92663],[126.94471,37.92663],[126.94473,37.92672],[126.94466,37.92672]]]}},{"type":"Feature","properties":{"valleyId":"gamaksan","layer":"shadow","date":"2026-08-01","timeLocal":"16:00"},"geometry":{"type":"Polygon","coordinates":[[[126.9446,37.92495],[126.9446,37.92489],[126.94467,37.9249],[126.94467,37.92495],[126.9446,37.92495]]]}},{"type":"Feature","properties":{"valleyId":"gamaksan","layer":"shadow","date":"2026-08-01","timeLocal":"16:00"},"geometry":{"type":"Polygon","coordinates":[[[126.94776,37.92491],[126.94781,37.92481],[126.94788,37.92481],[126.94788,37.92488],[126.94783,37.92491],[126.94776,37.92491]]]}},{"type":"Feature","properties":{"valleyId":"gamaksan","layer":"shadow","date":"2026-08-01","timeLocal":"16:00"},"geometry":{"type":"Polygon","coordinates":[[[126.94757,37.92464],[126.94755,37.92457],[126.94764,37.92455],[126.94763,37.92464],[126.94757,37.92464]]]}},{"type":"Feature","properties":{"valleyId":"gamaksan","layer":"shadow","date":"2026-08-01","timeLocal":"16:00"},"geometry":{"type":"Polygon","coordinates":[[[126.94798,37.92459],[126.94798,37.92452],[126.94805,37.92452],[126.94805,37.92459],[126.94798,37.92459]]]}},{"type":"Feature","properties":{"valleyId":"gamaksan","layer":"shadow","date":"2026-08-01","timeLocal":"16:00"},"geometry":{"type":"Polygon","coordinates":[[[126.94775,37.92452],[126.94775,37.92446],[126.94782,37.92446],[126.94782,37.92452],[126.94775,37.92452]]]}},{"type":"Feature","properties":{"valleyId":"gamaksan","layer":"shadow","date":"2026-08-01","timeLocal":"16:00"},"geometry":{"type":"Polygon","coordinates":[[[126.94924,37.92434],[126.94924,37.92429],[126.94933,37.92427],[126.94933,37.92422],[126.94949,37.92422],[126.94951,37.92431],[126.94924,37.92434]]]}},{"type":"Feature","properties":{"valleyId":"gamaksan","layer":"shadow","date":"2026-08-01","timeLocal":"16:00"},"geometry":{"type":"Polygon","coordinates":[[[126.94817,37.92407],[126.94818,37.92398],[126.94824,37.92398],[126.94824,37.92407],[126.94817,37.92407]]]}},{"type":"Feature","properties":{"valleyId":"gamaksan","layer":"shadow","date":"2026-08-01","timeLocal":"16:00"},"geometry":{"type":"Polygon","coordinates":[[[126.94886,37.92401],[126.94886,37.92396],[126.94893,37.92396],[126.94893,37.92401],[126.94886,37.92401]]]}},{"type":"Feature","properties":{"valleyId":"gamaksan","layer":"shadow","date":"2026-08-01","timeLocal":"16:00"},"geometry":{"type":"Polygon","coordinates":[[[126.94896,37.92351],[126.94896,37.92346],[126.94903,37.92346],[126.94903,37.92351],[126.94896,37.92351]]]}},{"type":"Feature","properties":{"valleyId":"gamaksan","layer":"shadow","date":"2026-08-01","timeLocal":"16:00"},"geometry":{"type":"Polygon","coordinates":[[[126.94929,37.92305],[126.9493,37.92296],[126.94936,37.92296],[126.94936,37.92305],[126.94929,37.92305]]]}},{"type":"Feature","properties":{"valleyId":"gamaksan","layer":"shadow","date":"2026-08-01","timeLocal":"16:00"},"geometry":{"type":"Polygon","coordinates":[[[126.95203,37.92282],[126.95203,37.92273],[126.9521,37.92274],[126.9521,37.92283],[126.95203,37.92282]]]}}]}
