{"type":"FeatureCollection","metadata":{"description":"개방지(CHM ≤ 2 m)에 드리운 나무·지형 그림자, 2026-08-01 10:00 KST. canopy 위에 겹쳐 그린다","source":"위성 기반 추정 — Copernicus GLO-30 지형(30 m) + Meta/WRI 수관 높이(1 m CHM, 2019 촬영). 그늘 = 수관(CHM > 2 m) ∪ 나무·지형 그림자 ∪ 원거리 지형 마스크. 현장과 다를 수 있음.","datasetVersion":"2026-09-06.0","collectedAt":"2026-09-06","coordinateOrder":"[longitude, latitude]","crs":"EPSG:4326","representativeDate":"2026-08-01","hours":["10:00","11:00","12:00","13:00","14:00","15:00","16:00","17:00","18:00"],"chmAcquisition":["2019-03"],"assets":{"glo30":{"dataset":"Copernicus DEM GLO-30 (COG, s3://copernicus-dem-30m)","tiles":["Copernicus_DSM_COG_10_N37_00_E126_00_DEM","Copernicus_DSM_COG_10_N37_00_E127_00_DEM"]},"chm":{"dataset":"Meta/WRI Global Canopy Height Map v1 (alsgedi_global_v6_float, 1 m, CC-BY 4.0)","quadkeys":["132110302"],"acquisition":["2019-03"]}},"method":{"gridResM":2,"canopyThresholdM":2,"bufferHalfM":25,"corridorHalfM":200,"simplifyTolM":2,"minAreaM2":25,"coordDecimals":5},"generator":"scripts/shade 0.1.0","builtAt":"2026-09-06T06:08:22Z","layer":"shadow","timeLocal":"10:00"},"features":[{"type":"Feature","properties":{"valleyId":"gamaksan","layer":"shadow","date":"2026-08-01","timeLocal":"10:00"},"geometry":{"type":"Polygon","coordinates":[[[126.94482,37.9417],[126.94482,37.94164],[126.94489,37.94164],[126.94488,37.9417],[126.94482,37.9417]]]}},{"type":"Feature","properties":{"valleyId":"gamaksan","layer":"shadow","date":"2026-08-01","timeLocal":"10:00"},"geometry":{"type":"Polygon","coordinates":[[[126.94314,37.94122],[126.9431,37.94118],[126.9431,37.94112],[126.94319,37.94113],[126.94326,37.94116],[126.94326,37.94122],[126.94314,37.94122]]]}},{"type":"Feature","properties":{"valleyId":"gamaksan","layer":"shadow","date":"2026-08-01","timeLocal":"10:00"},"geometry":{"type":"Polygon","coordinates":[[[126.94261,37.9385],[126.94261,37.93843],[126.9427,37.93843],[126.9427,37.9385],[126.94261,37.9385]]]}},{"type":"Feature","properties":{"valleyId":"gamaksan","layer":"shadow","date":"2026-08-01","timeLocal":"10:00"},"geometry":{"type":"Polygon","coordinates":[[[126.94982,37.93784],[126.94982,37.93776],[126.94991,37.93777],[126.94991,37.93784],[126.94982,37.93784]]]}},{"type":"Feature","properties":{"valleyId":"gamaksan","layer":"shadow","date":"2026-08-01","timeLocal":"10:00"},"geometry":{"type":"Polygon","coordinates":[[[126.94948,37.93776],[126.94948,37.9377],[126.94957,37.93771],[126.94957,37.93776],[126.94948,37.93776]]]}},{"type":"Feature","properties":{"valleyId":"gamaksan","layer":"shadow","date":"2026-08-01","timeLocal":"10:00"},"geometry":{"type":"Polygon","coordinates":[[[126.94469,37.93648],[126.94467,37.93638],[126.94474,37.93638],[126.94476,37.93649],[126.94469,37.93648]]]}},{"type":"Feature","properties":{"valleyId":"gamaksan","layer":"shadow","date":"2026-08-01","timeLocal":"10:00"},"geometry":{"type":"Polygon","coordinates":[[[126.94447,37.93616],[126.94447,37.9361],[126.94454,37.9361],[126.94454,37.93616],[126.94447,37.93616]]]}},{"type":"Feature","properties":{"valleyId":"gamaksan","layer":"shadow","date":"2026-08-01","timeLocal":"10:00"},"geometry":{"type":"Polygon","coordinates":[[[126.94429,37.93588],[126.94427,37.93579],[126.94434,37.93579],[126.94436,37.93588],[126.94429,37.93588]]]}},{"type":"Feature","properties":{"valleyId":"gamaksan","layer":"shadow","date":"2026-08-01","timeLocal":"10:00"},"geometry":{"type":"Polygon","coordinates":[[[126.94416,37.93566],[126.94414,37.93556],[126.94421,37.93556],[126.94423,37.93567],[126.94416,37.93566]]]}},{"type":"Feature","properties":{"valleyId":"gamaksan","layer":"shadow","date":"2026-08-01","timeLocal":"10:00"},"geometry":{"type":"Polygon","coordinates":[[[126.94879,37.93479],[126.94884,37.93461],[126.9489,37.93461],[126.94888,37.93472],[126.94895,37.93474],[126.94894,37.93479],[126.94879,37.93479]]]}},{"type":"Feature","properties":{"valleyId":"gamaksan","layer":"shadow","date":"2026-08-01","timeLocal":"10:00"},"geometry":{"type":"Polygon","coordinates":[[[126.94797,37.93449],[126.94798,37.93442],[126.94804,37.93442],[126.94804,37.93449],[126.94797,37.93449]]]}},{"type":"Feature","properties":{"valleyId":"gamaksan","layer":"shadow","date":"2026-08-01","timeLocal":"10:00"},"geometry":{"type":"Polygon","coordinates":[[[126.9481,37.93408],[126.9481,37.93402],[126.94819,37.93402],[126.94819,37.93408],[126.9481,37.93408]]]}},{"type":"Feature","properties":{"valleyId":"gamaksan","layer":"shadow","date":"2026-08-01","timeLocal":"10:00"},"geometry":{"type":"Polygon","coordinates":[[[126.94796,37.93405],[126.94797,37.934],[126.94806,37.934],[126.94805,37.93406],[126.94796,37.93405]]]}},{"type":"Feature","properties":{"valleyId":"gamaksan","layer":"shadow","date":"2026-08-01","timeLocal":"10:00"},"geometry":{"type":"Polygon","coordinates":[[[126.94784,37.93351],[126.94784,37.93346],[126.94791,37.93346],[126.94791,37.93351],[126.94784,37.93351]]]}},{"type":"Feature","properties":{"valleyId":"gamaksan","layer":"shadow","date":"2026-08-01","timeLocal":"10:00"},"geometry":{"type":"Polygon","coordinates":[[[126.9483,37.93354],[126.9483,37.93345],[126.94839,37.93345],[126.94839,37.93354],[126.9483,37.93354]]]}},{"type":"Feature","properties":{"valleyId":"gamaksan","layer":"shadow","date":"2026-08-01","timeLocal":"10:00"},"geometry":{"type":"Polygon","coordinates":[[[126.94873,37.93342],[126.94876,37.93331],[126.94883,37.93331],[126.94882,37.9334],[126.94873,37.93342]]]}},{"type":"Feature","properties":{"valleyId":"gamaksan","layer":"shadow","date":"2026-08-01","timeLocal":"10:00"},"geometry":{"type":"Polygon","coordinates":[[[126.94692,37.93056],[126.94695,37.93043],[126.94702,37.93043],[126.94699,37.93056],[126.94692,37.93056]]]}},{"type":"Feature","properties":{"valleyId":"gamaksan","layer":"shadow","date":"2026-08-01","timeLocal":"10:00"},"geometry":{"type":"Polygon","coordinates":[[[126.94887,37.92436],[126.9489,37.92428],[126.94901,37.92427],[126.94901,37.92434],[126.94887,37.92436]]]}},{"type":"Feature","properties":{"valleyId":"gamaksan","layer":"shadow","date":"2026-08-01","timeLocal":"10:00"},"geometry":{"type":"Polygon","coordinates":[[[126.95,37.92299],[126.95,37.92292],[126.95007,37.92292],[126.95007,37.92299],[126.95,37.92299]]]}}]}
