{"type":"FeatureCollection","metadata":{"description":"개방지(CHM ≤ 2 m)에 드리운 나무·지형 그림자, 2026-08-01 17:00 KST. canopy 위에 겹쳐 그린다","source":"위성 기반 추정 — Copernicus GLO-30 지형(30 m) + Meta/WRI 수관 높이(1 m CHM, 2019 촬영). 그늘 = 수관(CHM > 2 m) ∪ 나무·지형 그림자 ∪ 원거리 지형 마스크. 현장과 다를 수 있음.","datasetVersion":"2026-09-06.0","collectedAt":"2026-09-06","coordinateOrder":"[longitude, latitude]","crs":"EPSG:4326","representativeDate":"2026-08-01","hours":["10:00","11:00","12:00","13:00","14:00","15:00","16:00","17:00","18:00"],"chmAcquisition":["2019-03"],"assets":{"glo30":{"dataset":"Copernicus DEM GLO-30 (COG, s3://copernicus-dem-30m)","tiles":["Copernicus_DSM_COG_10_N37_00_E126_00_DEM","Copernicus_DSM_COG_10_N37_00_E127_00_DEM"]},"chm":{"dataset":"Meta/WRI Global Canopy Height Map v1 (alsgedi_global_v6_float, 1 m, CC-BY 4.0)","quadkeys":["132110302"],"acquisition":["2019-03"]}},"method":{"gridResM":2,"canopyThresholdM":2,"bufferHalfM":25,"corridorHalfM":200,"simplifyTolM":2,"minAreaM2":25,"coordDecimals":5},"generator":"scripts/shade 0.1.0","builtAt":"2026-09-06T06:08:22Z","layer":"shadow","timeLocal":"17:00"},"features":[{"type":"Feature","properties":{"valleyId":"gamaksan","layer":"shadow","date":"2026-08-01","timeLocal":"17:00"},"geometry":{"type":"Polygon","coordinates":[[[126.97109,37.94372],[126.97109,37.94365],[126.97116,37.94365],[126.97116,37.94372],[126.97109,37.94372]]]}},{"type":"Feature","properties":{"valleyId":"gamaksan","layer":"shadow","date":"2026-08-01","timeLocal":"17:00"},"geometry":{"type":"Polygon","coordinates":[[[126.97109,37.94276],[126.9711,37.94271],[126.97116,37.94271],[126.97116,37.94277],[126.97109,37.94276]]]}},{"type":"Feature","properties":{"valleyId":"gamaksan","layer":"shadow","date":"2026-08-01","timeLocal":"17:00"},"geometry":{"type":"Polygon","coordinates":[[[126.97177,37.94215],[126.97177,37.94209],[126.97186,37.94209],[126.97186,37.94215],[126.97177,37.94215]]]}},{"type":"Feature","properties":{"valleyId":"gamaksan","layer":"shadow","date":"2026-08-01","timeLocal":"17:00"},"geometry":{"type":"Polygon","coordinates":[[[126.97133,37.94151],[126.97134,37.94145],[126.9714,37.94145],[126.9714,37.94151],[126.97133,37.94151]]]}},{"type":"Feature","properties":{"valleyId":"gamaksan","layer":"shadow","date":"2026-08-01","timeLocal":"17:00"},"geometry":{"type":"Polygon","coordinates":[[[126.97029,37.94149],[126.97029,37.94138],[126.97036,37.94138],[126.97036,37.94149],[126.97029,37.94149]]]}},{"type":"Feature","properties":{"valleyId":"gamaksan","layer":"shadow","date":"2026-08-01","timeLocal":"17:00"},"geometry":{"type":"Polygon","coordinates":[[[126.97168,37.94135],[126.97164,37.94131],[126.97164,37.94126],[126.97168,37.94126],[126.97171,37.94121],[126.97177,37.94121],[126.97175,37.94135],[126.97168,37.94135]]]}},{"type":"Feature","properties":{"valleyId":"gamaksan","layer":"shadow","date":"2026-08-01","timeLocal":"17:00"},"geometry":{"type":"Polygon","coordinates":[[[126.97025,37.94127],[126.97027,37.94116],[126.97039,37.94117],[126.97039,37.94122],[126.97032,37.94122],[126.97032,37.94127],[126.97025,37.94127]]]}},{"type":"Feature","properties":{"valleyId":"gamaksan","layer":"shadow","date":"2026-08-01","timeLocal":"17:00"},"geometry":{"type":"Polygon","coordinates":[[[126.97059,37.94121],[126.97059,37.94117],[126.97046,37.94117],[126.97046,37.94113],[126.97032,37.94111],[126.97032,37.94099],[126.97053,37.94099],[126.97053,37.94102],[126.97057,37.94103],[126.97066,37.9411],[126.97066,37.94121],[126.97059,37.94121]]]}},{"type":"Feature","properties":{"valleyId":"gamaksan","layer":"shadow","date":"2026-08-01","timeLocal":"17:00"},"geometry":{"type":"Polygon","coordinates":[[[126.94346,37.94052],[126.94346,37.94046],[126.94353,37.94047],[126.94353,37.94052],[126.94346,37.94052]]]}},{"type":"Feature","properties":{"valleyId":"gamaksan","layer":"shadow","date":"2026-08-01","timeLocal":"17:00"},"geometry":{"type":"Polygon","coordinates":[[[126.97187,37.94098],[126.97185,37.94092],[126.97174,37.9409],[126.97174,37.94085],[126.97188,37.94085],[126.97192,37.94089],[126.97194,37.94098],[126.97187,37.94098]]]}},{"type":"Feature","properties":{"valleyId":"gamaksan","layer":"shadow","date":"2026-08-01","timeLocal":"17:00"},"geometry":{"type":"Polygon","coordinates":[[[126.97067,37.94097],[126.97065,37.94086],[126.97053,37.94081],[126.97054,37.94075],[126.97058,37.94072],[126.97076,37.94074],[126.97076,37.94079],[126.97072,37.94083],[126.97073,37.94097],[126.97067,37.94097]]]}},{"type":"Feature","properties":{"valleyId":"gamaksan","layer":"shadow","date":"2026-08-01","timeLocal":"17:00"},"geometry":{"type":"Polygon","coordinates":[[[126.96968,37.94038],[126.96968,37.94033],[126.96975,37.94033],[126.96975,37.94038],[126.96968,37.94038]]]}},{"type":"Feature","properties":{"valleyId":"gamaksan","layer":"shadow","date":"2026-08-01","timeLocal":"17:00"},"geometry":{"type":"Polygon","coordinates":[[[126.9707,37.94045],[126.97061,37.94043],[126.97059,37.94032],[126.97086,37.94036],[126.97086,37.94042],[126.97082,37.94045],[126.9707,37.94045]]]}},{"type":"Feature","properties":{"valleyId":"gamaksan","layer":"shadow","date":"2026-08-01","timeLocal":"17:00"},"geometry":{"type":"Polygon","coordinates":[[[126.94152,37.93919],[126.94145,37.93915],[126.94148,37.93904],[126.94159,37.93904],[126.94166,37.9391],[126.94165,37.93915],[126.94152,37.93919]]]}},{"type":"Feature","properties":{"valleyId":"gamaksan","layer":"shadow","date":"2026-08-01","timeLocal":"17:00"},"geometry":{"type":"Polygon","coordinates":[[[126.9424,37.94106],[126.9422,37.94091],[126.94215,37.94091],[126.94189,37.94069],[126.94189,37.94065],[126.94175,37.94054],[126.94173,37.94045],[126.94169,37.94042],[126.94169,37.94034],[126.94165,37.94031],[126.94165,37.9402],[126.94174,37.94013],[126.94174,37.94007],[126.94168,37.93996],[126.94163,37.93995],[126.94163,37.93987],[126.94171,37.9398],[126.94175,37.9398],[126.94175,37.93968],[126.94185,37.93961],[126.94187,37.93952],[126.94192,37.9395],[126.94192,37.93939],[126.94201,37.93938],[126.94213,37.93929],[126.94209,37.93903],[126.94218,37.93904],[126.9422,37.93916],[126.94236,37.93926],[126.94245,37.93926],[126.94245,37.93919],[126.94256,37.93919],[126.94251,37.93933],[126.94269,37.93944],[126.94266,37.93975],[126.94262,37.93975],[126.94257,37.93985],[126.94245,37.93989],[126.9425,37.94001],[126.94248,37.94041],[126.94235,37.94041],[126.94232,37.94052],[126.94228,37.94055],[126.9423,37.94068],[126.94248,37.94068],[126.94247,37.94106],[126.9424,37.94106]]]}},{"type":"Feature","properties":{"valleyId":"gamaksan","layer":"shadow","date":"2026-08-01","timeLocal":"17:00"},"geometry":{"type":"Polygon","coordinates":[[[126.94166,37.93885],[126.94164,37.93872],[126.94174,37.93858],[126.94181,37.93858],[126.94183,37.93865],[126.94187,37.93865],[126.94187,37.93876],[126.94173,37.93878],[126.94173,37.93885],[126.94166,37.93885]]]}},{"type":"Feature","properties":{"valleyId":"gamaksan","layer":"shadow","date":"2026-08-01","timeLocal":"17:00"},"geometry":{"type":"Polygon","coordinates":[[[126.94181,37.93856],[126.94181,37.93851],[126.94188,37.93851],[126.94188,37.93856],[126.94181,37.93856]]]}},{"type":"Feature","properties":{"valleyId":"gamaksan","layer":"shadow","date":"2026-08-01","timeLocal":"17:00"},"geometry":{"type":"Polygon","coordinates":[[[126.94599,37.93961],[126.94602,37.93945],[126.94606,37.93945],[126.94606,37.93937],[126.94613,37.93936],[126.94621,37.93916],[126.94635,37.939],[126.94638,37.93871],[126.94654,37.93861],[126.94654,37.9385],[126.94659,37.93848],[126.94662,37.93832],[126.94648,37.93825],[126.94648,37.93817],[126.94651,37.93814],[126.94658,37.93814],[126.9466,37.93818],[126.94671,37.93821],[126.94671,37.93827],[126.94675,37.93831],[126.9468,37.93831],[126.9468,37.93838],[126.94677,37.93841],[126.94673,37.93841],[126.94673,37.93847],[126.94668,37.9385],[126.94668,37.93861],[126.94656,37.93868],[126.94649,37.93881],[126.94648,37.93902],[126.94641,37.93907],[126.94641,37.93927],[126.94636,37.93927],[126.94632,37.93932],[126.94616,37.93936],[126.94615,37.93947],[126.94606,37.93954],[126.94606,37.93961],[126.94599,37.93961]]]}},{"type":"Feature","properties":{"valleyId":"gamaksan","layer":"shadow","date":"2026-08-01","timeLocal":"17:00"},"geometry":{"type":"Polygon","coordinates":[[[126.94617,37.93808],[126.94617,37.93802],[126.94624,37.93803],[126.94624,37.93808],[126.94617,37.93808]]]}},{"type":"Feature","properties":{"valleyId":"gamaksan","layer":"shadow","date":"2026-08-01","timeLocal":"17:00"},"geometry":{"type":"Polygon","coordinates":[[[126.94353,37.938],[126.94353,37.93794],[126.9436,37.93794],[126.9436,37.938],[126.94353,37.938]]]}},{"type":"Feature","properties":{"valleyId":"gamaksan","layer":"shadow","date":"2026-08-01","timeLocal":"17:00"},"geometry":{"type":"Polygon","coordinates":[[[126.94637,37.93817],[126.94626,37.93813],[126.94626,37.93808],[126.9463,37.93808],[126.94631,37.93803],[126.94626,37.93803],[126.94626,37.93795],[126.94633,37.93792],[126.94633,37.93785],[126.94624,37.93783],[126.94627,37.93768],[126.94634,37.93768],[126.94636,37.93778],[126.94643,37.93783],[126.94644,37.93805],[126.9464,37.93805],[126.94639,37.93812],[126.94644,37.93812],[126.94644,37.93817],[126.94637,37.93817]]]}},{"type":"Feature","properties":{"valleyId":"gamaksan","layer":"shadow","date":"2026-08-01","timeLocal":"17:00"},"geometry":{"type":"Polygon","coordinates":[[[126.94797,37.93728],[126.94797,37.93721],[126.94804,37.93721],[126.94803,37.93728],[126.94797,37.93728]]]}},{"type":"Feature","properties":{"valleyId":"gamaksan","layer":"shadow","date":"2026-08-01","timeLocal":"17:00"},"geometry":{"type":"Polygon","coordinates":[[[126.946,37.93766],[126.946,37.93759],[126.94595,37.93759],[126.94598,37.93748],[126.94587,37.93739],[126.94585,37.93732],[126.94587,37.93719],[126.94581,37.93719],[126.94581,37.93703],[126.94613,37.93705],[126.94613,37.9371],[126.94601,37.93714],[126.94594,37.93721],[126.94594,37.93726],[126.9461,37.9373],[126.94612,37.93736],[126.94612,37.9375],[126.94605,37.93754],[126.94607,37.93766],[126.946,37.93766]]]}},{"type":"Feature","properties":{"valleyId":"gamaksan","layer":"shadow","date":"2026-08-01","timeLocal":"17:00"},"geometry":{"type":"Polygon","coordinates":[[[126.94724,37.937],[126.9472,37.93698],[126.9472,37.93691],[126.94732,37.93689],[126.94731,37.937],[126.94724,37.937]]]}},{"type":"Feature","properties":{"valleyId":"gamaksan","layer":"shadow","date":"2026-08-01","timeLocal":"17:00"},"geometry":{"type":"Polygon","coordinates":[[[126.94549,37.93693],[126.94555,37.93675],[126.94566,37.93675],[126.94566,37.93672],[126.94575,37.93672],[126.94577,37.93668],[126.94578,37.93658],[126.94573,37.93654],[126.94573,37.93648],[126.9458,37.93647],[126.9458,37.93641],[126.94576,37.93641],[126.94576,37.93634],[126.94581,37.93634],[126.9459,37.93627],[126.94597,37.93627],[126.94591,37.93656],[126.94594,37.9366],[126.94609,37.93664],[126.94607,37.93678],[126.94598,37.93678],[126.94598,37.93683],[126.94591,37.93683],[126.94591,37.93661],[126.94584,37.93661],[126.94584,37.93679],[126.94579,37.93683],[126.94579,37.93688],[126.94561,37.93688],[126.94561,37.93692],[126.94549,37.93693]]]}},{"type":"Feature","properties":{"valleyId":"gamaksan","layer":"shadow","date":"2026-08-01","timeLocal":"17:00"},"geometry":{"type":"Polygon","coordinates":[[[126.94416,37.93907],[126.94421,37.93886],[126.9443,37.93884],[126.94433,37.9388],[126.94433,37.93873],[126.94426,37.93864],[126.94429,37.9385],[126.94425,37.93848],[126.94425,37.93842],[126.94432,37.93839],[126.9443,37.93817],[126.94428,37.93812],[126.94421,37.93808],[126.94421,37.93801],[126.94433,37.93801],[126.94433,37.93792],[126.94426,37.9379],[126.94429,37.93763],[126.9442,37.93758],[126.9442,37.93749],[126.94412,37.93732],[126.9441,37.93714],[126.94403,37.93709],[126.94399,37.93709],[126.94399,37.93698],[126.94388,37.93689],[126.94391,37.93674],[126.94379,37.93672],[126.94377,37.93667],[126.94378,37.9365],[126.94382,37.93647],[126.94381,37.93631],[126.94386,37.93615],[126.94397,37.93615],[126.94397,37.93611],[126.94431,37.93612],[126.9443,37.93639],[126.94396,37.93642],[126.94396,37.93647],[126.94414,37.93651],[126.94414,37.93658],[126.94407,37.93662],[126.94407,37.93678],[126.94415,37.93693],[126.94429,37.93693],[126.94429,37.937],[126.9444,37.93704],[126.9444,37.93713],[126.94446,37.93717],[126.94446,37.9372],[126.94462,37.9372],[126.94463,37.93791],[126.94467,37.93791],[126.94467,37.93796],[126.94471,37.93796],[126.94471,37.938],[126.94494,37.93802],[126.94493,37.93829],[126.94477,37.93829],[126.94475,37.93843],[126.94463,37.93845],[126.94459,37.93848],[126.94458,37.93883],[126.94444,37.93882],[126.94437,37.93888],[126.94433,37.93888],[126.94425,37.93905],[126.94416,37.93907]]]}},{"type":"Feature","properties":{"valleyId":"gamaksan","layer":"shadow","date":"2026-08-01","timeLocal":"17:00"},"geometry":{"type":"Polygon","coordinates":[[[126.94599,37.93627],[126.94604,37.93608],[126.94609,37.93604],[126.94609,37.9359],[126.946,37.93584],[126.94599,37.93561],[126.94592,37.93557],[126.94592,37.93553],[126.94585,37.93551],[126.94585,37.93546],[126.94599,37.93548],[126.94603,37.93553],[126.9461,37.93554],[126.94617,37.93559],[126.94637,37.93558],[126.94636,37.93615],[126.94613,37.93613],[126.94608,37.93626],[126.94599,37.93627]]]}},{"type":"Feature","properties":{"valleyId":"gamaksan","layer":"shadow","date":"2026-08-01","timeLocal":"17:00"},"geometry":{"type":"Polygon","coordinates":[[[126.94986,37.93553],[126.94986,37.93546],[126.94993,37.93546],[126.94993,37.93553],[126.94986,37.93553]]]}},{"type":"Feature","properties":{"valleyId":"gamaksan","layer":"shadow","date":"2026-08-01","timeLocal":"17:00"},"geometry":{"type":"Polygon","coordinates":[[[126.94686,37.93546],[126.9469,37.93535],[126.94697,37.93535],[126.94695,37.93544],[126.94686,37.93546]]]}},{"type":"Feature","properties":{"valleyId":"gamaksan","layer":"shadow","date":"2026-08-01","timeLocal":"17:00"},"geometry":{"type":"Polygon","coordinates":[[[126.94997,37.93539],[126.94998,37.93533],[126.95004,37.93533],[126.95004,37.93539],[126.94997,37.93539]]]}},{"type":"Feature","properties":{"valleyId":"gamaksan","layer":"shadow","date":"2026-08-01","timeLocal":"17:00"},"geometry":{"type":"Polygon","coordinates":[[[126.94702,37.93532],[126.94702,37.93526],[126.94709,37.93521],[126.94709,37.93517],[126.94714,37.93514],[126.94725,37.93514],[126.9472,37.93525],[126.94716,37.93525],[126.94711,37.93532],[126.94702,37.93532]]]}},{"type":"Feature","properties":{"valleyId":"gamaksan","layer":"shadow","date":"2026-08-01","timeLocal":"17:00"},"geometry":{"type":"Polygon","coordinates":[[[126.94572,37.93533],[126.94568,37.93528],[126.94568,37.93519],[126.94559,37.93515],[126.94559,37.93509],[126.94568,37.93506],[126.94573,37.93497],[126.9458,37.93497],[126.9458,37.93506],[126.94573,37.93508],[126.94573,37.93513],[126.94577,37.93519],[126.94582,37.93519],[126.94581,37.93533],[126.94572,37.93533]]]}},{"type":"Feature","properties":{"valleyId":"gamaksan","layer":"shadow","date":"2026-08-01","timeLocal":"17:00"},"geometry":{"type":"Polygon","coordinates":[[[126.94703,37.93508],[126.94703,37.93498],[126.9471,37.93498],[126.94712,37.93509],[126.94703,37.93508]]]}},{"type":"Feature","properties":{"valleyId":"gamaksan","layer":"shadow","date":"2026-08-01","timeLocal":"17:00"},"geometry":{"type":"Polygon","coordinates":[[[126.9473,37.93509],[126.94732,37.93498],[126.94744,37.93496],[126.94744,37.93504],[126.94739,37.93504],[126.94737,37.93509],[126.9473,37.93509]]]}},{"type":"Feature","properties":{"valleyId":"gamaksan","layer":"shadow","date":"2026-08-01","timeLocal":"17:00"},"geometry":{"type":"Polygon","coordinates":[[[126.95005,37.93528],[126.95007,37.93519],[126.95019,37.93516],[126.95021,37.93494],[126.95037,37.93493],[126.95039,37.93505],[126.95033,37.93505],[126.95032,37.93512],[126.95021,37.93523],[126.95021,37.93528],[126.95005,37.93528]]]}},{"type":"Feature","properties":{"valleyId":"gamaksan","layer":"shadow","date":"2026-08-01","timeLocal":"17:00"},"geometry":{"type":"Polygon","coordinates":[[[126.95035,37.93491],[126.95035,37.93484],[126.95045,37.93484],[126.95044,37.93489],[126.95035,37.93491]]]}},{"type":"Feature","properties":{"valleyId":"gamaksan","layer":"shadow","date":"2026-08-01","timeLocal":"17:00"},"geometry":{"type":"Polygon","coordinates":[[[126.94744,37.93495],[126.94744,37.93489],[126.94753,37.93477],[126.94754,37.93461],[126.94747,37.93455],[126.94747,37.9345],[126.94754,37.9345],[126.94765,37.93459],[126.94765,37.9347],[126.94755,37.93491],[126.94751,37.93495],[126.94744,37.93495]]]}},{"type":"Feature","properties":{"valleyId":"gamaksan","layer":"shadow","date":"2026-08-01","timeLocal":"17:00"},"geometry":{"type":"Polygon","coordinates":[[[126.94734,37.93446],[126.94734,37.9344],[126.94741,37.93441],[126.94741,37.93446],[126.94734,37.93446]]]}},{"type":"Feature","properties":{"valleyId":"gamaksan","layer":"shadow","date":"2026-08-01","timeLocal":"17:00"},"geometry":{"type":"Polygon","coordinates":[[[126.94679,37.93438],[126.94675,37.93436],[126.94675,37.9343],[126.94686,37.93432],[126.94686,37.93438],[126.94679,37.93438]]]}},{"type":"Feature","properties":{"valleyId":"gamaksan","layer":"shadow","date":"2026-08-01","timeLocal":"17:00"},"geometry":{"type":"Polygon","coordinates":[[[126.94542,37.93385],[126.94542,37.93379],[126.94549,37.9338],[126.94549,37.93385],[126.94542,37.93385]]]}},{"type":"Feature","properties":{"valleyId":"gamaksan","layer":"shadow","date":"2026-08-01","timeLocal":"17:00"},"geometry":{"type":"Polygon","coordinates":[[[126.94855,37.93347],[126.94855,37.93342],[126.94862,37.93342],[126.94862,37.93347],[126.94855,37.93347]]]}},{"type":"Feature","properties":{"valleyId":"gamaksan","layer":"shadow","date":"2026-08-01","timeLocal":"17:00"},"geometry":{"type":"Polygon","coordinates":[[[126.94782,37.93286],[126.94782,37.93281],[126.94788,37.93281],[126.94788,37.93286],[126.94782,37.93286]]]}},{"type":"Feature","properties":{"valleyId":"gamaksan","layer":"shadow","date":"2026-08-01","timeLocal":"17:00"},"geometry":{"type":"Polygon","coordinates":[[[126.94548,37.93271],[126.94548,37.93266],[126.94552,37.93262],[126.94571,37.93263],[126.9457,37.93268],[126.94561,37.93272],[126.94548,37.93271]]]}},{"type":"Feature","properties":{"valleyId":"gamaksan","layer":"shadow","date":"2026-08-01","timeLocal":"17:00"},"geometry":{"type":"Polygon","coordinates":[[[126.94573,37.93266],[126.94573,37.93261],[126.94582,37.93261],[126.94582,37.93267],[126.94573,37.93266]]]}},{"type":"Feature","properties":{"valleyId":"gamaksan","layer":"shadow","date":"2026-08-01","timeLocal":"17:00"},"geometry":{"type":"Polygon","coordinates":[[[126.94884,37.93205],[126.94882,37.93192],[126.94889,37.93193],[126.94891,37.93205],[126.94884,37.93205]]]}},{"type":"Feature","properties":{"valleyId":"gamaksan","layer":"shadow","date":"2026-08-01","timeLocal":"17:00"},"geometry":{"type":"Polygon","coordinates":[[[126.94622,37.93442],[126.94618,37.93437],[126.94605,37.93431],[126.94584,37.93429],[126.94571,37.93416],[126.94571,37.93412],[126.9456,37.93407],[126.94561,37.93378],[126.9457,37.93376],[126.94568,37.93362],[126.94586,37.93362],[126.94591,37.93359],[126.94593,37.93348],[126.946,37.93344],[126.94608,37.93317],[126.94612,37.93314],[126.94615,37.93298],[126.94625,37.93284],[126.94621,37.93262],[126.9463,37.93255],[126.94631,37.93215],[126.94627,37.93211],[126.94625,37.93202],[126.94625,37.93179],[126.94621,37.93164],[126.94614,37.93157],[126.9461,37.93157],[126.9461,37.9315],[126.94626,37.93154],[126.94641,37.9317],[126.94653,37.93174],[126.94655,37.93181],[126.94659,37.93183],[126.94659,37.93198],[126.94654,37.93203],[126.94658,37.93214],[126.94658,37.93241],[126.9465,37.93259],[126.94632,37.93266],[126.94632,37.93271],[126.94643,37.93273],[126.94643,37.93293],[126.94633,37.933],[126.9463,37.93318],[126.94644,37.93318],[126.94641,37.93426],[126.9463,37.9343],[126.94634,37.93442],[126.94622,37.93442]]]}},{"type":"Feature","properties":{"valleyId":"gamaksan","layer":"shadow","date":"2026-08-01","timeLocal":"17:00"},"geometry":{"type":"Polygon","coordinates":[[[126.94589,37.93155],[126.94587,37.93146],[126.94597,37.93146],[126.94599,37.93155],[126.94589,37.93155]]]}},{"type":"Feature","properties":{"valleyId":"gamaksan","layer":"shadow","date":"2026-08-01","timeLocal":"17:00"},"geometry":{"type":"Polygon","coordinates":[[[126.94842,37.93089],[126.94842,37.93084],[126.94849,37.93084],[126.94848,37.93089],[126.94842,37.93089]]]}},{"type":"Feature","properties":{"valleyId":"gamaksan","layer":"shadow","date":"2026-08-01","timeLocal":"17:00"},"geometry":{"type":"Polygon","coordinates":[[[126.94622,37.92977],[126.94622,37.9297],[126.94629,37.9297],[126.94629,37.92977],[126.94622,37.92977]]]}},{"type":"Feature","properties":{"valleyId":"gamaksan","layer":"shadow","date":"2026-08-01","timeLocal":"17:00"},"geometry":{"type":"Polygon","coordinates":[[[126.94386,37.92937],[126.94386,37.92932],[126.94393,37.92932],[126.94393,37.92937],[126.94386,37.92937]]]}},{"type":"Feature","properties":{"valleyId":"gamaksan","layer":"shadow","date":"2026-08-01","timeLocal":"17:00"},"geometry":{"type":"Polygon","coordinates":[[[126.94398,37.9291],[126.94398,37.92905],[126.94405,37.92905],[126.94405,37.9291],[126.94398,37.9291]]]}},{"type":"Feature","properties":{"valleyId":"gamaksan","layer":"shadow","date":"2026-08-01","timeLocal":"17:00"},"geometry":{"type":"Polygon","coordinates":[[[126.94654,37.92954],[126.94657,37.92943],[126.94661,37.92942],[126.94664,37.92933],[126.94669,37.92931],[126.94669,37.92924],[126.94673,37.92922],[126.94673,37.92917],[126.94678,37.92917],[126.94679,37.92895],[126.94685,37.92895],[126.94686,37.92884],[126.94697,37.92883],[126.94697,37.92895],[126.94687,37.92904],[126.94687,37.92921],[126.94682,37.92924],[126.94682,37.92929],[126.94678,37.92929],[126.94678,37.92935],[126.94673,37.92937],[126.94673,37.9294],[126.94668,37.9294],[126.94668,37.92951],[126.94654,37.92954]]]}},{"type":"Feature","properties":{"valleyId":"gamaksan","layer":"shadow","date":"2026-08-01","timeLocal":"17:00"},"geometry":{"type":"Polygon","coordinates":[[[126.94697,37.92881],[126.94697,37.92876],[126.94704,37.92876],[126.94704,37.92881],[126.94697,37.92881]]]}},{"type":"Feature","properties":{"valleyId":"gamaksan","layer":"shadow","date":"2026-08-01","timeLocal":"17:00"},"geometry":{"type":"Polygon","coordinates":[[[126.9479,37.92821],[126.94795,37.92802],[126.94804,37.92802],[126.94804,37.92816],[126.94797,37.92822],[126.9479,37.92821]]]}},{"type":"Feature","properties":{"valleyId":"gamaksan","layer":"shadow","date":"2026-08-01","timeLocal":"17:00"},"geometry":{"type":"Polygon","coordinates":[[[126.94584,37.92773],[126.94584,37.92767],[126.94591,37.92767],[126.94591,37.92773],[126.94584,37.92773]]]}},{"type":"Feature","properties":{"valleyId":"gamaksan","layer":"shadow","date":"2026-08-01","timeLocal":"17:00"},"geometry":{"type":"Polygon","coordinates":[[[126.94582,37.92753],[126.94583,37.92747],[126.94589,37.92748],[126.94589,37.92753],[126.94582,37.92753]]]}},{"type":"Feature","properties":{"valleyId":"gamaksan","layer":"shadow","date":"2026-08-01","timeLocal":"17:00"},"geometry":{"type":"Polygon","coordinates":[[[126.9453,37.93158],[126.94528,37.93154],[126.94512,37.9315],[126.94512,37.93146],[126.94496,37.93144],[126.94492,37.93137],[126.94488,37.93137],[126.94488,37.9313],[126.94492,37.93126],[126.94495,37.93101],[126.94505,37.93098],[126.9453,37.93098],[126.94537,37.93093],[126.94535,37.93078],[126.94528,37.93067],[126.94515,37.93056],[126.94504,37.93036],[126.9449,37.93032],[126.94489,37.93022],[126.94466,37.9301],[126.94464,37.93],[126.9448,37.93002],[126.94482,37.92996],[126.94483,37.92989],[126.94476,37.9298],[126.94476,37.92971],[126.94472,37.92971],[126.9447,37.92967],[126.9447,37.92953],[126.94463,37.92947],[126.94463,37.92944],[126.94445,37.92943],[126.94436,37.92936],[126.94432,37.92936],[126.9443,37.92927],[126.94425,37.92923],[126.94426,37.92914],[126.94421,37.92912],[126.94421,37.92905],[126.94428,37.92905],[126.94437,37.92913],[126.94448,37.92913],[126.94466,37.92922],[126.94478,37.92922],[126.94478,37.92911],[126.94489,37.92912],[126.94496,37.92915],[126.94505,37.92916],[126.94507,37.92912],[126.94512,37.92912],[126.94517,37.92887],[126.94522,37.92883],[126.94524,37.92874],[126.94529,37.92873],[126.9453,37.92857],[126.94534,37.92855],[126.94534,37.92844],[126.94528,37.92842],[126.94519,37.92827],[126.94519,37.92822],[126.94526,37.92802],[126.94531,37.92801],[126.94536,37.92777],[126.94543,37.92774],[126.94543,37.92763],[126.94539,37.92759],[126.94535,37.9273],[126.94522,37.92723],[126.94516,37.92699],[126.94527,37.92701],[126.94527,37.9271],[126.9454,37.92727],[126.94562,37.92735],[126.94562,37.92738],[126.94571,37.92742],[126.94569,37.92756],[126.9458,37.92756],[126.9458,37.92765],[126.94575,37.92765],[126.94575,37.92787],[126.94572,37.92791],[126.94568,37.9279],[126.94568,37.92794],[126.94558,37.92798],[126.9456,37.92812],[126.94556,37.92812],[126.94555,37.9283],[126.94546,37.9283],[126.94545,37.92868],[126.94538,37.9288],[126.94537,37.929],[126.94533,37.92903],[126.94533,37.92911],[126.94526,37.92912],[126.94528,37.92925],[126.94518,37.92928],[126.94517,37.92973],[126.94522,37.92975],[126.94522,37.92981],[126.94535,37.92988],[126.94535,37.92992],[126.94551,37.92992],[126.9455,37.93019],[126.94534,37.93019],[126.94532,37.93026],[126.94525,37.93028],[126.94525,37.93033],[126.94534,37.93035],[126.94534,37.93039],[126.94547,37.93039],[126.94547,37.93046],[126.94583,37.93047],[126.94583,37.93074],[126.94617,37.93074],[126.94615,37.93128],[126.94581,37.93128],[126.9458,37.93153],[126.94569,37.93153],[126.94567,37.93156],[126.94546,37.93156],[126.94547,37.93143],[126.9454,37.93141],[126.9454,37.93132],[126.94513,37.93132],[126.94515,37.93145],[126.9454,37.93149],[126.94539,37.93156],[126.9453,37.93158]],[[126.94481,37.92971],[126.94488,37.92971],[126.9449,37.92959],[126.94483,37.92958],[126.94481,37.92971]]]}},{"type":"Feature","properties":{"valleyId":"gamaksan","layer":"shadow","date":"2026-08-01","timeLocal":"17:00"},"geometry":{"type":"Polygon","coordinates":[[[126.94867,37.92652],[126.94868,37.92646],[126.94877,37.92644],[126.94877,37.9265],[126.94867,37.92652]]]}},{"type":"Feature","properties":{"valleyId":"gamaksan","layer":"shadow","date":"2026-08-01","timeLocal":"17:00"},"geometry":{"type":"Polygon","coordinates":[[[126.94493,37.9269],[126.94475,37.92684],[126.94467,37.92668],[126.94449,37.92657],[126.94447,37.9265],[126.94429,37.92635],[126.94432,37.92617],[126.94436,37.9261],[126.94448,37.9261],[126.94449,37.92635],[126.94458,37.92639],[126.94492,37.9264],[126.94491,37.9267],[126.945,37.92679],[126.945,37.9269],[126.94493,37.9269]]]}},{"type":"Feature","properties":{"valleyId":"gamaksan","layer":"shadow","date":"2026-08-01","timeLocal":"17:00"},"geometry":{"type":"Polygon","coordinates":[[[126.95053,37.92621],[126.95053,37.92613],[126.95048,37.92611],[126.95048,37.92604],[126.95055,37.92604],[126.95062,37.92613],[126.95062,37.92621],[126.95053,37.92621]]]}},{"type":"Feature","properties":{"valleyId":"gamaksan","layer":"shadow","date":"2026-08-01","timeLocal":"17:00"},"geometry":{"type":"Polygon","coordinates":[[[126.95182,37.92623],[126.95183,37.92612],[126.95178,37.92608],[126.95178,37.92597],[126.95185,37.92598],[126.95189,37.92612],[126.95189,37.92623],[126.95182,37.92623]]]}},{"type":"Feature","properties":{"valleyId":"gamaksan","layer":"shadow","date":"2026-08-01","timeLocal":"17:00"},"geometry":{"type":"Polygon","coordinates":[[[126.95033,37.92602],[126.95033,37.92599],[126.95024,37.92598],[126.95026,37.92591],[126.9504,37.92593],[126.95039,37.92602],[126.95033,37.92602]]]}},{"type":"Feature","properties":{"valleyId":"gamaksan","layer":"shadow","date":"2026-08-01","timeLocal":"17:00"},"geometry":{"type":"Polygon","coordinates":[[[126.94894,37.92578],[126.94895,37.92573],[126.94901,37.92573],[126.94901,37.92578],[126.94894,37.92578]]]}},{"type":"Feature","properties":{"valleyId":"gamaksan","layer":"shadow","date":"2026-08-01","timeLocal":"17:00"},"geometry":{"type":"Polygon","coordinates":[[[126.95163,37.92588],[126.95166,37.92568],[126.95172,37.92569],[126.95174,37.92578],[126.9517,37.92579],[126.9517,37.92588],[126.95163,37.92588]]]}},{"type":"Feature","properties":{"valleyId":"gamaksan","layer":"shadow","date":"2026-08-01","timeLocal":"17:00"},"geometry":{"type":"Polygon","coordinates":[[[126.9504,37.9259],[126.9504,37.92573],[126.95036,37.92573],[126.95034,37.92561],[126.95041,37.92561],[126.95043,37.92573],[126.95047,37.92574],[126.95049,37.92577],[126.95047,37.9259],[126.9504,37.9259]]]}},{"type":"Feature","properties":{"valleyId":"gamaksan","layer":"shadow","date":"2026-08-01","timeLocal":"17:00"},"geometry":{"type":"Polygon","coordinates":[[[126.9516,37.9253],[126.9516,37.92525],[126.95167,37.92525],[126.95167,37.92531],[126.9516,37.9253]]]}},{"type":"Feature","properties":{"valleyId":"gamaksan","layer":"shadow","date":"2026-08-01","timeLocal":"17:00"},"geometry":{"type":"Polygon","coordinates":[[[126.95146,37.92521],[126.95147,37.92516],[126.95153,37.92516],[126.95153,37.92521],[126.95146,37.92521]]]}},{"type":"Feature","properties":{"valleyId":"gamaksan","layer":"shadow","date":"2026-08-01","timeLocal":"17:00"},"geometry":{"type":"Polygon","coordinates":[[[126.94452,37.9261],[126.94452,37.92605],[126.94446,37.92605],[126.94444,37.92588],[126.94448,37.92587],[126.94449,37.92578],[126.9446,37.92571],[126.9446,37.92563],[126.94469,37.92562],[126.94476,37.92555],[126.94479,37.92544],[126.94484,37.9254],[126.94484,37.92517],[126.94476,37.92508],[126.94471,37.92508],[126.94464,37.92502],[126.94464,37.92497],[126.9446,37.92495],[126.9446,37.92482],[126.94467,37.92482],[126.94467,37.92488],[126.94496,37.92515],[126.94496,37.92524],[126.94488,37.92553],[126.94472,37.92567],[126.94467,37.92578],[126.9446,37.92581],[126.94459,37.9261],[126.94452,37.9261]]]}},{"type":"Feature","properties":{"valleyId":"gamaksan","layer":"shadow","date":"2026-08-01","timeLocal":"17:00"},"geometry":{"type":"Polygon","coordinates":[[[126.95238,37.92494],[126.95238,37.92485],[126.9525,37.92485],[126.9525,37.92492],[126.95238,37.92494]]]}},{"type":"Feature","properties":{"valleyId":"gamaksan","layer":"shadow","date":"2026-08-01","timeLocal":"17:00"},"geometry":{"type":"Polygon","coordinates":[[[126.94363,37.92462],[126.94361,37.92452],[126.94368,37.92452],[126.9437,37.92463],[126.94363,37.92462]]]}},{"type":"Feature","properties":{"valleyId":"gamaksan","layer":"shadow","date":"2026-08-01","timeLocal":"17:00"},"geometry":{"type":"Polygon","coordinates":[[[126.94776,37.92491],[126.94776,37.92486],[126.94781,37.92484],[126.94781,37.92475],[126.94768,37.92473],[126.94763,37.92466],[126.94754,37.92462],[126.94757,37.92455],[126.94766,37.92455],[126.94773,37.92461],[126.94773,37.92464],[126.94777,37.92464],[126.94777,37.92468],[126.94784,37.9247],[126.94784,37.92475],[126.94797,37.92479],[126.94795,37.92488],[126.94776,37.92491]]]}},{"type":"Feature","properties":{"valleyId":"gamaksan","layer":"shadow","date":"2026-08-01","timeLocal":"17:00"},"geometry":{"type":"Polygon","coordinates":[[[126.94798,37.92461],[126.94798,37.9245],[126.94809,37.9245],[126.94811,37.9246],[126.94798,37.92461]]]}},{"type":"Feature","properties":{"valleyId":"gamaksan","layer":"shadow","date":"2026-08-01","timeLocal":"17:00"},"geometry":{"type":"Polygon","coordinates":[[[126.9478,37.92455],[126.94775,37.92452],[126.94775,37.92446],[126.94787,37.92439],[126.94787,37.92436],[126.94801,37.92436],[126.948,37.92449],[126.94789,37.92448],[126.94786,37.92455],[126.9478,37.92455]]]}},{"type":"Feature","properties":{"valleyId":"gamaksan","layer":"shadow","date":"2026-08-01","timeLocal":"17:00"},"geometry":{"type":"Polygon","coordinates":[[[126.94432,37.92442],[126.9443,37.92433],[126.94423,37.92426],[126.94423,37.9242],[126.94432,37.92422],[126.94434,37.92433],[126.94439,37.92437],[126.94439,37.92442],[126.94432,37.92442]]]}},{"type":"Feature","properties":{"valleyId":"gamaksan","layer":"shadow","date":"2026-08-01","timeLocal":"17:00"},"geometry":{"type":"Polygon","coordinates":[[[126.94933,37.92431],[126.94933,37.92418],[126.94958,37.92421],[126.94958,37.92428],[126.94933,37.92431]]]}},{"type":"Feature","properties":{"valleyId":"gamaksan","layer":"shadow","date":"2026-08-01","timeLocal":"17:00"},"geometry":{"type":"Polygon","coordinates":[[[126.94886,37.92401],[126.94886,37.92396],[126.94893,37.92391],[126.94902,37.92391],[126.94902,37.92396],[126.94897,37.924],[126.94886,37.92401]]]}},{"type":"Feature","properties":{"valleyId":"gamaksan","layer":"shadow","date":"2026-08-01","timeLocal":"17:00"},"geometry":{"type":"Polygon","coordinates":[[[126.94866,37.92381],[126.94866,37.92374],[126.94873,37.92374],[126.94873,37.92381],[126.94866,37.92381]]]}},{"type":"Feature","properties":{"valleyId":"gamaksan","layer":"shadow","date":"2026-08-01","timeLocal":"17:00"},"geometry":{"type":"Polygon","coordinates":[[[126.95018,37.92382],[126.95019,37.92373],[126.95025,37.92373],[126.95025,37.92382],[126.95018,37.92382]]]}},{"type":"Feature","properties":{"valleyId":"gamaksan","layer":"shadow","date":"2026-08-01","timeLocal":"17:00"},"geometry":{"type":"Polygon","coordinates":[[[126.95073,37.9237],[126.95073,37.92361],[126.95083,37.92362],[126.95085,37.92369],[126.95073,37.9237]]]}},{"type":"Feature","properties":{"valleyId":"gamaksan","layer":"shadow","date":"2026-08-01","timeLocal":"17:00"},"geometry":{"type":"Polygon","coordinates":[[[126.94916,37.92364],[126.94917,37.92357],[126.94926,37.92357],[126.94926,37.92362],[126.94916,37.92364]]]}},{"type":"Feature","properties":{"valleyId":"gamaksan","layer":"shadow","date":"2026-08-01","timeLocal":"17:00"},"geometry":{"type":"Polygon","coordinates":[[[126.94807,37.92441],[126.94805,37.92431],[126.94808,37.92422],[126.94812,37.9242],[126.94813,37.92411],[126.94817,37.92407],[126.94818,37.92397],[126.94813,37.92395],[126.94813,37.92391],[126.94809,37.92389],[126.94791,37.92364],[126.94782,37.92363],[126.94778,37.92362],[126.94778,37.92358],[126.94764,37.92354],[126.94762,37.92343],[126.94774,37.92345],[126.9478,37.92356],[126.94791,37.92358],[126.94791,37.92362],[126.94805,37.92362],[126.94825,37.92375],[126.94825,37.92388],[126.94831,37.9239],[126.94833,37.92404],[126.94824,37.92415],[126.94821,37.92429],[126.94814,37.92433],[126.94814,37.92442],[126.94807,37.92441]]]}},{"type":"Feature","properties":{"valleyId":"gamaksan","layer":"shadow","date":"2026-08-01","timeLocal":"17:00"},"geometry":{"type":"Polygon","coordinates":[[[126.94898,37.92353],[126.94896,37.92342],[126.94906,37.92342],[126.94908,37.92353],[126.94898,37.92353]]]}},{"type":"Feature","properties":{"valleyId":"gamaksan","layer":"shadow","date":"2026-08-01","timeLocal":"17:00"},"geometry":{"type":"Polygon","coordinates":[[[126.94958,37.92331],[126.94958,37.92323],[126.94965,37.92323],[126.94965,37.92331],[126.94958,37.92331]]]}},{"type":"Feature","properties":{"valleyId":"gamaksan","layer":"shadow","date":"2026-08-01","timeLocal":"17:00"},"geometry":{"type":"Polygon","coordinates":[[[126.94742,37.92338],[126.94733,37.92332],[126.94733,37.92328],[126.94726,37.92323],[126.9472,37.92323],[126.9472,37.92317],[126.94733,37.92319],[126.94744,37.92329],[126.94749,37.92329],[126.94751,37.92338],[126.94742,37.92338]]]}},{"type":"Feature","properties":{"valleyId":"gamaksan","layer":"shadow","date":"2026-08-01","timeLocal":"17:00"},"geometry":{"type":"Polygon","coordinates":[[[126.95052,37.9232],[126.95052,37.92314],[126.95059,37.92314],[126.95059,37.9232],[126.95052,37.9232]]]}},{"type":"Feature","properties":{"valleyId":"gamaksan","layer":"shadow","date":"2026-08-01","timeLocal":"17:00"},"geometry":{"type":"Polygon","coordinates":[[[126.95191,37.92308],[126.95191,37.92295],[126.95198,37.92295],[126.95198,37.92308],[126.95191,37.92308]]]}},{"type":"Feature","properties":{"valleyId":"gamaksan","layer":"shadow","date":"2026-08-01","timeLocal":"17:00"},"geometry":{"type":"Polygon","coordinates":[[[126.94929,37.9231],[126.9493,37.92287],[126.94937,37.92287],[126.94937,37.92272],[126.94944,37.92273],[126.94948,37.92274],[126.94948,37.92282],[126.94941,37.92287],[126.94943,37.92303],[126.94936,37.92305],[126.94936,37.9231],[126.94929,37.9231]]]}},{"type":"Feature","properties":{"valleyId":"gamaksan","layer":"shadow","date":"2026-08-01","timeLocal":"17:00"},"geometry":{"type":"Polygon","coordinates":[[[126.952,37.92293],[126.95201,37.92266],[126.95208,37.92266],[126.95219,37.92274],[126.95219,37.92283],[126.95207,37.92293],[126.952,37.92293]]]}}]}
