{"type":"FeatureCollection","metadata":{"description":"개방지(CHM ≤ 2 m)에 드리운 나무·지형 그림자, 2026-08-01 10:00 KST. canopy 위에 겹쳐 그린다","source":"위성 기반 추정 — Copernicus GLO-30 지형(30 m) + Meta/WRI 수관 높이(1 m CHM, 2016 촬영). 그늘 = 수관(CHM > 2 m) ∪ 나무·지형 그림자 ∪ 원거리 지형 마스크. 현장과 다를 수 있음.","datasetVersion":"2026-09-06.0","collectedAt":"2026-09-06","coordinateOrder":"[longitude, latitude]","crs":"EPSG:4326","representativeDate":"2026-08-01","hours":["10:00","11:00","12:00","13:00","14:00","15:00","16:00","17:00","18:00"],"chmAcquisition":["2016-06"],"assets":{"glo30":{"dataset":"Copernicus DEM GLO-30 (COG, s3://copernicus-dem-30m)","tiles":["Copernicus_DSM_COG_10_N37_00_E127_00_DEM"]},"chm":{"dataset":"Meta/WRI Global Canopy Height Map v1 (alsgedi_global_v6_float, 1 m, CC-BY 4.0)","quadkeys":["132110321"],"acquisition":["2016-06"]}},"method":{"gridResM":2,"canopyThresholdM":2,"bufferHalfM":25,"corridorHalfM":200,"simplifyTolM":2,"minAreaM2":25,"coordDecimals":5},"generator":"scripts/shade 0.1.0","builtAt":"2026-09-06T06:09:05Z","layer":"shadow","timeLocal":"10:00"},"features":[{"type":"Feature","properties":{"valleyId":"sanasa","layer":"shadow","date":"2026-08-01","timeLocal":"10:00"},"geometry":{"type":"Polygon","coordinates":[[[127.53837,37.58304],[127.53837,37.58298],[127.53844,37.58299],[127.53844,37.58304],[127.53837,37.58304]]]}},{"type":"Feature","properties":{"valleyId":"sanasa","layer":"shadow","date":"2026-08-01","timeLocal":"10:00"},"geometry":{"type":"Polygon","coordinates":[[[127.54331,37.58303],[127.54331,37.58297],[127.54338,37.58297],[127.54338,37.58303],[127.54331,37.58303]]]}},{"type":"Feature","properties":{"valleyId":"sanasa","layer":"shadow","date":"2026-08-01","timeLocal":"10:00"},"geometry":{"type":"Polygon","coordinates":[[[127.53876,37.58295],[127.53876,37.5829],[127.53885,37.5829],[127.53885,37.58295],[127.53876,37.58295]]]}},{"type":"Feature","properties":{"valleyId":"sanasa","layer":"shadow","date":"2026-08-01","timeLocal":"10:00"},"geometry":{"type":"Polygon","coordinates":[[[127.52923,37.5826],[127.52923,37.58255],[127.5293,37.58255],[127.5293,37.5826],[127.52923,37.5826]]]}},{"type":"Feature","properties":{"valleyId":"sanasa","layer":"shadow","date":"2026-08-01","timeLocal":"10:00"},"geometry":{"type":"Polygon","coordinates":[[[127.53577,37.58176],[127.53577,37.58167],[127.53584,37.58167],[127.53584,37.58176],[127.53577,37.58176]]]}},{"type":"Feature","properties":{"valleyId":"sanasa","layer":"shadow","date":"2026-08-01","timeLocal":"10:00"},"geometry":{"type":"Polygon","coordinates":[[[127.54645,37.58195],[127.54644,37.58179],[127.54653,37.58177],[127.54655,37.58193],[127.54645,37.58195]]]}},{"type":"Feature","properties":{"valleyId":"sanasa","layer":"shadow","date":"2026-08-01","timeLocal":"10:00"},"geometry":{"type":"Polygon","coordinates":[[[127.54648,37.58175],[127.54644,37.58162],[127.54633,37.58159],[127.54633,37.58144],[127.54644,37.58146],[127.54644,37.5815],[127.54649,37.58153],[127.54655,37.58154],[127.5466,37.58161],[127.5466,37.58172],[127.54655,37.58175],[127.54648,37.58175]]]}},{"type":"Feature","properties":{"valleyId":"sanasa","layer":"shadow","date":"2026-08-01","timeLocal":"10:00"},"geometry":{"type":"Polygon","coordinates":[[[127.53614,37.58126],[127.53612,37.58119],[127.53619,37.58119],[127.53621,37.58126],[127.53614,37.58126]]]}},{"type":"Feature","properties":{"valleyId":"sanasa","layer":"shadow","date":"2026-08-01","timeLocal":"10:00"},"geometry":{"type":"Polygon","coordinates":[[[127.53711,37.58127],[127.53709,37.5812],[127.53716,37.5812],[127.53718,37.58128],[127.53711,37.58127]]]}},{"type":"Feature","properties":{"valleyId":"sanasa","layer":"shadow","date":"2026-08-01","timeLocal":"10:00"},"geometry":{"type":"Polygon","coordinates":[[[127.53032,37.58112],[127.5303,37.58105],[127.53037,37.58105],[127.53039,37.58112],[127.53032,37.58112]]]}},{"type":"Feature","properties":{"valleyId":"sanasa","layer":"shadow","date":"2026-08-01","timeLocal":"10:00"},"geometry":{"type":"Polygon","coordinates":[[[127.54624,37.58141],[127.54617,37.58133],[127.54617,37.58121],[127.54624,37.58121],[127.54624,37.5813],[127.54631,37.58135],[127.54631,37.58141],[127.54624,37.58141]]]}},{"type":"Feature","properties":{"valleyId":"sanasa","layer":"shadow","date":"2026-08-01","timeLocal":"10:00"},"geometry":{"type":"Polygon","coordinates":[[[127.53026,37.58103],[127.53026,37.58094],[127.53033,37.58094],[127.53032,37.58103],[127.53026,37.58103]]]}},{"type":"Feature","properties":{"valleyId":"sanasa","layer":"shadow","date":"2026-08-01","timeLocal":"10:00"},"geometry":{"type":"Polygon","coordinates":[[[127.54606,37.58119],[127.54606,37.58108],[127.54613,37.58108],[127.54613,37.58119],[127.54606,37.58119]]]}},{"type":"Feature","properties":{"valleyId":"sanasa","layer":"shadow","date":"2026-08-01","timeLocal":"10:00"},"geometry":{"type":"Polygon","coordinates":[[[127.54588,37.58102],[127.54589,37.58093],[127.54595,37.58093],[127.54595,37.58102],[127.54588,37.58102]]]}},{"type":"Feature","properties":{"valleyId":"sanasa","layer":"shadow","date":"2026-08-01","timeLocal":"10:00"},"geometry":{"type":"Polygon","coordinates":[[[127.53622,37.58087],[127.53622,37.58079],[127.53628,37.5808],[127.53628,37.58087],[127.53622,37.58087]]]}},{"type":"Feature","properties":{"valleyId":"sanasa","layer":"shadow","date":"2026-08-01","timeLocal":"10:00"},"geometry":{"type":"Polygon","coordinates":[[[127.54625,37.58094],[127.54625,37.58085],[127.54632,37.58085],[127.54632,37.58094],[127.54625,37.58094]]]}},{"type":"Feature","properties":{"valleyId":"sanasa","layer":"shadow","date":"2026-08-01","timeLocal":"10:00"},"geometry":{"type":"Polygon","coordinates":[[[127.54693,37.58091],[127.54693,37.58078],[127.547,37.58078],[127.54704,37.58084],[127.54704,37.58091],[127.54693,37.58091]]]}},{"type":"Feature","properties":{"valleyId":"sanasa","layer":"shadow","date":"2026-08-01","timeLocal":"10:00"},"geometry":{"type":"Polygon","coordinates":[[[127.53631,37.58069],[127.53631,37.58062],[127.53618,37.5806],[127.53615,37.58056],[127.53615,37.58049],[127.5362,37.58045],[127.53627,37.58045],[127.53631,37.58049],[127.53631,37.58054],[127.53642,37.58062],[127.5364,37.58069],[127.53631,37.58069]]]}},{"type":"Feature","properties":{"valleyId":"sanasa","layer":"shadow","date":"2026-08-01","timeLocal":"10:00"},"geometry":{"type":"Polygon","coordinates":[[[127.53543,37.58026],[127.53544,37.58021],[127.53553,37.58021],[127.53553,37.58026],[127.53543,37.58026]]]}},{"type":"Feature","properties":{"valleyId":"sanasa","layer":"shadow","date":"2026-08-01","timeLocal":"10:00"},"geometry":{"type":"Polygon","coordinates":[[[127.54334,37.58002],[127.54334,37.57998],[127.54328,37.57998],[127.54326,37.57987],[127.54332,37.57987],[127.54332,37.57991],[127.54344,37.57995],[127.54343,37.58002],[127.54334,37.58002]]]}},{"type":"Feature","properties":{"valleyId":"sanasa","layer":"shadow","date":"2026-08-01","timeLocal":"10:00"},"geometry":{"type":"Polygon","coordinates":[[[127.54308,37.57987],[127.54308,37.57982],[127.54314,37.57982],[127.54314,37.57987],[127.54308,37.57987]]]}},{"type":"Feature","properties":{"valleyId":"sanasa","layer":"shadow","date":"2026-08-01","timeLocal":"10:00"},"geometry":{"type":"Polygon","coordinates":[[[127.54326,37.5798],[127.54326,37.57971],[127.54333,37.57971],[127.54337,37.57975],[127.54337,37.5798],[127.54326,37.5798]]]}},{"type":"Feature","properties":{"valleyId":"sanasa","layer":"shadow","date":"2026-08-01","timeLocal":"10:00"},"geometry":{"type":"Polygon","coordinates":[[[127.54589,37.57956],[127.54589,37.57951],[127.54596,37.57951],[127.54596,37.57956],[127.54589,37.57956]]]}},{"type":"Feature","properties":{"valleyId":"sanasa","layer":"shadow","date":"2026-08-01","timeLocal":"10:00"},"geometry":{"type":"Polygon","coordinates":[[[127.54834,37.57954],[127.54834,37.57948],[127.54841,37.57949],[127.5484,37.57954],[127.54834,37.57954]]]}},{"type":"Feature","properties":{"valleyId":"sanasa","layer":"shadow","date":"2026-08-01","timeLocal":"10:00"},"geometry":{"type":"Polygon","coordinates":[[[127.54343,37.57908],[127.54341,37.57904],[127.54336,37.57904],[127.54337,37.57886],[127.54344,37.57881],[127.54348,37.57869],[127.54355,37.57869],[127.54355,37.57876],[127.5435,37.57879],[127.5435,37.57908],[127.54343,37.57908]]]}},{"type":"Feature","properties":{"valleyId":"sanasa","layer":"shadow","date":"2026-08-01","timeLocal":"10:00"},"geometry":{"type":"Polygon","coordinates":[[[127.54351,37.57865],[127.54351,37.57852],[127.54358,37.57852],[127.54357,37.57865],[127.54351,37.57865]]]}},{"type":"Feature","properties":{"valleyId":"sanasa","layer":"shadow","date":"2026-08-01","timeLocal":"10:00"},"geometry":{"type":"Polygon","coordinates":[[[127.54344,37.57845],[127.54344,37.57838],[127.54351,37.57838],[127.54351,37.57845],[127.54344,37.57845]]]}},{"type":"Feature","properties":{"valleyId":"sanasa","layer":"shadow","date":"2026-08-01","timeLocal":"10:00"},"geometry":{"type":"Polygon","coordinates":[[[127.54945,37.57815],[127.54938,37.57811],[127.54938,37.57807],[127.54934,37.57807],[127.54934,37.57802],[127.54941,37.57802],[127.54954,37.57809],[127.54954,37.57815],[127.54945,37.57815]]]}},{"type":"Feature","properties":{"valleyId":"sanasa","layer":"shadow","date":"2026-08-01","timeLocal":"10:00"},"geometry":{"type":"Polygon","coordinates":[[[127.54986,37.57811],[127.54986,37.57797],[127.54993,37.57797],[127.54993,37.57812],[127.54986,37.57811]]]}},{"type":"Feature","properties":{"valleyId":"sanasa","layer":"shadow","date":"2026-08-01","timeLocal":"10:00"},"geometry":{"type":"Polygon","coordinates":[[[127.54603,37.57796],[127.54599,37.57787],[127.54599,37.57781],[127.54606,37.57782],[127.5461,37.57791],[127.5461,37.57796],[127.54603,37.57796]]]}},{"type":"Feature","properties":{"valleyId":"sanasa","layer":"shadow","date":"2026-08-01","timeLocal":"10:00"},"geometry":{"type":"Polygon","coordinates":[[[127.5498,37.57786],[127.5498,37.57781],[127.54986,37.57781],[127.54986,37.57786],[127.5498,37.57786]]]}},{"type":"Feature","properties":{"valleyId":"sanasa","layer":"shadow","date":"2026-08-01","timeLocal":"10:00"},"geometry":{"type":"Polygon","coordinates":[[[127.54996,37.57756],[127.54996,37.5775],[127.55003,37.5775],[127.55003,37.57756],[127.54996,37.57756]]]}},{"type":"Feature","properties":{"valleyId":"sanasa","layer":"shadow","date":"2026-08-01","timeLocal":"10:00"},"geometry":{"type":"Polygon","coordinates":[[[127.55096,37.57734],[127.55096,37.57728],[127.55103,37.57728],[127.55103,37.57734],[127.55096,37.57734]]]}},{"type":"Feature","properties":{"valleyId":"sanasa","layer":"shadow","date":"2026-08-01","timeLocal":"10:00"},"geometry":{"type":"Polygon","coordinates":[[[127.55053,37.57726],[127.55053,37.5772],[127.5506,37.5772],[127.5506,37.57726],[127.55053,37.57726]]]}},{"type":"Feature","properties":{"valleyId":"sanasa","layer":"shadow","date":"2026-08-01","timeLocal":"10:00"},"geometry":{"type":"Polygon","coordinates":[[[127.55133,37.57693],[127.55129,37.57689],[127.55129,37.5768],[127.55131,37.57674],[127.55138,37.57675],[127.5514,37.57693],[127.55133,37.57693]]]}},{"type":"Feature","properties":{"valleyId":"sanasa","layer":"shadow","date":"2026-08-01","timeLocal":"10:00"},"geometry":{"type":"Polygon","coordinates":[[[127.55279,37.57664],[127.55276,37.5766],[127.55267,37.57658],[127.55265,37.57651],[127.55258,37.57651],[127.55259,37.57644],[127.5527,37.57644],[127.55279,37.57649],[127.55279,37.57655],[127.55286,37.57658],[127.55285,37.57664],[127.55279,37.57664]]]}},{"type":"Feature","properties":{"valleyId":"sanasa","layer":"shadow","date":"2026-08-01","timeLocal":"10:00"},"geometry":{"type":"Polygon","coordinates":[[[127.55238,37.57656],[127.55234,37.57649],[127.55215,37.5765],[127.55216,37.57639],[127.55232,37.57636],[127.55232,37.5764],[127.55238,37.57645],[127.55247,37.57645],[127.55247,37.57656],[127.55238,37.57656]]]}},{"type":"Feature","properties":{"valleyId":"sanasa","layer":"shadow","date":"2026-08-01","timeLocal":"10:00"},"geometry":{"type":"Polygon","coordinates":[[[127.55236,37.57631],[127.55234,37.5762],[127.55227,37.57616],[127.55228,37.57609],[127.55241,37.57613],[127.55248,37.57622],[127.55248,37.57629],[127.55236,37.57631]]]}},{"type":"Feature","properties":{"valleyId":"sanasa","layer":"shadow","date":"2026-08-01","timeLocal":"10:00"},"geometry":{"type":"Polygon","coordinates":[[[127.55209,37.5762],[127.55203,37.57612],[127.55198,37.57612],[127.55198,37.57607],[127.55214,37.57607],[127.55216,37.5762],[127.55209,37.5762]]]}},{"type":"Feature","properties":{"valleyId":"sanasa","layer":"shadow","date":"2026-08-01","timeLocal":"10:00"},"geometry":{"type":"Polygon","coordinates":[[[127.55187,37.57608],[127.55185,37.57599],[127.55192,37.576],[127.55194,37.57609],[127.55187,37.57608]]]}},{"type":"Feature","properties":{"valleyId":"sanasa","layer":"shadow","date":"2026-08-01","timeLocal":"10:00"},"geometry":{"type":"Polygon","coordinates":[[[127.54748,37.57592],[127.54748,37.57587],[127.54755,37.57587],[127.54755,37.57592],[127.54748,37.57592]]]}},{"type":"Feature","properties":{"valleyId":"sanasa","layer":"shadow","date":"2026-08-01","timeLocal":"10:00"},"geometry":{"type":"Polygon","coordinates":[[[127.55126,37.57581],[127.55126,37.57573],[127.55133,37.57574],[127.55133,37.57581],[127.55126,37.57581]]]}},{"type":"Feature","properties":{"valleyId":"sanasa","layer":"shadow","date":"2026-08-01","timeLocal":"10:00"},"geometry":{"type":"Polygon","coordinates":[[[127.55188,37.57571],[127.55188,37.57562],[127.55195,37.57551],[127.55202,37.57551],[127.55202,37.57544],[127.55206,37.57544],[127.55206,37.57531],[127.55213,37.57529],[127.55213,37.57524],[127.5522,37.57524],[127.55218,37.57542],[127.55211,37.57546],[127.55208,37.57551],[127.55204,37.57551],[127.55204,37.57556],[127.55197,37.5756],[127.55194,37.57571],[127.55188,37.57571]]]}},{"type":"Feature","properties":{"valleyId":"sanasa","layer":"shadow","date":"2026-08-01","timeLocal":"10:00"},"geometry":{"type":"Polygon","coordinates":[[[127.55424,37.57545],[127.55419,37.57539],[127.55419,37.57528],[127.55406,37.57528],[127.55406,37.57523],[127.55422,37.57523],[127.55422,37.57527],[127.55431,37.57529],[127.55437,37.57545],[127.55424,37.57545]]]}},{"type":"Feature","properties":{"valleyId":"sanasa","layer":"shadow","date":"2026-08-01","timeLocal":"10:00"},"geometry":{"type":"Polygon","coordinates":[[[127.55379,37.57521],[127.55379,37.57517],[127.55374,37.57517],[127.55374,37.57512],[127.55381,37.57512],[127.55381,37.57515],[127.55386,37.57515],[127.55386,37.57521],[127.55379,37.57521]]]}},{"type":"Feature","properties":{"valleyId":"sanasa","layer":"shadow","date":"2026-08-01","timeLocal":"10:00"},"geometry":{"type":"Polygon","coordinates":[[[127.55216,37.57522],[127.55216,37.57515],[127.5522,37.57513],[127.55223,37.57503],[127.55232,37.57501],[127.55227,37.57517],[127.55223,37.57519],[127.55222,37.57522],[127.55216,37.57522]]]}},{"type":"Feature","properties":{"valleyId":"sanasa","layer":"shadow","date":"2026-08-01","timeLocal":"10:00"},"geometry":{"type":"Polygon","coordinates":[[[127.55234,37.5749],[127.55235,37.57485],[127.55241,37.57485],[127.55241,37.5749],[127.55234,37.5749]]]}},{"type":"Feature","properties":{"valleyId":"sanasa","layer":"shadow","date":"2026-08-01","timeLocal":"10:00"},"geometry":{"type":"Polygon","coordinates":[[[127.55006,37.57453],[127.55007,37.57448],[127.55,37.57444],[127.55,37.5744],[127.54995,37.5744],[127.54993,37.57431],[127.55,37.57431],[127.55016,37.57448],[127.55015,37.57453],[127.55006,37.57453]]]}},{"type":"Feature","properties":{"valleyId":"sanasa","layer":"shadow","date":"2026-08-01","timeLocal":"10:00"},"geometry":{"type":"Polygon","coordinates":[[[127.5557,37.56991],[127.5557,37.56986],[127.55577,37.56986],[127.55577,37.56991],[127.5557,37.56991]]]}},{"type":"Feature","properties":{"valleyId":"sanasa","layer":"shadow","date":"2026-08-01","timeLocal":"10:00"},"geometry":{"type":"Polygon","coordinates":[[[127.55597,37.5699],[127.55598,37.56981],[127.55604,37.56981],[127.55604,37.5699],[127.55597,37.5699]]]}},{"type":"Feature","properties":{"valleyId":"sanasa","layer":"shadow","date":"2026-08-01","timeLocal":"10:00"},"geometry":{"type":"Polygon","coordinates":[[[127.55715,37.56874],[127.55715,37.56869],[127.55722,37.56869],[127.55722,37.56874],[127.55715,37.56874]]]}}]}
