{"type":"FeatureCollection","metadata":{"description":"개방지(CHM ≤ 2 m)에 드리운 나무·지형 그림자, 2026-08-01 16:00 KST. canopy 위에 겹쳐 그린다","source":"위성 기반 추정 — Copernicus GLO-30 지형(30 m) + Meta/WRI 수관 높이(1 m CHM, 2016 촬영). 그늘 = 수관(CHM > 2 m) ∪ 나무·지형 그림자 ∪ 원거리 지형 마스크. 현장과 다를 수 있음.","datasetVersion":"2026-09-06.0","collectedAt":"2026-09-06","coordinateOrder":"[longitude, latitude]","crs":"EPSG:4326","representativeDate":"2026-08-01","hours":["10:00","11:00","12:00","13:00","14:00","15:00","16:00","17:00","18:00"],"chmAcquisition":["2016-06"],"assets":{"glo30":{"dataset":"Copernicus DEM GLO-30 (COG, s3://copernicus-dem-30m)","tiles":["Copernicus_DSM_COG_10_N37_00_E127_00_DEM"]},"chm":{"dataset":"Meta/WRI Global Canopy Height Map v1 (alsgedi_global_v6_float, 1 m, CC-BY 4.0)","quadkeys":["132110321"],"acquisition":["2016-06"]}},"method":{"gridResM":2,"canopyThresholdM":2,"bufferHalfM":25,"corridorHalfM":200,"simplifyTolM":2,"minAreaM2":25,"coordDecimals":5},"generator":"scripts/shade 0.1.0","builtAt":"2026-09-06T06:09:05Z","layer":"shadow","timeLocal":"16:00"},"features":[{"type":"Feature","properties":{"valleyId":"sanasa","layer":"shadow","date":"2026-08-01","timeLocal":"16:00"},"geometry":{"type":"Polygon","coordinates":[[[127.52929,37.58285],[127.52929,37.58273],[127.52932,37.58269],[127.52938,37.58269],[127.52936,37.58285],[127.52929,37.58285]]]}},{"type":"Feature","properties":{"valleyId":"sanasa","layer":"shadow","date":"2026-08-01","timeLocal":"16:00"},"geometry":{"type":"Polygon","coordinates":[[[127.54157,37.58281],[127.54157,37.58275],[127.54164,37.58275],[127.54164,37.58281],[127.54157,37.58281]]]}},{"type":"Feature","properties":{"valleyId":"sanasa","layer":"shadow","date":"2026-08-01","timeLocal":"16:00"},"geometry":{"type":"Polygon","coordinates":[[[127.53605,37.5825],[127.53605,37.58245],[127.53612,37.58245],[127.53612,37.58251],[127.53605,37.5825]]]}},{"type":"Feature","properties":{"valleyId":"sanasa","layer":"shadow","date":"2026-08-01","timeLocal":"16:00"},"geometry":{"type":"Polygon","coordinates":[[[127.53564,37.58237],[127.53564,37.58232],[127.53571,37.58232],[127.53571,37.58237],[127.53564,37.58237]]]}},{"type":"Feature","properties":{"valleyId":"sanasa","layer":"shadow","date":"2026-08-01","timeLocal":"16:00"},"geometry":{"type":"Polygon","coordinates":[[[127.53399,37.58234],[127.53399,37.58226],[127.53406,37.58226],[127.53406,37.58234],[127.53399,37.58234]]]}},{"type":"Feature","properties":{"valleyId":"sanasa","layer":"shadow","date":"2026-08-01","timeLocal":"16:00"},"geometry":{"type":"Polygon","coordinates":[[[127.53186,37.58218],[127.53186,37.58213],[127.53193,37.58213],[127.53193,37.58218],[127.53186,37.58218]]]}},{"type":"Feature","properties":{"valleyId":"sanasa","layer":"shadow","date":"2026-08-01","timeLocal":"16:00"},"geometry":{"type":"Polygon","coordinates":[[[127.53039,37.5822],[127.53039,37.58209],[127.53046,37.58209],[127.5305,37.5822],[127.53039,37.5822]]]}},{"type":"Feature","properties":{"valleyId":"sanasa","layer":"shadow","date":"2026-08-01","timeLocal":"16:00"},"geometry":{"type":"Polygon","coordinates":[[[127.53771,37.58218],[127.53771,37.58211],[127.53778,37.58211],[127.53778,37.58218],[127.53771,37.58218]]]}},{"type":"Feature","properties":{"valleyId":"sanasa","layer":"shadow","date":"2026-08-01","timeLocal":"16:00"},"geometry":{"type":"Polygon","coordinates":[[[127.53699,37.58199],[127.53699,37.58194],[127.53706,37.58194],[127.53705,37.58199],[127.53699,37.58199]]]}},{"type":"Feature","properties":{"valleyId":"sanasa","layer":"shadow","date":"2026-08-01","timeLocal":"16:00"},"geometry":{"type":"Polygon","coordinates":[[[127.53779,37.58161],[127.53779,37.58154],[127.53788,37.58152],[127.5379,37.58159],[127.53779,37.58161]]]}},{"type":"Feature","properties":{"valleyId":"sanasa","layer":"shadow","date":"2026-08-01","timeLocal":"16:00"},"geometry":{"type":"Polygon","coordinates":[[[127.53702,37.58147],[127.537,37.5814],[127.53711,37.58142],[127.53711,37.58147],[127.53702,37.58147]]]}},{"type":"Feature","properties":{"valleyId":"sanasa","layer":"shadow","date":"2026-08-01","timeLocal":"16:00"},"geometry":{"type":"Polygon","coordinates":[[[127.53426,37.5814],[127.53426,37.58135],[127.53433,37.58135],[127.53433,37.5814],[127.53426,37.5814]]]}},{"type":"Feature","properties":{"valleyId":"sanasa","layer":"shadow","date":"2026-08-01","timeLocal":"16:00"},"geometry":{"type":"Polygon","coordinates":[[[127.53806,37.58145],[127.53806,37.58139],[127.53815,37.5814],[127.53815,37.58145],[127.53806,37.58145]]]}},{"type":"Feature","properties":{"valleyId":"sanasa","layer":"shadow","date":"2026-08-01","timeLocal":"16:00"},"geometry":{"type":"Polygon","coordinates":[[[127.53693,37.58127],[127.53693,37.58116],[127.537,37.58116],[127.537,37.58127],[127.53693,37.58127]]]}},{"type":"Feature","properties":{"valleyId":"sanasa","layer":"shadow","date":"2026-08-01","timeLocal":"16:00"},"geometry":{"type":"Polygon","coordinates":[[[127.53963,37.58125],[127.53963,37.5812],[127.5397,37.5812],[127.5397,37.58125],[127.53963,37.58125]]]}},{"type":"Feature","properties":{"valleyId":"sanasa","layer":"shadow","date":"2026-08-01","timeLocal":"16:00"},"geometry":{"type":"Polygon","coordinates":[[[127.53288,37.58117],[127.53288,37.5811],[127.53299,37.5811],[127.53299,37.58117],[127.53288,37.58117]]]}},{"type":"Feature","properties":{"valleyId":"sanasa","layer":"shadow","date":"2026-08-01","timeLocal":"16:00"},"geometry":{"type":"Polygon","coordinates":[[[127.53906,37.58124],[127.53906,37.58117],[127.53911,37.58114],[127.53918,37.58114],[127.53915,37.58123],[127.53906,37.58124]]]}},{"type":"Feature","properties":{"valleyId":"sanasa","layer":"shadow","date":"2026-08-01","timeLocal":"16:00"},"geometry":{"type":"Polygon","coordinates":[[[127.53091,37.58109],[127.53091,37.58102],[127.53098,37.58102],[127.53098,37.58109],[127.53091,37.58109]]]}},{"type":"Feature","properties":{"valleyId":"sanasa","layer":"shadow","date":"2026-08-01","timeLocal":"16:00"},"geometry":{"type":"Polygon","coordinates":[[[127.53696,37.58115],[127.53696,37.58109],[127.53703,37.58109],[127.53703,37.58115],[127.53696,37.58115]]]}},{"type":"Feature","properties":{"valleyId":"sanasa","layer":"shadow","date":"2026-08-01","timeLocal":"16:00"},"geometry":{"type":"Polygon","coordinates":[[[127.53155,37.58104],[127.53155,37.58099],[127.53162,37.58099],[127.53161,37.58104],[127.53155,37.58104]]]}},{"type":"Feature","properties":{"valleyId":"sanasa","layer":"shadow","date":"2026-08-01","timeLocal":"16:00"},"geometry":{"type":"Polygon","coordinates":[[[127.53839,37.58111],[127.5383,37.581],[127.5383,37.58093],[127.53846,37.58091],[127.5385,37.58106],[127.53845,37.58107],[127.53845,37.58111],[127.53839,37.58111]]]}},{"type":"Feature","properties":{"valleyId":"sanasa","layer":"shadow","date":"2026-08-01","timeLocal":"16:00"},"geometry":{"type":"Polygon","coordinates":[[[127.53916,37.58094],[127.53916,37.58083],[127.53923,37.58083],[127.53923,37.58094],[127.53916,37.58094]]]}},{"type":"Feature","properties":{"valleyId":"sanasa","layer":"shadow","date":"2026-08-01","timeLocal":"16:00"},"geometry":{"type":"Polygon","coordinates":[[[127.54283,37.58086],[127.54283,37.58073],[127.5429,37.58073],[127.5429,37.58086],[127.54283,37.58086]]]}},{"type":"Feature","properties":{"valleyId":"sanasa","layer":"shadow","date":"2026-08-01","timeLocal":"16:00"},"geometry":{"type":"Polygon","coordinates":[[[127.53968,37.58084],[127.53966,37.58064],[127.53975,37.58064],[127.53979,37.58082],[127.53968,37.58084]]]}},{"type":"Feature","properties":{"valleyId":"sanasa","layer":"shadow","date":"2026-08-01","timeLocal":"16:00"},"geometry":{"type":"Polygon","coordinates":[[[127.53819,37.58062],[127.53819,37.58057],[127.53826,37.58057],[127.53826,37.58062],[127.53819,37.58062]]]}},{"type":"Feature","properties":{"valleyId":"sanasa","layer":"shadow","date":"2026-08-01","timeLocal":"16:00"},"geometry":{"type":"Polygon","coordinates":[[[127.54412,37.58062],[127.54413,37.58055],[127.54424,37.58055],[127.54424,37.58062],[127.54412,37.58062]]]}},{"type":"Feature","properties":{"valleyId":"sanasa","layer":"shadow","date":"2026-08-01","timeLocal":"16:00"},"geometry":{"type":"Polygon","coordinates":[[[127.54424,37.58053],[127.54424,37.58043],[127.54433,37.58043],[127.54433,37.58052],[127.54424,37.58053]]]}},{"type":"Feature","properties":{"valleyId":"sanasa","layer":"shadow","date":"2026-08-01","timeLocal":"16:00"},"geometry":{"type":"Polygon","coordinates":[[[127.53944,37.58035],[127.53944,37.58029],[127.53951,37.58029],[127.53951,37.58035],[127.53944,37.58035]]]}},{"type":"Feature","properties":{"valleyId":"sanasa","layer":"shadow","date":"2026-08-01","timeLocal":"16:00"},"geometry":{"type":"Polygon","coordinates":[[[127.53985,37.58024],[127.53985,37.58019],[127.53994,37.58019],[127.53994,37.58025],[127.53985,37.58024]]]}},{"type":"Feature","properties":{"valleyId":"sanasa","layer":"shadow","date":"2026-08-01","timeLocal":"16:00"},"geometry":{"type":"Polygon","coordinates":[[[127.53817,37.58046],[127.53815,37.58031],[127.53808,37.58029],[127.53809,37.58015],[127.53818,37.58017],[127.53817,37.58031],[127.53822,37.58031],[127.53822,37.58037],[127.53831,37.58037],[127.53831,37.58044],[127.53817,37.58046]]]}},{"type":"Feature","properties":{"valleyId":"sanasa","layer":"shadow","date":"2026-08-01","timeLocal":"16:00"},"geometry":{"type":"Polygon","coordinates":[[[127.5442,37.58033],[127.5442,37.58024],[127.54425,37.58023],[127.54427,37.58012],[127.54438,37.58012],[127.54438,37.58021],[127.54434,37.58023],[127.54434,37.58028],[127.54427,37.5803],[127.54427,37.58034],[127.5442,37.58033]]]}},{"type":"Feature","properties":{"valleyId":"sanasa","layer":"shadow","date":"2026-08-01","timeLocal":"16:00"},"geometry":{"type":"Polygon","coordinates":[[[127.53802,37.5801],[127.538,37.58002],[127.53807,37.58002],[127.53809,37.5801],[127.53802,37.5801]]]}},{"type":"Feature","properties":{"valleyId":"sanasa","layer":"shadow","date":"2026-08-01","timeLocal":"16:00"},"geometry":{"type":"Polygon","coordinates":[[[127.53791,37.58002],[127.53789,37.57993],[127.53798,37.57993],[127.53798,37.58002],[127.53791,37.58002]]]}},{"type":"Feature","properties":{"valleyId":"sanasa","layer":"shadow","date":"2026-08-01","timeLocal":"16:00"},"geometry":{"type":"Polygon","coordinates":[[[127.54447,37.58012],[127.5445,37.58001],[127.54457,37.58001],[127.54464,37.57994],[127.5448,37.57991],[127.54482,37.57987],[127.54486,37.57987],[127.54489,37.57982],[127.54498,37.57982],[127.54495,37.57995],[127.54486,37.57995],[127.54479,37.58002],[127.54463,37.58003],[127.54463,37.58012],[127.54447,37.58012]]]}},{"type":"Feature","properties":{"valleyId":"sanasa","layer":"shadow","date":"2026-08-01","timeLocal":"16:00"},"geometry":{"type":"Polygon","coordinates":[[[127.54158,37.57983],[127.54158,37.57978],[127.54165,37.57978],[127.54165,37.57983],[127.54158,37.57983]]]}},{"type":"Feature","properties":{"valleyId":"sanasa","layer":"shadow","date":"2026-08-01","timeLocal":"16:00"},"geometry":{"type":"Polygon","coordinates":[[[127.54506,37.57928],[127.54501,37.57924],[127.54501,37.57915],[127.5451,37.57916],[127.54515,37.57919],[127.54512,37.57928],[127.54506,37.57928]]]}},{"type":"Feature","properties":{"valleyId":"sanasa","layer":"shadow","date":"2026-08-01","timeLocal":"16:00"},"geometry":{"type":"Polygon","coordinates":[[[127.54552,37.57891],[127.54552,37.57885],[127.54559,37.57886],[127.54559,37.57891],[127.54552,37.57891]]]}},{"type":"Feature","properties":{"valleyId":"sanasa","layer":"shadow","date":"2026-08-01","timeLocal":"16:00"},"geometry":{"type":"Polygon","coordinates":[[[127.54525,37.57873],[127.54523,37.57854],[127.5453,37.57855],[127.54532,37.57873],[127.54525,37.57873]]]}},{"type":"Feature","properties":{"valleyId":"sanasa","layer":"shadow","date":"2026-08-01","timeLocal":"16:00"},"geometry":{"type":"Polygon","coordinates":[[[127.54503,37.57836],[127.54503,37.57831],[127.5451,37.57831],[127.5451,37.57836],[127.54503,37.57836]]]}},{"type":"Feature","properties":{"valleyId":"sanasa","layer":"shadow","date":"2026-08-01","timeLocal":"16:00"},"geometry":{"type":"Polygon","coordinates":[[[127.54605,37.57809],[127.54603,37.57805],[127.54601,37.57789],[127.54608,37.57789],[127.54615,37.57802],[127.54615,37.57807],[127.54605,37.57809]]]}},{"type":"Feature","properties":{"valleyId":"sanasa","layer":"shadow","date":"2026-08-01","timeLocal":"16:00"},"geometry":{"type":"Polygon","coordinates":[[[127.54762,37.57677],[127.54762,37.57672],[127.54769,37.57672],[127.54769,37.57677],[127.54762,37.57677]]]}},{"type":"Feature","properties":{"valleyId":"sanasa","layer":"shadow","date":"2026-08-01","timeLocal":"16:00"},"geometry":{"type":"Polygon","coordinates":[[[127.54694,37.57691],[127.54685,37.57683],[127.54685,37.57673],[127.54674,37.57672],[127.54672,37.57665],[127.54687,37.57665],[127.54687,37.57673],[127.54692,37.57673],[127.54694,37.5768],[127.54701,37.57685],[127.54701,37.57691],[127.54694,37.57691]]]}},{"type":"Feature","properties":{"valleyId":"sanasa","layer":"shadow","date":"2026-08-01","timeLocal":"16:00"},"geometry":{"type":"Polygon","coordinates":[[[127.54658,37.57661],[127.54654,37.57645],[127.54658,37.57645],[127.54658,37.57642],[127.5467,37.57642],[127.54672,37.57651],[127.54667,37.57653],[127.54667,37.57662],[127.54658,37.57661]]]}},{"type":"Feature","properties":{"valleyId":"sanasa","layer":"shadow","date":"2026-08-01","timeLocal":"16:00"},"geometry":{"type":"Polygon","coordinates":[[[127.54636,37.57649],[127.54634,37.57638],[127.5464,37.57638],[127.54642,37.57649],[127.54636,37.57649]]]}},{"type":"Feature","properties":{"valleyId":"sanasa","layer":"shadow","date":"2026-08-01","timeLocal":"16:00"},"geometry":{"type":"Polygon","coordinates":[[[127.55213,37.5765],[127.55213,37.57643],[127.5522,37.57643],[127.5522,37.5765],[127.55213,37.5765]]]}},{"type":"Feature","properties":{"valleyId":"sanasa","layer":"shadow","date":"2026-08-01","timeLocal":"16:00"},"geometry":{"type":"Polygon","coordinates":[[[127.54634,37.57627],[127.54634,37.57621],[127.54641,37.57622],[127.54641,37.57627],[127.54634,37.57627]]]}},{"type":"Feature","properties":{"valleyId":"sanasa","layer":"shadow","date":"2026-08-01","timeLocal":"16:00"},"geometry":{"type":"Polygon","coordinates":[[[127.54824,37.5762],[127.54822,37.57613],[127.54833,37.57613],[127.54833,37.5762],[127.54824,37.5762]]]}},{"type":"Feature","properties":{"valleyId":"sanasa","layer":"shadow","date":"2026-08-01","timeLocal":"16:00"},"geometry":{"type":"Polygon","coordinates":[[[127.54763,37.57612],[127.54763,37.57607],[127.5477,37.57607],[127.5477,37.57612],[127.54763,37.57612]]]}},{"type":"Feature","properties":{"valleyId":"sanasa","layer":"shadow","date":"2026-08-01","timeLocal":"16:00"},"geometry":{"type":"Polygon","coordinates":[[[127.54746,37.57592],[127.54746,37.57587],[127.54752,37.57587],[127.54752,37.57592],[127.54746,37.57592]]]}},{"type":"Feature","properties":{"valleyId":"sanasa","layer":"shadow","date":"2026-08-01","timeLocal":"16:00"},"geometry":{"type":"Polygon","coordinates":[[[127.54707,37.57568],[127.54705,37.57557],[127.54714,37.57558],[127.54714,37.57568],[127.54707,37.57568]]]}},{"type":"Feature","properties":{"valleyId":"sanasa","layer":"shadow","date":"2026-08-01","timeLocal":"16:00"},"geometry":{"type":"Polygon","coordinates":[[[127.54809,37.57566],[127.5481,37.57552],[127.54821,37.57552],[127.54821,37.57561],[127.54816,37.57561],[127.54816,37.57566],[127.54809,37.57566]]]}},{"type":"Feature","properties":{"valleyId":"sanasa","layer":"shadow","date":"2026-08-01","timeLocal":"16:00"},"geometry":{"type":"Polygon","coordinates":[[[127.54721,37.57558],[127.54721,37.5755],[127.5473,37.57551],[127.5473,37.57556],[127.54721,37.57558]]]}},{"type":"Feature","properties":{"valleyId":"sanasa","layer":"shadow","date":"2026-08-01","timeLocal":"16:00"},"geometry":{"type":"Polygon","coordinates":[[[127.54792,37.57544],[127.5479,37.57537],[127.54799,37.57537],[127.54801,37.57544],[127.54792,37.57544]]]}},{"type":"Feature","properties":{"valleyId":"sanasa","layer":"shadow","date":"2026-08-01","timeLocal":"16:00"},"geometry":{"type":"Polygon","coordinates":[[[127.55206,37.57542],[127.55206,37.57531],[127.55213,37.57531],[127.55213,37.57542],[127.55206,37.57542]]]}},{"type":"Feature","properties":{"valleyId":"sanasa","layer":"shadow","date":"2026-08-01","timeLocal":"16:00"},"geometry":{"type":"Polygon","coordinates":[[[127.54787,37.57531],[127.54788,37.57526],[127.54799,37.57524],[127.54797,37.57532],[127.54787,37.57531]]]}},{"type":"Feature","properties":{"valleyId":"sanasa","layer":"shadow","date":"2026-08-01","timeLocal":"16:00"},"geometry":{"type":"Polygon","coordinates":[[[127.55213,37.57531],[127.55213,37.57524],[127.5522,37.57524],[127.5522,37.57531],[127.55213,37.57531]]]}},{"type":"Feature","properties":{"valleyId":"sanasa","layer":"shadow","date":"2026-08-01","timeLocal":"16:00"},"geometry":{"type":"Polygon","coordinates":[[[127.54844,37.57516],[127.5484,37.57512],[127.5484,37.57501],[127.54847,37.57502],[127.54851,37.57509],[127.54851,37.57516],[127.54844,37.57516]]]}},{"type":"Feature","properties":{"valleyId":"sanasa","layer":"shadow","date":"2026-08-01","timeLocal":"16:00"},"geometry":{"type":"Polygon","coordinates":[[[127.5484,37.57494],[127.54838,37.57487],[127.54847,37.57487],[127.54847,37.57494],[127.5484,37.57494]]]}},{"type":"Feature","properties":{"valleyId":"sanasa","layer":"shadow","date":"2026-08-01","timeLocal":"16:00"},"geometry":{"type":"Polygon","coordinates":[[[127.55049,37.57454],[127.5505,37.57448],[127.55059,37.57446],[127.55058,37.57454],[127.55049,37.57454]]]}},{"type":"Feature","properties":{"valleyId":"sanasa","layer":"shadow","date":"2026-08-01","timeLocal":"16:00"},"geometry":{"type":"Polygon","coordinates":[[[127.55077,37.57445],[127.55077,37.57439],[127.55086,37.5744],[127.55086,37.57445],[127.55077,37.57445]]]}},{"type":"Feature","properties":{"valleyId":"sanasa","layer":"shadow","date":"2026-08-01","timeLocal":"16:00"},"geometry":{"type":"Polygon","coordinates":[[[127.55095,37.57436],[127.55095,37.57431],[127.55102,37.57431],[127.55102,37.57436],[127.55095,37.57436]]]}},{"type":"Feature","properties":{"valleyId":"sanasa","layer":"shadow","date":"2026-08-01","timeLocal":"16:00"},"geometry":{"type":"Polygon","coordinates":[[[127.55107,37.57429],[127.55107,37.57424],[127.55116,37.57424],[127.55116,37.57429],[127.55107,37.57429]]]}},{"type":"Feature","properties":{"valleyId":"sanasa","layer":"shadow","date":"2026-08-01","timeLocal":"16:00"},"geometry":{"type":"Polygon","coordinates":[[[127.55122,37.57426],[127.55123,37.5742],[127.55132,37.57419],[127.55132,37.57424],[127.55122,37.57426]]]}},{"type":"Feature","properties":{"valleyId":"sanasa","layer":"shadow","date":"2026-08-01","timeLocal":"16:00"},"geometry":{"type":"Polygon","coordinates":[[[127.55159,37.57419],[127.55159,37.57413],[127.5517,37.57414],[127.5517,37.57419],[127.55159,37.57419]]]}},{"type":"Feature","properties":{"valleyId":"sanasa","layer":"shadow","date":"2026-08-01","timeLocal":"16:00"},"geometry":{"type":"Polygon","coordinates":[[[127.55237,37.57368],[127.55237,37.57355],[127.55244,37.57355],[127.55244,37.57368],[127.55237,37.57368]]]}},{"type":"Feature","properties":{"valleyId":"sanasa","layer":"shadow","date":"2026-08-01","timeLocal":"16:00"},"geometry":{"type":"Polygon","coordinates":[[[127.55221,37.57342],[127.55222,37.57335],[127.55231,37.57335],[127.55231,37.5734],[127.55221,37.57342]]]}},{"type":"Feature","properties":{"valleyId":"sanasa","layer":"shadow","date":"2026-08-01","timeLocal":"16:00"},"geometry":{"type":"Polygon","coordinates":[[[127.55243,37.57286],[127.55245,37.57279],[127.55257,37.57279],[127.55256,37.57287],[127.55243,37.57286]]]}},{"type":"Feature","properties":{"valleyId":"sanasa","layer":"shadow","date":"2026-08-01","timeLocal":"16:00"},"geometry":{"type":"Polygon","coordinates":[[[127.55301,37.57235],[127.55301,37.5723],[127.55307,37.5723],[127.55307,37.57235],[127.55301,37.57235]]]}},{"type":"Feature","properties":{"valleyId":"sanasa","layer":"shadow","date":"2026-08-01","timeLocal":"16:00"},"geometry":{"type":"Polygon","coordinates":[[[127.55521,37.57214],[127.55521,37.57205],[127.55528,37.57205],[127.55527,37.57214],[127.55521,37.57214]]]}},{"type":"Feature","properties":{"valleyId":"sanasa","layer":"shadow","date":"2026-08-01","timeLocal":"16:00"},"geometry":{"type":"Polygon","coordinates":[[[127.55519,37.57196],[127.55519,37.57191],[127.55526,37.57191],[127.55525,37.57196],[127.55519,37.57196]]]}},{"type":"Feature","properties":{"valleyId":"sanasa","layer":"shadow","date":"2026-08-01","timeLocal":"16:00"},"geometry":{"type":"Polygon","coordinates":[[[127.55313,37.57181],[127.55313,37.57176],[127.55322,37.57176],[127.55322,37.57181],[127.55313,37.57181]]]}},{"type":"Feature","properties":{"valleyId":"sanasa","layer":"shadow","date":"2026-08-01","timeLocal":"16:00"},"geometry":{"type":"Polygon","coordinates":[[[127.55324,37.57176],[127.55324,37.5717],[127.55336,37.57169],[127.55333,37.57176],[127.55324,37.57176]]]}},{"type":"Feature","properties":{"valleyId":"sanasa","layer":"shadow","date":"2026-08-01","timeLocal":"16:00"},"geometry":{"type":"Polygon","coordinates":[[[127.55752,37.57055],[127.55752,37.57049],[127.55759,37.57049],[127.55759,37.57055],[127.55752,37.57055]]]}},{"type":"Feature","properties":{"valleyId":"sanasa","layer":"shadow","date":"2026-08-01","timeLocal":"16:00"},"geometry":{"type":"Polygon","coordinates":[[[127.55397,37.57047],[127.55397,37.57041],[127.55406,37.5704],[127.55406,37.57045],[127.55397,37.57047]]]}},{"type":"Feature","properties":{"valleyId":"sanasa","layer":"shadow","date":"2026-08-01","timeLocal":"16:00"},"geometry":{"type":"Polygon","coordinates":[[[127.55743,37.57047],[127.55741,37.57038],[127.5575,37.57037],[127.5575,37.57048],[127.55743,37.57047]]]}},{"type":"Feature","properties":{"valleyId":"sanasa","layer":"shadow","date":"2026-08-01","timeLocal":"16:00"},"geometry":{"type":"Polygon","coordinates":[[[127.55621,37.56914],[127.55622,37.56907],[127.55628,37.56907],[127.55628,37.56914],[127.55621,37.56914]]]}}]}
