{"type":"FeatureCollection","metadata":{"description":"개방지(CHM ≤ 2 m)에 드리운 나무·지형 그림자, 2026-08-01 17:00 KST. canopy 위에 겹쳐 그린다","source":"위성 기반 추정 — Copernicus GLO-30 지형(30 m) + Meta/WRI 수관 높이(1 m CHM, 2016 촬영). 그늘 = 수관(CHM > 2 m) ∪ 나무·지형 그림자 ∪ 원거리 지형 마스크. 현장과 다를 수 있음.","datasetVersion":"2026-09-06.0","collectedAt":"2026-09-06","coordinateOrder":"[longitude, latitude]","crs":"EPSG:4326","representativeDate":"2026-08-01","hours":["10:00","11:00","12:00","13:00","14:00","15:00","16:00","17:00","18:00"],"chmAcquisition":["2016-06"],"assets":{"glo30":{"dataset":"Copernicus DEM GLO-30 (COG, s3://copernicus-dem-30m)","tiles":["Copernicus_DSM_COG_10_N37_00_E127_00_DEM"]},"chm":{"dataset":"Meta/WRI Global Canopy Height Map v1 (alsgedi_global_v6_float, 1 m, CC-BY 4.0)","quadkeys":["132110321"],"acquisition":["2016-06"]}},"method":{"gridResM":2,"canopyThresholdM":2,"bufferHalfM":25,"corridorHalfM":200,"simplifyTolM":2,"minAreaM2":25,"coordDecimals":5},"generator":"scripts/shade 0.1.0","builtAt":"2026-09-06T06:09:05Z","layer":"shadow","timeLocal":"17:00"},"features":[{"type":"Feature","properties":{"valleyId":"sanasa","layer":"shadow","date":"2026-08-01","timeLocal":"17:00"},"geometry":{"type":"Polygon","coordinates":[[[127.5359,37.58413],[127.53586,37.58409],[127.53586,37.58403],[127.53609,37.58404],[127.53606,37.58411],[127.5359,37.58413]]]}},{"type":"Feature","properties":{"valleyId":"sanasa","layer":"shadow","date":"2026-08-01","timeLocal":"17:00"},"geometry":{"type":"Polygon","coordinates":[[[127.53589,37.58376],[127.53587,37.58369],[127.53593,37.58369],[127.53595,37.58377],[127.53589,37.58376]]]}},{"type":"Feature","properties":{"valleyId":"sanasa","layer":"shadow","date":"2026-08-01","timeLocal":"17:00"},"geometry":{"type":"Polygon","coordinates":[[[127.53111,37.58365],[127.53111,37.5836],[127.5312,37.5836],[127.5312,37.58365],[127.53111,37.58365]]]}},{"type":"Feature","properties":{"valleyId":"sanasa","layer":"shadow","date":"2026-08-01","timeLocal":"17:00"},"geometry":{"type":"Polygon","coordinates":[[[127.531,37.58356],[127.531,37.58347],[127.53107,37.58347],[127.53107,37.58356],[127.531,37.58356]]]}},{"type":"Feature","properties":{"valleyId":"sanasa","layer":"shadow","date":"2026-08-01","timeLocal":"17:00"},"geometry":{"type":"Polygon","coordinates":[[[127.53564,37.58358],[127.53564,37.58346],[127.53571,37.58346],[127.53573,37.58358],[127.53564,37.58358]]]}},{"type":"Feature","properties":{"valleyId":"sanasa","layer":"shadow","date":"2026-08-01","timeLocal":"17:00"},"geometry":{"type":"Polygon","coordinates":[[[127.53107,37.58345],[127.53107,37.58338],[127.53114,37.58338],[127.53114,37.58345],[127.53107,37.58345]]]}},{"type":"Feature","properties":{"valleyId":"sanasa","layer":"shadow","date":"2026-08-01","timeLocal":"17:00"},"geometry":{"type":"Polygon","coordinates":[[[127.53103,37.58334],[127.53103,37.58329],[127.53109,37.58329],[127.53109,37.58334],[127.53103,37.58334]]]}},{"type":"Feature","properties":{"valleyId":"sanasa","layer":"shadow","date":"2026-08-01","timeLocal":"17:00"},"geometry":{"type":"Polygon","coordinates":[[[127.53546,37.5834],[127.53542,37.58329],[127.53551,37.58327],[127.53553,37.5834],[127.53546,37.5834]]]}},{"type":"Feature","properties":{"valleyId":"sanasa","layer":"shadow","date":"2026-08-01","timeLocal":"17:00"},"geometry":{"type":"Polygon","coordinates":[[[127.53096,37.58327],[127.53096,37.58322],[127.53103,37.58322],[127.53103,37.58327],[127.53096,37.58327]]]}},{"type":"Feature","properties":{"valleyId":"sanasa","layer":"shadow","date":"2026-08-01","timeLocal":"17:00"},"geometry":{"type":"Polygon","coordinates":[[[127.52942,37.58316],[127.5294,37.58307],[127.52947,37.58307],[127.52949,37.58316],[127.52942,37.58316]]]}},{"type":"Feature","properties":{"valleyId":"sanasa","layer":"shadow","date":"2026-08-01","timeLocal":"17:00"},"geometry":{"type":"Polygon","coordinates":[[[127.5304,37.58308],[127.5304,37.58303],[127.53047,37.58303],[127.53046,37.58308],[127.5304,37.58308]]]}},{"type":"Feature","properties":{"valleyId":"sanasa","layer":"shadow","date":"2026-08-01","timeLocal":"17:00"},"geometry":{"type":"Polygon","coordinates":[[[127.53443,37.58312],[127.53443,37.58306],[127.5345,37.58306],[127.5345,37.58312],[127.53443,37.58312]]]}},{"type":"Feature","properties":{"valleyId":"sanasa","layer":"shadow","date":"2026-08-01","timeLocal":"17:00"},"geometry":{"type":"Polygon","coordinates":[[[127.53092,37.58313],[127.5309,37.58298],[127.53096,37.58298],[127.53098,37.58313],[127.53092,37.58313]]]}},{"type":"Feature","properties":{"valleyId":"sanasa","layer":"shadow","date":"2026-08-01","timeLocal":"17:00"},"geometry":{"type":"Polygon","coordinates":[[[127.52961,37.58289],[127.52961,37.58282],[127.5297,37.58282],[127.5297,37.58289],[127.52961,37.58289]]]}},{"type":"Feature","properties":{"valleyId":"sanasa","layer":"shadow","date":"2026-08-01","timeLocal":"17:00"},"geometry":{"type":"Polygon","coordinates":[[[127.54331,37.58303],[127.54331,37.58297],[127.54338,37.58297],[127.54338,37.58303],[127.54331,37.58303]]]}},{"type":"Feature","properties":{"valleyId":"sanasa","layer":"shadow","date":"2026-08-01","timeLocal":"17:00"},"geometry":{"type":"Polygon","coordinates":[[[127.53681,37.58284],[127.53681,37.58278],[127.53688,37.58279],[127.53688,37.58284],[127.53681,37.58284]]]}},{"type":"Feature","properties":{"valleyId":"sanasa","layer":"shadow","date":"2026-08-01","timeLocal":"17:00"},"geometry":{"type":"Polygon","coordinates":[[[127.52934,37.58289],[127.52929,37.58285],[127.52929,37.58273],[127.52934,37.58269],[127.52934,37.58262],[127.52943,37.58262],[127.52945,37.58277],[127.52941,37.5828],[127.5294,37.58289],[127.52934,37.58289]]]}},{"type":"Feature","properties":{"valleyId":"sanasa","layer":"shadow","date":"2026-08-01","timeLocal":"17:00"},"geometry":{"type":"Polygon","coordinates":[[[127.54157,37.58281],[127.54157,37.58275],[127.54166,37.58275],[127.54166,37.58281],[127.54157,37.58281]]]}},{"type":"Feature","properties":{"valleyId":"sanasa","layer":"shadow","date":"2026-08-01","timeLocal":"17:00"},"geometry":{"type":"Polygon","coordinates":[[[127.53086,37.58267],[127.53086,37.5826],[127.53093,37.5826],[127.53093,37.58268],[127.53086,37.58267]]]}},{"type":"Feature","properties":{"valleyId":"sanasa","layer":"shadow","date":"2026-08-01","timeLocal":"17:00"},"geometry":{"type":"Polygon","coordinates":[[[127.53582,37.58263],[127.53582,37.58257],[127.53589,37.58257],[127.53589,37.58263],[127.53582,37.58263]]]}},{"type":"Feature","properties":{"valleyId":"sanasa","layer":"shadow","date":"2026-08-01","timeLocal":"17:00"},"geometry":{"type":"Polygon","coordinates":[[[127.53561,37.58266],[127.53562,37.58261],[127.53557,37.58261],[127.53557,37.58252],[127.53568,37.58254],[127.53568,37.58266],[127.53561,37.58266]]]}},{"type":"Feature","properties":{"valleyId":"sanasa","layer":"shadow","date":"2026-08-01","timeLocal":"17:00"},"geometry":{"type":"Polygon","coordinates":[[[127.53448,37.58256],[127.53448,37.5825],[127.53455,37.5825],[127.53455,37.58256],[127.53448,37.58256]]]}},{"type":"Feature","properties":{"valleyId":"sanasa","layer":"shadow","date":"2026-08-01","timeLocal":"17:00"},"geometry":{"type":"Polygon","coordinates":[[[127.52884,37.5826],[127.52884,37.58254],[127.52889,37.58254],[127.52887,37.58236],[127.52894,37.58236],[127.52896,37.5824],[127.52901,37.5824],[127.529,37.58251],[127.52896,37.58251],[127.52893,37.5826],[127.52884,37.5826]]]}},{"type":"Feature","properties":{"valleyId":"sanasa","layer":"shadow","date":"2026-08-01","timeLocal":"17:00"},"geometry":{"type":"Polygon","coordinates":[[[127.53605,37.5825],[127.53605,37.58243],[127.53616,37.58245],[127.53616,37.58251],[127.53605,37.5825]]]}},{"type":"Feature","properties":{"valleyId":"sanasa","layer":"shadow","date":"2026-08-01","timeLocal":"17:00"},"geometry":{"type":"Polygon","coordinates":[[[127.53399,37.58246],[127.53399,37.58239],[127.53406,37.58239],[127.53406,37.58246],[127.53399,37.58246]]]}},{"type":"Feature","properties":{"valleyId":"sanasa","layer":"shadow","date":"2026-08-01","timeLocal":"17:00"},"geometry":{"type":"Polygon","coordinates":[[[127.53661,37.58246],[127.53662,37.5824],[127.53668,37.5824],[127.53668,37.58246],[127.53661,37.58246]]]}},{"type":"Feature","properties":{"valleyId":"sanasa","layer":"shadow","date":"2026-08-01","timeLocal":"17:00"},"geometry":{"type":"Polygon","coordinates":[[[127.53725,37.58243],[127.53725,37.58236],[127.53732,37.58236],[127.53732,37.58243],[127.53725,37.58243]]]}},{"type":"Feature","properties":{"valleyId":"sanasa","layer":"shadow","date":"2026-08-01","timeLocal":"17:00"},"geometry":{"type":"Polygon","coordinates":[[[127.53564,37.58239],[127.53564,37.58232],[127.53573,37.58232],[127.53573,37.58237],[127.53564,37.58239]]]}},{"type":"Feature","properties":{"valleyId":"sanasa","layer":"shadow","date":"2026-08-01","timeLocal":"17:00"},"geometry":{"type":"Polygon","coordinates":[[[127.53671,37.58239],[127.53671,37.58231],[127.53678,37.58232],[127.5368,37.58239],[127.53671,37.58239]]]}},{"type":"Feature","properties":{"valleyId":"sanasa","layer":"shadow","date":"2026-08-01","timeLocal":"17:00"},"geometry":{"type":"Polygon","coordinates":[[[127.53399,37.58232],[127.53399,37.58225],[127.5341,37.58226],[127.5341,37.58232],[127.53399,37.58232]]]}},{"type":"Feature","properties":{"valleyId":"sanasa","layer":"shadow","date":"2026-08-01","timeLocal":"17:00"},"geometry":{"type":"Polygon","coordinates":[[[127.52937,37.58224],[127.52937,37.58217],[127.52944,37.58217],[127.52946,37.58224],[127.52937,37.58224]]]}},{"type":"Feature","properties":{"valleyId":"sanasa","layer":"shadow","date":"2026-08-01","timeLocal":"17:00"},"geometry":{"type":"Polygon","coordinates":[[[127.53646,37.58235],[127.53644,37.58226],[127.53653,37.58226],[127.53653,37.58235],[127.53646,37.58235]]]}},{"type":"Feature","properties":{"valleyId":"sanasa","layer":"shadow","date":"2026-08-01","timeLocal":"17:00"},"geometry":{"type":"Polygon","coordinates":[[[127.52973,37.58221],[127.52973,37.58216],[127.5298,37.58216],[127.5298,37.58221],[127.52973,37.58221]]]}},{"type":"Feature","properties":{"valleyId":"sanasa","layer":"shadow","date":"2026-08-01","timeLocal":"17:00"},"geometry":{"type":"Polygon","coordinates":[[[127.53159,37.58223],[127.53159,37.58216],[127.53166,37.58216],[127.53166,37.58223],[127.53159,37.58223]]]}},{"type":"Feature","properties":{"valleyId":"sanasa","layer":"shadow","date":"2026-08-01","timeLocal":"17:00"},"geometry":{"type":"Polygon","coordinates":[[[127.53548,37.58235],[127.53549,37.5823],[127.53544,37.58226],[127.53544,37.58221],[127.53551,37.58221],[127.53551,37.58225],[127.53555,37.58225],[127.53555,37.58235],[127.53548,37.58235]]]}},{"type":"Feature","properties":{"valleyId":"sanasa","layer":"shadow","date":"2026-08-01","timeLocal":"17:00"},"geometry":{"type":"Polygon","coordinates":[[[127.53275,37.58218],[127.53275,37.58212],[127.53282,37.58212],[127.53281,37.58218],[127.53275,37.58218]]]}},{"type":"Feature","properties":{"valleyId":"sanasa","layer":"shadow","date":"2026-08-01","timeLocal":"17:00"},"geometry":{"type":"Polygon","coordinates":[[[127.53039,37.5822],[127.53039,37.58207],[127.53046,37.58207],[127.5305,37.5822],[127.53039,37.5822]]]}},{"type":"Feature","properties":{"valleyId":"sanasa","layer":"shadow","date":"2026-08-01","timeLocal":"17:00"},"geometry":{"type":"Polygon","coordinates":[[[127.53186,37.58218],[127.53187,37.58209],[127.53193,37.58209],[127.53195,37.58218],[127.53186,37.58218]]]}},{"type":"Feature","properties":{"valleyId":"sanasa","layer":"shadow","date":"2026-08-01","timeLocal":"17:00"},"geometry":{"type":"Polygon","coordinates":[[[127.53155,37.58214],[127.53155,37.58209],[127.53162,37.58209],[127.53162,37.58214],[127.53155,37.58214]]]}},{"type":"Feature","properties":{"valleyId":"sanasa","layer":"shadow","date":"2026-08-01","timeLocal":"17:00"},"geometry":{"type":"Polygon","coordinates":[[[127.52931,37.5821],[127.52931,37.58202],[127.52938,37.58203],[127.5294,37.5821],[127.52931,37.5821]]]}},{"type":"Feature","properties":{"valleyId":"sanasa","layer":"shadow","date":"2026-08-01","timeLocal":"17:00"},"geometry":{"type":"Polygon","coordinates":[[[127.53741,37.58218],[127.53741,37.58213],[127.53748,37.58213],[127.53748,37.58218],[127.53741,37.58218]]]}},{"type":"Feature","properties":{"valleyId":"sanasa","layer":"shadow","date":"2026-08-01","timeLocal":"17:00"},"geometry":{"type":"Polygon","coordinates":[[[127.53771,37.58218],[127.53771,37.58211],[127.53782,37.58213],[127.53782,37.58218],[127.53771,37.58218]]]}},{"type":"Feature","properties":{"valleyId":"sanasa","layer":"shadow","date":"2026-08-01","timeLocal":"17:00"},"geometry":{"type":"Polygon","coordinates":[[[127.5291,37.58202],[127.5291,37.58197],[127.52917,37.58197],[127.52917,37.58202],[127.5291,37.58202]]]}},{"type":"Feature","properties":{"valleyId":"sanasa","layer":"shadow","date":"2026-08-01","timeLocal":"17:00"},"geometry":{"type":"Polygon","coordinates":[[[127.53658,37.58211],[127.53658,37.58204],[127.53665,37.58204],[127.53664,37.58212],[127.53658,37.58211]]]}},{"type":"Feature","properties":{"valleyId":"sanasa","layer":"shadow","date":"2026-08-01","timeLocal":"17:00"},"geometry":{"type":"Polygon","coordinates":[[[127.53807,37.58212],[127.53807,37.58204],[127.53812,37.58201],[127.53819,37.58201],[127.53818,37.5821],[127.53807,37.58212]]]}},{"type":"Feature","properties":{"valleyId":"sanasa","layer":"shadow","date":"2026-08-01","timeLocal":"17:00"},"geometry":{"type":"Polygon","coordinates":[[[127.53694,37.58207],[127.53694,37.58201],[127.53699,37.58201],[127.53699,37.58192],[127.53706,37.58192],[127.53708,37.58199],[127.53701,37.58201],[127.53701,37.58207],[127.53694,37.58207]]]}},{"type":"Feature","properties":{"valleyId":"sanasa","layer":"shadow","date":"2026-08-01","timeLocal":"17:00"},"geometry":{"type":"Polygon","coordinates":[[[127.52992,37.58189],[127.52992,37.58182],[127.52999,37.58182],[127.52999,37.58189],[127.52992,37.58189]]]}},{"type":"Feature","properties":{"valleyId":"sanasa","layer":"shadow","date":"2026-08-01","timeLocal":"17:00"},"geometry":{"type":"Polygon","coordinates":[[[127.53848,37.58194],[127.53848,37.58187],[127.53855,37.58187],[127.53857,37.58194],[127.53848,37.58194]]]}},{"type":"Feature","properties":{"valleyId":"sanasa","layer":"shadow","date":"2026-08-01","timeLocal":"17:00"},"geometry":{"type":"Polygon","coordinates":[[[127.53085,37.58179],[127.53085,37.58172],[127.53092,37.58172],[127.53092,37.58179],[127.53085,37.58179]]]}},{"type":"Feature","properties":{"valleyId":"sanasa","layer":"shadow","date":"2026-08-01","timeLocal":"17:00"},"geometry":{"type":"Polygon","coordinates":[[[127.54211,37.58188],[127.54211,37.58182],[127.54218,37.58182],[127.54218,37.58188],[127.54211,37.58188]]]}},{"type":"Feature","properties":{"valleyId":"sanasa","layer":"shadow","date":"2026-08-01","timeLocal":"17:00"},"geometry":{"type":"Polygon","coordinates":[[[127.53307,37.58173],[127.53307,37.58164],[127.53314,37.58164],[127.53314,37.58173],[127.53307,37.58173]]]}},{"type":"Feature","properties":{"valleyId":"sanasa","layer":"shadow","date":"2026-08-01","timeLocal":"17:00"},"geometry":{"type":"Polygon","coordinates":[[[127.53851,37.58176],[127.53851,37.58171],[127.53858,37.58171],[127.53858,37.58176],[127.53851,37.58176]]]}},{"type":"Feature","properties":{"valleyId":"sanasa","layer":"shadow","date":"2026-08-01","timeLocal":"17:00"},"geometry":{"type":"Polygon","coordinates":[[[127.54602,37.58227],[127.54602,37.58223],[127.54593,37.58221],[127.54593,37.58218],[127.54586,37.58216],[127.54584,37.58205],[127.54577,37.58203],[127.54575,37.58194],[127.54569,37.58192],[127.54562,37.58185],[127.54555,37.58185],[127.54553,37.58176],[127.5456,37.58176],[127.54571,37.58185],[127.54582,37.58189],[127.54582,37.58194],[127.54587,37.58194],[127.54587,37.58198],[127.54591,37.58198],[127.54598,37.58205],[127.54604,37.58207],[127.54607,37.58218],[127.54613,37.5822],[127.54613,37.58225],[127.54602,37.58227]]]}},{"type":"Feature","properties":{"valleyId":"sanasa","layer":"shadow","date":"2026-08-01","timeLocal":"17:00"},"geometry":{"type":"Polygon","coordinates":[[[127.53819,37.58174],[127.53817,37.58159],[127.53824,37.58159],[127.53826,37.58174],[127.53819,37.58174]]]}},{"type":"Feature","properties":{"valleyId":"sanasa","layer":"shadow","date":"2026-08-01","timeLocal":"17:00"},"geometry":{"type":"Polygon","coordinates":[[[127.53303,37.5816],[127.53303,37.58153],[127.5331,37.58153],[127.5331,37.5816],[127.53303,37.5816]]]}},{"type":"Feature","properties":{"valleyId":"sanasa","layer":"shadow","date":"2026-08-01","timeLocal":"17:00"},"geometry":{"type":"Polygon","coordinates":[[[127.53751,37.58166],[127.53752,37.58159],[127.53758,37.58159],[127.53758,37.58166],[127.53751,37.58166]]]}},{"type":"Feature","properties":{"valleyId":"sanasa","layer":"shadow","date":"2026-08-01","timeLocal":"17:00"},"geometry":{"type":"Polygon","coordinates":[[[127.534,37.58158],[127.53401,37.58151],[127.53407,37.58151],[127.53407,37.58158],[127.534,37.58158]]]}},{"type":"Feature","properties":{"valleyId":"sanasa","layer":"shadow","date":"2026-08-01","timeLocal":"17:00"},"geometry":{"type":"Polygon","coordinates":[[[127.54637,37.58166],[127.54637,37.58161],[127.54644,37.58161],[127.54644,37.58166],[127.54637,37.58166]]]}},{"type":"Feature","properties":{"valleyId":"sanasa","layer":"shadow","date":"2026-08-01","timeLocal":"17:00"},"geometry":{"type":"Polygon","coordinates":[[[127.53779,37.58161],[127.53779,37.58154],[127.53783,37.5815],[127.5379,37.5815],[127.5379,37.58146],[127.53797,37.58147],[127.53797,37.58157],[127.53779,37.58161]]]}},{"type":"Feature","properties":{"valleyId":"sanasa","layer":"shadow","date":"2026-08-01","timeLocal":"17:00"},"geometry":{"type":"Polygon","coordinates":[[[127.5389,37.58153],[127.5389,37.58146],[127.53897,37.58146],[127.53897,37.58153],[127.5389,37.58153]]]}},{"type":"Feature","properties":{"valleyId":"sanasa","layer":"shadow","date":"2026-08-01","timeLocal":"17:00"},"geometry":{"type":"Polygon","coordinates":[[[127.53052,37.58141],[127.53052,37.58134],[127.53059,37.58134],[127.53061,37.58141],[127.53052,37.58141]]]}},{"type":"Feature","properties":{"valleyId":"sanasa","layer":"shadow","date":"2026-08-01","timeLocal":"17:00"},"geometry":{"type":"Polygon","coordinates":[[[127.53706,37.58149],[127.537,37.58145],[127.537,37.5814],[127.53713,37.58144],[127.53713,37.58149],[127.53706,37.58149]]]}},{"type":"Feature","properties":{"valleyId":"sanasa","layer":"shadow","date":"2026-08-01","timeLocal":"17:00"},"geometry":{"type":"Polygon","coordinates":[[[127.53426,37.58142],[127.53428,37.58133],[127.53439,37.58133],[127.53437,37.58142],[127.53426,37.58142]]]}},{"type":"Feature","properties":{"valleyId":"sanasa","layer":"shadow","date":"2026-08-01","timeLocal":"17:00"},"geometry":{"type":"Polygon","coordinates":[[[127.53806,37.58145],[127.53806,37.58139],[127.53822,37.58138],[127.53822,37.58143],[127.53806,37.58145]]]}},{"type":"Feature","properties":{"valleyId":"sanasa","layer":"shadow","date":"2026-08-01","timeLocal":"17:00"},"geometry":{"type":"Polygon","coordinates":[[[127.53288,37.58137],[127.53288,37.58129],[127.53295,37.58129],[127.53294,37.58137],[127.53288,37.58137]]]}},{"type":"Feature","properties":{"valleyId":"sanasa","layer":"shadow","date":"2026-08-01","timeLocal":"17:00"},"geometry":{"type":"Polygon","coordinates":[[[127.54508,37.58152],[127.54504,37.5815],[127.54504,37.58144],[127.54515,37.58146],[127.54515,37.58152],[127.54508,37.58152]]]}},{"type":"Feature","properties":{"valleyId":"sanasa","layer":"shadow","date":"2026-08-01","timeLocal":"17:00"},"geometry":{"type":"Polygon","coordinates":[[[127.53442,37.58133],[127.53442,37.58128],[127.53449,37.58128],[127.53448,37.58133],[127.53442,37.58133]]]}},{"type":"Feature","properties":{"valleyId":"sanasa","layer":"shadow","date":"2026-08-01","timeLocal":"17:00"},"geometry":{"type":"Polygon","coordinates":[[[127.53901,37.58144],[127.53902,37.58132],[127.53908,37.58132],[127.5391,37.58144],[127.53901,37.58144]]]}},{"type":"Feature","properties":{"valleyId":"sanasa","layer":"shadow","date":"2026-08-01","timeLocal":"17:00"},"geometry":{"type":"Polygon","coordinates":[[[127.53025,37.58124],[127.53025,37.58119],[127.53032,37.58119],[127.53032,37.58124],[127.53025,37.58124]]]}},{"type":"Feature","properties":{"valleyId":"sanasa","layer":"shadow","date":"2026-08-01","timeLocal":"17:00"},"geometry":{"type":"Polygon","coordinates":[[[127.53007,37.58115],[127.53007,37.58108],[127.53014,37.58108],[127.53014,37.58115],[127.53007,37.58115]]]}},{"type":"Feature","properties":{"valleyId":"sanasa","layer":"shadow","date":"2026-08-01","timeLocal":"17:00"},"geometry":{"type":"Polygon","coordinates":[[[127.53288,37.58117],[127.53288,37.5811],[127.53302,37.5811],[127.53302,37.58117],[127.53288,37.58117]]]}},{"type":"Feature","properties":{"valleyId":"sanasa","layer":"shadow","date":"2026-08-01","timeLocal":"17:00"},"geometry":{"type":"Polygon","coordinates":[[[127.53906,37.58124],[127.53906,37.58117],[127.53911,37.58114],[127.53922,37.58114],[127.53922,37.58125],[127.53906,37.58124]]]}},{"type":"Feature","properties":{"valleyId":"sanasa","layer":"shadow","date":"2026-08-01","timeLocal":"17:00"},"geometry":{"type":"Polygon","coordinates":[[[127.53091,37.58111],[127.53091,37.58102],[127.53105,37.58102],[127.53102,37.58111],[127.53091,37.58111]]]}},{"type":"Feature","properties":{"valleyId":"sanasa","layer":"shadow","date":"2026-08-01","timeLocal":"17:00"},"geometry":{"type":"Polygon","coordinates":[[[127.54185,37.58121],[127.54185,37.58115],[127.54192,37.58115],[127.54192,37.58121],[127.54185,37.58121]]]}},{"type":"Feature","properties":{"valleyId":"sanasa","layer":"shadow","date":"2026-08-01","timeLocal":"17:00"},"geometry":{"type":"Polygon","coordinates":[[[127.52971,37.58111],[127.52969,37.58098],[127.52978,37.58097],[127.52978,37.58111],[127.52971,37.58111]]]}},{"type":"Feature","properties":{"valleyId":"sanasa","layer":"shadow","date":"2026-08-01","timeLocal":"17:00"},"geometry":{"type":"Polygon","coordinates":[[[127.53965,37.58127],[127.53963,37.5812],[127.53967,37.5812],[127.53968,37.58107],[127.53974,37.58107],[127.53974,37.58122],[127.53979,37.58122],[127.53979,37.58127],[127.53965,37.58127]]]}},{"type":"Feature","properties":{"valleyId":"sanasa","layer":"shadow","date":"2026-08-01","timeLocal":"17:00"},"geometry":{"type":"Polygon","coordinates":[[[127.53695,37.58129],[127.53694,37.58098],[127.53701,37.58098],[127.53707,37.58109],[127.53707,37.5812],[127.53714,37.58124],[127.53714,37.58129],[127.53695,37.58129]]]}},{"type":"Feature","properties":{"valleyId":"sanasa","layer":"shadow","date":"2026-08-01","timeLocal":"17:00"},"geometry":{"type":"Polygon","coordinates":[[[127.53861,37.58117],[127.53852,37.58115],[127.5385,37.58111],[127.53836,37.58109],[127.53836,37.58106],[127.5383,37.581],[127.5383,37.58093],[127.53834,37.58093],[127.53834,37.58087],[127.5385,37.58091],[127.53852,37.58099],[127.53859,37.58104],[127.53864,37.58104],[127.53863,37.58108],[127.53868,37.5811],[127.53868,37.58117],[127.53861,37.58117]]]}},{"type":"Feature","properties":{"valleyId":"sanasa","layer":"shadow","date":"2026-08-01","timeLocal":"17:00"},"geometry":{"type":"Polygon","coordinates":[[[127.53705,37.58091],[127.53705,37.58086],[127.53712,37.58086],[127.53712,37.58091],[127.53705,37.58091]]]}},{"type":"Feature","properties":{"valleyId":"sanasa","layer":"shadow","date":"2026-08-01","timeLocal":"17:00"},"geometry":{"type":"Polygon","coordinates":[[[127.53963,37.58105],[127.53963,37.58093],[127.53959,37.58093],[127.53959,37.58087],[127.5397,37.58086],[127.5397,37.58105],[127.53963,37.58105]]]}},{"type":"Feature","properties":{"valleyId":"sanasa","layer":"shadow","date":"2026-08-01","timeLocal":"17:00"},"geometry":{"type":"Polygon","coordinates":[[[127.53925,37.58112],[127.53925,37.58099],[127.5392,37.58099],[127.53916,37.58094],[127.53916,37.58083],[127.5393,37.58083],[127.53927,37.58096],[127.53934,37.58096],[127.53936,37.58112],[127.53925,37.58112]]]}},{"type":"Feature","properties":{"valleyId":"sanasa","layer":"shadow","date":"2026-08-01","timeLocal":"17:00"},"geometry":{"type":"Polygon","coordinates":[[[127.53506,37.58096],[127.53506,37.58074],[127.53513,37.58075],[127.53515,37.58094],[127.53506,37.58096]]]}},{"type":"Feature","properties":{"valleyId":"sanasa","layer":"shadow","date":"2026-08-01","timeLocal":"17:00"},"geometry":{"type":"Polygon","coordinates":[[[127.54625,37.58094],[127.54625,37.58085],[127.54632,37.58085],[127.54632,37.58094],[127.54625,37.58094]]]}},{"type":"Feature","properties":{"valleyId":"sanasa","layer":"shadow","date":"2026-08-01","timeLocal":"17:00"},"geometry":{"type":"Polygon","coordinates":[[[127.53826,37.5808],[127.53826,37.58075],[127.53832,37.58075],[127.53832,37.5808],[127.53826,37.5808]]]}},{"type":"Feature","properties":{"valleyId":"sanasa","layer":"shadow","date":"2026-08-01","timeLocal":"17:00"},"geometry":{"type":"Polygon","coordinates":[[[127.54688,37.58091],[127.54688,37.58085],[127.54695,37.58086],[127.54695,37.58091],[127.54688,37.58091]]]}},{"type":"Feature","properties":{"valleyId":"sanasa","layer":"shadow","date":"2026-08-01","timeLocal":"17:00"},"geometry":{"type":"Polygon","coordinates":[[[127.54287,37.58113],[127.5429,37.58093],[127.54283,37.58086],[127.54283,37.58071],[127.54292,37.58072],[127.54296,37.5809],[127.54296,37.58113],[127.54287,37.58113]]]}},{"type":"Feature","properties":{"valleyId":"sanasa","layer":"shadow","date":"2026-08-01","timeLocal":"17:00"},"geometry":{"type":"Polygon","coordinates":[[[127.53968,37.58084],[127.53966,37.58064],[127.53984,37.58064],[127.53989,37.58068],[127.53984,37.58082],[127.53968,37.58084]]]}},{"type":"Feature","properties":{"valleyId":"sanasa","layer":"shadow","date":"2026-08-01","timeLocal":"17:00"},"geometry":{"type":"Polygon","coordinates":[[[127.54396,37.58076],[127.54397,37.58069],[127.54403,37.58069],[127.54403,37.58077],[127.54396,37.58076]]]}},{"type":"Feature","properties":{"valleyId":"sanasa","layer":"shadow","date":"2026-08-01","timeLocal":"17:00"},"geometry":{"type":"Polygon","coordinates":[[[127.53509,37.58058],[127.53509,37.58047],[127.53516,37.58047],[127.53516,37.58058],[127.53509,37.58058]]]}},{"type":"Feature","properties":{"valleyId":"sanasa","layer":"shadow","date":"2026-08-01","timeLocal":"17:00"},"geometry":{"type":"Polygon","coordinates":[[[127.53819,37.58062],[127.53817,37.58051],[127.53831,37.58053],[127.5383,37.5806],[127.53819,37.58062]]]}},{"type":"Feature","properties":{"valleyId":"sanasa","layer":"shadow","date":"2026-08-01","timeLocal":"17:00"},"geometry":{"type":"Polygon","coordinates":[[[127.53966,37.58057],[127.53964,37.58051],[127.53957,37.58051],[127.53958,37.58046],[127.53971,37.58046],[127.53973,37.58057],[127.53966,37.58057]]]}},{"type":"Feature","properties":{"valleyId":"sanasa","layer":"shadow","date":"2026-08-01","timeLocal":"17:00"},"geometry":{"type":"Polygon","coordinates":[[[127.54684,37.58057],[127.54685,37.58049],[127.54691,37.58049],[127.54691,37.58057],[127.54684,37.58057]]]}},{"type":"Feature","properties":{"valleyId":"sanasa","layer":"shadow","date":"2026-08-01","timeLocal":"17:00"},"geometry":{"type":"Polygon","coordinates":[[[127.54687,37.58048],[127.54687,37.58042],[127.54694,37.58042],[127.54694,37.58048],[127.54687,37.58048]]]}},{"type":"Feature","properties":{"valleyId":"sanasa","layer":"shadow","date":"2026-08-01","timeLocal":"17:00"},"geometry":{"type":"Polygon","coordinates":[[[127.53946,37.58044],[127.53944,37.58028],[127.53951,37.58028],[127.53956,37.58031],[127.53955,37.58044],[127.53946,37.58044]]]}},{"type":"Feature","properties":{"valleyId":"sanasa","layer":"shadow","date":"2026-08-01","timeLocal":"17:00"},"geometry":{"type":"Polygon","coordinates":[[[127.53528,37.58031],[127.53528,37.58021],[127.53535,37.58021],[127.53534,37.58032],[127.53528,37.58031]]]}},{"type":"Feature","properties":{"valleyId":"sanasa","layer":"shadow","date":"2026-08-01","timeLocal":"17:00"},"geometry":{"type":"Polygon","coordinates":[[[127.53817,37.58046],[127.53817,37.58037],[127.53808,37.58029],[127.53809,37.58015],[127.53824,37.58017],[127.53829,37.58032],[127.53822,37.58031],[127.53822,37.58037],[127.53833,37.58039],[127.53833,37.58044],[127.53817,37.58046]]]}},{"type":"Feature","properties":{"valleyId":"sanasa","layer":"shadow","date":"2026-08-01","timeLocal":"17:00"},"geometry":{"type":"Polygon","coordinates":[[[127.53985,37.58026],[127.53985,37.58021],[127.53981,37.58021],[127.53981,37.58015],[127.53988,37.58015],[127.53987,37.58021],[127.53994,37.58021],[127.53994,37.58026],[127.53985,37.58026]]]}},{"type":"Feature","properties":{"valleyId":"sanasa","layer":"shadow","date":"2026-08-01","timeLocal":"17:00"},"geometry":{"type":"Polygon","coordinates":[[[127.54252,37.58021],[127.5425,37.5801],[127.54259,37.5801],[127.54259,37.58021],[127.54252,37.58021]]]}},{"type":"Feature","properties":{"valleyId":"sanasa","layer":"shadow","date":"2026-08-01","timeLocal":"17:00"},"geometry":{"type":"Polygon","coordinates":[[[127.53802,37.5801],[127.538,37.58002],[127.53811,37.58001],[127.53809,37.5801],[127.53802,37.5801]]]}},{"type":"Feature","properties":{"valleyId":"sanasa","layer":"shadow","date":"2026-08-01","timeLocal":"17:00"},"geometry":{"type":"Polygon","coordinates":[[[127.53791,37.58002],[127.53789,37.57993],[127.53798,37.57993],[127.53798,37.58002],[127.53791,37.58002]]]}},{"type":"Feature","properties":{"valleyId":"sanasa","layer":"shadow","date":"2026-08-01","timeLocal":"17:00"},"geometry":{"type":"Polygon","coordinates":[[[127.5476,37.58007],[127.5476,37.58002],[127.54767,37.58002],[127.54767,37.58007],[127.5476,37.58007]]]}},{"type":"Feature","properties":{"valleyId":"sanasa","layer":"shadow","date":"2026-08-01","timeLocal":"17:00"},"geometry":{"type":"Polygon","coordinates":[[[127.54412,37.58064],[127.54413,37.58055],[127.54424,37.58055],[127.54424,37.58043],[127.54429,37.58043],[127.54429,37.58037],[127.5442,37.58033],[127.5442,37.58024],[127.54425,37.58023],[127.54427,37.58012],[127.54445,37.58012],[127.5445,37.58001],[127.54457,37.58001],[127.54464,37.57994],[127.5448,37.57991],[127.54482,37.57987],[127.54486,37.57987],[127.54489,37.57982],[127.54498,37.57982],[127.545,37.57998],[127.54491,37.58],[127.54491,37.58009],[127.54466,37.58012],[127.54463,37.58025],[127.5447,37.58025],[127.5447,37.5803],[127.54454,37.58032],[127.54447,37.58023],[127.5444,37.58023],[127.54438,37.58028],[127.54434,37.58028],[127.54433,37.58035],[127.54445,37.58036],[127.54445,37.58039],[127.54449,37.58039],[127.54449,37.5805],[127.54435,37.58059],[127.54412,37.58064]]]}},{"type":"Feature","properties":{"valleyId":"sanasa","layer":"shadow","date":"2026-08-01","timeLocal":"17:00"},"geometry":{"type":"Polygon","coordinates":[[[127.54158,37.57985],[127.54158,37.57978],[127.5417,37.57978],[127.54169,37.57983],[127.54158,37.57985]]]}},{"type":"Feature","properties":{"valleyId":"sanasa","layer":"shadow","date":"2026-08-01","timeLocal":"17:00"},"geometry":{"type":"Polygon","coordinates":[[[127.54267,37.5799],[127.54267,37.57976],[127.54272,37.5797],[127.54278,37.5797],[127.54278,37.57976],[127.54274,37.57979],[127.54273,37.5799],[127.54267,37.5799]]]}},{"type":"Feature","properties":{"valleyId":"sanasa","layer":"shadow","date":"2026-08-01","timeLocal":"17:00"},"geometry":{"type":"Polygon","coordinates":[[[127.54518,37.57982],[127.54516,37.57972],[127.54525,37.5797],[127.54527,37.57982],[127.54518,37.57982]]]}},{"type":"Feature","properties":{"valleyId":"sanasa","layer":"shadow","date":"2026-08-01","timeLocal":"17:00"},"geometry":{"type":"Polygon","coordinates":[[[127.53956,37.5801],[127.53952,37.57992],[127.53938,37.57988],[127.53932,37.57982],[127.5393,37.57962],[127.53955,37.57961],[127.53955,37.57968],[127.5395,37.57968],[127.5395,37.57977],[127.53945,37.57977],[127.53945,37.57983],[127.53963,37.57985],[127.53963,37.5799],[127.53959,37.5799],[127.53959,37.57995],[127.53963,37.57997],[127.53963,37.5801],[127.53956,37.5801]]]}},{"type":"Feature","properties":{"valleyId":"sanasa","layer":"shadow","date":"2026-08-01","timeLocal":"17:00"},"geometry":{"type":"Polygon","coordinates":[[[127.54525,37.57966],[127.54525,37.57961],[127.54532,37.57961],[127.54532,37.57966],[127.54525,37.57966]]]}},{"type":"Feature","properties":{"valleyId":"sanasa","layer":"shadow","date":"2026-08-01","timeLocal":"17:00"},"geometry":{"type":"Polygon","coordinates":[[[127.54544,37.57957],[127.54544,37.57952],[127.54553,37.5795],[127.54553,37.57956],[127.54544,37.57957]]]}},{"type":"Feature","properties":{"valleyId":"sanasa","layer":"shadow","date":"2026-08-01","timeLocal":"17:00"},"geometry":{"type":"Polygon","coordinates":[[[127.54506,37.57928],[127.54501,37.57924],[127.54501,37.57915],[127.5451,37.57916],[127.54517,37.57921],[127.54517,37.57928],[127.54506,37.57928]]]}},{"type":"Feature","properties":{"valleyId":"sanasa","layer":"shadow","date":"2026-08-01","timeLocal":"17:00"},"geometry":{"type":"Polygon","coordinates":[[[127.54552,37.57891],[127.54552,37.57885],[127.54559,37.57886],[127.54559,37.57891],[127.54552,37.57891]]]}},{"type":"Feature","properties":{"valleyId":"sanasa","layer":"shadow","date":"2026-08-01","timeLocal":"17:00"},"geometry":{"type":"Polygon","coordinates":[[[127.54525,37.57873],[127.54523,37.57854],[127.5453,37.57855],[127.54532,37.57873],[127.54525,37.57873]]]}},{"type":"Feature","properties":{"valleyId":"sanasa","layer":"shadow","date":"2026-08-01","timeLocal":"17:00"},"geometry":{"type":"Polygon","coordinates":[[[127.54505,37.57838],[127.54503,37.57831],[127.54512,37.57831],[127.54514,37.57838],[127.54505,37.57838]]]}},{"type":"Feature","properties":{"valleyId":"sanasa","layer":"shadow","date":"2026-08-01","timeLocal":"17:00"},"geometry":{"type":"Polygon","coordinates":[[[127.54623,37.57838],[127.54618,37.57836],[127.54619,37.57829],[127.5463,37.57831],[127.5463,37.57838],[127.54623,37.57838]]]}},{"type":"Feature","properties":{"valleyId":"sanasa","layer":"shadow","date":"2026-08-01","timeLocal":"17:00"},"geometry":{"type":"Polygon","coordinates":[[[127.54986,37.57808],[127.54986,37.57799],[127.54993,37.57799],[127.54993,37.57808],[127.54986,37.57808]]]}},{"type":"Feature","properties":{"valleyId":"sanasa","layer":"shadow","date":"2026-08-01","timeLocal":"17:00"},"geometry":{"type":"Polygon","coordinates":[[[127.5498,37.57786],[127.5498,37.57781],[127.54986,37.57781],[127.54986,37.57786],[127.5498,37.57786]]]}},{"type":"Feature","properties":{"valleyId":"sanasa","layer":"shadow","date":"2026-08-01","timeLocal":"17:00"},"geometry":{"type":"Polygon","coordinates":[[[127.54614,37.57818],[127.54603,37.57805],[127.54603,37.57794],[127.54599,37.57785],[127.54595,37.57785],[127.5459,37.57769],[127.54597,37.57769],[127.54604,37.57774],[127.54608,37.57791],[127.54613,37.57792],[127.54612,37.57798],[127.54621,37.57807],[127.54621,37.57818],[127.54614,37.57818]]]}},{"type":"Feature","properties":{"valleyId":"sanasa","layer":"shadow","date":"2026-08-01","timeLocal":"17:00"},"geometry":{"type":"Polygon","coordinates":[[[127.54584,37.57758],[127.54584,37.57749],[127.54591,37.57749],[127.54593,37.57756],[127.54584,37.57758]]]}},{"type":"Feature","properties":{"valleyId":"sanasa","layer":"shadow","date":"2026-08-01","timeLocal":"17:00"},"geometry":{"type":"Polygon","coordinates":[[[127.54996,37.57756],[127.54996,37.57747],[127.55003,37.57747],[127.55003,37.57756],[127.54996,37.57756]]]}},{"type":"Feature","properties":{"valleyId":"sanasa","layer":"shadow","date":"2026-08-01","timeLocal":"17:00"},"geometry":{"type":"Polygon","coordinates":[[[127.54998,37.57745],[127.55001,37.57734],[127.55008,37.57734],[127.55005,37.57745],[127.54998,37.57745]]]}},{"type":"Feature","properties":{"valleyId":"sanasa","layer":"shadow","date":"2026-08-01","timeLocal":"17:00"},"geometry":{"type":"Polygon","coordinates":[[[127.55073,37.57731],[127.55074,37.57726],[127.5508,37.57726],[127.5508,37.57732],[127.55073,37.57731]]]}},{"type":"Feature","properties":{"valleyId":"sanasa","layer":"shadow","date":"2026-08-01","timeLocal":"17:00"},"geometry":{"type":"Polygon","coordinates":[[[127.55094,37.57728],[127.55094,37.57714],[127.55101,37.57714],[127.55101,37.57728],[127.55094,37.57728]]]}},{"type":"Feature","properties":{"valleyId":"sanasa","layer":"shadow","date":"2026-08-01","timeLocal":"17:00"},"geometry":{"type":"Polygon","coordinates":[[[127.54762,37.57677],[127.54762,37.57672],[127.54769,37.57672],[127.54769,37.57677],[127.54762,37.57677]]]}},{"type":"Feature","properties":{"valleyId":"sanasa","layer":"shadow","date":"2026-08-01","timeLocal":"17:00"},"geometry":{"type":"Polygon","coordinates":[[[127.55131,37.57678],[127.55131,37.57671],[127.55138,37.57671],[127.55138,37.57678],[127.55131,37.57678]]]}},{"type":"Feature","properties":{"valleyId":"sanasa","layer":"shadow","date":"2026-08-01","timeLocal":"17:00"},"geometry":{"type":"Polygon","coordinates":[[[127.55213,37.5765],[127.55213,37.57643],[127.55222,37.57643],[127.55222,37.5765],[127.55213,37.5765]]]}},{"type":"Feature","properties":{"valleyId":"sanasa","layer":"shadow","date":"2026-08-01","timeLocal":"17:00"},"geometry":{"type":"Polygon","coordinates":[[[127.54694,37.57691],[127.54685,37.57683],[127.54685,37.57673],[127.54674,37.57672],[127.54672,37.57667],[127.54658,37.57661],[127.54656,37.57656],[127.54638,37.57654],[127.54638,37.57649],[127.54633,37.57647],[127.54634,37.57638],[127.54629,37.57634],[127.54634,37.57621],[127.54645,37.57623],[127.54647,37.57638],[127.5467,37.57642],[127.54674,37.57645],[127.54674,37.5766],[127.54692,37.57667],[127.54694,37.57678],[127.54701,37.57684],[127.54701,37.57691],[127.54694,37.57691]]]}},{"type":"Feature","properties":{"valleyId":"sanasa","layer":"shadow","date":"2026-08-01","timeLocal":"17:00"},"geometry":{"type":"Polygon","coordinates":[[[127.54829,37.57624],[127.54829,37.5762],[127.54822,37.57618],[127.54822,37.57613],[127.54836,37.57611],[127.54835,37.57624],[127.54829,37.57624]]]}},{"type":"Feature","properties":{"valleyId":"sanasa","layer":"shadow","date":"2026-08-01","timeLocal":"17:00"},"geometry":{"type":"Polygon","coordinates":[[[127.55225,37.57614],[127.55225,37.57609],[127.55232,37.57609],[127.55232,37.57614],[127.55225,37.57614]]]}},{"type":"Feature","properties":{"valleyId":"sanasa","layer":"shadow","date":"2026-08-01","timeLocal":"17:00"},"geometry":{"type":"Polygon","coordinates":[[[127.54765,37.5762],[127.54763,37.57616],[127.54761,37.57601],[127.54775,37.57603],[127.54774,37.5762],[127.54765,37.5762]]]}},{"type":"Feature","properties":{"valleyId":"sanasa","layer":"shadow","date":"2026-08-01","timeLocal":"17:00"},"geometry":{"type":"Polygon","coordinates":[[[127.54725,37.57596],[127.54725,37.5759],[127.54732,37.5759],[127.54732,37.57596],[127.54725,37.57596]]]}},{"type":"Feature","properties":{"valleyId":"sanasa","layer":"shadow","date":"2026-08-01","timeLocal":"17:00"},"geometry":{"type":"Polygon","coordinates":[[[127.54739,37.57603],[127.54734,37.57599],[127.54734,37.57594],[127.54743,37.57594],[127.54746,37.57585],[127.54752,37.57585],[127.54752,37.57601],[127.54739,37.57603]]]}},{"type":"Feature","properties":{"valleyId":"sanasa","layer":"shadow","date":"2026-08-01","timeLocal":"17:00"},"geometry":{"type":"Polygon","coordinates":[[[127.54709,37.57583],[127.54705,37.57577],[127.54705,37.57557],[127.54717,37.57558],[127.54716,37.57572],[127.54732,37.57574],[127.54734,37.57581],[127.54709,37.57583]]]}},{"type":"Feature","properties":{"valleyId":"sanasa","layer":"shadow","date":"2026-08-01","timeLocal":"17:00"},"geometry":{"type":"Polygon","coordinates":[[[127.55188,37.57567],[127.55188,37.57558],[127.55195,37.57558],[127.55194,37.57567],[127.55188,37.57567]]]}},{"type":"Feature","properties":{"valleyId":"sanasa","layer":"shadow","date":"2026-08-01","timeLocal":"17:00"},"geometry":{"type":"Polygon","coordinates":[[[127.54719,37.57558],[127.54719,37.5755],[127.5473,37.57551],[127.5473,37.57558],[127.54719,37.57558]]]}},{"type":"Feature","properties":{"valleyId":"sanasa","layer":"shadow","date":"2026-08-01","timeLocal":"17:00"},"geometry":{"type":"Polygon","coordinates":[[[127.55383,37.57541],[127.55383,37.57535],[127.55394,37.57535],[127.55394,37.57541],[127.55383,37.57541]]]}},{"type":"Feature","properties":{"valleyId":"sanasa","layer":"shadow","date":"2026-08-01","timeLocal":"17:00"},"geometry":{"type":"Polygon","coordinates":[[[127.54818,37.57582],[127.54816,37.5757],[127.54809,37.57566],[127.5481,37.5755],[127.54801,37.57544],[127.5479,37.57542],[127.54792,37.57532],[127.54787,37.57531],[127.54788,37.57526],[127.54792,37.57524],[127.54799,37.57524],[127.54806,37.5753],[127.54815,37.5753],[127.54819,37.57535],[127.54817,37.57552],[127.54826,37.57554],[127.54825,37.57582],[127.54818,37.57582]]]}},{"type":"Feature","properties":{"valleyId":"sanasa","layer":"shadow","date":"2026-08-01","timeLocal":"17:00"},"geometry":{"type":"Polygon","coordinates":[[[127.55206,37.57542],[127.55206,37.57531],[127.55213,37.57529],[127.55213,37.57524],[127.5522,37.57524],[127.55218,37.5754],[127.55206,37.57542]]]}},{"type":"Feature","properties":{"valleyId":"sanasa","layer":"shadow","date":"2026-08-01","timeLocal":"17:00"},"geometry":{"type":"Polygon","coordinates":[[[127.55216,37.57522],[127.55216,37.57513],[127.55225,37.57512],[127.55222,37.57522],[127.55216,37.57522]]]}},{"type":"Feature","properties":{"valleyId":"sanasa","layer":"shadow","date":"2026-08-01","timeLocal":"17:00"},"geometry":{"type":"Polygon","coordinates":[[[127.54844,37.57516],[127.5484,37.57512],[127.5484,37.57501],[127.54851,37.57503],[127.54853,37.57516],[127.54844,37.57516]]]}},{"type":"Feature","properties":{"valleyId":"sanasa","layer":"shadow","date":"2026-08-01","timeLocal":"17:00"},"geometry":{"type":"Polygon","coordinates":[[[127.55232,37.5749],[127.55232,37.57485],[127.55239,37.57485],[127.55239,37.5749],[127.55232,37.5749]]]}},{"type":"Feature","properties":{"valleyId":"sanasa","layer":"shadow","date":"2026-08-01","timeLocal":"17:00"},"geometry":{"type":"Polygon","coordinates":[[[127.5484,37.57496],[127.54836,37.57487],[127.54838,37.57471],[127.54854,37.57473],[127.54857,37.57466],[127.54866,37.57466],[127.54861,37.5748],[127.54843,37.57478],[127.54843,37.57483],[127.54849,37.57487],[127.54849,37.57493],[127.54847,37.57496],[127.5484,37.57496]]]}},{"type":"Feature","properties":{"valleyId":"sanasa","layer":"shadow","date":"2026-08-01","timeLocal":"17:00"},"geometry":{"type":"Polygon","coordinates":[[[127.54841,37.5746],[127.54841,37.57455],[127.5485,37.57455],[127.5485,37.5746],[127.54841,37.5746]]]}},{"type":"Feature","properties":{"valleyId":"sanasa","layer":"shadow","date":"2026-08-01","timeLocal":"17:00"},"geometry":{"type":"Polygon","coordinates":[[[127.5482,37.57474],[127.54811,37.57467],[127.54805,37.57467],[127.54805,37.5746],[127.54823,37.57453],[127.5483,37.57453],[127.5483,37.57463],[127.54839,37.57465],[127.54838,37.57471],[127.54832,37.57471],[127.54832,37.57474],[127.5482,37.57474]]]}},{"type":"Feature","properties":{"valleyId":"sanasa","layer":"shadow","date":"2026-08-01","timeLocal":"17:00"},"geometry":{"type":"Polygon","coordinates":[[[127.55045,37.57457],[127.55045,37.57452],[127.55052,37.57446],[127.5507,37.57445],[127.5507,37.5745],[127.55063,37.5745],[127.55054,37.57457],[127.55045,37.57457]]]}},{"type":"Feature","properties":{"valleyId":"sanasa","layer":"shadow","date":"2026-08-01","timeLocal":"17:00"},"geometry":{"type":"Polygon","coordinates":[[[127.55115,37.57447],[127.55113,37.57438],[127.55124,37.57438],[127.55122,37.57447],[127.55115,37.57447]]]}},{"type":"Feature","properties":{"valleyId":"sanasa","layer":"shadow","date":"2026-08-01","timeLocal":"17:00"},"geometry":{"type":"Polygon","coordinates":[[[127.55272,37.57445],[127.55272,37.5744],[127.55278,37.5744],[127.55278,37.57446],[127.55272,37.57445]]]}},{"type":"Feature","properties":{"valleyId":"sanasa","layer":"shadow","date":"2026-08-01","timeLocal":"17:00"},"geometry":{"type":"Polygon","coordinates":[[[127.55081,37.57443],[127.55081,37.57438],[127.55093,37.57436],[127.55093,37.57443],[127.55081,37.57443]]]}},{"type":"Feature","properties":{"valleyId":"sanasa","layer":"shadow","date":"2026-08-01","timeLocal":"17:00"},"geometry":{"type":"Polygon","coordinates":[[[127.55154,37.57424],[127.55154,37.57417],[127.55161,37.57417],[127.55161,37.57424],[127.55154,37.57424]]]}},{"type":"Feature","properties":{"valleyId":"sanasa","layer":"shadow","date":"2026-08-01","timeLocal":"17:00"},"geometry":{"type":"Polygon","coordinates":[[[127.55104,37.57433],[127.55107,37.57424],[127.55118,37.57424],[127.55125,37.57418],[127.55148,37.57415],[127.55147,37.57422],[127.55129,37.57424],[127.55122,37.57429],[127.55104,37.57433]]]}},{"type":"Feature","properties":{"valleyId":"sanasa","layer":"shadow","date":"2026-08-01","timeLocal":"17:00"},"geometry":{"type":"Polygon","coordinates":[[[127.55237,37.57373],[127.55237,37.57355],[127.55251,37.57355],[127.55251,37.5736],[127.55246,37.5736],[127.55246,37.57373],[127.55237,37.57373]]]}},{"type":"Feature","properties":{"valleyId":"sanasa","layer":"shadow","date":"2026-08-01","timeLocal":"17:00"},"geometry":{"type":"Polygon","coordinates":[[[127.55224,37.57346],[127.55222,37.57335],[127.55233,37.57335],[127.55237,37.57346],[127.55224,37.57346]]]}},{"type":"Feature","properties":{"valleyId":"sanasa","layer":"shadow","date":"2026-08-01","timeLocal":"17:00"},"geometry":{"type":"Polygon","coordinates":[[[127.55254,37.57315],[127.55252,37.57308],[127.55265,37.57308],[127.55265,37.57316],[127.55254,37.57315]]]}},{"type":"Feature","properties":{"valleyId":"sanasa","layer":"shadow","date":"2026-08-01","timeLocal":"17:00"},"geometry":{"type":"Polygon","coordinates":[[[127.55245,37.57305],[127.55243,37.57281],[127.55254,37.57279],[127.55254,37.57285],[127.5525,37.57287],[127.55252,37.57305],[127.55245,37.57305]]]}},{"type":"Feature","properties":{"valleyId":"sanasa","layer":"shadow","date":"2026-08-01","timeLocal":"17:00"},"geometry":{"type":"Polygon","coordinates":[[[127.55257,37.57283],[127.55257,37.57278],[127.55263,37.57278],[127.55263,37.57283],[127.55257,37.57283]]]}},{"type":"Feature","properties":{"valleyId":"sanasa","layer":"shadow","date":"2026-08-01","timeLocal":"17:00"},"geometry":{"type":"Polygon","coordinates":[[[127.55303,37.5724],[127.55301,37.5723],[127.5531,37.5723],[127.55314,37.5724],[127.55303,37.5724]]]}},{"type":"Feature","properties":{"valleyId":"sanasa","layer":"shadow","date":"2026-08-01","timeLocal":"17:00"},"geometry":{"type":"Polygon","coordinates":[[[127.55525,37.57216],[127.55521,37.57214],[127.55521,37.57207],[127.55516,37.57207],[127.55516,37.57202],[127.55525,37.57202],[127.5553,37.57205],[127.55532,37.57216],[127.55525,37.57216]]]}},{"type":"Feature","properties":{"valleyId":"sanasa","layer":"shadow","date":"2026-08-01","timeLocal":"17:00"},"geometry":{"type":"Polygon","coordinates":[[[127.55519,37.57194],[127.55519,37.57189],[127.55526,37.57189],[127.55525,37.57194],[127.55519,37.57194]]]}},{"type":"Feature","properties":{"valleyId":"sanasa","layer":"shadow","date":"2026-08-01","timeLocal":"17:00"},"geometry":{"type":"Polygon","coordinates":[[[127.55322,37.57187],[127.55317,37.57181],[127.55313,37.57181],[127.55313,37.57176],[127.55322,37.57176],[127.55324,37.5717],[127.55336,37.57169],[127.55336,37.57174],[127.55331,37.57174],[127.55333,37.57185],[127.55322,37.57187]]]}},{"type":"Feature","properties":{"valleyId":"sanasa","layer":"shadow","date":"2026-08-01","timeLocal":"17:00"},"geometry":{"type":"Polygon","coordinates":[[[127.55743,37.57071],[127.55743,37.57065],[127.5575,37.57066],[127.5575,37.57071],[127.55743,37.57071]]]}},{"type":"Feature","properties":{"valleyId":"sanasa","layer":"shadow","date":"2026-08-01","timeLocal":"17:00"},"geometry":{"type":"Polygon","coordinates":[[[127.55397,37.57047],[127.55397,37.57041],[127.55406,37.5704],[127.55406,37.57045],[127.55397,37.57047]]]}},{"type":"Feature","properties":{"valleyId":"sanasa","layer":"shadow","date":"2026-08-01","timeLocal":"17:00"},"geometry":{"type":"Polygon","coordinates":[[[127.55759,37.57066],[127.55755,37.57062],[127.55752,37.57049],[127.55746,37.57049],[127.55741,37.57046],[127.55744,37.57037],[127.5575,37.57037],[127.5575,37.57042],[127.55762,37.57042],[127.55764,37.57046],[127.55766,37.57066],[127.55759,37.57066]]]}},{"type":"Feature","properties":{"valleyId":"sanasa","layer":"shadow","date":"2026-08-01","timeLocal":"17:00"},"geometry":{"type":"Polygon","coordinates":[[[127.55757,37.57037],[127.55757,37.57031],[127.55764,37.57032],[127.55764,37.57037],[127.55757,37.57037]]]}},{"type":"Feature","properties":{"valleyId":"sanasa","layer":"shadow","date":"2026-08-01","timeLocal":"17:00"},"geometry":{"type":"Polygon","coordinates":[[[127.55621,37.5692],[127.55622,37.56907],[127.55626,37.56907],[127.55626,37.56898],[127.55635,37.56898],[127.55633,37.56913],[127.55628,37.5692],[127.55621,37.5692]]]}},{"type":"Feature","properties":{"valleyId":"sanasa","layer":"shadow","date":"2026-08-01","timeLocal":"17:00"},"geometry":{"type":"Polygon","coordinates":[[[127.5566,37.56897],[127.5566,37.56891],[127.55669,37.56892],[127.55669,37.56897],[127.5566,37.56897]]]}},{"type":"Feature","properties":{"valleyId":"sanasa","layer":"shadow","date":"2026-08-01","timeLocal":"17:00"},"geometry":{"type":"Polygon","coordinates":[[[127.55699,37.5687],[127.55699,37.56863],[127.55711,37.56861],[127.55711,37.5687],[127.55699,37.5687]]]}},{"type":"Feature","properties":{"valleyId":"sanasa","layer":"shadow","date":"2026-08-01","timeLocal":"17:00"},"geometry":{"type":"Polygon","coordinates":[[[127.55709,37.5686],[127.55709,37.56852],[127.55718,37.56852],[127.55718,37.56858],[127.55709,37.5686]]]}}]}
