{"type":"FeatureCollection","metadata":{"description":"수관 아래(CHM > 2 m) — 시각 무관. 구간 회랑 ±200 m 절단","source":"위성 기반 추정 — Copernicus GLO-30 지형(30 m) + Meta/WRI 수관 높이(1 m CHM, 2019 촬영). 그늘 = 수관(CHM > 2 m) ∪ 나무·지형 그림자 ∪ 원거리 지형 마스크. 현장과 다를 수 있음.","datasetVersion":"2026-09-06.0","collectedAt":"2026-09-06","coordinateOrder":"[longitude, latitude]","crs":"EPSG:4326","representativeDate":"2026-08-01","hours":["10:00","11:00","12:00","13:00","14:00","15:00","16:00","17:00","18:00"],"chmAcquisition":["2019-03"],"assets":{"glo30":{"dataset":"Copernicus DEM GLO-30 (COG, s3://copernicus-dem-30m)","tiles":["Copernicus_DSM_COG_10_N37_00_E127_00_DEM"]},"chm":{"dataset":"Meta/WRI Global Canopy Height Map v1 (alsgedi_global_v6_float, 1 m, CC-BY 4.0)","quadkeys":["132110302"],"acquisition":["2019-03"]}},"method":{"gridResM":2,"canopyThresholdM":2,"bufferHalfM":25,"corridorHalfM":200,"simplifyTolM":2,"minAreaM2":25,"coordDecimals":5},"generator":"scripts/shade 0.1.0","builtAt":"2026-09-06T05:54:56Z","layer":"canopy"},"features":[{"type":"Feature","properties":{"valleyId":"wangbang","layer":"canopy","date":"2026-08-01"},"geometry":{"type":"Polygon","coordinates":[[[127.11722,37.89833],[127.11725,37.89815],[127.1173,37.89812],[127.11757,37.8981],[127.1176,37.89803],[127.11778,37.89793],[127.11781,37.89784],[127.11794,37.89782],[127.11796,37.89793],[127.11801,37.89793],[127.11807,37.898],[127.11805,37.89808],[127.11778,37.89809],[127.11777,37.8982],[127.11773,37.89823],[127.11759,37.89825],[127.11754,37.8983],[127.11743,37.8983],[127.11738,37.89834],[127.11722,37.89833]]]}},{"type":"Feature","properties":{"valleyId":"wangbang","layer":"canopy","date":"2026-08-01"},"geometry":{"type":"Polygon","coordinates":[[[127.1176,37.89778],[127.1176,37.89771],[127.1177,37.89769],[127.11772,37.89776],[127.1176,37.89778]]]}},{"type":"Feature","properties":{"valleyId":"wangbang","layer":"canopy","date":"2026-08-01"},"geometry":{"type":"Polygon","coordinates":[[[127.11306,37.89738],[127.11309,37.89731],[127.11318,37.89731],[127.11318,37.89737],[127.11306,37.89738]]]}},{"type":"Feature","properties":{"valleyId":"wangbang","layer":"canopy","date":"2026-08-01"},"geometry":{"type":"Polygon","coordinates":[[[127.1172,37.89745],[127.11718,37.8974],[127.11707,37.89739],[127.11707,37.89734],[127.11736,37.89736],[127.11736,37.89743],[127.1172,37.89745]]]}},{"type":"Feature","properties":{"valleyId":"wangbang","layer":"canopy","date":"2026-08-01"},"geometry":{"type":"Polygon","coordinates":[[[127.11732,37.89731],[127.11732,37.89722],[127.11739,37.89722],[127.11741,37.89731],[127.11732,37.89731]]]}},{"type":"Feature","properties":{"valleyId":"wangbang","layer":"canopy","date":"2026-08-01"},"geometry":{"type":"Polygon","coordinates":[[[127.1123,37.89683],[127.11226,37.89679],[127.11226,37.89674],[127.11237,37.89676],[127.11237,37.89683],[127.1123,37.89683]]]}},{"type":"Feature","properties":{"valleyId":"wangbang","layer":"canopy","date":"2026-08-01"},"geometry":{"type":"Polygon","coordinates":[[[127.11854,37.89763],[127.11843,37.8976],[127.11841,37.89752],[127.11827,37.89745],[127.11827,37.89739],[127.11804,37.89739],[127.11803,37.89717],[127.11796,37.89714],[127.11796,37.89707],[127.11789,37.89701],[127.1179,37.89697],[127.11776,37.8969],[127.11776,37.89681],[127.11765,37.89672],[127.11763,37.89654],[127.11768,37.8965],[127.11789,37.89649],[127.11788,37.89672],[127.11799,37.89676],[127.1181,37.89689],[127.11817,37.89689],[127.11824,37.89696],[127.11835,37.897],[127.11839,37.89707],[127.11855,37.89707],[127.11865,37.897],[127.1188,37.89701],[127.11883,37.89692],[127.11888,37.89688],[127.11901,37.89688],[127.11904,37.89679],[127.11922,37.89671],[127.11927,37.89664],[127.11925,37.89649],[127.11932,37.8964],[127.11953,37.89639],[127.11955,37.89644],[127.11966,37.89644],[127.11937,37.89711],[127.11923,37.8971],[127.1191,37.89719],[127.11909,37.89726],[127.11918,37.89732],[127.11918,37.89739],[127.11911,37.89744],[127.11911,37.89748],[127.11895,37.8976],[127.11895,37.89764],[127.11881,37.89764],[127.11874,37.8976],[127.11854,37.89763]]]}},{"type":"Feature","properties":{"valleyId":"wangbang","layer":"canopy","date":"2026-08-01"},"geometry":{"type":"Polygon","coordinates":[[[127.11329,37.8984],[127.11334,37.89809],[127.11348,37.89793],[127.11349,37.89777],[127.11342,37.8977],[127.11342,37.89761],[127.11374,37.8975],[127.11381,37.8974],[127.11388,37.8974],[127.11393,37.89743],[127.11402,37.89742],[127.11402,37.89736],[127.11391,37.89727],[127.11391,37.89722],[127.11384,37.8972],[127.11384,37.89713],[127.11366,37.89714],[127.11364,37.89707],[127.11376,37.897],[127.11403,37.89691],[127.11408,37.89679],[127.11408,37.89659],[127.1142,37.89659],[127.11424,37.89665],[127.1147,37.89665],[127.11474,37.89662],[127.11477,37.89637],[127.11487,37.89624],[127.11505,37.89619],[127.11539,37.89619],[127.11548,37.89616],[127.11551,37.89611],[127.11555,37.89611],[127.11558,37.89602],[127.11569,37.89602],[127.11574,37.89607],[127.1158,37.89608],[127.11587,37.89615],[127.11596,37.89619],[127.11596,37.89622],[127.116,37.89622],[127.11609,37.8963],[127.11611,37.89635],[127.11618,37.89637],[127.11618,37.89642],[127.11627,37.89643],[127.11634,37.89646],[127.11634,37.8965],[127.11641,37.89654],[127.11645,37.89661],[127.11645,37.89666],[127.11661,37.89674],[127.1166,37.89692],[127.11687,37.89694],[127.11692,37.89699],[127.11692,37.89707],[127.11701,37.89712],[127.11721,37.89711],[127.11721,37.89716],[127.11716,37.8972],[127.11693,37.89723],[127.11693,37.8973],[127.11698,37.89732],[127.117,37.89739],[127.11704,37.89739],[127.11706,37.89756],[127.11715,37.89757],[127.11717,37.89761],[127.11727,37.89761],[127.11731,37.89767],[127.11754,37.89765],[127.11751,37.89776],[127.11744,37.89778],[127.11742,37.89789],[127.11735,37.89788],[127.11735,37.89781],[127.11719,37.89781],[127.11717,37.8979],[127.1171,37.89793],[127.11709,37.89808],[127.11698,37.89808],[127.11696,37.89799],[127.11676,37.89797],[127.11664,37.89805],[127.11646,37.89803],[127.11643,37.89809],[127.11637,37.89809],[127.11632,37.89814],[127.11627,37.89814],[127.11623,37.89817],[127.11623,37.89823],[127.11611,37.89828],[127.11582,37.89822],[127.11543,37.89807],[127.11541,37.89803],[127.11523,37.89796],[127.11517,37.89789],[127.11512,37.89788],[127.11499,37.89776],[127.1149,37.89776],[127.11459,37.898],[127.11455,37.898],[127.11446,37.89809],[127.11441,37.89809],[127.11425,37.8982],[127.11413,37.89821],[127.11414,37.89818],[127.11407,37.89817],[127.11395,37.8983],[127.11386,37.8983],[127.11384,37.89824],[127.11377,37.89824],[127.11379,37.89835],[127.11374,37.89837],[127.11356,37.89835],[127.11352,37.89829],[127.11352,37.89818],[127.11345,37.89818],[127.11341,37.89822],[127.1134,37.89836],[127.11336,37.8984],[127.11329,37.8984]],[[127.11451,37.89699],[127.11473,37.897],[127.11474,37.89694],[127.11467,37.89692],[127.11463,37.89678],[127.11456,37.89678],[127.11453,37.89683],[127.11437,37.89683],[127.11433,37.89686],[127.11433,37.89695],[127.11448,37.89696],[127.11451,37.89699]]]}},{"type":"Feature","properties":{"valleyId":"wangbang","layer":"canopy","date":"2026-08-01"},"geometry":{"type":"Polygon","coordinates":[[[127.11479,37.89584],[127.11477,37.89577],[127.11481,37.89574],[127.1149,37.8957],[127.11506,37.8957],[127.11506,37.89576],[127.11492,37.89577],[127.11485,37.89584],[127.11479,37.89584]]]}},{"type":"Feature","properties":{"valleyId":"wangbang","layer":"canopy","date":"2026-08-01"},"geometry":{"type":"Polygon","coordinates":[[[127.11445,37.89578],[127.11447,37.89569],[127.11465,37.89571],[127.11465,37.89577],[127.11461,37.89579],[127.11445,37.89578]]]}},{"type":"Feature","properties":{"valleyId":"wangbang","layer":"canopy","date":"2026-08-01"},"geometry":{"type":"Polygon","coordinates":[[[127.11558,37.89573],[127.11556,37.89564],[127.11563,37.89564],[127.11565,37.89573],[127.11558,37.89573]]]}},{"type":"Feature","properties":{"valleyId":"wangbang","layer":"canopy","date":"2026-08-01"},"geometry":{"type":"Polygon","coordinates":[[[127.11536,37.89565],[127.11531,37.89564],[127.11532,37.89558],[127.11547,37.8956],[127.11547,37.89566],[127.11536,37.89565]]]}},{"type":"Feature","properties":{"valleyId":"wangbang","layer":"canopy","date":"2026-08-01"},"geometry":{"type":"Polygon","coordinates":[[[127.11535,37.89587],[127.11533,37.89583],[127.11524,37.89583],[127.11524,37.89578],[127.11517,37.89578],[127.11513,37.89574],[127.11509,37.89556],[127.1152,37.89558],[127.11522,37.89569],[127.11538,37.89571],[127.11538,37.89578],[127.11547,37.89582],[127.11547,37.89587],[127.11535,37.89587]]]}},{"type":"Feature","properties":{"valleyId":"wangbang","layer":"canopy","date":"2026-08-01"},"geometry":{"type":"Polygon","coordinates":[[[127.11579,37.89562],[127.11577,37.89552],[127.11584,37.89552],[127.11586,37.89563],[127.11579,37.89562]]]}},{"type":"Feature","properties":{"valleyId":"wangbang","layer":"canopy","date":"2026-08-01"},"geometry":{"type":"Polygon","coordinates":[[[127.11821,37.8962],[127.11817,37.89599],[127.11799,37.896],[127.11794,37.89607],[127.11781,37.89607],[127.11776,37.89603],[127.11775,37.89569],[127.11782,37.89557],[127.11785,37.89537],[127.11789,37.89532],[127.11812,37.89532],[127.11819,37.89543],[127.1183,37.89543],[127.11832,37.89554],[127.11841,37.89554],[127.11838,37.89576],[127.11843,37.89581],[127.11842,37.89592],[127.11847,37.89594],[127.11847,37.89599],[127.11842,37.89601],[127.11835,37.89615],[127.11828,37.89621],[127.11821,37.8962]]]}},{"type":"Feature","properties":{"valleyId":"wangbang","layer":"canopy","date":"2026-08-01"},"geometry":{"type":"Polygon","coordinates":[[[127.11807,37.8953],[127.11808,37.89525],[127.11817,37.89523],[127.11817,37.8953],[127.11807,37.8953]]]}},{"type":"Feature","properties":{"valleyId":"wangbang","layer":"canopy","date":"2026-08-01"},"geometry":{"type":"Polygon","coordinates":[[[127.12304,37.89311],[127.12305,37.89304],[127.12318,37.89306],[127.12318,37.89311],[127.12304,37.89311]]]}},{"type":"Feature","properties":{"valleyId":"wangbang","layer":"canopy","date":"2026-08-01"},"geometry":{"type":"Polygon","coordinates":[[[127.11286,37.8983],[127.11275,37.89819],[127.11266,37.89817],[127.11261,37.89812],[127.11248,37.89809],[127.11246,37.89804],[127.11239,37.898],[127.11221,37.898],[127.11214,37.89804],[127.11189,37.89803],[127.11173,37.89806],[127.11159,37.89806],[127.11157,37.89803],[127.11134,37.89802],[127.11129,37.89806],[127.11116,37.89804],[127.1108,37.89774],[127.1108,37.89771],[127.11054,37.89741],[127.11036,37.89711],[127.11016,37.89689],[127.11014,37.89678],[127.11026,37.89678],[127.11028,37.89683],[127.11039,37.89684],[127.11042,37.89676],[127.11037,37.89676],[127.11031,37.89671],[127.11006,37.8967],[127.10986,37.8962],[127.10948,37.89619],[127.10927,37.89615],[127.10928,37.8961],[127.10943,37.89608],[127.10946,37.89596],[127.10939,37.89588],[127.10933,37.89588],[127.1093,37.89603],[127.10916,37.89602],[127.10916,37.89597],[127.10926,37.89592],[127.10926,37.89586],[127.10914,37.89586],[127.1091,37.89579],[127.10892,37.89578],[127.10887,37.89589],[127.1088,37.89595],[127.1088,37.896],[127.10873,37.896],[127.10842,37.89587],[127.10824,37.89574],[127.10819,37.89574],[127.10766,37.89531],[127.10766,37.89528],[127.10757,37.89522],[127.10744,37.895],[127.10739,37.89499],[127.10711,37.89442],[127.10709,37.89426],[127.10718,37.89426],[127.10728,37.89417],[127.10728,37.89412],[127.10705,37.89411],[127.10703,37.89402],[127.10707,37.89332],[127.10722,37.89295],[127.10734,37.89277],[127.10736,37.89262],[127.10743,37.89262],[127.10745,37.89268],[127.10765,37.89281],[127.10765,37.89288],[127.1077,37.89294],[127.1079,37.89301],[127.10794,37.89319],[127.1081,37.89318],[127.10815,37.89314],[127.10815,37.89305],[127.10837,37.89309],[127.10844,37.89307],[127.10854,37.89297],[127.10865,37.89297],[127.10867,37.89306],[127.10872,37.89308],[127.10871,37.89317],[127.1088,37.8933],[127.10898,37.89328],[127.10903,37.89325],[127.10912,37.89325],[127.10919,37.8933],[127.10917,37.89409],[127.10926,37.89415],[127.10928,37.89424],[127.10939,37.89431],[127.10941,37.89439],[127.10966,37.89448],[127.10972,37.89459],[127.10984,37.89459],[127.10995,37.89465],[127.11059,37.89466],[127.11077,37.89462],[127.11106,37.89463],[127.11109,37.89467],[127.11129,37.89472],[127.11129,37.89476],[127.11133,37.89476],[127.11133,37.8948],[127.11145,37.89485],[127.11149,37.89492],[127.11148,37.89514],[127.11155,37.89529],[127.11159,37.8953],[127.11159,37.89541],[127.11168,37.89556],[127.11168,37.89561],[127.11174,37.89567],[127.11174,37.89596],[127.11183,37.89598],[127.11182,37.89603],[127.11173,37.89608],[127.11171,37.89619],[127.11161,37.89626],[127.11161,37.89633],[127.11173,37.89635],[127.11177,37.89625],[127.11184,37.89625],[127.11184,37.89643],[127.11179,37.89666],[127.11162,37.89671],[127.1116,37.89677],[127.11137,37.89682],[127.1113,37.89687],[127.1113,37.89696],[127.11134,37.89703],[127.11146,37.89711],[127.11148,37.8972],[127.11154,37.89723],[127.11154,37.89729],[127.11159,37.89729],[127.11161,37.89732],[127.11177,37.89729],[127.11182,37.89724],[127.112,37.89722],[127.11207,37.8971],[127.11221,37.89703],[127.11226,37.89694],[127.11237,37.89694],[127.11246,37.89701],[127.11259,37.89703],[127.11266,37.89709],[127.11261,37.89723],[127.11263,37.89732],[127.11288,37.8974],[127.11295,37.89751],[127.11315,37.89756],[127.11326,37.89775],[127.11323,37.89798],[127.11311,37.89818],[127.11311,37.89823],[127.11302,37.8983],[127.11286,37.8983]],[[127.11056,37.89477],[127.11065,37.89477],[127.11068,37.8947],[127.11058,37.89469],[127.11056,37.89477]]]}},{"type":"Feature","properties":{"valleyId":"wangbang","layer":"canopy","date":"2026-08-01"},"geometry":{"type":"Polygon","coordinates":[[[127.11011,37.8927],[127.11014,37.89263],[127.11023,37.89263],[127.11023,37.89271],[127.11011,37.8927]]]}},{"type":"Feature","properties":{"valleyId":"wangbang","layer":"canopy","date":"2026-08-01"},"geometry":{"type":"Polygon","coordinates":[[[127.10886,37.89286],[127.10881,37.89285],[127.10881,37.89277],[127.10895,37.89276],[127.10898,37.89267],[127.10905,37.8926],[127.10916,37.8926],[127.10918,37.89269],[127.10913,37.89272],[127.10913,37.8928],[127.10899,37.89283],[127.10897,37.89287],[127.10886,37.89286]]]}},{"type":"Feature","properties":{"valleyId":"wangbang","layer":"canopy","date":"2026-08-01"},"geometry":{"type":"Polygon","coordinates":[[[127.12321,37.89281],[127.12312,37.89275],[127.12312,37.89268],[127.12317,37.89264],[127.12328,37.89264],[127.1233,37.89268],[127.12335,37.89268],[127.12335,37.89277],[127.12321,37.89281]]]}},{"type":"Feature","properties":{"valleyId":"wangbang","layer":"canopy","date":"2026-08-01"},"geometry":{"type":"Polygon","coordinates":[[[127.12331,37.89255],[127.12331,37.8925],[127.12338,37.8925],[127.12338,37.89256],[127.12331,37.89255]]]}},{"type":"Feature","properties":{"valleyId":"wangbang","layer":"canopy","date":"2026-08-01"},"geometry":{"type":"Polygon","coordinates":[[[127.10958,37.89325],[127.10958,37.89311],[127.10965,37.89307],[127.10968,37.89273],[127.10973,37.89268],[127.10972,37.89219],[127.10976,37.89219],[127.10979,37.89216],[127.1099,37.89216],[127.1099,37.8922],[127.11008,37.89223],[127.1101,37.89234],[127.10992,37.89236],[127.10989,37.8925],[127.10993,37.89254],[127.10993,37.89261],[127.10984,37.89268],[127.10986,37.89292],[127.10976,37.89304],[127.10976,37.89318],[127.10971,37.89324],[127.10958,37.89325]]]}},{"type":"Feature","properties":{"valleyId":"wangbang","layer":"canopy","date":"2026-08-01"},"geometry":{"type":"Polygon","coordinates":[[[127.12072,37.89217],[127.12073,37.89212],[127.12079,37.89212],[127.12079,37.89217],[127.12072,37.89217]]]}},{"type":"Feature","properties":{"valleyId":"wangbang","layer":"canopy","date":"2026-08-01"},"geometry":{"type":"Polygon","coordinates":[[[127.12464,37.89218],[127.12464,37.89211],[127.12471,37.89211],[127.12473,37.89218],[127.12464,37.89218]]]}},{"type":"Feature","properties":{"valleyId":"wangbang","layer":"canopy","date":"2026-08-01"},"geometry":{"type":"Polygon","coordinates":[[[127.13212,37.89226],[127.1321,37.89219],[127.13226,37.89219],[127.13223,37.89226],[127.13212,37.89226]]]}},{"type":"Feature","properties":{"valleyId":"wangbang","layer":"canopy","date":"2026-08-01"},"geometry":{"type":"Polygon","coordinates":[[[127.13187,37.8922],[127.13189,37.89213],[127.1321,37.89212],[127.1321,37.89219],[127.13187,37.8922]]]}},{"type":"Feature","properties":{"valleyId":"wangbang","layer":"canopy","date":"2026-08-01"},"geometry":{"type":"Polygon","coordinates":[[[127.12205,37.89203],[127.122,37.89201],[127.12201,37.89188],[127.1221,37.89187],[127.12212,37.89203],[127.12205,37.89203]]]}},{"type":"Feature","properties":{"valleyId":"wangbang","layer":"canopy","date":"2026-08-01"},"geometry":{"type":"Polygon","coordinates":[[[127.12009,37.89198],[127.12005,37.89185],[127.12007,37.89182],[127.12014,37.89182],[127.12019,37.89186],[127.12018,37.89196],[127.12009,37.89198]]]}},{"type":"Feature","properties":{"valleyId":"wangbang","layer":"canopy","date":"2026-08-01"},"geometry":{"type":"Polygon","coordinates":[[[127.12071,37.89185],[127.12067,37.89181],[127.12067,37.89174],[127.12078,37.89172],[127.1208,37.89185],[127.12071,37.89185]]]}},{"type":"Feature","properties":{"valleyId":"wangbang","layer":"canopy","date":"2026-08-01"},"geometry":{"type":"Polygon","coordinates":[[[127.13183,37.89195],[127.13183,37.8919],[127.1319,37.8919],[127.1319,37.89195],[127.13183,37.89195]]]}},{"type":"Feature","properties":{"valleyId":"wangbang","layer":"canopy","date":"2026-08-01"},"geometry":{"type":"Polygon","coordinates":[[[127.13273,37.89222],[127.13244,37.8922],[127.13242,37.89216],[127.13247,37.89198],[127.13251,37.89196],[127.13251,37.89191],[127.13258,37.89185],[127.1327,37.89186],[127.13267,37.892],[127.13271,37.89202],[127.13271,37.89206],[127.13283,37.89208],[127.13285,37.89213],[127.13294,37.89215],[127.13294,37.8922],[127.13273,37.89222]]]}},{"type":"Feature","properties":{"valleyId":"wangbang","layer":"canopy","date":"2026-08-01"},"geometry":{"type":"Polygon","coordinates":[[[127.10891,37.89157],[127.10887,37.89155],[127.10887,37.89148],[127.10894,37.89148],[127.10898,37.89151],[127.10898,37.89157],[127.10891,37.89157]]]}},{"type":"Feature","properties":{"valleyId":"wangbang","layer":"canopy","date":"2026-08-01"},"geometry":{"type":"Polygon","coordinates":[[[127.10912,37.89155],[127.10912,37.89148],[127.10919,37.89148],[127.10921,37.89155],[127.10912,37.89155]]]}},{"type":"Feature","properties":{"valleyId":"wangbang","layer":"canopy","date":"2026-08-01"},"geometry":{"type":"Polygon","coordinates":[[[127.11992,37.89178],[127.1199,37.89167],[127.11997,37.89164],[127.11997,37.89156],[127.12001,37.89153],[127.12008,37.89153],[127.1201,37.89162],[127.12015,37.89164],[127.12015,37.89171],[127.12003,37.89178],[127.11992,37.89178]]]}},{"type":"Feature","properties":{"valleyId":"wangbang","layer":"canopy","date":"2026-08-01"},"geometry":{"type":"Polygon","coordinates":[[[127.1217,37.89156],[127.1217,37.8915],[127.12179,37.89148],[127.12179,37.89154],[127.1217,37.89156]]]}},{"type":"Feature","properties":{"valleyId":"wangbang","layer":"canopy","date":"2026-08-01"},"geometry":{"type":"Polygon","coordinates":[[[127.12908,37.89166],[127.12909,37.8916],[127.12922,37.8916],[127.12922,37.89166],[127.12908,37.89166]]]}},{"type":"Feature","properties":{"valleyId":"wangbang","layer":"canopy","date":"2026-08-01"},"geometry":{"type":"Polygon","coordinates":[[[127.12109,37.89192],[127.12105,37.89189],[127.12105,37.8918],[127.12117,37.89173],[127.12119,37.89164],[127.12129,37.89159],[127.12133,37.89151],[127.12133,37.89146],[127.12138,37.89146],[127.1215,37.89137],[127.12165,37.89137],[127.12168,37.89145],[127.12163,37.89152],[127.12138,37.8916],[127.12135,37.89173],[127.1213,37.89173],[127.12128,37.89177],[127.12128,37.89187],[127.12116,37.89193],[127.12109,37.89192]]]}},{"type":"Feature","properties":{"valleyId":"wangbang","layer":"canopy","date":"2026-08-01"},"geometry":{"type":"Polygon","coordinates":[[[127.1285,37.89157],[127.12852,37.89148],[127.12868,37.89149],[127.12868,37.89154],[127.12863,37.89158],[127.1285,37.89157]]]}},{"type":"Feature","properties":{"valleyId":"wangbang","layer":"canopy","date":"2026-08-01"},"geometry":{"type":"Polygon","coordinates":[[[127.13179,37.89168],[127.13184,37.89157],[127.13177,37.89157],[127.13177,37.89163],[127.13168,37.89161],[127.13168,37.89155],[127.13177,37.89155],[127.13177,37.89152],[127.13198,37.89154],[127.13198,37.89157],[127.13204,37.89161],[127.13204,37.89168],[127.13179,37.89168]]]}},{"type":"Feature","properties":{"valleyId":"wangbang","layer":"canopy","date":"2026-08-01"},"geometry":{"type":"Polygon","coordinates":[[[127.11987,37.8963],[127.1199,37.89607],[127.11981,37.89594],[127.11967,37.8959],[127.11956,37.89574],[127.11952,37.89572],[127.1195,37.89565],[127.11934,37.89557],[127.11925,37.89548],[127.11916,37.89544],[127.119,37.89544],[127.11898,37.89541],[127.11894,37.8954],[127.11896,37.89526],[127.11892,37.89522],[127.11892,37.89504],[127.11886,37.89499],[127.11886,37.89493],[127.11895,37.89485],[127.11911,37.89479],[127.11911,37.89476],[127.11918,37.89472],[127.11943,37.89473],[127.1195,37.89469],[127.11964,37.89469],[127.11964,37.89466],[127.11968,37.89464],[127.11991,37.89465],[127.11996,37.89461],[127.12009,37.89461],[127.12026,37.89449],[127.12046,37.89447],[127.12065,37.89428],[127.12078,37.89428],[127.12083,37.89423],[127.12104,37.89423],[127.12119,37.89434],[127.12128,37.89434],[127.12133,37.89431],[127.12133,37.89418],[127.12129,37.89414],[127.12127,37.89398],[127.12139,37.89389],[127.12139,37.89384],[127.12164,37.89375],[127.12167,37.89363],[127.12176,37.89361],[127.12185,37.89345],[127.12194,37.8934],[127.12197,37.89318],[127.12193,37.89315],[127.12191,37.89295],[127.12182,37.89295],[127.12179,37.89307],[127.12173,37.89307],[127.12173,37.89285],[127.12182,37.89278],[127.12191,37.89278],[127.12198,37.89286],[127.12205,37.89288],[127.12202,37.89304],[127.12213,37.89306],[127.12222,37.89315],[127.12248,37.8931],[127.12262,37.89296],[127.12262,37.89289],[127.12257,37.89289],[127.12255,37.89283],[127.12255,37.89265],[127.12263,37.89254],[127.12269,37.89251],[127.12272,37.89244],[127.12279,37.89242],[127.12284,37.89235],[127.1229,37.89235],[127.12291,37.89228],[127.12284,37.89228],[127.12284,37.8922],[127.12298,37.89219],[127.12302,37.89226],[127.12302,37.89235],[127.12285,37.89251],[127.12285,37.89257],[127.12292,37.8926],[127.12292,37.89267],[127.12303,37.89268],[127.12301,37.89277],[127.12289,37.89282],[127.12289,37.89293],[127.12296,37.89295],[127.12298,37.89304],[127.12293,37.89309],[127.12279,37.89309],[127.12279,37.8932],[127.12284,37.89325],[127.1229,37.89327],[127.12311,37.89325],[127.12315,37.89329],[127.12338,37.89329],[127.12342,37.89344],[127.12349,37.89344],[127.12358,37.8935],[127.12374,37.8935],[127.12381,37.89343],[127.12383,37.89334],[127.12382,37.89307],[127.1235,37.89304],[127.12348,37.8931],[127.12327,37.89311],[127.12328,37.89293],[127.12337,37.89288],[127.1236,37.89287],[127.12358,37.89278],[127.12346,37.89277],[127.12346,37.8927],[127.12353,37.89268],[127.12358,37.89263],[127.12358,37.89254],[127.12365,37.89254],[127.12367,37.89261],[127.12372,37.89263],[127.12373,37.89283],[127.1238,37.89283],[127.12385,37.89287],[127.12384,37.89307],[127.12391,37.89307],[127.12393,37.89311],[127.12404,37.89309],[127.12405,37.89289],[127.12396,37.89282],[127.12394,37.89265],[127.12413,37.89251],[127.12433,37.89252],[127.12438,37.89245],[127.12463,37.89245],[127.12465,37.89252],[127.12479,37.89251],[127.12492,37.89262],[127.1251,37.89262],[127.12512,37.89275],[127.12517,37.89275],[127.12521,37.8928],[127.12546,37.89281],[127.12551,37.89286],[127.1256,37.89286],[127.12564,37.89283],[127.12565,37.8927],[127.12542,37.8927],[127.12538,37.89264],[127.12524,37.89262],[127.12519,37.89258],[127.1252,37.89253],[127.12527,37.89248],[127.12523,37.89228],[127.12541,37.89226],[127.12541,37.89212],[127.12523,37.89204],[127.12523,37.89192],[127.1251,37.89192],[127.12503,37.89199],[127.12496,37.89199],[127.12492,37.89195],[127.1249,37.89182],[127.12474,37.89182],[127.12469,37.89187],[127.12469,37.89198],[127.12464,37.892],[127.12453,37.892],[127.12455,37.89187],[127.12448,37.89187],[127.12444,37.89191],[127.12428,37.8919],[127.12423,37.89194],[127.12421,37.89203],[127.12409,37.89203],[127.12403,37.89195],[127.12398,37.89195],[127.12396,37.89183],[127.12392,37.89175],[127.12385,37.89172],[127.12385,37.89166],[127.12394,37.89165],[127.12397,37.89159],[127.12415,37.89154],[127.12418,37.89149],[127.12436,37.89142],[127.1245,37.89144],[127.12452,37.8914],[127.1247,37.89142],[127.12491,37.89139],[127.12509,37.89143],[127.12534,37.89142],[127.1255,37.89145],[127.12558,37.89156],[127.1256,37.89176],[127.12569,37.8918],[127.12583,37.8918],[127.12587,37.89186],[127.12594,37.89186],[127.12605,37.89204],[127.12621,37.89213],[127.12634,37.89213],[127.12646,37.8921],[127.1266,37.89189],[127.12663,37.89167],[127.12674,37.89156],[127.12734,37.89156],[127.12738,37.89159],[127.12756,37.89159],[127.12763,37.89167],[127.12779,37.89167],[127.12779,37.89172],[127.12788,37.89173],[127.12792,37.89171],[127.12792,37.89167],[127.12806,37.89167],[127.12806,37.89171],[127.12813,37.89171],[127.12813,37.89168],[127.12822,37.89168],[127.12824,37.89171],[127.12849,37.89172],[127.12849,37.89168],[127.12858,37.89168],[127.1286,37.89174],[127.12936,37.89173],[127.12949,37.89181],[127.12979,37.89177],[127.12985,37.89183],[127.12992,37.89183],[127.12996,37.89196],[127.13012,37.89194],[127.1301,37.8918],[127.13022,37.8918],[127.13021,37.89194],[127.13028,37.89194],[127.13035,37.89189],[127.1304,37.89178],[127.13022,37.89178],[127.13022,37.89173],[127.13027,37.89169],[127.13081,37.8917],[127.13086,37.89172],[127.13086,37.89177],[127.13074,37.89186],[127.13074,37.89192],[127.13081,37.89193],[127.1308,37.89199],[127.13103,37.89203],[127.13112,37.89196],[127.13121,37.89196],[127.13135,37.89211],[127.13135,37.8922],[127.13105,37.89219],[127.13102,37.89228],[127.13084,37.8923],[127.13082,37.89233],[127.13073,37.89235],[127.13068,37.89246],[127.13067,37.89264],[127.13076,37.89271],[127.13083,37.89271],[127.13088,37.89268],[127.13088,37.89258],[127.13093,37.89257],[127.131,37.89241],[127.13109,37.89241],[127.13111,37.89248],[127.13116,37.89248],[127.13118,37.89252],[127.13127,37.89252],[127.13127,37.89236],[127.13139,37.89234],[127.13147,37.89252],[127.13149,37.89265],[127.13161,37.89265],[127.13165,37.89271],[127.13176,37.89271],[127.13181,37.89274],[127.13204,37.89271],[127.13215,37.89275],[127.13217,37.89279],[127.13224,37.89279],[127.13226,37.89275],[127.13244,37.89279],[127.13249,37.89265],[127.13254,37.89261],[127.13252,37.89247],[127.13262,37.89234],[127.13271,37.89236],[127.1327,37.89256],[127.13275,37.8926],[127.13281,37.8926],[127.13288,37.89256],[127.13288,37.89253],[127.13297,37.89253],[127.13302,37.89249],[127.13307,37.8923],[127.13355,37.89228],[127.13355,37.89237],[127.13343,37.89254],[127.13296,37.89292],[127.13292,37.89292],[127.13271,37.89306],[127.13239,37.89319],[127.13193,37.89329],[127.13059,37.89327],[127.13004,37.89333],[127.1287,37.89331],[127.12766,37.89324],[127.1275,37.89322],[127.1275,37.89316],[127.12755,37.89314],[127.12755,37.89305],[127.12742,37.89291],[127.1274,37.89276],[127.12733,37.89276],[127.12717,37.89281],[127.12714,37.89298],[127.12732,37.89307],[127.12736,37.8932],[127.12698,37.89317],[127.12661,37.89311],[127.12647,37.89331],[127.1264,37.89334],[127.1264,37.89338],[127.12603,37.89366],[127.12599,37.89366],[127.12594,37.89371],[127.12571,37.8938],[127.12569,37.89384],[127.12562,37.89383],[127.12543,37.89392],[127.12523,37.89397],[127.12489,37.89402],[127.12432,37.89401],[127.1242,37.89399],[127.12418,37.89385],[127.12412,37.89385],[127.12407,37.89388],[127.12407,37.89395],[127.12398,37.89395],[127.12348,37.89378],[127.12346,37.89375],[127.12337,37.89373],[127.12326,37.89364],[127.12321,37.89363],[127.12319,37.89358],[127.1231,37.89358],[127.12306,37.89421],[127.12284,37.89471],[127.12261,37.89505],[127.12249,37.89506],[127.12238,37.89499],[127.12225,37.89499],[127.12211,37.89504],[127.12206,37.89511],[127.12201,37.89511],[127.12199,37.89515],[127.12179,37.89514],[127.12176,37.89534],[127.12183,37.89534],[127.12185,37.89542],[127.12191,37.89547],[127.12191,37.89561],[127.12184,37.89567],[127.12097,37.89603],[127.11987,37.8963]],[[127.12135,37.8955],[127.12146,37.89548],[127.12148,37.89537],[127.12162,37.89532],[127.12163,37.89518],[127.12154,37.89518],[127.12151,37.89523],[127.12142,37.89525],[127.1213,37.89532],[127.1213,37.89548],[127.12135,37.8955]],[[127.12017,37.89537],[127.12028,37.89535],[127.1203,37.89526],[127.12015,37.89526],[127.12017,37.89537]],[[127.12319,37.89356],[127.12326,37.89356],[127.12333,37.89351],[127.12333,37.89344],[127.12315,37.89342],[127.12319,37.89356]],[[127.12583,37.89357],[127.12592,37.89357],[127.12592,37.89352],[127.12581,37.8935],[127.12583,37.89357]],[[127.12572,37.89349],[127.12581,37.8935],[127.12583,37.89341],[127.12597,37.89328],[127.12598,37.89319],[127.1258,37.89312],[127.12557,37.89313],[127.12552,37.89317],[127.12554,37.89329],[127.12549,37.89335],[127.12549,37.89344],[127.12556,37.89347],[127.12572,37.89349]],[[127.13177,37.89321],[127.13187,37.89321],[127.13196,37.89314],[127.13196,37.89303],[127.13192,37.89294],[127.13185,37.89294],[127.13185,37.89303],[127.13178,37.89307],[127.13177,37.89321]],[[127.13091,37.89318],[127.13109,37.89317],[127.13112,37.89308],[127.13107,37.89304],[127.13094,37.89304],[127.13087,37.89298],[127.13078,37.89298],[127.13071,37.89305],[127.13071,37.89314],[127.13091,37.89318]],[[127.12273,37.89287],[127.1228,37.89287],[127.1228,37.89276],[127.12271,37.89276],[127.12273,37.89287]],[[127.12582,37.89227],[127.12588,37.89227],[127.12589,37.89222],[127.12582,37.89222],[127.12582,37.89227]],[[127.12769,37.89185],[127.12776,37.89185],[127.12776,37.8918],[127.12769,37.8918],[127.12769,37.89185]]]}},{"type":"Feature","properties":{"valleyId":"wangbang","layer":"canopy","date":"2026-08-01"},"geometry":{"type":"Polygon","coordinates":[[[127.1307,37.89159],[127.13068,37.89155],[127.13063,37.89155],[127.13064,37.8915],[127.13089,37.89149],[127.13086,37.89159],[127.1307,37.89159]]]}},{"type":"Feature","properties":{"valleyId":"wangbang","layer":"canopy","date":"2026-08-01"},"geometry":{"type":"Polygon","coordinates":[[[127.13177,37.89146],[127.13177,37.89141],[127.13184,37.89141],[127.13184,37.89146],[127.13177,37.89146]]]}},{"type":"Feature","properties":{"valleyId":"wangbang","layer":"canopy","date":"2026-08-01"},"geometry":{"type":"Polygon","coordinates":[[[127.13138,37.8916],[127.13138,37.89155],[127.13148,37.89151],[127.13148,37.89144],[127.13159,37.89139],[127.13166,37.89139],[127.13166,37.89148],[127.13157,37.8915],[127.13154,37.89159],[127.13138,37.8916]]]}},{"type":"Feature","properties":{"valleyId":"wangbang","layer":"canopy","date":"2026-08-01"},"geometry":{"type":"Polygon","coordinates":[[[127.13111,37.89144],[127.13112,37.89138],[127.13121,37.89138],[127.13121,37.89144],[127.13111,37.89144]]]}},{"type":"Feature","properties":{"valleyId":"wangbang","layer":"canopy","date":"2026-08-01"},"geometry":{"type":"Polygon","coordinates":[[[127.12468,37.8913],[127.12468,37.89124],[127.12484,37.89125],[127.12484,37.8913],[127.12468,37.8913]]]}},{"type":"Feature","properties":{"valleyId":"wangbang","layer":"canopy","date":"2026-08-01"},"geometry":{"type":"Polygon","coordinates":[[[127.13291,37.89148],[127.13289,37.89139],[127.13293,37.89139],[127.133,37.89134],[127.1331,37.89134],[127.13316,37.8914],[127.13316,37.89147],[127.13291,37.89148]]]}},{"type":"Feature","properties":{"valleyId":"wangbang","layer":"canopy","date":"2026-08-01"},"geometry":{"type":"Polygon","coordinates":[[[127.13373,37.89146],[127.13375,37.89135],[127.13382,37.89135],[127.13382,37.89146],[127.13373,37.89146]]]}},{"type":"Feature","properties":{"valleyId":"wangbang","layer":"canopy","date":"2026-08-01"},"geometry":{"type":"Polygon","coordinates":[[[127.1299,37.89169],[127.12986,37.89167],[127.12986,37.89156],[127.12945,37.89155],[127.12943,37.89161],[127.12934,37.89161],[127.12927,37.89159],[127.12927,37.89153],[127.12945,37.89152],[127.12945,37.89148],[127.12957,37.89143],[127.13002,37.89147],[127.13009,37.8914],[127.13025,37.89139],[127.13032,37.89131],[127.13041,37.89128],[127.13057,37.89128],[127.13069,37.89132],[127.13068,37.89139],[127.13046,37.89137],[127.13036,37.89141],[127.13036,37.89148],[127.13054,37.8915],[127.13054,37.89155],[127.13047,37.89161],[127.13034,37.8916],[127.13032,37.89149],[127.13018,37.89149],[127.13013,37.89151],[127.13013,37.89158],[127.1302,37.89158],[127.1302,37.89164],[127.13013,37.89169],[127.1299,37.89169]]]}},{"type":"Feature","properties":{"valleyId":"wangbang","layer":"canopy","date":"2026-08-01"},"geometry":{"type":"Polygon","coordinates":[[[127.12238,37.89128],[127.12236,37.89121],[127.12243,37.89117],[127.1228,37.89116],[127.1228,37.89123],[127.12275,37.89125],[127.12238,37.89128]]]}},{"type":"Feature","properties":{"valleyId":"wangbang","layer":"canopy","date":"2026-08-01"},"geometry":{"type":"Polygon","coordinates":[[[127.11118,37.89108],[127.11118,37.89101],[127.11122,37.89101],[127.11125,37.89096],[127.11134,37.89096],[127.11134,37.89101],[127.11125,37.89108],[127.11118,37.89108]]]}},{"type":"Feature","properties":{"valleyId":"wangbang","layer":"canopy","date":"2026-08-01"},"geometry":{"type":"Polygon","coordinates":[[[127.11276,37.89662],[127.11272,37.8966],[127.1127,37.89653],[127.11256,37.89651],[127.11257,37.89626],[127.11262,37.89617],[127.11262,37.89606],[127.11257,37.89604],[127.11256,37.89583],[127.11249,37.89579],[127.11249,37.89575],[127.11245,37.89575],[127.11243,37.89562],[127.11234,37.89559],[127.11222,37.89559],[127.11214,37.89522],[127.11194,37.89517],[127.11194,37.89491],[127.11188,37.89484],[127.11188,37.89479],[127.11199,37.89475],[127.112,37.89468],[127.11177,37.89466],[127.11177,37.89446],[127.11166,37.89446],[127.11159,37.8944],[127.11159,37.89437],[127.11139,37.89435],[127.11132,37.89429],[127.11132,37.89426],[127.11123,37.89422],[127.11124,37.89407],[127.1111,37.89407],[127.11108,37.89416],[127.11099,37.89416],[127.11096,37.89409],[127.11087,37.89409],[127.11087,37.89414],[127.1108,37.89419],[127.11064,37.89417],[127.1106,37.89421],[127.11039,37.89422],[127.11032,37.89426],[127.11007,37.89427],[127.11002,37.89436],[127.10991,37.89436],[127.10973,37.89428],[127.10969,37.89419],[127.1096,37.89416],[127.10955,37.8941],[127.10951,37.8941],[127.10951,37.89394],[127.10947,37.8939],[127.10947,37.89381],[127.10943,37.89374],[127.10946,37.89332],[127.10951,37.89327],[127.10957,37.89327],[127.10962,37.89342],[127.10971,37.89342],[127.10978,37.89326],[127.11001,37.89315],[127.11002,37.89286],[127.11016,37.89276],[127.1102,37.89276],[127.1102,37.89272],[127.11029,37.89272],[127.11034,37.89269],[127.11052,37.89269],[127.11052,37.89273],[127.11066,37.89277],[127.11068,37.89286],[127.11075,37.89286],[127.11079,37.8928],[127.11086,37.89279],[127.11086,37.89275],[127.11093,37.89275],[127.11095,37.89284],[127.1109,37.89286],[127.1109,37.89291],[127.11095,37.89295],[127.11113,37.89294],[127.11122,37.89301],[127.11129,37.89301],[127.11133,37.89298],[127.11138,37.89285],[127.11148,37.89276],[127.11159,37.89276],[127.11159,37.89269],[127.11148,37.89265],[127.11143,37.8926],[127.11123,37.89261],[127.11116,37.89256],[127.11107,37.89254],[127.11098,37.89254],[127.11098,37.89261],[127.11093,37.89264],[127.1108,37.89264],[127.1108,37.89255],[127.11085,37.89252],[127.11091,37.89252],[127.11092,37.89239],[127.11083,37.89234],[127.11071,37.89233],[127.11069,37.89239],[127.11048,37.89244],[127.11035,37.8924],[127.11035,37.89231],[127.11026,37.89226],[127.11026,37.8922],[127.11033,37.89218],[127.11033,37.89209],[127.11038,37.89208],[127.11043,37.89193],[127.11047,37.8919],[127.11046,37.89172],[127.11062,37.89172],[127.11068,37.89181],[127.11093,37.89178],[127.1109,37.89207],[127.11097,37.89207],[127.11106,37.89202],[127.11115,37.89202],[127.11115,37.89211],[127.11122,37.89218],[127.11122,37.89223],[127.11135,37.89233],[127.11135,37.89238],[127.11155,37.89255],[127.11166,37.89257],[127.11167,37.89244],[127.11156,37.89226],[127.11151,37.89224],[127.11151,37.8922],[127.11142,37.89218],[127.11133,37.89207],[127.11137,37.89175],[127.11118,37.89177],[127.11105,37.89171],[127.11071,37.89167],[127.11062,37.89163],[127.11062,37.89159],[127.11053,37.89159],[127.11048,37.89165],[127.11039,37.89166],[127.11039,37.89177],[127.11032,37.89188],[127.11029,37.89208],[127.11015,37.89207],[127.11013,37.89202],[127.11006,37.89202],[127.11002,37.89207],[127.10995,37.89207],[127.10995,37.89193],[127.11,37.89189],[127.11009,37.89189],[127.11009,37.89178],[127.11016,37.89173],[127.11023,37.89173],[127.11021,37.89166],[127.11009,37.89166],[127.11005,37.89169],[127.10996,37.89169],[127.10991,37.89166],[127.10999,37.89124],[127.1099,37.8912],[127.1099,37.89113],[127.10997,37.89112],[127.10995,37.89097],[127.11,37.89097],[127.11009,37.89088],[127.11018,37.89088],[127.1102,37.89094],[127.11032,37.89094],[127.11041,37.89089],[127.1105,37.89089],[127.11057,37.89096],[127.11056,37.89103],[127.11063,37.89104],[127.11066,37.891],[127.11102,37.89101],[127.11102,37.89108],[127.11109,37.89108],[127.11104,37.89126],[127.11113,37.89131],[127.1111,37.89142],[127.11144,37.89141],[127.11158,37.89147],[127.11162,37.89152],[127.11173,37.89152],[127.1118,37.89149],[127.11181,37.89142],[127.11187,37.8914],[127.11188,37.89134],[127.11194,37.89135],[127.11196,37.89145],[127.1119,37.89145],[127.11187,37.89154],[127.11192,37.89158],[127.11203,37.8916],[127.11205,37.89173],[127.11203,37.89232],[127.11198,37.89266],[127.11216,37.8927],[127.11254,37.89285],[127.11256,37.89289],[127.11274,37.89296],[127.11277,37.89302],[127.11286,37.89304],[127.11341,37.89346],[127.11341,37.8935],[127.11352,37.89357],[127.11357,37.89366],[127.11364,37.8937],[127.1137,37.89382],[127.11381,37.89383],[127.11439,37.89366],[127.11502,37.89361],[127.11568,37.89364],[127.11611,37.89374],[127.11632,37.89383],[127.11641,37.89383],[127.11659,37.89369],[127.11664,37.89369],[127.11666,37.89366],[127.11671,37.89366],[127.11689,37.89353],[127.11694,37.89353],[127.11717,37.89339],[127.11726,37.89338],[127.11756,37.8932],[127.11765,37.89319],[127.11781,37.89308],[127.1179,37.89306],[127.11793,37.89303],[127.11818,37.89294],[127.11825,37.89294],[127.1183,37.89291],[127.11859,37.89286],[127.11864,37.89277],[127.11864,37.89266],[127.11878,37.89263],[127.11878,37.89255],[127.11872,37.89246],[127.11872,37.89237],[127.11883,37.89236],[127.11879,37.89218],[127.119,37.89216],[127.11904,37.89211],[127.1192,37.89213],[127.11927,37.89218],[127.11972,37.89219],[127.11972,37.89226],[127.11965,37.8923],[127.11963,37.89241],[127.11976,37.8925],[127.11976,37.89253],[127.11987,37.89254],[127.11987,37.8925],[127.11992,37.89248],[127.1201,37.8925],[127.12024,37.89261],[127.12021,37.89272],[127.12035,37.89274],[127.12041,37.89285],[127.1205,37.89285],[127.12062,37.89275],[127.12076,37.89275],[127.12075,37.89291],[127.12066,37.89291],[127.12066,37.89296],[127.12073,37.89304],[127.12072,37.89314],[127.12079,37.89333],[127.12078,37.89352],[127.12064,37.89358],[127.12064,37.89367],[127.12069,37.8937],[127.12068,37.89385],[127.12057,37.89388],[127.12057,37.89393],[127.12068,37.89401],[127.12065,37.8941],[127.12056,37.89417],[127.12049,37.89417],[127.12038,37.89427],[127.12022,37.89427],[127.12015,37.89425],[127.12015,37.89422],[127.1197,37.89419],[127.11969,37.89425],[127.11974,37.89425],[127.11976,37.89428],[127.11976,37.89437],[127.11971,37.89439],[127.11966,37.8945],[127.11946,37.89448],[127.11939,37.89451],[127.11928,37.89451],[127.11919,37.89458],[127.11893,37.89458],[127.11887,37.89461],[127.11886,37.89466],[127.1188,37.89468],[127.11868,37.89479],[127.11847,37.89484],[127.11845,37.89489],[127.11833,37.89493],[127.11831,37.89498],[127.11827,37.89498],[127.11824,37.89501],[127.11801,37.89501],[127.11801,37.89508],[127.11797,37.8951],[127.11776,37.8951],[127.11776,37.89521],[127.11767,37.89524],[127.11764,37.89537],[127.11759,37.8954],[127.11761,37.89558],[127.11757,37.89564],[127.11756,37.89583],[127.11747,37.8959],[127.11747,37.89599],[127.1174,37.89603],[127.11726,37.89601],[127.11723,37.89613],[127.11705,37.89611],[127.11707,37.89629],[127.11689,37.89638],[127.11686,37.89649],[127.11657,37.89648],[127.11655,37.89643],[127.11648,37.89641],[127.11648,37.89628],[127.1163,37.89626],[127.11621,37.89605],[127.11601,37.8959],[127.116,37.8957],[127.11622,37.89574],[127.11625,37.89569],[127.11625,37.89561],[127.11611,37.8955],[127.11609,37.89545],[127.116,37.89541],[127.1158,37.89541],[127.1158,37.89535],[127.11575,37.89532],[127.11569,37.89532],[127.11564,37.89535],[127.11566,37.89551],[127.11561,37.89555],[127.11554,37.89555],[127.11543,37.89544],[127.11544,37.89535],[127.11548,37.89533],[127.11548,37.89528],[127.11537,37.89529],[127.11532,37.89535],[127.11521,37.89534],[127.11516,37.89529],[127.1151,37.89527],[127.11494,37.89527],[127.11473,37.89528],[127.11466,37.89535],[127.11448,37.89539],[127.11441,37.89544],[127.11438,37.89564],[127.11424,37.89578],[127.11415,37.8958],[127.11415,37.89583],[127.11408,37.89589],[127.11385,37.89588],[127.11385,37.89599],[127.11378,37.89602],[127.11378,37.89606],[127.11369,37.8961],[127.11366,37.89617],[127.11353,37.89618],[127.11341,37.89629],[127.11336,37.89629],[127.11336,37.89632],[127.11327,37.8964],[127.11313,37.89643],[127.11306,37.8965],[127.11302,37.8965],[127.11297,37.89661],[127.11276,37.89662]],[[127.11731,37.89498],[127.1174,37.89498],[127.1174,37.89493],[127.11731,37.89491],[127.11731,37.89498]],[[127.11202,37.89461],[127.11213,37.89459],[127.11218,37.89456],[127.11218,37.8945],[127.11205,37.8945],[127.11202,37.89461]],[[127.11802,37.89379],[127.11811,37.89379],[127.11812,37.89372],[127.11802,37.89371],[127.11802,37.89379]],[[127.11693,37.89375],[127.117,37.89375],[127.117,37.8937],[127.11693,37.8937],[127.11693,37.89375]],[[127.11204,37.89299],[127.11215,37.89299],[127.11218,37.89292],[127.11206,37.89292],[127.11204,37.89299]],[[127.11915,37.89252],[127.11931,37.89253],[127.11935,37.89247],[127.11933,37.89235],[127.11951,37.89235],[127.11952,37.89228],[127.11929,37.89226],[127.11924,37.89238],[127.11915,37.89247],[127.11915,37.89252]],[[127.11029,37.89117],[127.1104,37.89118],[127.1104,37.8911],[127.11031,37.8911],[127.11029,37.89117]]]}},{"type":"Feature","properties":{"valleyId":"wangbang","layer":"canopy","date":"2026-08-01"},"geometry":{"type":"Polygon","coordinates":[[[127.13321,37.89132],[127.13321,37.89125],[127.13332,37.89125],[127.1333,37.89133],[127.13321,37.89132]]]}},{"type":"Feature","properties":{"valleyId":"wangbang","layer":"canopy","date":"2026-08-01"},"geometry":{"type":"Polygon","coordinates":[[[127.132,37.89152],[127.132,37.89145],[127.13209,37.89136],[127.13239,37.89138],[127.13242,37.89122],[127.13255,37.89119],[127.13269,37.89123],[127.13266,37.89144],[127.1325,37.89144],[127.13243,37.89151],[127.132,37.89152]]]}},{"type":"Feature","properties":{"valleyId":"wangbang","layer":"canopy","date":"2026-08-01"},"geometry":{"type":"Polygon","coordinates":[[[127.12327,37.89124],[127.12321,37.89122],[127.12321,37.89117],[127.12298,37.89116],[127.12298,37.89109],[127.12305,37.89105],[127.12341,37.89106],[127.12344,37.89102],[127.12362,37.89105],[127.12364,37.89115],[127.12359,37.89119],[127.12345,37.89124],[127.12327,37.89124]]]}},{"type":"Feature","properties":{"valleyId":"wangbang","layer":"canopy","date":"2026-08-01"},"geometry":{"type":"Polygon","coordinates":[[[127.1238,37.89117],[127.12378,37.8911],[127.1238,37.89105],[127.12387,37.89101],[127.12414,37.89102],[127.12419,37.89105],[127.12418,37.89114],[127.12414,37.89118],[127.1238,37.89117]]]}},{"type":"Feature","properties":{"valleyId":"wangbang","layer":"canopy","date":"2026-08-01"},"geometry":{"type":"Polygon","coordinates":[[[127.12505,37.89118],[127.12505,37.89105],[127.12519,37.89103],[127.12521,37.891],[127.12539,37.89102],[127.12546,37.89107],[127.12557,37.89108],[127.12557,37.89115],[127.12544,37.89113],[127.1253,37.89118],[127.12505,37.89118]]]}},{"type":"Feature","properties":{"valleyId":"wangbang","layer":"canopy","date":"2026-08-01"},"geometry":{"type":"Polygon","coordinates":[[[127.13245,37.89083],[127.13245,37.89077],[127.13252,37.89077],[127.13252,37.89083],[127.13245,37.89083]]]}},{"type":"Feature","properties":{"valleyId":"wangbang","layer":"canopy","date":"2026-08-01"},"geometry":{"type":"Polygon","coordinates":[[[127.13281,37.89085],[127.13281,37.89076],[127.13288,37.89076],[127.1329,37.89083],[127.13281,37.89085]]]}},{"type":"Feature","properties":{"valleyId":"wangbang","layer":"canopy","date":"2026-08-01"},"geometry":{"type":"Polygon","coordinates":[[[127.12162,37.89089],[127.12162,37.89083],[127.12156,37.8908],[127.12135,37.89081],[127.12126,37.89077],[127.12126,37.89072],[127.12122,37.8907],[127.12122,37.89054],[127.12136,37.89058],[127.12138,37.89063],[127.12154,37.89063],[127.1216,37.89069],[127.12169,37.89069],[127.12185,37.8908],[127.12217,37.89079],[127.12217,37.89084],[127.12212,37.89086],[127.12194,37.89089],[127.12162,37.89089]]]}},{"type":"Feature","properties":{"valleyId":"wangbang","layer":"canopy","date":"2026-08-01"},"geometry":{"type":"Polygon","coordinates":[[[127.13177,37.89058],[127.13177,37.89053],[127.13184,37.89053],[127.13184,37.89058],[127.13177,37.89058]]]}},{"type":"Feature","properties":{"valleyId":"wangbang","layer":"canopy","date":"2026-08-01"},"geometry":{"type":"Polygon","coordinates":[[[127.11026,37.89036],[127.11013,37.89023],[127.11016,37.89015],[127.11045,37.89019],[127.11068,37.89026],[127.11065,37.89033],[127.11026,37.89036]]]}},{"type":"Feature","properties":{"valleyId":"wangbang","layer":"canopy","date":"2026-08-01"},"geometry":{"type":"Polygon","coordinates":[[[127.10981,37.89018],[127.10981,37.89012],[127.10995,37.89012],[127.10995,37.89018],[127.10981,37.89018]]]}},{"type":"Feature","properties":{"valleyId":"wangbang","layer":"canopy","date":"2026-08-01"},"geometry":{"type":"Polygon","coordinates":[[[127.13289,37.89062],[127.13289,37.89051],[127.13296,37.89046],[127.133,37.89046],[127.13303,37.89042],[127.13323,37.89041],[127.13321,37.8905],[127.13312,37.89049],[127.13295,37.89062],[127.13289,37.89062]]]}},{"type":"Feature","properties":{"valleyId":"wangbang","layer":"canopy","date":"2026-08-01"},"geometry":{"type":"Polygon","coordinates":[[[127.13167,37.89029],[127.13167,37.89024],[127.13171,37.89022],[127.13176,37.89013],[127.13185,37.89013],[127.13185,37.89024],[127.13176,37.89029],[127.13167,37.89029]]]}},{"type":"Feature","properties":{"valleyId":"wangbang","layer":"canopy","date":"2026-08-01"},"geometry":{"type":"Polygon","coordinates":[[[127.13185,37.89011],[127.13186,37.89002],[127.13197,37.89002],[127.13197,37.8901],[127.13185,37.89011]]]}},{"type":"Feature","properties":{"valleyId":"wangbang","layer":"canopy","date":"2026-08-01"},"geometry":{"type":"Polygon","coordinates":[[[127.13233,37.8901],[127.13233,37.89001],[127.1324,37.89001],[127.1324,37.8901],[127.13233,37.8901]]]}},{"type":"Feature","properties":{"valleyId":"wangbang","layer":"canopy","date":"2026-08-01"},"geometry":{"type":"Polygon","coordinates":[[[127.1195,37.89098],[127.11951,37.89093],[127.11962,37.89084],[127.11969,37.89073],[127.11983,37.89073],[127.11987,37.89079],[127.11996,37.89079],[127.11997,37.89073],[127.11992,37.89072],[127.11992,37.89061],[127.11988,37.89061],[127.11988,37.89054],[127.12013,37.89032],[127.12014,37.89029],[127.12025,37.89022],[127.12025,37.89018],[127.12053,37.88997],[127.12058,37.88997],[127.12062,37.88992],[127.12067,37.88992],[127.12072,37.88986],[127.12088,37.88981],[127.1209,37.88978],[127.12108,37.88978],[127.12113,37.88971],[127.1212,37.88967],[127.12204,37.88949],[127.1238,37.88935],[127.12484,37.88937],[127.12566,37.88933],[127.12632,37.88934],[127.12687,37.88944],[127.12686,37.88955],[127.12698,37.8896],[127.12748,37.88956],[127.1275,37.88961],[127.12757,37.88965],[127.12752,37.88981],[127.1277,37.88983],[127.12779,37.88983],[127.12779,37.88978],[127.1277,37.88969],[127.1277,37.88961],[127.12893,37.88971],[127.13004,37.88971],[127.13004,37.8898],[127.13013,37.8898],[127.13034,37.88966],[127.13095,37.88965],[127.13102,37.88967],[127.13097,37.88979],[127.13113,37.8898],[127.13113,37.88985],[127.13122,37.88996],[127.13122,37.89012],[127.1313,37.89025],[127.13142,37.8903],[127.13141,37.89039],[127.13134,37.89041],[127.13121,37.89052],[127.13118,37.89068],[127.13113,37.89071],[127.13063,37.89067],[127.13061,37.89071],[127.13052,37.89072],[127.13031,37.89072],[127.13025,37.89066],[127.13018,37.89066],[127.13016,37.89063],[127.12986,37.89066],[127.12984,37.89062],[127.12973,37.89058],[127.12963,37.89058],[127.12961,37.89062],[127.1295,37.89063],[127.12929,37.8906],[127.12925,37.89056],[127.12925,37.8905],[127.12916,37.89048],[127.12914,37.89045],[127.12891,37.89043],[127.1288,37.89052],[127.12875,37.8906],[127.12863,37.89067],[127.12856,37.89067],[127.12827,37.89056],[127.12816,37.89056],[127.12809,37.89063],[127.12797,37.89065],[127.12788,37.89064],[127.12781,37.89063],[127.12779,37.89057],[127.12763,37.89055],[127.12754,37.89066],[127.12731,37.89065],[127.12718,37.89069],[127.12699,37.89068],[127.12688,37.89074],[127.12656,37.89075],[127.12652,37.89071],[127.12633,37.89069],[127.12629,37.89066],[127.12618,37.89065],[127.12608,37.89071],[127.12599,37.8907],[127.12586,37.89061],[127.1257,37.89063],[127.12561,37.89059],[127.12559,37.89052],[127.1255,37.89052],[127.1255,37.89043],[127.12541,37.89043],[127.12534,37.89048],[127.12534,37.89051],[127.12516,37.89055],[127.12513,37.89058],[127.12497,37.89058],[127.12486,37.89052],[127.12477,37.89052],[127.12477,37.89058],[127.12447,37.89055],[127.12438,37.89052],[127.12402,37.89053],[127.12397,37.89047],[127.12391,37.89047],[127.12391,37.89051],[127.12386,37.89053],[127.12356,37.8905],[127.12347,37.89056],[127.12322,37.89059],[127.12315,37.89066],[127.12295,37.89069],[127.12292,37.89073],[127.12281,37.89076],[127.12263,37.89074],[127.12251,37.89079],[127.12224,37.89079],[127.12217,37.89077],[127.12217,37.89068],[127.12229,37.89065],[127.12231,37.89054],[127.12222,37.89048],[127.12218,37.89041],[127.12211,37.89041],[127.12209,37.89037],[127.12179,37.89035],[127.12166,37.89026],[127.1215,37.89022],[127.12146,37.89016],[127.1213,37.89018],[127.12125,37.89014],[127.12123,37.89005],[127.12114,37.89005],[127.12114,37.89019],[127.12107,37.89019],[127.121,37.89016],[127.12101,37.89005],[127.12105,37.89005],[127.12105,37.89],[127.12098,37.88999],[127.12098,37.89008],[127.12091,37.8901],[127.12093,37.89028],[127.12086,37.89037],[127.12079,37.89064],[127.12067,37.89067],[127.12067,37.89071],[127.1206,37.89075],[127.12042,37.89072],[127.1204,37.89076],[127.12028,37.89076],[127.12028,37.89081],[127.12033,37.89083],[127.12032,37.89092],[127.12028,37.89094],[127.12021,37.89094],[127.12019,37.89088],[127.12012,37.89088],[127.1201,37.89095],[127.11994,37.89095],[127.11989,37.89099],[127.11964,37.89095],[127.1195,37.89098]],[[127.12589,37.89016],[127.12598,37.89016],[127.12599,37.89011],[127.12589,37.89011],[127.12589,37.89016]],[[127.12837,37.89013],[127.12853,37.8901],[127.12856,37.88993],[127.12849,37.88993],[127.12847,37.88999],[127.12826,37.89],[127.12817,37.89004],[127.12817,37.89009],[127.12837,37.89013]],[[127.12345,37.88971],[127.12354,37.88969],[127.12357,37.88951],[127.1235,37.88951],[127.12348,37.88955],[127.12345,37.88971]]]}}]}
