{"type":"FeatureCollection","metadata":{"description":"개방지(CHM ≤ 2 m)에 드리운 나무·지형 그림자, 2026-08-01 10:00 KST. canopy 위에 겹쳐 그린다","source":"위성 기반 추정 — Copernicus GLO-30 지형(30 m) + Meta/WRI 수관 높이(1 m CHM, 2019 촬영). 그늘 = 수관(CHM > 2 m) ∪ 나무·지형 그림자 ∪ 원거리 지형 마스크. 현장과 다를 수 있음.","datasetVersion":"2026-09-06.0","collectedAt":"2026-09-06","coordinateOrder":"[longitude, latitude]","crs":"EPSG:4326","representativeDate":"2026-08-01","hours":["10:00","11:00","12:00","13:00","14:00","15:00","16:00","17:00","18:00"],"chmAcquisition":["2019-03"],"assets":{"glo30":{"dataset":"Copernicus DEM GLO-30 (COG, s3://copernicus-dem-30m)","tiles":["Copernicus_DSM_COG_10_N37_00_E127_00_DEM"]},"chm":{"dataset":"Meta/WRI Global Canopy Height Map v1 (alsgedi_global_v6_float, 1 m, CC-BY 4.0)","quadkeys":["132110302"],"acquisition":["2019-03"]}},"method":{"gridResM":2,"canopyThresholdM":2,"bufferHalfM":25,"corridorHalfM":200,"simplifyTolM":2,"minAreaM2":25,"coordDecimals":5},"generator":"scripts/shade 0.1.0","builtAt":"2026-09-06T05:54:56Z","layer":"shadow","timeLocal":"10:00"},"features":[{"type":"Feature","properties":{"valleyId":"wangbang","layer":"shadow","date":"2026-08-01","timeLocal":"10:00"},"geometry":{"type":"Polygon","coordinates":[[[127.11798,37.89732],[127.11796,37.89717],[127.11803,37.89717],[127.11805,37.89732],[127.11798,37.89732]]]}},{"type":"Feature","properties":{"valleyId":"wangbang","layer":"shadow","date":"2026-08-01","timeLocal":"10:00"},"geometry":{"type":"Polygon","coordinates":[[[127.1146,37.8969],[127.11458,37.89681],[127.11465,37.89681],[127.11467,37.8969],[127.1146,37.8969]]]}},{"type":"Feature","properties":{"valleyId":"wangbang","layer":"shadow","date":"2026-08-01","timeLocal":"10:00"},"geometry":{"type":"Polygon","coordinates":[[[127.11812,37.8962],[127.1181,37.89599],[127.11817,37.89599],[127.11819,37.8962],[127.11812,37.8962]]]}},{"type":"Feature","properties":{"valleyId":"wangbang","layer":"shadow","date":"2026-08-01","timeLocal":"10:00"},"geometry":{"type":"Polygon","coordinates":[[[127.11242,37.8958],[127.11242,37.89575],[127.11249,37.89575],[127.11249,37.89581],[127.11242,37.8958]]]}},{"type":"Feature","properties":{"valleyId":"wangbang","layer":"shadow","date":"2026-08-01","timeLocal":"10:00"},"geometry":{"type":"Polygon","coordinates":[[[127.11185,37.89493],[127.11183,37.89484],[127.1119,37.89484],[127.11192,37.89493],[127.11185,37.89493]]]}},{"type":"Feature","properties":{"valleyId":"wangbang","layer":"shadow","date":"2026-08-01","timeLocal":"10:00"},"geometry":{"type":"Polygon","coordinates":[[[127.11125,37.89431],[127.11126,37.89425],[127.11132,37.89426],[127.11132,37.89431],[127.11125,37.89431]]]}},{"type":"Feature","properties":{"valleyId":"wangbang","layer":"shadow","date":"2026-08-01","timeLocal":"10:00"},"geometry":{"type":"Polygon","coordinates":[[[127.12849,37.89006],[127.12849,37.89001],[127.12856,37.89001],[127.12856,37.89006],[127.12849,37.89006]]]}},{"type":"Feature","properties":{"valleyId":"wangbang","layer":"shadow","date":"2026-08-01","timeLocal":"10:00"},"geometry":{"type":"Polygon","coordinates":[[[127.12347,37.88969],[127.1235,37.88955],[127.12357,37.88955],[127.12354,37.88969],[127.12347,37.88969]]]}},{"type":"Feature","properties":{"valleyId":"wangbang","layer":"shadow","date":"2026-08-01","timeLocal":"10:00"},"geometry":{"type":"Polygon","coordinates":[[[127.12763,37.88969],[127.12757,37.88965],[127.12757,37.88959],[127.12766,37.8896],[127.1277,37.88963],[127.1277,37.88969],[127.12763,37.88969]]]}}]}
