{"type":"FeatureCollection","metadata":{"description":"개방지(CHM ≤ 2 m)에 드리운 나무·지형 그림자, 2026-08-01 18:00 KST. canopy 위에 겹쳐 그린다","source":"위성 기반 추정 — Copernicus GLO-30 지형(30 m) + Meta/WRI 수관 높이(1 m CHM, 2019 촬영). 그늘 = 수관(CHM > 2 m) ∪ 나무·지형 그림자 ∪ 원거리 지형 마스크. 현장과 다를 수 있음.","datasetVersion":"2026-09-06.0","collectedAt":"2026-09-06","coordinateOrder":"[longitude, latitude]","crs":"EPSG:4326","representativeDate":"2026-08-01","hours":["10:00","11:00","12:00","13:00","14:00","15:00","16:00","17:00","18:00"],"chmAcquisition":["2019-03"],"assets":{"glo30":{"dataset":"Copernicus DEM GLO-30 (COG, s3://copernicus-dem-30m)","tiles":["Copernicus_DSM_COG_10_N37_00_E127_00_DEM"]},"chm":{"dataset":"Meta/WRI Global Canopy Height Map v1 (alsgedi_global_v6_float, 1 m, CC-BY 4.0)","quadkeys":["132110302"],"acquisition":["2019-03"]}},"method":{"gridResM":2,"canopyThresholdM":2,"bufferHalfM":25,"corridorHalfM":200,"simplifyTolM":2,"minAreaM2":25,"coordDecimals":5},"generator":"scripts/shade 0.1.0","builtAt":"2026-09-06T05:54:56Z","layer":"shadow","timeLocal":"18:00"},"features":[{"type":"Feature","properties":{"valleyId":"wangbang","layer":"shadow","date":"2026-08-01","timeLocal":"18:00"},"geometry":{"type":"Polygon","coordinates":[[[127.1134,37.8984],[127.11341,37.89822],[127.1135,37.8982],[127.11352,37.89836],[127.11347,37.89836],[127.11347,37.8984],[127.1134,37.8984]]]}},{"type":"Feature","properties":{"valleyId":"wangbang","layer":"shadow","date":"2026-08-01","timeLocal":"18:00"},"geometry":{"type":"Polygon","coordinates":[[[127.11222,37.89845],[127.11186,37.89836],[127.11143,37.89819],[127.11141,37.89815],[127.11129,37.89811],[127.1113,37.89804],[127.11157,37.89803],[127.11159,37.89806],[127.11173,37.89806],[127.11189,37.89803],[127.11214,37.89804],[127.11221,37.898],[127.11243,37.89802],[127.11245,37.89815],[127.11243,37.89818],[127.11238,37.89818],[127.11238,37.89822],[127.11231,37.89824],[127.11233,37.89845],[127.11222,37.89845]]]}},{"type":"Feature","properties":{"valleyId":"wangbang","layer":"shadow","date":"2026-08-01","timeLocal":"18:00"},"geometry":{"type":"Polygon","coordinates":[[[127.11863,37.89767],[127.11863,37.89762],[127.11872,37.89762],[127.11872,37.89767],[127.11863,37.89767]]]}},{"type":"Feature","properties":{"valleyId":"wangbang","layer":"shadow","date":"2026-08-01","timeLocal":"18:00"},"geometry":{"type":"Polygon","coordinates":[[[127.11916,37.89732],[127.11909,37.89726],[127.1191,37.89719],[127.11923,37.8971],[127.11933,37.89711],[127.11932,37.89718],[127.11928,37.89721],[127.11925,37.8973],[127.11916,37.89732]]]}},{"type":"Feature","properties":{"valleyId":"wangbang","layer":"shadow","date":"2026-08-01","timeLocal":"18:00"},"geometry":{"type":"Polygon","coordinates":[[[127.11839,37.89707],[127.1184,37.89702],[127.11849,37.89702],[127.11848,37.89707],[127.11839,37.89707]]]}},{"type":"Feature","properties":{"valleyId":"wangbang","layer":"shadow","date":"2026-08-01","timeLocal":"18:00"},"geometry":{"type":"Polygon","coordinates":[[[127.11028,37.89683],[127.11026,37.89678],[127.1101,37.89678],[127.1101,37.89672],[127.11031,37.89671],[127.11037,37.89676],[127.11042,37.89676],[127.11039,37.89684],[127.11028,37.89683]]]}},{"type":"Feature","properties":{"valleyId":"wangbang","layer":"shadow","date":"2026-08-01","timeLocal":"18:00"},"geometry":{"type":"Polygon","coordinates":[[[127.11283,37.8985],[127.11284,37.8983],[127.11302,37.8983],[127.11311,37.89823],[127.11311,37.89818],[127.11323,37.89798],[127.11326,37.89775],[127.11315,37.89756],[127.11295,37.89751],[127.11288,37.8974],[127.11263,37.89732],[127.11261,37.89723],[127.11266,37.89709],[127.11259,37.89703],[127.1125,37.89703],[127.11241,37.89698],[127.11246,37.89685],[127.11239,37.89685],[127.1124,37.8968],[127.11237,37.89676],[127.11233,37.89676],[127.11233,37.89672],[127.11222,37.89672],[127.11222,37.89658],[127.11231,37.89658],[127.11233,37.8967],[127.11247,37.89671],[127.11249,37.89674],[127.11256,37.89674],[127.11256,37.89678],[127.1126,37.89678],[127.1126,37.89685],[127.11253,37.89687],[127.11253,37.89692],[127.11264,37.89693],[127.1128,37.89704],[127.11291,37.89704],[127.11291,37.89716],[127.11298,37.8972],[127.11298,37.89724],[127.11304,37.89724],[127.11306,37.89738],[127.11318,37.89737],[127.11318,37.8973],[127.11325,37.8973],[127.11324,37.89746],[127.11333,37.8975],[127.11333,37.89755],[127.11342,37.89757],[127.11342,37.8977],[127.11349,37.89777],[127.11348,37.89793],[127.11334,37.89809],[127.11331,37.89823],[127.11327,37.89825],[127.11327,37.89829],[127.11311,37.8983],[127.11311,37.89839],[127.11322,37.8984],[127.11322,37.89847],[127.11308,37.8985],[127.11283,37.8985]]]}},{"type":"Feature","properties":{"valleyId":"wangbang","layer":"shadow","date":"2026-08-01","timeLocal":"18:00"},"geometry":{"type":"Polygon","coordinates":[[[127.11302,37.89655],[127.11302,37.8965],[127.11306,37.8965],[127.11311,37.89645],[127.11318,37.89645],[127.11318,37.89652],[127.11302,37.89655]]]}},{"type":"Feature","properties":{"valleyId":"wangbang","layer":"shadow","date":"2026-08-01","timeLocal":"18:00"},"geometry":{"type":"Polygon","coordinates":[[[127.11788,37.89661],[127.11789,37.89651],[127.11795,37.89651],[127.11795,37.89661],[127.11788,37.89661]]]}},{"type":"Feature","properties":{"valleyId":"wangbang","layer":"shadow","date":"2026-08-01","timeLocal":"18:00"},"geometry":{"type":"Polygon","coordinates":[[[127.11955,37.89644],[127.11955,37.89637],[127.11968,37.89639],[127.11968,37.89644],[127.11955,37.89644]]]}},{"type":"Feature","properties":{"valleyId":"wangbang","layer":"shadow","date":"2026-08-01","timeLocal":"18:00"},"geometry":{"type":"Polygon","coordinates":[[[127.10932,37.89603],[127.10933,37.89588],[127.10939,37.89588],[127.10944,37.89592],[127.10944,37.89603],[127.10932,37.89603]]]}},{"type":"Feature","properties":{"valleyId":"wangbang","layer":"shadow","date":"2026-08-01","timeLocal":"18:00"},"geometry":{"type":"Polygon","coordinates":[[[127.10884,37.89604],[127.1088,37.896],[127.1088,37.89595],[127.10887,37.89589],[127.10892,37.89578],[127.10901,37.89579],[127.10901,37.89588],[127.10892,37.89593],[127.10891,37.89604],[127.10884,37.89604]]]}},{"type":"Feature","properties":{"valleyId":"wangbang","layer":"shadow","date":"2026-08-01","timeLocal":"18:00"},"geometry":{"type":"Polygon","coordinates":[[[127.11964,37.89623],[127.1196,37.89606],[127.11961,37.8959],[127.11979,37.89594],[127.11987,37.89607],[127.11985,37.89623],[127.11964,37.89623]]]}},{"type":"Feature","properties":{"valleyId":"wangbang","layer":"shadow","date":"2026-08-01","timeLocal":"18:00"},"geometry":{"type":"Polygon","coordinates":[[[127.11506,37.89576],[127.11506,37.89569],[127.11513,37.89569],[127.11513,37.89576],[127.11506,37.89576]]]}},{"type":"Feature","properties":{"valleyId":"wangbang","layer":"shadow","date":"2026-08-01","timeLocal":"18:00"},"geometry":{"type":"Polygon","coordinates":[[[127.11465,37.89573],[127.11465,37.89568],[127.11472,37.89568],[127.11472,37.89573],[127.11465,37.89573]]]}},{"type":"Feature","properties":{"valleyId":"wangbang","layer":"shadow","date":"2026-08-01","timeLocal":"18:00"},"geometry":{"type":"Polygon","coordinates":[[[127.11554,37.89589],[127.11551,37.89584],[127.11538,37.89578],[127.11538,37.89567],[127.11554,37.89566],[127.11556,37.89577],[127.11558,37.8958],[127.11563,37.8958],[127.11563,37.89589],[127.11554,37.89589]]]}},{"type":"Feature","properties":{"valleyId":"wangbang","layer":"shadow","date":"2026-08-01","timeLocal":"18:00"},"geometry":{"type":"Polygon","coordinates":[[[127.11568,37.89571],[127.11568,37.89564],[127.11575,37.89564],[127.11574,37.89571],[127.11568,37.89571]]]}},{"type":"Feature","properties":{"valleyId":"wangbang","layer":"shadow","date":"2026-08-01","timeLocal":"18:00"},"geometry":{"type":"Polygon","coordinates":[[[127.11336,37.89636],[127.11336,37.89629],[127.11341,37.89629],[127.11353,37.89618],[127.11366,37.89617],[127.11369,37.8961],[127.11378,37.89606],[127.11378,37.89602],[127.11385,37.89599],[127.11385,37.89588],[127.11408,37.89589],[127.11415,37.89583],[127.11415,37.8958],[127.11426,37.89576],[127.11427,37.89573],[127.11438,37.89564],[127.11441,37.89544],[127.11453,37.89537],[127.11466,37.89537],[127.11466,37.89562],[127.11456,37.89562],[127.11452,37.89564],[127.11452,37.89568],[127.11445,37.89568],[127.1144,37.89576],[127.11429,37.89585],[127.11424,37.89585],[127.11422,37.89592],[127.11417,37.89592],[127.11415,37.89598],[127.11408,37.89598],[127.11403,37.89605],[127.11396,37.89605],[127.11396,37.89624],[127.11366,37.89624],[127.11348,37.89634],[127.11336,37.89636]]]}},{"type":"Feature","properties":{"valleyId":"wangbang","layer":"shadow","date":"2026-08-01","timeLocal":"18:00"},"geometry":{"type":"Polygon","coordinates":[[[127.11566,37.8955],[127.11564,37.89535],[127.11573,37.89534],[127.11575,37.8955],[127.11566,37.8955]]]}},{"type":"Feature","properties":{"valleyId":"wangbang","layer":"shadow","date":"2026-08-01","timeLocal":"18:00"},"geometry":{"type":"Polygon","coordinates":[[[127.12017,37.89537],[127.12014,37.8953],[127.12021,37.8953],[127.12023,37.89537],[127.12017,37.89537]]]}},{"type":"Feature","properties":{"valleyId":"wangbang","layer":"shadow","date":"2026-08-01","timeLocal":"18:00"},"geometry":{"type":"Polygon","coordinates":[[[127.12135,37.8955],[127.1213,37.89548],[127.1213,37.89532],[127.12142,37.89525],[127.12151,37.89523],[127.12154,37.89518],[127.12163,37.89518],[127.12162,37.89532],[127.12148,37.89537],[127.12146,37.89548],[127.12135,37.8955]]]}},{"type":"Feature","properties":{"valleyId":"wangbang","layer":"shadow","date":"2026-08-01","timeLocal":"18:00"},"geometry":{"type":"Polygon","coordinates":[[[127.12191,37.89558],[127.12189,37.89543],[127.12185,37.89542],[127.12183,37.89534],[127.12176,37.89534],[127.12179,37.89514],[127.12204,37.89515],[127.12201,37.89529],[127.12217,37.89529],[127.12217,37.89544],[127.12198,37.89558],[127.12191,37.89558]]]}},{"type":"Feature","properties":{"valleyId":"wangbang","layer":"shadow","date":"2026-08-01","timeLocal":"18:00"},"geometry":{"type":"Polygon","coordinates":[[[127.11654,37.89836],[127.11616,37.8983],[127.11616,37.89824],[127.11623,37.89823],[127.11623,37.89817],[127.11627,37.89814],[127.11632,37.89814],[127.11637,37.89809],[127.11643,37.89809],[127.11646,37.89803],[127.11664,37.89805],[127.11676,37.89797],[127.11696,37.89799],[127.11698,37.89808],[127.11709,37.89808],[127.1171,37.89793],[127.11717,37.8979],[127.11719,37.89781],[127.11735,37.89781],[127.11735,37.89788],[127.11742,37.89789],[127.11742,37.8978],[127.11751,37.89776],[127.11754,37.89765],[127.11731,37.89767],[127.11727,37.89761],[127.11717,37.89761],[127.11715,37.89757],[127.11706,37.89756],[127.11704,37.89739],[127.117,37.89739],[127.11698,37.89732],[127.11693,37.8973],[127.11693,37.89723],[127.11716,37.8972],[127.11721,37.89716],[127.11721,37.89711],[127.11701,37.89712],[127.11694,37.89707],[127.11689,37.89707],[127.11687,37.89694],[127.1166,37.89692],[127.11661,37.89674],[127.11645,37.89666],[127.11645,37.89661],[127.11641,37.89654],[127.11634,37.8965],[127.11634,37.89646],[127.11618,37.89644],[127.11618,37.89637],[127.11611,37.89635],[127.11609,37.8963],[127.116,37.89622],[127.11596,37.89622],[127.11596,37.89619],[127.11587,37.89615],[127.1158,37.89608],[127.11574,37.89607],[127.11569,37.89602],[127.11565,37.89602],[127.11565,37.89596],[127.11601,37.89601],[127.11601,37.89615],[127.1161,37.89617],[127.11619,37.89626],[127.11634,37.89628],[127.11634,37.89634],[127.11643,37.89636],[127.11661,37.8965],[127.11686,37.89651],[127.11689,37.89638],[127.11696,37.89633],[127.11705,37.89633],[127.11707,37.89629],[127.11705,37.89611],[127.11723,37.89613],[127.11726,37.89601],[127.1174,37.89603],[127.11747,37.89599],[127.11747,37.8959],[127.11756,37.89583],[127.11757,37.89564],[127.11761,37.89558],[127.11759,37.8954],[127.11764,37.89537],[127.11767,37.89524],[127.11776,37.89521],[127.11776,37.8951],[127.11797,37.8951],[127.11801,37.89508],[127.11801,37.89501],[127.11824,37.89501],[127.11827,37.89498],[127.11831,37.89498],[127.11833,37.89493],[127.11843,37.89493],[127.11842,37.89523],[127.11826,37.89523],[127.11823,37.8953],[127.11817,37.8953],[127.11817,37.89523],[127.1181,37.89523],[127.11807,37.89532],[127.11787,37.89533],[127.11772,37.8958],[127.11761,37.89589],[127.1176,37.89598],[127.11751,37.89601],[127.11751,37.89608],[127.11737,37.8961],[127.11739,37.89625],[127.11723,37.89628],[127.1172,37.89642],[127.11714,37.89642],[127.11714,37.89635],[127.11707,37.89635],[127.11707,37.89644],[127.11695,37.89647],[127.11695,37.89653],[127.11702,37.89656],[127.11736,37.89657],[127.11735,37.89689],[127.1174,37.89689],[127.11735,37.89704],[127.11742,37.89704],[127.11742,37.89697],[127.11751,37.89697],[127.11753,37.89709],[127.11769,37.89711],[127.11768,37.89731],[127.11782,37.89739],[127.11802,37.89739],[127.11801,37.89768],[127.11808,37.89768],[127.11808,37.89779],[127.11824,37.89781],[127.11823,37.89802],[127.11814,37.89804],[127.11814,37.89813],[127.11789,37.89822],[127.11777,37.89822],[127.11778,37.89809],[127.11796,37.89809],[127.11807,37.89806],[127.11803,37.89795],[127.11796,37.89793],[127.11794,37.89782],[127.11783,37.89782],[127.11778,37.89793],[127.1176,37.89803],[127.11757,37.8981],[127.1173,37.89812],[127.11725,37.89815],[127.11725,37.89826],[127.1172,37.8983],[127.1172,37.89835],[127.11654,37.89836]],[[127.1176,37.89778],[127.11769,37.89778],[127.11772,37.89771],[127.11763,37.89769],[127.1176,37.89778]],[[127.1172,37.89745],[127.11736,37.89743],[127.11736,37.89736],[127.11707,37.89734],[127.11707,37.89739],[127.11718,37.8974],[127.1172,37.89745]],[[127.11732,37.89731],[127.11741,37.89731],[127.11739,37.89722],[127.11732,37.89722],[127.11732,37.89731]]]}},{"type":"Feature","properties":{"valleyId":"wangbang","layer":"shadow","date":"2026-08-01","timeLocal":"18:00"},"geometry":{"type":"Polygon","coordinates":[[[127.11731,37.89498],[127.11731,37.89491],[127.11738,37.89491],[127.1174,37.89498],[127.11731,37.89498]]]}},{"type":"Feature","properties":{"valleyId":"wangbang","layer":"shadow","date":"2026-08-01","timeLocal":"18:00"},"geometry":{"type":"Polygon","coordinates":[[[127.11056,37.89477],[127.11056,37.89471],[127.11065,37.89471],[127.11065,37.89477],[127.11056,37.89477]]]}},{"type":"Feature","properties":{"valleyId":"wangbang","layer":"shadow","date":"2026-08-01","timeLocal":"18:00"},"geometry":{"type":"Polygon","coordinates":[[[127.11852,37.89488],[127.11852,37.89482],[127.11859,37.89482],[127.11859,37.89488],[127.11852,37.89488]]]}},{"type":"Feature","properties":{"valleyId":"wangbang","layer":"shadow","date":"2026-08-01","timeLocal":"18:00"},"geometry":{"type":"Polygon","coordinates":[[[127.11161,37.89732],[127.11148,37.8972],[127.11146,37.89711],[127.11134,37.89703],[127.1113,37.89696],[127.1113,37.89687],[127.11142,37.8968],[127.1116,37.89677],[127.11162,37.89671],[127.11179,37.89666],[127.11184,37.89625],[127.11177,37.89625],[127.11173,37.89635],[127.11159,37.89635],[127.11159,37.8963],[127.11171,37.89619],[127.11171,37.8961],[127.11182,37.89603],[127.11183,37.89598],[127.11174,37.89596],[127.11174,37.89567],[127.11168,37.89561],[127.11168,37.89556],[127.11159,37.89541],[127.11159,37.8953],[127.11155,37.89529],[127.11148,37.89514],[127.11149,37.89492],[127.11145,37.89485],[127.11138,37.89483],[127.11133,37.89476],[127.11129,37.89476],[127.11129,37.89472],[127.11109,37.89467],[127.11109,37.89461],[127.11125,37.89463],[127.11127,37.89467],[127.11138,37.89467],[127.11143,37.89473],[127.11152,37.89475],[127.11163,37.89484],[127.11165,37.89495],[127.11171,37.895],[127.11178,37.895],[127.11187,37.89509],[127.11194,37.89509],[127.11194,37.89517],[127.11203,37.8952],[127.11203,37.89524],[127.11207,37.89524],[127.11214,37.89535],[127.11218,37.89537],[127.11222,37.8956],[127.11227,37.8956],[127.11227,37.89564],[127.11236,37.8957],[127.11235,37.89577],[127.1124,37.8958],[127.11242,37.89597],[127.11225,37.89623],[127.11224,37.89649],[127.11206,37.89648],[127.11203,37.89672],[127.11194,37.89672],[127.1119,37.89681],[127.11178,37.8968],[127.1118,37.89689],[127.11221,37.8969],[127.11221,37.89703],[127.11207,37.8971],[127.112,37.89722],[127.11182,37.89724],[127.11177,37.89729],[127.11161,37.89732]]]}},{"type":"Feature","properties":{"valleyId":"wangbang","layer":"shadow","date":"2026-08-01","timeLocal":"18:00"},"geometry":{"type":"Polygon","coordinates":[[[127.11877,37.89475],[127.11877,37.8947],[127.11886,37.89468],[127.11886,37.89474],[127.11877,37.89475]]]}},{"type":"Feature","properties":{"valleyId":"wangbang","layer":"shadow","date":"2026-08-01","timeLocal":"18:00"},"geometry":{"type":"Polygon","coordinates":[[[127.11886,37.89468],[127.11889,37.89459],[127.11909,37.89458],[127.11907,37.89465],[127.11898,37.89468],[127.11886,37.89468]]]}},{"type":"Feature","properties":{"valleyId":"wangbang","layer":"shadow","date":"2026-08-01","timeLocal":"18:00"},"geometry":{"type":"Polygon","coordinates":[[[127.10709,37.89426],[127.10709,37.89421],[127.10719,37.89421],[127.10718,37.89426],[127.10709,37.89426]]]}},{"type":"Feature","properties":{"valleyId":"wangbang","layer":"shadow","date":"2026-08-01","timeLocal":"18:00"},"geometry":{"type":"Polygon","coordinates":[[[127.11087,37.89414],[127.11087,37.89409],[127.11094,37.89409],[127.11094,37.89414],[127.11087,37.89414]]]}},{"type":"Feature","properties":{"valleyId":"wangbang","layer":"shadow","date":"2026-08-01","timeLocal":"18:00"},"geometry":{"type":"Polygon","coordinates":[[[127.1111,37.89414],[127.1111,37.89409],[127.11117,37.89409],[127.11117,37.89414],[127.1111,37.89414]]]}},{"type":"Feature","properties":{"valleyId":"wangbang","layer":"shadow","date":"2026-08-01","timeLocal":"18:00"},"geometry":{"type":"Polygon","coordinates":[[[127.11969,37.8945],[127.11969,37.89443],[127.11976,37.89437],[127.11976,37.89428],[127.11974,37.89425],[127.11969,37.89425],[127.1197,37.89419],[127.11976,37.89419],[127.11976,37.89423],[127.11981,37.89423],[127.11987,37.89428],[127.11989,37.89441],[127.11976,37.89446],[127.11976,37.8945],[127.11969,37.8945]]]}},{"type":"Feature","properties":{"valleyId":"wangbang","layer":"shadow","date":"2026-08-01","timeLocal":"18:00"},"geometry":{"type":"Polygon","coordinates":[[[127.12047,37.89424],[127.12049,37.89417],[127.12063,37.89415],[127.12063,37.89421],[127.12047,37.89424]]]}},{"type":"Feature","properties":{"valleyId":"wangbang","layer":"shadow","date":"2026-08-01","timeLocal":"18:00"},"geometry":{"type":"Polygon","coordinates":[[[127.12407,37.89395],[127.12407,37.89388],[127.12416,37.89388],[127.12416,37.89396],[127.12407,37.89395]]]}},{"type":"Feature","properties":{"valleyId":"wangbang","layer":"shadow","date":"2026-08-01","timeLocal":"18:00"},"geometry":{"type":"Polygon","coordinates":[[[127.11802,37.89379],[127.11802,37.89371],[127.11809,37.89371],[127.11811,37.89379],[127.11802,37.89379]]]}},{"type":"Feature","properties":{"valleyId":"wangbang","layer":"shadow","date":"2026-08-01","timeLocal":"18:00"},"geometry":{"type":"Polygon","coordinates":[[[127.11693,37.89375],[127.11693,37.8937],[127.117,37.8937],[127.117,37.89375],[127.11693,37.89375]]]}},{"type":"Feature","properties":{"valleyId":"wangbang","layer":"shadow","date":"2026-08-01","timeLocal":"18:00"},"geometry":{"type":"Polygon","coordinates":[[[127.12583,37.89357],[127.12581,37.8935],[127.1259,37.8935],[127.12592,37.89357],[127.12583,37.89357]]]}},{"type":"Feature","properties":{"valleyId":"wangbang","layer":"shadow","date":"2026-08-01","timeLocal":"18:00"},"geometry":{"type":"Polygon","coordinates":[[[127.12342,37.89344],[127.1234,37.8933],[127.12354,37.89332],[127.12354,37.89344],[127.12342,37.89344]]]}},{"type":"Feature","properties":{"valleyId":"wangbang","layer":"shadow","date":"2026-08-01","timeLocal":"18:00"},"geometry":{"type":"Polygon","coordinates":[[[127.11122,37.89301],[127.11117,37.89297],[127.11118,37.89292],[127.11129,37.89292],[127.11131,37.89299],[127.11122,37.89301]]]}},{"type":"Feature","properties":{"valleyId":"wangbang","layer":"shadow","date":"2026-08-01","timeLocal":"18:00"},"geometry":{"type":"Polygon","coordinates":[[[127.12279,37.8932],[127.12279,37.89309],[127.12286,37.89309],[127.12286,37.8932],[127.12279,37.8932]]]}},{"type":"Feature","properties":{"valleyId":"wangbang","layer":"shadow","date":"2026-08-01","timeLocal":"18:00"},"geometry":{"type":"Polygon","coordinates":[[[127.12556,37.89347],[127.12549,37.89344],[127.12549,37.89335],[127.12554,37.89329],[127.12552,37.89317],[127.12557,37.89313],[127.12589,37.89315],[127.12588,37.89328],[127.12579,37.89328],[127.12568,37.89335],[127.12567,37.89342],[127.12574,37.89342],[127.12574,37.89348],[127.12556,37.89347]]]}},{"type":"Feature","properties":{"valleyId":"wangbang","layer":"shadow","date":"2026-08-01","timeLocal":"18:00"},"geometry":{"type":"Polygon","coordinates":[[[127.11095,37.89295],[127.1109,37.89291],[127.1109,37.89286],[127.111,37.89284],[127.11099,37.8929],[127.11106,37.8929],[127.11106,37.89295],[127.11095,37.89295]]]}},{"type":"Feature","properties":{"valleyId":"wangbang","layer":"shadow","date":"2026-08-01","timeLocal":"18:00"},"geometry":{"type":"Polygon","coordinates":[[[127.11068,37.89286],[127.11066,37.89275],[127.11077,37.89277],[127.11075,37.89286],[127.11068,37.89286]]]}},{"type":"Feature","properties":{"valleyId":"wangbang","layer":"shadow","date":"2026-08-01","timeLocal":"18:00"},"geometry":{"type":"Polygon","coordinates":[[[127.11095,37.89283],[127.11095,37.89275],[127.11102,37.89275],[127.11102,37.89283],[127.11095,37.89283]]]}},{"type":"Feature","properties":{"valleyId":"wangbang","layer":"shadow","date":"2026-08-01","timeLocal":"18:00"},"geometry":{"type":"Polygon","coordinates":[[[127.13091,37.89318],[127.13071,37.89314],[127.13071,37.89305],[127.13078,37.89298],[127.13087,37.89298],[127.13091,37.89304],[127.13107,37.89304],[127.13112,37.89308],[127.13109,37.89317],[127.13091,37.89318]]]}},{"type":"Feature","properties":{"valleyId":"wangbang","layer":"shadow","date":"2026-08-01","timeLocal":"18:00"},"geometry":{"type":"Polygon","coordinates":[[[127.12159,37.89291],[127.1216,37.89282],[127.12171,37.89282],[127.12171,37.89289],[127.12159,37.89291]]]}},{"type":"Feature","properties":{"valleyId":"wangbang","layer":"shadow","date":"2026-08-01","timeLocal":"18:00"},"geometry":{"type":"Polygon","coordinates":[[[127.13177,37.89321],[127.13178,37.89307],[127.13185,37.89303],[127.13185,37.89294],[127.13192,37.89294],[127.13196,37.89303],[127.13196,37.89314],[127.13187,37.89321],[127.13177,37.89321]]]}},{"type":"Feature","properties":{"valleyId":"wangbang","layer":"shadow","date":"2026-08-01","timeLocal":"18:00"},"geometry":{"type":"Polygon","coordinates":[[[127.10995,37.89465],[127.10984,37.89459],[127.10972,37.89459],[127.10966,37.89448],[127.10943,37.89441],[127.10939,37.89431],[127.10928,37.89424],[127.10926,37.89415],[127.10917,37.89409],[127.10919,37.8933],[127.10912,37.89325],[127.1088,37.8933],[127.10871,37.89317],[127.10872,37.89308],[127.10867,37.89306],[127.10865,37.89297],[127.10854,37.89297],[127.10849,37.89304],[127.10837,37.89309],[127.10815,37.89305],[127.10815,37.89314],[127.1081,37.89318],[127.10792,37.89321],[127.1079,37.89301],[127.10767,37.89292],[127.10765,37.89281],[127.10745,37.89268],[127.10743,37.89259],[127.10759,37.89259],[127.10759,37.89266],[127.10766,37.89266],[127.1077,37.89276],[127.10795,37.89276],[127.10797,37.8929],[127.10806,37.89291],[127.10806,37.89285],[127.10813,37.89285],[127.10813,37.89292],[127.1082,37.89293],[127.1082,37.89284],[127.10827,37.89284],[127.10827,37.89291],[127.10833,37.89291],[127.10833,37.89287],[127.1084,37.89287],[127.1084,37.89291],[127.10849,37.89291],[127.1085,37.8928],[127.10856,37.89281],[127.10856,37.89284],[127.10897,37.89287],[127.10899,37.89283],[127.10913,37.8928],[127.10913,37.89272],[127.10918,37.89269],[127.10916,37.89258],[127.10943,37.89258],[127.10948,37.8926],[127.10947,37.89275],[127.10936,37.89276],[127.10931,37.89287],[127.10965,37.89293],[127.10965,37.89307],[127.10958,37.89311],[127.10958,37.89325],[127.10967,37.89326],[127.10976,37.89318],[127.10976,37.89304],[127.10986,37.89292],[127.10984,37.89268],[127.10991,37.89268],[127.10991,37.89272],[127.10995,37.89274],[127.10994,37.89319],[127.10978,37.89326],[127.10971,37.89342],[127.10962,37.89342],[127.10957,37.89327],[127.10948,37.89329],[127.10944,37.8934],[127.10943,37.89374],[127.10947,37.89381],[127.10947,37.8939],[127.10951,37.89394],[127.10951,37.8941],[127.10964,37.89416],[127.10973,37.89428],[127.10991,37.89436],[127.11002,37.89436],[127.11007,37.89427],[127.11021,37.89426],[127.11041,37.89426],[127.11041,37.89429],[127.11059,37.8943],[127.11059,37.89457],[127.11038,37.89456],[127.11038,37.89465],[127.10995,37.89465]]]}},{"type":"Feature","properties":{"valleyId":"wangbang","layer":"shadow","date":"2026-08-01","timeLocal":"18:00"},"geometry":{"type":"Polygon","coordinates":[[[127.1088,37.89261],[127.1088,37.89256],[127.10889,37.89256],[127.10889,37.89261],[127.1088,37.89261]]]}},{"type":"Feature","properties":{"valleyId":"wangbang","layer":"shadow","date":"2026-08-01","timeLocal":"18:00"},"geometry":{"type":"Polygon","coordinates":[[[127.12714,37.89298],[127.12714,37.89285],[127.12719,37.8928],[127.12726,37.8928],[127.12723,37.89294],[127.12721,37.89298],[127.12714,37.89298]]]}},{"type":"Feature","properties":{"valleyId":"wangbang","layer":"shadow","date":"2026-08-01","timeLocal":"18:00"},"geometry":{"type":"Polygon","coordinates":[[[127.12335,37.89277],[127.12335,37.8927],[127.12342,37.8927],[127.12342,37.89277],[127.12335,37.89277]]]}},{"type":"Feature","properties":{"valleyId":"wangbang","layer":"shadow","date":"2026-08-01","timeLocal":"18:00"},"geometry":{"type":"Polygon","coordinates":[[[127.11159,37.89257],[127.11153,37.89253],[127.11153,37.89247],[127.11166,37.89251],[127.11166,37.89257],[127.11159,37.89257]]]}},{"type":"Feature","properties":{"valleyId":"wangbang","layer":"shadow","date":"2026-08-01","timeLocal":"18:00"},"geometry":{"type":"Polygon","coordinates":[[[127.10993,37.89263],[127.10993,37.89254],[127.10989,37.8925],[127.10989,37.89241],[127.10996,37.89241],[127.10998,37.89247],[127.11005,37.8925],[127.11005,37.89259],[127.11,37.89263],[127.10993,37.89263]]]}},{"type":"Feature","properties":{"valleyId":"wangbang","layer":"shadow","date":"2026-08-01","timeLocal":"18:00"},"geometry":{"type":"Polygon","coordinates":[[[127.12384,37.89307],[127.12387,37.89291],[127.12382,37.89283],[127.12373,37.89283],[127.12374,37.89267],[127.12372,37.8926],[127.12367,37.8926],[127.12367,37.89254],[127.12374,37.89254],[127.12374,37.8926],[127.12387,37.89265],[127.12389,37.89274],[127.12385,37.89276],[127.12385,37.89282],[127.12398,37.89285],[127.12398,37.89296],[127.12391,37.893],[127.12391,37.89307],[127.12384,37.89307]]]}},{"type":"Feature","properties":{"valleyId":"wangbang","layer":"shadow","date":"2026-08-01","timeLocal":"18:00"},"geometry":{"type":"Polygon","coordinates":[[[127.12551,37.89286],[127.12546,37.89281],[127.12521,37.8928],[127.12517,37.89275],[127.12512,37.89275],[127.1251,37.89255],[127.12517,37.89255],[127.12517,37.8926],[127.12522,37.8926],[127.12524,37.89264],[127.12533,37.89264],[127.12537,37.8927],[127.12553,37.8927],[127.12553,37.89277],[127.12564,37.89277],[127.12564,37.89283],[127.1256,37.89286],[127.12551,37.89286]]]}},{"type":"Feature","properties":{"valleyId":"wangbang","layer":"shadow","date":"2026-08-01","timeLocal":"18:00"},"geometry":{"type":"Polygon","coordinates":[[[127.11137,37.8924],[127.11135,37.89229],[127.11142,37.89229],[127.11144,37.8924],[127.11137,37.8924]]]}},{"type":"Feature","properties":{"valleyId":"wangbang","layer":"shadow","date":"2026-08-01","timeLocal":"18:00"},"geometry":{"type":"Polygon","coordinates":[[[127.1101,37.89229],[127.1101,37.89224],[127.11017,37.89224],[127.11017,37.89229],[127.1101,37.89229]]]}},{"type":"Feature","properties":{"valleyId":"wangbang","layer":"shadow","date":"2026-08-01","timeLocal":"18:00"},"geometry":{"type":"Polygon","coordinates":[[[127.11874,37.89236],[127.11874,37.89228],[127.11881,37.89228],[127.11883,37.89236],[127.11874,37.89236]]]}},{"type":"Feature","properties":{"valleyId":"wangbang","layer":"shadow","date":"2026-08-01","timeLocal":"18:00"},"geometry":{"type":"Polygon","coordinates":[[[127.11915,37.89252],[127.11915,37.89247],[127.11924,37.89238],[127.11929,37.89226],[127.11952,37.89228],[127.11951,37.89235],[127.11933,37.89235],[127.11935,37.89247],[127.11931,37.89253],[127.11915,37.89252]]]}},{"type":"Feature","properties":{"valleyId":"wangbang","layer":"shadow","date":"2026-08-01","timeLocal":"18:00"},"geometry":{"type":"Polygon","coordinates":[[[127.10774,37.89211],[127.10765,37.89207],[127.10765,37.89202],[127.10783,37.89204],[127.10783,37.89211],[127.10774,37.89211]]]}},{"type":"Feature","properties":{"valleyId":"wangbang","layer":"shadow","date":"2026-08-01","timeLocal":"18:00"},"geometry":{"type":"Polygon","coordinates":[[[127.11124,37.89225],[127.11115,37.89211],[127.11115,37.89205],[127.11122,37.89205],[127.11124,37.89211],[127.11133,37.89213],[127.11131,37.89225],[127.11124,37.89225]]]}},{"type":"Feature","properties":{"valleyId":"wangbang","layer":"shadow","date":"2026-08-01","timeLocal":"18:00"},"geometry":{"type":"Polygon","coordinates":[[[127.12156,37.89226],[127.12157,37.8922],[127.12163,37.8922],[127.12163,37.89226],[127.12156,37.89226]]]}},{"type":"Feature","properties":{"valleyId":"wangbang","layer":"shadow","date":"2026-08-01","timeLocal":"18:00"},"geometry":{"type":"Polygon","coordinates":[[[127.13076,37.89271],[127.13067,37.89264],[127.13068,37.89246],[127.13073,37.89235],[127.13086,37.89233],[127.1309,37.89255],[127.13086,37.89258],[127.13086,37.89269],[127.13076,37.89271]]]}},{"type":"Feature","properties":{"valleyId":"wangbang","layer":"shadow","date":"2026-08-01","timeLocal":"18:00"},"geometry":{"type":"Polygon","coordinates":[[[127.121,37.89223],[127.121,37.89218],[127.12109,37.89218],[127.12109,37.89223],[127.121,37.89223]]]}},{"type":"Feature","properties":{"valleyId":"wangbang","layer":"shadow","date":"2026-08-01","timeLocal":"18:00"},"geometry":{"type":"Polygon","coordinates":[[[127.12491,37.89226],[127.12491,37.8922],[127.12498,37.8922],[127.12498,37.89226],[127.12491,37.89226]]]}},{"type":"Feature","properties":{"valleyId":"wangbang","layer":"shadow","date":"2026-08-01","timeLocal":"18:00"},"geometry":{"type":"Polygon","coordinates":[[[127.12582,37.89227],[127.12582,37.89222],[127.12589,37.89222],[127.12588,37.89227],[127.12582,37.89227]]]}},{"type":"Feature","properties":{"valleyId":"wangbang","layer":"shadow","date":"2026-08-01","timeLocal":"18:00"},"geometry":{"type":"Polygon","coordinates":[[[127.13272,37.89258],[127.1327,37.89256],[127.13268,37.89231],[127.13275,37.89231],[127.13282,37.89242],[127.13281,37.89258],[127.13272,37.89258]]]}},{"type":"Feature","properties":{"valleyId":"wangbang","layer":"shadow","date":"2026-08-01","timeLocal":"18:00"},"geometry":{"type":"Polygon","coordinates":[[[127.12079,37.89217],[127.1208,37.89208],[127.12093,37.8921],[127.12091,37.89217],[127.12079,37.89217]]]}},{"type":"Feature","properties":{"valleyId":"wangbang","layer":"shadow","date":"2026-08-01","timeLocal":"18:00"},"geometry":{"type":"Polygon","coordinates":[[[127.12516,37.89221],[127.12516,37.89212],[127.12525,37.89212],[127.12525,37.89221],[127.12516,37.89221]]]}},{"type":"Feature","properties":{"valleyId":"wangbang","layer":"shadow","date":"2026-08-01","timeLocal":"18:00"},"geometry":{"type":"Polygon","coordinates":[[[127.13337,37.89225],[127.13339,37.89217],[127.13348,37.89218],[127.13348,37.89225],[127.13337,37.89225]]]}},{"type":"Feature","properties":{"valleyId":"wangbang","layer":"shadow","date":"2026-08-01","timeLocal":"18:00"},"geometry":{"type":"Polygon","coordinates":[[[127.10963,37.89183],[127.10964,37.89174],[127.10975,37.89174],[127.10975,37.8918],[127.1097,37.89183],[127.10963,37.89183]]]}},{"type":"Feature","properties":{"valleyId":"wangbang","layer":"shadow","date":"2026-08-01","timeLocal":"18:00"},"geometry":{"type":"Polygon","coordinates":[[[127.13225,37.8923],[127.13226,37.89219],[127.1321,37.89219],[127.1321,37.89208],[127.1323,37.89212],[127.1323,37.89217],[127.13237,37.89218],[127.13232,37.8923],[127.13225,37.8923]]]}},{"type":"Feature","properties":{"valleyId":"wangbang","layer":"shadow","date":"2026-08-01","timeLocal":"18:00"},"geometry":{"type":"Polygon","coordinates":[[[127.12116,37.89196],[127.12116,37.89191],[127.12123,37.89191],[127.12123,37.89196],[127.12116,37.89196]]]}},{"type":"Feature","properties":{"valleyId":"wangbang","layer":"shadow","date":"2026-08-01","timeLocal":"18:00"},"geometry":{"type":"Polygon","coordinates":[[[127.12505,37.89201],[127.12505,37.89195],[127.12514,37.89193],[127.12514,37.89199],[127.12505,37.89201]]]}},{"type":"Feature","properties":{"valleyId":"wangbang","layer":"shadow","date":"2026-08-01","timeLocal":"18:00"},"geometry":{"type":"Polygon","coordinates":[[[127.12212,37.89205],[127.12212,37.89185],[127.12219,37.89185],[127.12221,37.892],[127.12218,37.89205],[127.12212,37.89205]]]}},{"type":"Feature","properties":{"valleyId":"wangbang","layer":"shadow","date":"2026-08-01","timeLocal":"18:00"},"geometry":{"type":"Polygon","coordinates":[[[127.11009,37.89171],[127.11009,37.89166],[127.11016,37.89166],[127.11016,37.89171],[127.11009,37.89171]]]}},{"type":"Feature","properties":{"valleyId":"wangbang","layer":"shadow","date":"2026-08-01","timeLocal":"18:00"},"geometry":{"type":"Polygon","coordinates":[[[127.1329,37.89204],[127.1329,37.89199],[127.13297,37.89199],[127.13296,37.89204],[127.1329,37.89204]]]}},{"type":"Feature","properties":{"valleyId":"wangbang","layer":"shadow","date":"2026-08-01","timeLocal":"18:00"},"geometry":{"type":"Polygon","coordinates":[[[127.1208,37.89183],[127.1208,37.8917],[127.1209,37.8917],[127.12096,37.89174],[127.12096,37.8918],[127.12092,37.89183],[127.1208,37.89183]]]}},{"type":"Feature","properties":{"valleyId":"wangbang","layer":"shadow","date":"2026-08-01","timeLocal":"18:00"},"geometry":{"type":"Polygon","coordinates":[[[127.13192,37.89197],[127.13188,37.89184],[127.13201,37.89185],[127.13199,37.89197],[127.13192,37.89197]]]}},{"type":"Feature","properties":{"valleyId":"wangbang","layer":"shadow","date":"2026-08-01","timeLocal":"18:00"},"geometry":{"type":"Polygon","coordinates":[[[127.13271,37.89206],[127.13271,37.89202],[127.13267,37.892],[127.1327,37.89184],[127.13279,37.89184],[127.13278,37.89206],[127.13271,37.89206]]]}},{"type":"Feature","properties":{"valleyId":"wangbang","layer":"shadow","date":"2026-08-01","timeLocal":"18:00"},"geometry":{"type":"Polygon","coordinates":[[[127.13021,37.89194],[127.13022,37.8918],[127.13031,37.8918],[127.13028,37.89194],[127.13021,37.89194]]]}},{"type":"Feature","properties":{"valleyId":"wangbang","layer":"shadow","date":"2026-08-01","timeLocal":"18:00"},"geometry":{"type":"Polygon","coordinates":[[[127.10903,37.89162],[127.10903,37.89157],[127.10896,37.89157],[127.10896,37.89146],[127.1091,37.89146],[127.10912,37.89161],[127.10903,37.89162]]]}},{"type":"Feature","properties":{"valleyId":"wangbang","layer":"shadow","date":"2026-08-01","timeLocal":"18:00"},"geometry":{"type":"Polygon","coordinates":[[[127.10921,37.89154],[127.10921,37.89146],[127.10946,37.89147],[127.10946,37.89152],[127.10921,37.89154]]]}},{"type":"Feature","properties":{"valleyId":"wangbang","layer":"shadow","date":"2026-08-01","timeLocal":"18:00"},"geometry":{"type":"Polygon","coordinates":[[[127.13096,37.89203],[127.13083,37.89201],[127.13081,37.89193],[127.13074,37.89192],[127.13074,37.89186],[127.13081,37.89179],[127.13088,37.89179],[127.1309,37.89194],[127.13103,37.89196],[127.13103,37.89203],[127.13096,37.89203]]]}},{"type":"Feature","properties":{"valleyId":"wangbang","layer":"shadow","date":"2026-08-01","timeLocal":"18:00"},"geometry":{"type":"Polygon","coordinates":[[[127.12996,37.89196],[127.12992,37.89183],[127.12985,37.89183],[127.12985,37.89178],[127.12999,37.89178],[127.12999,37.89185],[127.13003,37.89187],[127.13005,37.89196],[127.12996,37.89196]]]}},{"type":"Feature","properties":{"valleyId":"wangbang","layer":"shadow","date":"2026-08-01","timeLocal":"18:00"},"geometry":{"type":"Polygon","coordinates":[[[127.13217,37.89279],[127.13215,37.89275],[127.13204,37.89271],[127.13181,37.89274],[127.13176,37.89271],[127.13165,37.89271],[127.13161,37.89265],[127.13149,37.89265],[127.13147,37.89252],[127.13139,37.89234],[127.13127,37.89236],[127.13127,37.89252],[127.13118,37.89252],[127.13116,37.89248],[127.13111,37.89248],[127.13109,37.89239],[127.13104,37.89239],[127.13105,37.89235],[127.13095,37.89235],[127.13096,37.89228],[127.13102,37.89228],[127.13105,37.89219],[127.13135,37.8922],[127.13133,37.89207],[127.13124,37.89201],[127.13121,37.89196],[127.13112,37.89194],[127.13113,37.89189],[127.13131,37.89189],[127.13131,37.89178],[127.13145,37.89178],[127.13144,37.89189],[127.13149,37.89189],[127.13149,37.89193],[127.13181,37.89193],[127.1318,37.892],[127.13192,37.89201],[127.13192,37.89204],[127.13201,37.89204],[127.13201,37.89212],[127.13189,37.89213],[127.13189,37.89219],[127.1321,37.89221],[127.13209,37.89224],[127.13214,37.89226],[127.13214,37.89233],[127.1322,37.89241],[127.1322,37.89246],[127.13227,37.89246],[127.13225,37.89257],[127.1322,37.89257],[127.13224,37.89279],[127.13217,37.89279]]]}},{"type":"Feature","properties":{"valleyId":"wangbang","layer":"shadow","date":"2026-08-01","timeLocal":"18:00"},"geometry":{"type":"Polygon","coordinates":[[[127.13163,37.89184],[127.13163,37.89179],[127.1317,37.89179],[127.1317,37.89184],[127.13163,37.89184]]]}},{"type":"Feature","properties":{"valleyId":"wangbang","layer":"shadow","date":"2026-08-01","timeLocal":"18:00"},"geometry":{"type":"Polygon","coordinates":[[[127.12128,37.89189],[127.12128,37.89177],[127.12133,37.89173],[127.12133,37.89168],[127.12137,37.89166],[127.12138,37.8916],[127.12142,37.89157],[127.12156,37.89155],[127.12156,37.89163],[127.12149,37.89171],[127.12148,37.89182],[127.12142,37.89184],[127.12139,37.89189],[127.12128,37.89189]]]}},{"type":"Feature","properties":{"valleyId":"wangbang","layer":"shadow","date":"2026-08-01","timeLocal":"18:00"},"geometry":{"type":"Polygon","coordinates":[[[127.1286,37.89174],[127.12858,37.89167],[127.12867,37.89167],[127.12867,37.89174],[127.1286,37.89174]]]}},{"type":"Feature","properties":{"valleyId":"wangbang","layer":"shadow","date":"2026-08-01","timeLocal":"18:00"},"geometry":{"type":"Polygon","coordinates":[[[127.12018,37.892],[127.12019,37.89184],[127.1201,37.89182],[127.1201,37.89173],[127.12015,37.89171],[127.12015,37.89164],[127.1201,37.89162],[127.1201,37.89151],[127.12022,37.89153],[127.12024,37.89159],[127.1204,37.89164],[127.12039,37.89175],[127.12021,37.89175],[127.12021,37.89182],[127.12035,37.89182],[127.12037,37.89195],[127.12028,37.89197],[127.12025,37.892],[127.12018,37.892]]]}},{"type":"Feature","properties":{"valleyId":"wangbang","layer":"shadow","date":"2026-08-01","timeLocal":"18:00"},"geometry":{"type":"Polygon","coordinates":[[[127.10889,37.89146],[127.10889,37.89142],[127.1088,37.89142],[127.10881,37.89133],[127.10896,37.89135],[127.10896,37.89146],[127.10889,37.89146]]]}},{"type":"Feature","properties":{"valleyId":"wangbang","layer":"shadow","date":"2026-08-01","timeLocal":"18:00"},"geometry":{"type":"Polygon","coordinates":[[[127.12779,37.89169],[127.12779,37.89163],[127.12788,37.89164],[127.12788,37.89169],[127.12779,37.89169]]]}},{"type":"Feature","properties":{"valleyId":"wangbang","layer":"shadow","date":"2026-08-01","timeLocal":"18:00"},"geometry":{"type":"Polygon","coordinates":[[[127.12822,37.8917],[127.12822,37.89164],[127.12829,37.89164],[127.12829,37.8917],[127.12822,37.8917]]]}},{"type":"Feature","properties":{"valleyId":"wangbang","layer":"shadow","date":"2026-08-01","timeLocal":"18:00"},"geometry":{"type":"Polygon","coordinates":[[[127.13097,37.89174],[127.13097,37.89169],[127.13106,37.89169],[127.13106,37.89174],[127.13097,37.89174]]]}},{"type":"Feature","properties":{"valleyId":"wangbang","layer":"shadow","date":"2026-08-01","timeLocal":"18:00"},"geometry":{"type":"Polygon","coordinates":[[[127.12761,37.89165],[127.12761,37.8916],[127.12768,37.8916],[127.12767,37.89165],[127.12761,37.89165]]]}},{"type":"Feature","properties":{"valleyId":"wangbang","layer":"shadow","date":"2026-08-01","timeLocal":"18:00"},"geometry":{"type":"Polygon","coordinates":[[[127.12702,37.89159],[127.12702,37.89153],[127.12711,37.89153],[127.12711,37.89159],[127.12702,37.89159]]]}},{"type":"Feature","properties":{"valleyId":"wangbang","layer":"shadow","date":"2026-08-01","timeLocal":"18:00"},"geometry":{"type":"Polygon","coordinates":[[[127.12949,37.89181],[127.1294,37.89177],[127.1294,37.89171],[127.12947,37.89172],[127.12945,37.89153],[127.12952,37.89154],[127.12954,37.89173],[127.12958,37.89175],[127.12958,37.89181],[127.12949,37.89181]]]}},{"type":"Feature","properties":{"valleyId":"wangbang","layer":"shadow","date":"2026-08-01","timeLocal":"18:00"},"geometry":{"type":"Polygon","coordinates":[[[127.13018,37.89169],[127.1302,37.89158],[127.13013,37.89158],[127.13013,37.89151],[127.13027,37.89149],[127.13031,37.89166],[127.13027,37.89166],[127.13027,37.89169],[127.13018,37.89169]]]}},{"type":"Feature","properties":{"valleyId":"wangbang","layer":"shadow","date":"2026-08-01","timeLocal":"18:00"},"geometry":{"type":"Polygon","coordinates":[[[127.13204,37.89168],[127.13204,37.89161],[127.13198,37.89157],[127.13198,37.89152],[127.13214,37.89152],[127.13213,37.89158],[127.1322,37.8916],[127.1322,37.89165],[127.13213,37.89165],[127.13213,37.89169],[127.13204,37.89168]]]}},{"type":"Feature","properties":{"valleyId":"wangbang","layer":"shadow","date":"2026-08-01","timeLocal":"18:00"},"geometry":{"type":"Polygon","coordinates":[[[127.12179,37.89156],[127.12179,37.89148],[127.12172,37.89148],[127.1217,37.89154],[127.12163,37.89154],[127.1217,37.89134],[127.12193,37.89136],[127.12195,37.89147],[127.12199,37.89147],[127.12199,37.89152],[127.12179,37.89156]]]}},{"type":"Feature","properties":{"valleyId":"wangbang","layer":"shadow","date":"2026-08-01","timeLocal":"18:00"},"geometry":{"type":"Polygon","coordinates":[[[127.12868,37.89156],[127.12868,37.89145],[127.12882,37.89149],[127.12881,37.89154],[127.12868,37.89156]]]}},{"type":"Feature","properties":{"valleyId":"wangbang","layer":"shadow","date":"2026-08-01","timeLocal":"18:00"},"geometry":{"type":"Polygon","coordinates":[[[127.13154,37.89159],[127.13154,37.8915],[127.13168,37.8915],[127.13168,37.89155],[127.13163,37.89159],[127.13154,37.89159]]]}},{"type":"Feature","properties":{"valleyId":"wangbang","layer":"shadow","date":"2026-08-01","timeLocal":"18:00"},"geometry":{"type":"Polygon","coordinates":[[[127.12621,37.89213],[127.12605,37.89204],[127.12594,37.89186],[127.12587,37.89186],[127.12583,37.8918],[127.12569,37.8918],[127.1256,37.89176],[127.12558,37.89156],[127.1255,37.89145],[127.12543,37.89145],[127.12543,37.8914],[127.12568,37.89142],[127.12575,37.89149],[127.12584,37.89151],[127.12585,37.89169],[127.12592,37.89171],[127.12601,37.89182],[127.12608,37.89182],[127.12615,37.89188],[127.12614,37.89195],[127.12621,37.89195],[127.12623,37.89206],[127.1263,37.89208],[127.1263,37.89213],[127.12621,37.89213]]]}},{"type":"Feature","properties":{"valleyId":"wangbang","layer":"shadow","date":"2026-08-01","timeLocal":"18:00"},"geometry":{"type":"Polygon","coordinates":[[[127.13036,37.89146],[127.13039,37.89139],[127.13052,37.89137],[127.13052,37.89144],[127.13036,37.89146]]]}},{"type":"Feature","properties":{"valleyId":"wangbang","layer":"shadow","date":"2026-08-01","timeLocal":"18:00"},"geometry":{"type":"Polygon","coordinates":[[[127.13166,37.89146],[127.13166,37.89139],[127.13173,37.89139],[127.13173,37.89146],[127.13166,37.89146]]]}},{"type":"Feature","properties":{"valleyId":"wangbang","layer":"shadow","date":"2026-08-01","timeLocal":"18:00"},"geometry":{"type":"Polygon","coordinates":[[[127.10906,37.89108],[127.10906,37.89103],[127.10913,37.89103],[127.10913,37.89108],[127.10906,37.89108]]]}},{"type":"Feature","properties":{"valleyId":"wangbang","layer":"shadow","date":"2026-08-01","timeLocal":"18:00"},"geometry":{"type":"Polygon","coordinates":[[[127.13088,37.89158],[127.13089,37.89136],[127.13098,37.89136],[127.13098,37.89145],[127.13109,37.89147],[127.13109,37.89152],[127.13088,37.89158]]]}},{"type":"Feature","properties":{"valleyId":"wangbang","layer":"shadow","date":"2026-08-01","timeLocal":"18:00"},"geometry":{"type":"Polygon","coordinates":[[[127.13184,37.8915],[127.13187,37.89137],[127.13193,37.89138],[127.13193,37.89148],[127.13184,37.8915]]]}},{"type":"Feature","properties":{"valleyId":"wangbang","layer":"shadow","date":"2026-08-01","timeLocal":"18:00"},"geometry":{"type":"Polygon","coordinates":[[[127.1312,37.89145],[127.13121,37.89136],[127.13141,37.89137],[127.13141,37.89142],[127.1312,37.89145]]]}},{"type":"Feature","properties":{"valleyId":"wangbang","layer":"shadow","date":"2026-08-01","timeLocal":"18:00"},"geometry":{"type":"Polygon","coordinates":[[[127.12484,37.8913],[127.12484,37.89125],[127.12491,37.89125],[127.12491,37.8913],[127.12484,37.8913]]]}},{"type":"Feature","properties":{"valleyId":"wangbang","layer":"shadow","date":"2026-08-01","timeLocal":"18:00"},"geometry":{"type":"Polygon","coordinates":[[[127.12502,37.89132],[127.12502,37.89123],[127.12509,37.89123],[127.12509,37.89132],[127.12502,37.89132]]]}},{"type":"Feature","properties":{"valleyId":"wangbang","layer":"shadow","date":"2026-08-01","timeLocal":"18:00"},"geometry":{"type":"Polygon","coordinates":[[[127.13316,37.89145],[127.13316,37.89136],[127.1333,37.89136],[127.1333,37.89143],[127.13316,37.89145]]]}},{"type":"Feature","properties":{"valleyId":"wangbang","layer":"shadow","date":"2026-08-01","timeLocal":"18:00"},"geometry":{"type":"Polygon","coordinates":[[[127.1228,37.89123],[127.1228,37.89114],[127.12291,37.89116],[127.12289,37.89123],[127.1228,37.89123]]]}},{"type":"Feature","properties":{"valleyId":"wangbang","layer":"shadow","date":"2026-08-01","timeLocal":"18:00"},"geometry":{"type":"Polygon","coordinates":[[[127.13068,37.89137],[127.13064,37.89127],[127.13075,37.89127],[127.13075,37.8913],[127.1308,37.8913],[127.1308,37.89136],[127.13068,37.89137]]]}},{"type":"Feature","properties":{"valleyId":"wangbang","layer":"shadow","date":"2026-08-01","timeLocal":"18:00"},"geometry":{"type":"Polygon","coordinates":[[[127.13309,37.89136],[127.1331,37.89129],[127.13316,37.89129],[127.13316,37.89136],[127.13309,37.89136]]]}},{"type":"Feature","properties":{"valleyId":"wangbang","layer":"shadow","date":"2026-08-01","timeLocal":"18:00"},"geometry":{"type":"Polygon","coordinates":[[[127.13223,37.89129],[127.13223,37.89124],[127.1323,37.89124],[127.1323,37.89129],[127.13223,37.89129]]]}},{"type":"Feature","properties":{"valleyId":"wangbang","layer":"shadow","date":"2026-08-01","timeLocal":"18:00"},"geometry":{"type":"Polygon","coordinates":[[[127.12364,37.89117],[127.12364,37.89108],[127.12371,37.89108],[127.12373,37.89117],[127.12364,37.89117]]]}},{"type":"Feature","properties":{"valleyId":"wangbang","layer":"shadow","date":"2026-08-01","timeLocal":"18:00"},"geometry":{"type":"Polygon","coordinates":[[[127.13332,37.89131],[127.13333,37.89124],[127.13339,37.89124],[127.13339,37.89131],[127.13332,37.89131]]]}},{"type":"Feature","properties":{"valleyId":"wangbang","layer":"shadow","date":"2026-08-01","timeLocal":"18:00"},"geometry":{"type":"Polygon","coordinates":[[[127.12063,37.89415],[127.12068,37.89401],[127.12057,37.89393],[127.12057,37.89388],[127.12068,37.89385],[127.12069,37.8937],[127.12064,37.89367],[127.12064,37.89358],[127.12078,37.89352],[127.12079,37.89333],[127.12072,37.89314],[127.12073,37.89304],[127.12066,37.89296],[127.12066,37.89289],[127.12075,37.89289],[127.12076,37.89275],[127.12062,37.89275],[127.1205,37.89285],[127.12041,37.89285],[127.12035,37.89274],[127.12021,37.89272],[127.12024,37.89261],[127.1201,37.8925],[127.11992,37.89248],[127.11987,37.8925],[127.11987,37.89254],[127.11976,37.89253],[127.11976,37.8925],[127.11963,37.89241],[127.11963,37.89233],[127.11972,37.89226],[127.11972,37.89219],[127.11927,37.89218],[127.11913,37.89211],[127.11902,37.89211],[127.119,37.89216],[127.11884,37.89214],[127.11886,37.89198],[127.11906,37.89155],[127.11934,37.89112],[127.11948,37.89098],[127.11962,37.89098],[127.11964,37.89105],[127.11973,37.89106],[127.1198,37.89111],[127.11986,37.89111],[127.11989,37.89115],[127.12007,37.89122],[127.12009,37.89131],[127.12004,37.89135],[127.12004,37.8914],[127.12008,37.89151],[127.12001,37.89151],[127.12001,37.89155],[127.11997,37.89155],[127.11997,37.89158],[127.11987,37.89162],[127.11987,37.89174],[127.11971,37.89176],[127.11966,37.89181],[127.11962,37.89181],[127.11957,37.89195],[127.11952,37.89195],[127.11952,37.89201],[127.11943,37.89201],[127.11941,37.89208],[127.11988,37.89212],[127.12025,37.89211],[127.12025,37.89218],[127.12018,37.8922],[127.12018,37.89225],[127.12027,37.89225],[127.12033,37.89231],[127.12033,37.89234],[127.12042,37.89235],[127.12051,37.89244],[127.1206,37.89244],[127.12067,37.89251],[127.12078,37.89253],[127.12078,37.89257],[127.12085,37.89257],[127.12083,37.89241],[127.1209,37.89241],[127.12092,37.89246],[127.12099,37.89246],[127.12099,37.89264],[127.12105,37.8927],[127.12107,37.89277],[127.12112,37.89277],[127.12121,37.89285],[127.12122,37.89319],[127.12119,37.89339],[127.1211,37.89338],[127.12112,37.89358],[127.12103,37.89358],[127.12096,37.89376],[127.12091,37.89378],[127.12091,37.89381],[127.12084,37.89383],[127.12084,37.89392],[127.12075,37.89392],[127.12075,37.89397],[127.12079,37.89399],[127.12077,37.8941],[127.1207,37.89415],[127.12063,37.89415]]]}},{"type":"Feature","properties":{"valleyId":"wangbang","layer":"shadow","date":"2026-08-01","timeLocal":"18:00"},"geometry":{"type":"Polygon","coordinates":[[[127.13268,37.89142],[127.13269,37.89119],[127.13276,37.89119],[127.13287,37.89128],[127.13287,37.89134],[127.1328,37.89141],[127.13268,37.89142]]]}},{"type":"Feature","properties":{"valleyId":"wangbang","layer":"shadow","date":"2026-08-01","timeLocal":"18:00"},"geometry":{"type":"Polygon","coordinates":[[[127.12418,37.89116],[127.12419,37.89102],[127.12426,37.89102],[127.12432,37.89109],[127.12432,37.89115],[127.12418,37.89116]]]}},{"type":"Feature","properties":{"valleyId":"wangbang","layer":"shadow","date":"2026-08-01","timeLocal":"18:00"},"geometry":{"type":"Polygon","coordinates":[[[127.12557,37.89115],[127.12557,37.89104],[127.12567,37.89104],[127.12564,37.89115],[127.12557,37.89115]]]}},{"type":"Feature","properties":{"valleyId":"wangbang","layer":"shadow","date":"2026-08-01","timeLocal":"18:00"},"geometry":{"type":"Polygon","coordinates":[[[127.1236,37.89105],[127.1236,37.89099],[127.12367,37.89099],[127.12366,37.89105],[127.1236,37.89105]]]}},{"type":"Feature","properties":{"valleyId":"wangbang","layer":"shadow","date":"2026-08-01","timeLocal":"18:00"},"geometry":{"type":"Polygon","coordinates":[[[127.12546,37.89107],[127.12546,37.89102],[127.12555,37.89102],[127.12555,37.89108],[127.12546,37.89107]]]}},{"type":"Feature","properties":{"valleyId":"wangbang","layer":"shadow","date":"2026-08-01","timeLocal":"18:00"},"geometry":{"type":"Polygon","coordinates":[[[127.12224,37.89086],[127.12224,37.89081],[127.12231,37.89081],[127.1223,37.89086],[127.12224,37.89086]]]}},{"type":"Feature","properties":{"valleyId":"wangbang","layer":"shadow","date":"2026-08-01","timeLocal":"18:00"},"geometry":{"type":"Polygon","coordinates":[[[127.12032,37.89092],[127.12033,37.89083],[127.12028,37.89081],[127.12028,37.89076],[127.12051,37.89073],[127.12056,37.89076],[127.12055,37.89089],[127.12032,37.89092]]]}},{"type":"Feature","properties":{"valleyId":"wangbang","layer":"shadow","date":"2026-08-01","timeLocal":"18:00"},"geometry":{"type":"Polygon","coordinates":[[[127.12294,37.89075],[127.12295,37.89069],[127.12301,37.89069],[127.12301,37.89075],[127.12294,37.89075]]]}},{"type":"Feature","properties":{"valleyId":"wangbang","layer":"shadow","date":"2026-08-01","timeLocal":"18:00"},"geometry":{"type":"Polygon","coordinates":[[[127.11987,37.89079],[127.11983,37.89073],[127.11974,37.89073],[127.11974,37.89068],[127.11981,37.89062],[127.11992,37.89063],[127.11992,37.89072],[127.11997,37.89073],[127.11996,37.89079],[127.11987,37.89079]]]}},{"type":"Feature","properties":{"valleyId":"wangbang","layer":"shadow","date":"2026-08-01","timeLocal":"18:00"},"geometry":{"type":"Polygon","coordinates":[[[127.13252,37.89083],[127.13252,37.89075],[127.13261,37.89076],[127.13261,37.89081],[127.13252,37.89083]]]}},{"type":"Feature","properties":{"valleyId":"wangbang","layer":"shadow","date":"2026-08-01","timeLocal":"18:00"},"geometry":{"type":"Polygon","coordinates":[[[127.1329,37.89083],[127.13291,37.89074],[127.13304,37.89074],[127.13302,37.89082],[127.1329,37.89083]]]}},{"type":"Feature","properties":{"valleyId":"wangbang","layer":"shadow","date":"2026-08-01","timeLocal":"18:00"},"geometry":{"type":"Polygon","coordinates":[[[127.12761,37.89064],[127.12763,37.89055],[127.12777,37.89055],[127.12777,37.89061],[127.12768,37.89061],[127.12768,37.89064],[127.12761,37.89064]]]}},{"type":"Feature","properties":{"valleyId":"wangbang","layer":"shadow","date":"2026-08-01","timeLocal":"18:00"},"geometry":{"type":"Polygon","coordinates":[[[127.12536,37.89051],[127.12536,37.89046],[127.12541,37.89043],[127.1255,37.89043],[127.12547,37.8905],[127.12536,37.89051]]]}},{"type":"Feature","properties":{"valleyId":"wangbang","layer":"shadow","date":"2026-08-01","timeLocal":"18:00"},"geometry":{"type":"Polygon","coordinates":[[[127.12875,37.89062],[127.1288,37.89052],[127.12891,37.89043],[127.129,37.89043],[127.12898,37.89052],[127.12893,37.89052],[127.12884,37.89059],[127.12884,37.89062],[127.12875,37.89062]]]}},{"type":"Feature","properties":{"valleyId":"wangbang","layer":"shadow","date":"2026-08-01","timeLocal":"18:00"},"geometry":{"type":"Polygon","coordinates":[[[127.13184,37.89058],[127.13187,37.89047],[127.13196,37.89048],[127.13198,37.89051],[127.13202,37.89051],[127.13202,37.89058],[127.13184,37.89058]]]}},{"type":"Feature","properties":{"valleyId":"wangbang","layer":"shadow","date":"2026-08-01","timeLocal":"18:00"},"geometry":{"type":"Polygon","coordinates":[[[127.13307,37.89056],[127.13307,37.89051],[127.13318,37.89049],[127.13318,37.89055],[127.13307,37.89056]]]}},{"type":"Feature","properties":{"valleyId":"wangbang","layer":"shadow","date":"2026-08-01","timeLocal":"18:00"},"geometry":{"type":"Polygon","coordinates":[[[127.13323,37.89051],[127.13323,37.89039],[127.13335,37.89039],[127.13337,37.89048],[127.13332,37.89051],[127.13323,37.89051]]]}},{"type":"Feature","properties":{"valleyId":"wangbang","layer":"shadow","date":"2026-08-01","timeLocal":"18:00"},"geometry":{"type":"Polygon","coordinates":[[[127.12067,37.89073],[127.12067,37.89067],[127.12079,37.89064],[127.12083,37.89055],[127.12086,37.89037],[127.12093,37.89028],[127.12091,37.8901],[127.12101,37.89008],[127.121,37.89016],[127.12114,37.89019],[127.12114,37.89005],[127.12121,37.89005],[127.12128,37.89014],[127.12129,37.89038],[127.12134,37.89041],[127.12134,37.89049],[127.12138,37.89054],[127.12149,37.89058],[127.12149,37.89063],[127.12138,37.89063],[127.12136,37.89058],[127.12122,37.89054],[127.12122,37.89068],[127.1209,37.89068],[127.12085,37.89071],[127.12067,37.89073]]]}},{"type":"Feature","properties":{"valleyId":"wangbang","layer":"shadow","date":"2026-08-01","timeLocal":"18:00"},"geometry":{"type":"Polygon","coordinates":[[[127.12589,37.89016],[127.12589,37.89011],[127.12599,37.89011],[127.12598,37.89016],[127.12589,37.89016]]]}},{"type":"Feature","properties":{"valleyId":"wangbang","layer":"shadow","date":"2026-08-01","timeLocal":"18:00"},"geometry":{"type":"Polygon","coordinates":[[[127.12098,37.89005],[127.12098,37.88999],[127.12105,37.89],[127.12105,37.89005],[127.12098,37.89005]]]}},{"type":"Feature","properties":{"valleyId":"wangbang","layer":"shadow","date":"2026-08-01","timeLocal":"18:00"},"geometry":{"type":"Polygon","coordinates":[[[127.12817,37.89009],[127.12817,37.89004],[127.12826,37.89004],[127.12826,37.89009],[127.12817,37.89009]]]}},{"type":"Feature","properties":{"valleyId":"wangbang","layer":"shadow","date":"2026-08-01","timeLocal":"18:00"},"geometry":{"type":"Polygon","coordinates":[[[127.12831,37.89006],[127.12831,37.89],[127.12838,37.89],[127.12837,37.89006],[127.12831,37.89006]]]}},{"type":"Feature","properties":{"valleyId":"wangbang","layer":"shadow","date":"2026-08-01","timeLocal":"18:00"},"geometry":{"type":"Polygon","coordinates":[[[127.1324,37.8901],[127.1324,37.88998],[127.13252,37.88998],[127.13251,37.89007],[127.13247,37.89007],[127.13247,37.8901],[127.1324,37.8901]]]}},{"type":"Feature","properties":{"valleyId":"wangbang","layer":"shadow","date":"2026-08-01","timeLocal":"18:00"},"geometry":{"type":"Polygon","coordinates":[[[127.12099,37.88987],[127.12099,37.88974],[127.12106,37.88974],[127.12106,37.88987],[127.12099,37.88987]]]}},{"type":"Feature","properties":{"valleyId":"wangbang","layer":"shadow","date":"2026-08-01","timeLocal":"18:00"},"geometry":{"type":"Polygon","coordinates":[[[127.13004,37.8898],[127.13007,37.88969],[127.13025,37.88967],[127.13025,37.88973],[127.13018,37.88978],[127.13004,37.8898]]]}},{"type":"Feature","properties":{"valleyId":"wangbang","layer":"shadow","date":"2026-08-01","timeLocal":"18:00"},"geometry":{"type":"Polygon","coordinates":[[[127.13118,37.89068],[127.13118,37.89055],[127.13134,37.89041],[127.13141,37.89039],[127.13142,37.8903],[127.1313,37.89025],[127.13122,37.89012],[127.13122,37.88996],[127.13113,37.88985],[127.13113,37.8898],[127.13097,37.88979],[127.13102,37.88969],[127.13161,37.88969],[127.13163,37.88979],[127.13181,37.88982],[127.13182,37.88977],[127.13188,37.88977],[127.13191,37.88983],[127.13197,37.88983],[127.13197,37.88988],[127.13202,37.8899],[127.13202,37.88999],[127.13226,37.89001],[127.13226,37.89007],[127.1322,37.89006],[127.13219,37.89012],[127.13226,37.89012],[127.13228,37.89019],[127.13219,37.89021],[127.1321,37.89032],[127.13198,37.89031],[127.13185,37.89038],[127.13173,37.89038],[127.13153,37.89043],[127.13155,37.89054],[127.1315,37.89054],[127.13141,37.89065],[127.13118,37.89068]],[[127.13167,37.89029],[127.13176,37.89029],[127.13185,37.89024],[127.13185,37.89013],[127.13176,37.89013],[127.13176,37.89017],[127.13167,37.89024],[127.13167,37.89029]],[[127.13185,37.89011],[127.13194,37.89011],[127.13197,37.89002],[127.13186,37.89002],[127.13185,37.89011]],[[127.13177,37.88997],[127.13183,37.88997],[127.13184,37.88991],[127.13177,37.88991],[127.13177,37.88997]]]}},{"type":"Feature","properties":{"valleyId":"wangbang","layer":"shadow","date":"2026-08-01","timeLocal":"18:00"},"geometry":{"type":"Polygon","coordinates":[[[127.12345,37.88971],[127.12348,37.88955],[127.1235,37.88951],[127.12357,37.88951],[127.12354,37.88969],[127.12345,37.88971]]]}},{"type":"Feature","properties":{"valleyId":"wangbang","layer":"shadow","date":"2026-08-01","timeLocal":"18:00"},"geometry":{"type":"Polygon","coordinates":[[[127.12752,37.88981],[127.12752,37.88974],[127.12756,37.88972],[127.12752,37.88958],[127.12766,37.8896],[127.12775,37.88972],[127.12774,37.88981],[127.12752,37.88981]]]}},{"type":"Feature","properties":{"valleyId":"wangbang","layer":"shadow","date":"2026-08-01","timeLocal":"18:00"},"geometry":{"type":"Polygon","coordinates":[[[127.12698,37.8896],[127.12686,37.88955],[127.12689,37.88946],[127.12723,37.88952],[127.1272,37.88959],[127.12698,37.8896]]]}}]}
