{"type":"FeatureCollection","metadata":{"description":"개방지(CHM ≤ 2 m)에 드리운 나무·지형 그림자, 2026-08-01 16:00 KST. canopy 위에 겹쳐 그린다","source":"위성 기반 추정 — Copernicus GLO-30 지형(30 m) + Meta/WRI 수관 높이(1 m CHM, 2019 촬영). 그늘 = 수관(CHM > 2 m) ∪ 나무·지형 그림자 ∪ 원거리 지형 마스크. 현장과 다를 수 있음.","datasetVersion":"2026-09-06.0","collectedAt":"2026-09-06","coordinateOrder":"[longitude, latitude]","crs":"EPSG:4326","representativeDate":"2026-08-01","hours":["10:00","11:00","12:00","13:00","14:00","15:00","16:00","17:00","18:00"],"chmAcquisition":["2019-03"],"assets":{"glo30":{"dataset":"Copernicus DEM GLO-30 (COG, s3://copernicus-dem-30m)","tiles":["Copernicus_DSM_COG_10_N37_00_E127_00_DEM"]},"chm":{"dataset":"Meta/WRI Global Canopy Height Map v1 (alsgedi_global_v6_float, 1 m, CC-BY 4.0)","quadkeys":["132110302"],"acquisition":["2019-03"]}},"method":{"gridResM":2,"canopyThresholdM":2,"bufferHalfM":25,"corridorHalfM":200,"simplifyTolM":2,"minAreaM2":25,"coordDecimals":5},"generator":"scripts/shade 0.1.0","builtAt":"2026-09-06T05:54:56Z","layer":"shadow","timeLocal":"16:00"},"features":[{"type":"Feature","properties":{"valleyId":"wangbang","layer":"shadow","date":"2026-08-01","timeLocal":"16:00"},"geometry":{"type":"Polygon","coordinates":[[[127.11623,37.89826],[127.11623,37.89817],[127.11627,37.89814],[127.11637,37.89814],[127.11636,37.89823],[127.11632,37.89826],[127.11623,37.89826]]]}},{"type":"Feature","properties":{"valleyId":"wangbang","layer":"shadow","date":"2026-08-01","timeLocal":"16:00"},"geometry":{"type":"Polygon","coordinates":[[[127.11777,37.89822],[127.11778,37.89814],[127.11784,37.89814],[127.11784,37.89822],[127.11777,37.89822]]]}},{"type":"Feature","properties":{"valleyId":"wangbang","layer":"shadow","date":"2026-08-01","timeLocal":"16:00"},"geometry":{"type":"Polygon","coordinates":[[[127.11643,37.89812],[127.11646,37.89803],[127.11653,37.89803],[127.1165,37.89812],[127.11643,37.89812]]]}},{"type":"Feature","properties":{"valleyId":"wangbang","layer":"shadow","date":"2026-08-01","timeLocal":"16:00"},"geometry":{"type":"Polygon","coordinates":[[[127.11709,37.89808],[127.1171,37.89793],[127.11717,37.8979],[127.11719,37.89781],[127.11726,37.89781],[127.11726,37.89794],[127.11716,37.89801],[127.11716,37.89808],[127.11709,37.89808]]]}},{"type":"Feature","properties":{"valleyId":"wangbang","layer":"shadow","date":"2026-08-01","timeLocal":"16:00"},"geometry":{"type":"Polygon","coordinates":[[[127.11772,37.89778],[127.11772,37.89773],[127.11781,37.89773],[127.11781,37.89778],[127.11772,37.89778]]]}},{"type":"Feature","properties":{"valleyId":"wangbang","layer":"shadow","date":"2026-08-01","timeLocal":"16:00"},"geometry":{"type":"Polygon","coordinates":[[[127.11912,37.89728],[127.1191,37.89719],[127.11917,37.89714],[127.11923,37.89714],[127.11918,37.89728],[127.11912,37.89728]]]}},{"type":"Feature","properties":{"valleyId":"wangbang","layer":"shadow","date":"2026-08-01","timeLocal":"16:00"},"geometry":{"type":"Polygon","coordinates":[[[127.11166,37.89626],[127.11166,37.89621],[127.11173,37.89621],[127.11173,37.89626],[127.11166,37.89626]]]}},{"type":"Feature","properties":{"valleyId":"wangbang","layer":"shadow","date":"2026-08-01","timeLocal":"16:00"},"geometry":{"type":"Polygon","coordinates":[[[127.11171,37.89619],[127.11171,37.8961],[127.11178,37.8961],[127.11177,37.89619],[127.11171,37.89619]]]}},{"type":"Feature","properties":{"valleyId":"wangbang","layer":"shadow","date":"2026-08-01","timeLocal":"16:00"},"geometry":{"type":"Polygon","coordinates":[[[127.11707,37.89629],[127.11705,37.89611],[127.11712,37.89611],[127.11714,37.8963],[127.11707,37.89629]]]}},{"type":"Feature","properties":{"valleyId":"wangbang","layer":"shadow","date":"2026-08-01","timeLocal":"16:00"},"geometry":{"type":"Polygon","coordinates":[[[127.11174,37.89592],[127.11174,37.89587],[127.11181,37.89587],[127.1118,37.89592],[127.11174,37.89592]]]}},{"type":"Feature","properties":{"valleyId":"wangbang","layer":"shadow","date":"2026-08-01","timeLocal":"16:00"},"geometry":{"type":"Polygon","coordinates":[[[127.11438,37.89564],[127.11441,37.89551],[127.11448,37.89551],[127.11445,37.89564],[127.11438,37.89564]]]}},{"type":"Feature","properties":{"valleyId":"wangbang","layer":"shadow","date":"2026-08-01","timeLocal":"16:00"},"geometry":{"type":"Polygon","coordinates":[[[127.12191,37.89558],[127.12191,37.89547],[127.12198,37.89547],[127.122,37.89556],[127.12191,37.89558]]]}},{"type":"Feature","properties":{"valleyId":"wangbang","layer":"shadow","date":"2026-08-01","timeLocal":"16:00"},"geometry":{"type":"Polygon","coordinates":[[[127.11759,37.89546],[127.11767,37.89524],[127.11774,37.89524],[127.11769,37.89542],[127.11766,37.89546],[127.11759,37.89546]]]}},{"type":"Feature","properties":{"valleyId":"wangbang","layer":"shadow","date":"2026-08-01","timeLocal":"16:00"},"geometry":{"type":"Polygon","coordinates":[[[127.12176,37.89534],[127.12178,37.89522],[127.12185,37.89522],[127.12185,37.89534],[127.12176,37.89534]]]}},{"type":"Feature","properties":{"valleyId":"wangbang","layer":"shadow","date":"2026-08-01","timeLocal":"16:00"},"geometry":{"type":"Polygon","coordinates":[[[127.11731,37.89498],[127.11731,37.89491],[127.11738,37.89491],[127.1174,37.89498],[127.11731,37.89498]]]}},{"type":"Feature","properties":{"valleyId":"wangbang","layer":"shadow","date":"2026-08-01","timeLocal":"16:00"},"geometry":{"type":"Polygon","coordinates":[[[127.11886,37.89466],[127.11887,37.89461],[127.11893,37.89461],[127.11893,37.89467],[127.11886,37.89466]]]}},{"type":"Feature","properties":{"valleyId":"wangbang","layer":"shadow","date":"2026-08-01","timeLocal":"16:00"},"geometry":{"type":"Polygon","coordinates":[[[127.10934,37.8943],[127.10928,37.89424],[127.10926,37.89415],[127.10933,37.89415],[127.10932,37.89419],[127.10941,37.89424],[127.10941,37.8943],[127.10934,37.8943]]]}},{"type":"Feature","properties":{"valleyId":"wangbang","layer":"shadow","date":"2026-08-01","timeLocal":"16:00"},"geometry":{"type":"Polygon","coordinates":[[[127.10916,37.89364],[127.10916,37.89355],[127.10923,37.89355],[127.10922,37.89364],[127.10916,37.89364]]]}},{"type":"Feature","properties":{"valleyId":"wangbang","layer":"shadow","date":"2026-08-01","timeLocal":"16:00"},"geometry":{"type":"Polygon","coordinates":[[[127.12068,37.89379],[127.12069,37.89372],[127.12075,37.89372],[127.12075,37.89379],[127.12068,37.89379]]]}},{"type":"Feature","properties":{"valleyId":"wangbang","layer":"shadow","date":"2026-08-01","timeLocal":"16:00"},"geometry":{"type":"Polygon","coordinates":[[[127.10918,37.89352],[127.10918,37.89341],[127.10925,37.89341],[127.10925,37.89352],[127.10918,37.89352]]]}},{"type":"Feature","properties":{"valleyId":"wangbang","layer":"shadow","date":"2026-08-01","timeLocal":"16:00"},"geometry":{"type":"Polygon","coordinates":[[[127.10874,37.8932],[127.10872,37.8931],[127.10878,37.8931],[127.1088,37.89321],[127.10874,37.8932]]]}},{"type":"Feature","properties":{"valleyId":"wangbang","layer":"shadow","date":"2026-08-01","timeLocal":"16:00"},"geometry":{"type":"Polygon","coordinates":[[[127.12076,37.89333],[127.12077,37.89325],[127.12083,37.89325],[127.12083,37.89333],[127.12076,37.89333]]]}},{"type":"Feature","properties":{"valleyId":"wangbang","layer":"shadow","date":"2026-08-01","timeLocal":"16:00"},"geometry":{"type":"Polygon","coordinates":[[[127.12072,37.89314],[127.12072,37.89307],[127.12079,37.89307],[127.12079,37.89315],[127.12072,37.89314]]]}},{"type":"Feature","properties":{"valleyId":"wangbang","layer":"shadow","date":"2026-08-01","timeLocal":"16:00"},"geometry":{"type":"Polygon","coordinates":[[[127.13177,37.89321],[127.13178,37.89316],[127.13184,37.89316],[127.13184,37.89321],[127.13177,37.89321]]]}},{"type":"Feature","properties":{"valleyId":"wangbang","layer":"shadow","date":"2026-08-01","timeLocal":"16:00"},"geometry":{"type":"Polygon","coordinates":[[[127.12068,37.893],[127.12066,37.89291],[127.12075,37.89291],[127.12075,37.893],[127.12068,37.893]]]}},{"type":"Feature","properties":{"valleyId":"wangbang","layer":"shadow","date":"2026-08-01","timeLocal":"16:00"},"geometry":{"type":"Polygon","coordinates":[[[127.12041,37.89285],[127.12041,37.8928],[127.12048,37.8928],[127.12048,37.89285],[127.12041,37.89285]]]}},{"type":"Feature","properties":{"valleyId":"wangbang","layer":"shadow","date":"2026-08-01","timeLocal":"16:00"},"geometry":{"type":"Polygon","coordinates":[[[127.13185,37.89303],[127.13185,37.89296],[127.13192,37.89296],[127.13192,37.89303],[127.13185,37.89303]]]}},{"type":"Feature","properties":{"valleyId":"wangbang","layer":"shadow","date":"2026-08-01","timeLocal":"16:00"},"geometry":{"type":"Polygon","coordinates":[[[127.12023,37.89274],[127.12021,37.89267],[127.1203,37.89265],[127.12032,37.89274],[127.12023,37.89274]]]}},{"type":"Feature","properties":{"valleyId":"wangbang","layer":"shadow","date":"2026-08-01","timeLocal":"16:00"},"geometry":{"type":"Polygon","coordinates":[[[127.11917,37.89249],[127.1192,37.8924],[127.11929,37.89238],[127.11926,37.89249],[127.11917,37.89249]]]}},{"type":"Feature","properties":{"valleyId":"wangbang","layer":"shadow","date":"2026-08-01","timeLocal":"16:00"},"geometry":{"type":"Polygon","coordinates":[[[127.13147,37.89261],[127.13147,37.89254],[127.13154,37.89254],[127.13154,37.89261],[127.13147,37.89261]]]}},{"type":"Feature","properties":{"valleyId":"wangbang","layer":"shadow","date":"2026-08-01","timeLocal":"16:00"},"geometry":{"type":"Polygon","coordinates":[[[127.13068,37.89255],[127.13068,37.89246],[127.13075,37.89246],[127.13075,37.89255],[127.13068,37.89255]]]}},{"type":"Feature","properties":{"valleyId":"wangbang","layer":"shadow","date":"2026-08-01","timeLocal":"16:00"},"geometry":{"type":"Polygon","coordinates":[[[127.13141,37.89243],[127.13141,37.89238],[127.13148,37.89238],[127.13148,37.89243],[127.13141,37.89243]]]}},{"type":"Feature","properties":{"valleyId":"wangbang","layer":"shadow","date":"2026-08-01","timeLocal":"16:00"},"geometry":{"type":"Polygon","coordinates":[[[127.10921,37.89155],[127.10921,37.8915],[127.10928,37.8915],[127.10928,37.89155],[127.10921,37.89155]]]}},{"type":"Feature","properties":{"valleyId":"wangbang","layer":"shadow","date":"2026-08-01","timeLocal":"16:00"},"geometry":{"type":"Polygon","coordinates":[[[127.13118,37.89064],[127.13118,37.89055],[127.13125,37.89055],[127.13125,37.89064],[127.13118,37.89064]]]}},{"type":"Feature","properties":{"valleyId":"wangbang","layer":"shadow","date":"2026-08-01","timeLocal":"16:00"},"geometry":{"type":"Polygon","coordinates":[[[127.13312,37.89055],[127.13312,37.89049],[127.13321,37.8905],[127.13321,37.89055],[127.13312,37.89055]]]}},{"type":"Feature","properties":{"valleyId":"wangbang","layer":"shadow","date":"2026-08-01","timeLocal":"16:00"},"geometry":{"type":"Polygon","coordinates":[[[127.13134,37.89047],[127.13134,37.89041],[127.13141,37.89041],[127.13141,37.89047],[127.13134,37.89047]]]}},{"type":"Feature","properties":{"valleyId":"wangbang","layer":"shadow","date":"2026-08-01","timeLocal":"16:00"},"geometry":{"type":"Polygon","coordinates":[[[127.12081,37.8906],[127.12086,37.89037],[127.12093,37.89028],[127.12093,37.89017],[127.121,37.89017],[127.12105,37.89021],[127.12102,37.89041],[127.12097,37.89043],[127.12097,37.89048],[127.1209,37.8905],[127.12088,37.89061],[127.12081,37.8906]]]}},{"type":"Feature","properties":{"valleyId":"wangbang","layer":"shadow","date":"2026-08-01","timeLocal":"16:00"},"geometry":{"type":"Polygon","coordinates":[[[127.13141,37.89041],[127.13142,37.89032],[127.13148,37.89032],[127.1315,37.8904],[127.13141,37.89041]]]}},{"type":"Feature","properties":{"valleyId":"wangbang","layer":"shadow","date":"2026-08-01","timeLocal":"16:00"},"geometry":{"type":"Polygon","coordinates":[[[127.12589,37.89016],[127.12589,37.89011],[127.12596,37.89011],[127.12596,37.89016],[127.12589,37.89016]]]}},{"type":"Feature","properties":{"valleyId":"wangbang","layer":"shadow","date":"2026-08-01","timeLocal":"16:00"},"geometry":{"type":"Polygon","coordinates":[[[127.13133,37.89027],[127.13126,37.89019],[127.13126,37.89014],[127.13133,37.89014],[127.1314,37.89021],[127.13139,37.89027],[127.13133,37.89027]]]}},{"type":"Feature","properties":{"valleyId":"wangbang","layer":"shadow","date":"2026-08-01","timeLocal":"16:00"},"geometry":{"type":"Polygon","coordinates":[[[127.13185,37.89028],[127.13185,37.89013],[127.13192,37.89013],[127.13194,37.89028],[127.13185,37.89028]]]}},{"type":"Feature","properties":{"valleyId":"wangbang","layer":"shadow","date":"2026-08-01","timeLocal":"16:00"},"geometry":{"type":"Polygon","coordinates":[[[127.13197,37.89011],[127.13197,37.89004],[127.13204,37.89004],[127.13203,37.89012],[127.13197,37.89011]]]}},{"type":"Feature","properties":{"valleyId":"wangbang","layer":"shadow","date":"2026-08-01","timeLocal":"16:00"},"geometry":{"type":"Polygon","coordinates":[[[127.13122,37.89001],[127.13122,37.88994],[127.13129,37.88994],[127.13129,37.89001],[127.13122,37.89001]]]}},{"type":"Feature","properties":{"valleyId":"wangbang","layer":"shadow","date":"2026-08-01","timeLocal":"16:00"},"geometry":{"type":"Polygon","coordinates":[[[127.12099,37.8898],[127.12099,37.88974],[127.12106,37.88974],[127.12106,37.8898],[127.12099,37.8898]]]}},{"type":"Feature","properties":{"valleyId":"wangbang","layer":"shadow","date":"2026-08-01","timeLocal":"16:00"},"geometry":{"type":"Polygon","coordinates":[[[127.12752,37.88981],[127.12757,37.88965],[127.12763,37.88965],[127.1277,37.8897],[127.1277,37.88978],[127.12752,37.88981]]]}},{"type":"Feature","properties":{"valleyId":"wangbang","layer":"shadow","date":"2026-08-01","timeLocal":"16:00"},"geometry":{"type":"Polygon","coordinates":[[[127.13004,37.8898],[127.13004,37.88971],[127.13014,37.88969],[127.13013,37.88978],[127.13004,37.8898]]]}},{"type":"Feature","properties":{"valleyId":"wangbang","layer":"shadow","date":"2026-08-01","timeLocal":"16:00"},"geometry":{"type":"Polygon","coordinates":[[[127.13097,37.88979],[127.13102,37.88969],[127.13114,37.88967],[127.13113,37.88978],[127.13097,37.88979]]]}},{"type":"Feature","properties":{"valleyId":"wangbang","layer":"shadow","date":"2026-08-01","timeLocal":"16:00"},"geometry":{"type":"Polygon","coordinates":[[[127.12345,37.88971],[127.12348,37.88955],[127.1235,37.88951],[127.12357,37.88951],[127.12354,37.88969],[127.12345,37.88971]]]}},{"type":"Feature","properties":{"valleyId":"wangbang","layer":"shadow","date":"2026-08-01","timeLocal":"16:00"},"geometry":{"type":"Polygon","coordinates":[[[127.12686,37.88955],[127.12687,37.88949],[127.12693,37.88949],[127.12693,37.88955],[127.12686,37.88955]]]}}]}
