{"type":"FeatureCollection","metadata":{"description":"수관 아래(CHM > 2 m) — 시각 무관. 구간 회랑 ±200 m 절단","source":"위성 기반 추정 — Copernicus GLO-30 지형(30 m) + Meta/WRI 수관 높이(1 m CHM, 2018~2019 촬영). 그늘 = 수관(CHM > 2 m) ∪ 나무·지형 그림자 ∪ 원거리 지형 마스크. 현장과 다를 수 있음.","datasetVersion":"2026-09-06.0","collectedAt":"2026-09-06","coordinateOrder":"[longitude, latitude]","crs":"EPSG:4326","representativeDate":"2026-08-01","hours":["10:00","11:00","12:00","13:00","14:00","15:00","16:00","17:00","18:00"],"chmAcquisition":["2018-03","2019-03"],"assets":{"glo30":{"dataset":"Copernicus DEM GLO-30 (COG, s3://copernicus-dem-30m)","tiles":["Copernicus_DSM_COG_10_N37_00_E127_00_DEM","Copernicus_DSM_COG_10_N38_00_E127_00_DEM"]},"chm":{"dataset":"Meta/WRI Global Canopy Height Map v1 (alsgedi_global_v6_float, 1 m, CC-BY 4.0)","quadkeys":["132110303"],"acquisition":["2018-03","2019-03"]}},"method":{"gridResM":2,"canopyThresholdM":2,"bufferHalfM":25,"corridorHalfM":200,"simplifyTolM":2,"minAreaM2":25,"coordDecimals":5},"generator":"scripts/shade 0.1.0","builtAt":"2026-09-06T06:00:15Z","layer":"canopy"},"features":[{"type":"Feature","properties":{"valleyId":"nonnamgi","layer":"canopy","date":"2026-08-01"},"geometry":{"type":"Polygon","coordinates":[[[127.40903,37.97007],[127.40906,37.96994],[127.40928,37.96996],[127.40928,37.97002],[127.40924,37.97005],[127.40903,37.97007]]]}},{"type":"Feature","properties":{"valleyId":"nonnamgi","layer":"canopy","date":"2026-08-01"},"geometry":{"type":"Polygon","coordinates":[[[127.40952,37.96963],[127.40952,37.96953],[127.40961,37.96954],[127.40961,37.96961],[127.40952,37.96963]]]}},{"type":"Feature","properties":{"valleyId":"nonnamgi","layer":"canopy","date":"2026-08-01"},"geometry":{"type":"Polygon","coordinates":[[[127.40973,37.9695],[127.4097,37.96943],[127.40977,37.96943],[127.40979,37.9695],[127.40973,37.9695]]]}},{"type":"Feature","properties":{"valleyId":"nonnamgi","layer":"canopy","date":"2026-08-01"},"geometry":{"type":"Polygon","coordinates":[[[127.42127,37.96935],[127.42127,37.9693],[127.42137,37.96928],[127.42136,37.96935],[127.42127,37.96935]]]}},{"type":"Feature","properties":{"valleyId":"nonnamgi","layer":"canopy","date":"2026-08-01"},"geometry":{"type":"Polygon","coordinates":[[[127.42163,37.96982],[127.4214,37.96979],[127.42145,37.96966],[127.42136,37.96962],[127.42136,37.96957],[127.42152,37.96959],[127.42164,37.96941],[127.42186,37.96938],[127.42191,37.96934],[127.42191,37.96929],[127.42196,37.96929],[127.42198,37.96925],[127.42219,37.96925],[127.42218,37.96951],[127.42234,37.96958],[127.42238,37.96965],[127.42243,37.96965],[127.42245,37.96978],[127.42208,37.96983],[127.42163,37.96982]]]}},{"type":"Feature","properties":{"valleyId":"nonnamgi","layer":"canopy","date":"2026-08-01"},"geometry":{"type":"Polygon","coordinates":[[[127.42284,37.96948],[127.42282,37.96939],[127.42264,37.96928],[127.4225,37.96928],[127.42248,37.96919],[127.42264,37.96919],[127.42269,37.96924],[127.42284,37.9693],[127.42298,37.96941],[127.42298,37.96948],[127.42284,37.96948]]]}},{"type":"Feature","properties":{"valleyId":"nonnamgi","layer":"canopy","date":"2026-08-01"},"geometry":{"type":"Polygon","coordinates":[[[127.42021,37.96919],[127.42019,37.96908],[127.42035,37.96907],[127.42032,37.96918],[127.42021,37.96919]]]}},{"type":"Feature","properties":{"valleyId":"nonnamgi","layer":"canopy","date":"2026-08-01"},"geometry":{"type":"Polygon","coordinates":[[[127.4098,37.96927],[127.4098,37.96912],[127.40994,37.96904],[127.40997,37.96896],[127.41003,37.96891],[127.41015,37.96891],[127.41015,37.96897],[127.4101,37.969],[127.41012,37.96913],[127.41001,37.96915],[127.40996,37.96923],[127.40991,37.96923],[127.40989,37.96927],[127.4098,37.96927]]]}},{"type":"Feature","properties":{"valleyId":"nonnamgi","layer":"canopy","date":"2026-08-01"},"geometry":{"type":"Polygon","coordinates":[[[127.41297,37.96902],[127.41293,37.96884],[127.41297,37.96881],[127.41311,37.96881],[127.41316,37.96885],[127.41315,37.96895],[127.41306,37.96902],[127.41297,37.96902]]]}},{"type":"Feature","properties":{"valleyId":"nonnamgi","layer":"canopy","date":"2026-08-01"},"geometry":{"type":"Polygon","coordinates":[[[127.42285,37.96898],[127.42285,37.9689],[127.42292,37.9689],[127.42292,37.96898],[127.42285,37.96898]]]}},{"type":"Feature","properties":{"valleyId":"nonnamgi","layer":"canopy","date":"2026-08-01"},"geometry":{"type":"Polygon","coordinates":[[[127.41108,37.96884],[127.41109,37.96876],[127.4114,37.96873],[127.4114,37.96879],[127.41133,37.96882],[127.41108,37.96884]]]}},{"type":"Feature","properties":{"valleyId":"nonnamgi","layer":"canopy","date":"2026-08-01"},"geometry":{"type":"Polygon","coordinates":[[[127.41668,37.96884],[127.41669,37.96878],[127.41675,37.96879],[127.41675,37.96884],[127.41668,37.96884]]]}},{"type":"Feature","properties":{"valleyId":"nonnamgi","layer":"canopy","date":"2026-08-01"},"geometry":{"type":"Polygon","coordinates":[[[127.42005,37.96903],[127.42001,37.96899],[127.41994,37.96899],[127.41983,37.9689],[127.41969,37.96893],[127.41969,37.96888],[127.41976,37.96888],[127.41974,37.96872],[127.41985,37.96872],[127.41987,37.96879],[127.41994,37.96879],[127.41996,37.96886],[127.42012,37.96894],[127.42014,37.96903],[127.42005,37.96903]]]}},{"type":"Feature","properties":{"valleyId":"nonnamgi","layer":"canopy","date":"2026-08-01"},"geometry":{"type":"Polygon","coordinates":[[[127.42238,37.96879],[127.42238,37.96872],[127.42249,37.96872],[127.42247,37.96879],[127.42238,37.96879]]]}},{"type":"Feature","properties":{"valleyId":"nonnamgi","layer":"canopy","date":"2026-08-01"},"geometry":{"type":"Polygon","coordinates":[[[127.41714,37.96872],[127.41712,37.96859],[127.41726,37.96858],[127.41728,37.96867],[127.41721,37.96872],[127.41714,37.96872]]]}},{"type":"Feature","properties":{"valleyId":"nonnamgi","layer":"canopy","date":"2026-08-01"},"geometry":{"type":"Polygon","coordinates":[[[127.41926,37.96869],[127.41924,37.96857],[127.41942,37.96853],[127.41942,37.96862],[127.41938,37.96864],[127.41937,37.96868],[127.41926,37.96869]]]}},{"type":"Feature","properties":{"valleyId":"nonnamgi","layer":"canopy","date":"2026-08-01"},"geometry":{"type":"Polygon","coordinates":[[[127.42036,37.9686],[127.42036,37.96855],[127.42042,37.96855],[127.42042,37.9686],[127.42036,37.9686]]]}},{"type":"Feature","properties":{"valleyId":"nonnamgi","layer":"canopy","date":"2026-08-01"},"geometry":{"type":"Polygon","coordinates":[[[127.41876,37.96874],[127.41862,37.96861],[127.41865,37.96849],[127.41874,37.96849],[127.41878,37.96858],[127.41883,37.96858],[127.41885,37.96874],[127.41876,37.96874]]]}},{"type":"Feature","properties":{"valleyId":"nonnamgi","layer":"canopy","date":"2026-08-01"},"geometry":{"type":"Polygon","coordinates":[[[127.42019,37.96878],[127.42015,37.96872],[127.42008,37.96872],[127.41997,37.96865],[127.41997,37.9685],[127.42004,37.96851],[127.42015,37.96858],[127.42017,37.96863],[127.42031,37.96869],[127.42031,37.96876],[127.42019,37.96878]]]}},{"type":"Feature","properties":{"valleyId":"nonnamgi","layer":"canopy","date":"2026-08-01"},"geometry":{"type":"Polygon","coordinates":[[[127.42101,37.96888],[127.42096,37.96884],[127.42099,37.96875],[127.4212,37.96872],[127.42131,37.96863],[127.42131,37.96859],[127.42136,37.96859],[127.42143,37.96852],[127.42154,37.96851],[127.42154,37.96858],[127.4214,37.96863],[127.42138,37.96874],[127.42124,37.96886],[127.42101,37.96888]]]}},{"type":"Feature","properties":{"valleyId":"nonnamgi","layer":"canopy","date":"2026-08-01"},"geometry":{"type":"Polygon","coordinates":[[[127.41888,37.96853],[127.41888,37.96845],[127.41899,37.96846],[127.41899,37.96853],[127.41888,37.96853]]]}},{"type":"Feature","properties":{"valleyId":"nonnamgi","layer":"canopy","date":"2026-08-01"},"geometry":{"type":"Polygon","coordinates":[[[127.42163,37.96849],[127.42163,37.96842],[127.42173,37.9684],[127.42172,37.96847],[127.42163,37.96849]]]}},{"type":"Feature","properties":{"valleyId":"nonnamgi","layer":"canopy","date":"2026-08-01"},"geometry":{"type":"Polygon","coordinates":[[[127.42072,37.96844],[127.42072,37.96839],[127.42082,37.96837],[127.42081,37.96844],[127.42072,37.96844]]]}},{"type":"Feature","properties":{"valleyId":"nonnamgi","layer":"canopy","date":"2026-08-01"},"geometry":{"type":"Polygon","coordinates":[[[127.42393,37.96858],[127.42389,37.9685],[127.42391,37.96839],[127.42396,37.96836],[127.42412,37.96838],[127.42407,37.96858],[127.42393,37.96858]]]}},{"type":"Feature","properties":{"valleyId":"nonnamgi","layer":"canopy","date":"2026-08-01"},"geometry":{"type":"Polygon","coordinates":[[[127.41942,37.96846],[127.41943,37.9683],[127.41952,37.96828],[127.41952,37.96834],[127.41956,37.96835],[127.41956,37.96846],[127.41942,37.96846]]]}},{"type":"Feature","properties":{"valleyId":"nonnamgi","layer":"canopy","date":"2026-08-01"},"geometry":{"type":"Polygon","coordinates":[[[127.41694,37.96882],[127.41682,37.9688],[127.41682,37.96868],[127.41667,37.96869],[127.41667,37.96866],[127.41658,37.96862],[127.41658,37.96853],[127.41651,37.96848],[127.41633,37.96851],[127.41635,37.9684],[127.41626,37.96838],[127.41626,37.96831],[127.41633,37.96818],[127.4164,37.96819],[127.41651,37.96826],[127.41654,37.96837],[127.4166,37.96842],[127.4166,37.96846],[127.41683,37.9685],[127.41683,37.96861],[127.41703,37.96863],[127.41707,37.9687],[127.41705,37.96883],[127.41694,37.96882]]]}},{"type":"Feature","properties":{"valleyId":"nonnamgi","layer":"canopy","date":"2026-08-01"},"geometry":{"type":"Polygon","coordinates":[[[127.4217,37.96838],[127.42166,37.96831],[127.42166,37.96826],[127.42173,37.96826],[127.42182,37.96831],[127.42179,37.96838],[127.4217,37.96838]]]}},{"type":"Feature","properties":{"valleyId":"nonnamgi","layer":"canopy","date":"2026-08-01"},"geometry":{"type":"Polygon","coordinates":[[[127.42139,37.96829],[127.42137,37.96818],[127.42155,37.9682],[127.42155,37.96826],[127.4215,37.96825],[127.42148,37.96829],[127.42139,37.96829]]]}},{"type":"Feature","properties":{"valleyId":"nonnamgi","layer":"canopy","date":"2026-08-01"},"geometry":{"type":"Polygon","coordinates":[[[127.4195,37.96821],[127.41952,37.96812],[127.41961,37.9681],[127.41961,37.96818],[127.41957,37.96821],[127.4195,37.96821]]]}},{"type":"Feature","properties":{"valleyId":"nonnamgi","layer":"canopy","date":"2026-08-01"},"geometry":{"type":"Polygon","coordinates":[[[127.41593,37.96809],[127.41593,37.96804],[127.41597,37.968],[127.41607,37.968],[127.41606,37.96806],[127.41602,37.96809],[127.41593,37.96809]]]}},{"type":"Feature","properties":{"valleyId":"nonnamgi","layer":"canopy","date":"2026-08-01"},"geometry":{"type":"Polygon","coordinates":[[[127.41618,37.96804],[127.41618,37.96798],[127.41625,37.96799],[127.41625,37.96804],[127.41618,37.96804]]]}},{"type":"Feature","properties":{"valleyId":"nonnamgi","layer":"canopy","date":"2026-08-01"},"geometry":{"type":"Polygon","coordinates":[[[127.42171,37.96813],[127.42171,37.96804],[127.42185,37.96806],[127.42182,37.96813],[127.42171,37.96813]]]}},{"type":"Feature","properties":{"valleyId":"nonnamgi","layer":"canopy","date":"2026-08-01"},"geometry":{"type":"Polygon","coordinates":[[[127.41634,37.96809],[127.41632,37.96799],[127.41645,37.96795],[127.41645,37.96808],[127.41634,37.96809]]]}},{"type":"Feature","properties":{"valleyId":"nonnamgi","layer":"canopy","date":"2026-08-01"},"geometry":{"type":"Polygon","coordinates":[[[127.42057,37.96806],[127.42055,37.96803],[127.42046,37.96801],[127.42046,37.96792],[127.42051,37.9679],[127.42064,37.96792],[127.42066,37.96799],[127.42073,37.96801],[127.42073,37.96806],[127.42057,37.96806]]]}},{"type":"Feature","properties":{"valleyId":"nonnamgi","layer":"canopy","date":"2026-08-01"},"geometry":{"type":"Polygon","coordinates":[[[127.40874,37.9721],[127.40833,37.97204],[127.40774,37.97184],[127.4077,37.9718],[127.4077,37.97175],[127.40765,37.97173],[127.40761,37.97149],[127.40768,37.97144],[127.40768,37.97137],[127.40764,37.97135],[127.40764,37.97129],[127.40759,37.97126],[127.40743,37.97126],[127.40743,37.97133],[127.40748,37.97133],[127.4075,37.97145],[127.40754,37.97147],[127.40754,37.97154],[127.40747,37.97162],[127.40738,37.97161],[127.4072,37.97147],[127.4072,37.97143],[127.40711,37.97138],[127.40711,37.97134],[127.40698,37.97121],[127.40676,37.97081],[127.40668,37.97045],[127.40668,37.97011],[127.40693,37.97013],[127.40705,37.97019],[127.40728,37.97019],[127.4075,37.97034],[127.40764,37.97032],[127.40768,37.97041],[127.40784,37.9704],[127.40784,37.97045],[127.40804,37.97045],[127.40807,37.97049],[127.40825,37.97053],[127.40829,37.97058],[127.40841,37.97058],[127.40843,37.97067],[127.40856,37.97068],[127.40859,37.97059],[127.40888,37.97054],[127.40891,37.97046],[127.40904,37.97048],[127.40909,37.97041],[127.40916,37.97038],[127.40916,37.97034],[127.40925,37.97027],[127.40937,37.97024],[127.40937,37.97018],[127.40951,37.97008],[127.40951,37.96995],[127.40963,37.9699],[127.4097,37.96975],[127.40974,37.96974],[127.40979,37.96965],[127.40986,37.96963],[127.40988,37.96958],[127.41036,37.96956],[127.41039,37.96953],[127.41052,37.96948],[127.41053,37.96939],[127.4106,37.96932],[127.41094,37.96923],[127.41096,37.96919],[127.41108,37.96918],[127.41115,37.96911],[127.41121,37.96911],[127.41121,37.96929],[127.41128,37.96932],[127.4113,37.96945],[127.41143,37.96958],[127.41148,37.96958],[127.4115,37.96962],[127.41159,37.96962],[127.41171,37.96953],[127.41189,37.96955],[127.41186,37.96978],[127.41181,37.96993],[127.41177,37.96996],[127.41181,37.97018],[127.41187,37.97018],[127.41188,37.97013],[127.41192,37.97009],[127.41192,37.96998],[127.41197,37.96996],[127.41196,37.96944],[127.41203,37.96939],[127.41212,37.96941],[127.41209,37.96952],[127.41218,37.96952],[127.41223,37.96943],[127.41239,37.96932],[127.41253,37.96929],[127.41274,37.96929],[127.41276,37.96913],[127.41281,37.96909],[127.41306,37.96911],[127.41313,37.96919],[127.41333,37.96919],[127.41333,37.96915],[127.41342,37.96912],[127.41345,37.96907],[127.41361,37.96898],[127.41363,37.96887],[127.41377,37.96875],[127.41409,37.96873],[127.41418,37.9687],[127.41425,37.96863],[127.41439,37.96859],[127.41441,37.96856],[127.4146,37.96852],[127.41472,37.96831],[127.41497,37.96827],[127.41517,37.96813],[127.4152,37.96801],[127.41525,37.96801],[127.41525,37.96797],[127.41529,37.96795],[127.41534,37.96779],[127.41543,37.96774],[127.41559,37.96772],[127.41557,37.96794],[127.41563,37.96796],[127.41568,37.96814],[127.41574,37.96814],[127.41574,37.9682],[127.41565,37.96819],[127.41565,37.96828],[127.41554,37.9683],[127.41555,37.96846],[127.41548,37.96857],[127.41532,37.96859],[127.41525,37.96868],[127.41519,37.96867],[127.41514,37.96864],[127.41503,37.96864],[127.41498,37.96867],[127.41498,37.96878],[127.41489,37.96887],[127.41488,37.96905],[127.41493,37.96905],[127.41495,37.96909],[127.41513,37.96909],[127.41527,37.96914],[127.41554,37.96915],[127.41563,37.96922],[127.41567,37.96922],[127.41572,37.96933],[127.41583,37.96935],[127.41583,37.96926],[127.4159,37.96921],[127.41593,37.96904],[127.416,37.96899],[127.41609,37.96899],[127.41609,37.96879],[127.41614,37.96876],[127.41617,37.96863],[127.41623,37.96863],[127.41628,37.96867],[127.41625,37.96894],[127.41639,37.96894],[127.41639,37.969],[127.41643,37.969],[127.41643,37.96905],[127.41622,37.96919],[127.41611,37.96923],[127.41604,37.96928],[127.41604,37.96933],[127.41562,37.96964],[127.41557,37.96963],[127.41548,37.96971],[127.4153,37.96969],[127.4153,37.96978],[127.41521,37.96983],[127.41514,37.96983],[127.41452,37.97007],[127.41388,37.97022],[127.41342,37.97027],[127.41285,37.97026],[127.41244,37.97019],[127.41217,37.97008],[127.41208,37.97007],[127.41208,37.97011],[127.4118,37.97039],[127.41154,37.97082],[127.4115,37.97084],[127.4114,37.97098],[127.41057,37.97166],[127.41052,37.97166],[127.41048,37.97171],[127.41025,37.9718],[127.41022,37.97183],[127.40958,37.97204],[127.40908,37.97211],[127.40874,37.9721]],[[127.40901,37.97203],[127.40926,37.97204],[127.40926,37.97198],[127.40917,37.97195],[127.40915,37.97175],[127.40922,37.97169],[127.40922,37.97166],[127.40932,37.97162],[127.40932,37.97159],[127.40936,37.97159],[127.40939,37.97153],[127.40945,37.97152],[127.40946,37.97146],[127.40927,37.97146],[127.40927,37.9715],[127.40909,37.97148],[127.40902,37.97151],[127.40902,37.97155],[127.40898,37.97155],[127.40897,37.97169],[127.40888,37.97178],[127.40888,37.97198],[127.40901,37.97203]],[[127.40812,37.97134],[127.40823,37.97134],[127.40825,37.97127],[127.40809,37.97126],[127.40812,37.97134]],[[127.4081,37.97116],[127.40816,37.97116],[127.4083,37.97103],[127.40835,37.97103],[127.40842,37.97098],[127.40847,37.97078],[127.4084,37.97075],[127.4084,37.97069],[127.40827,37.97069],[127.40826,37.97074],[127.4082,37.9708],[127.40815,37.9708],[127.40815,37.97089],[127.40822,37.97091],[127.40821,37.97098],[127.40812,37.97105],[127.4081,37.97116]],[[127.4076,37.97104],[127.40769,37.97102],[127.40769,37.97088],[127.40774,37.97088],[127.40774,37.97081],[127.40767,37.97081],[127.40767,37.97088],[127.40751,37.9709],[127.40751,37.97095],[127.4076,37.97104]],[[127.40919,37.97094],[127.40926,37.97094],[127.40927,37.97079],[127.4092,37.97079],[127.40919,37.97094]],[[127.41271,37.96954],[127.41278,37.96954],[127.4128,37.96945],[127.41271,37.96947],[127.41271,37.96954]],[[127.41616,37.9691],[127.41622,37.9691],[127.41623,37.96903],[127.41616,37.96903],[127.41616,37.9691]]]}},{"type":"Feature","properties":{"valleyId":"nonnamgi","layer":"canopy","date":"2026-08-01"},"geometry":{"type":"Polygon","coordinates":[[[127.41928,37.96781],[127.41919,37.96777],[127.41919,37.96772],[127.41933,37.9677],[127.41937,37.96774],[127.41937,37.96779],[127.41928,37.96781]]]}},{"type":"Feature","properties":{"valleyId":"nonnamgi","layer":"canopy","date":"2026-08-01"},"geometry":{"type":"Polygon","coordinates":[[[127.4168,37.96751],[127.41681,37.96745],[127.41687,37.96745],[127.41687,37.96751],[127.4168,37.96751]]]}},{"type":"Feature","properties":{"valleyId":"nonnamgi","layer":"canopy","date":"2026-08-01"},"geometry":{"type":"Polygon","coordinates":[[[127.41716,37.96796],[127.41714,37.96782],[127.41719,37.9678],[127.41719,37.96775],[127.4168,37.96774],[127.4168,37.96778],[127.41671,37.96783],[127.41666,37.9679],[127.41657,37.9679],[127.41657,37.96779],[127.41671,37.96772],[127.4168,37.96772],[127.4168,37.96765],[127.41692,37.9676],[127.41708,37.9676],[127.41714,37.96769],[127.41721,37.96769],[127.41735,37.96746],[127.41753,37.96744],[127.41753,37.9675],[127.41746,37.96753],[127.41744,37.96764],[127.41737,37.96766],[127.4173,37.96773],[127.4173,37.96778],[127.41723,37.9678],[127.41725,37.96796],[127.41716,37.96796]]]}},{"type":"Feature","properties":{"valleyId":"nonnamgi","layer":"canopy","date":"2026-08-01"},"geometry":{"type":"Polygon","coordinates":[[[127.4235,37.9676],[127.4235,37.96742],[127.42375,37.96742],[127.42375,37.96747],[127.42368,37.96754],[127.42361,37.96754],[127.42356,37.9676],[127.4235,37.9676]]]}},{"type":"Feature","properties":{"valleyId":"nonnamgi","layer":"canopy","date":"2026-08-01"},"geometry":{"type":"Polygon","coordinates":[[[127.41706,37.96746],[127.41697,37.9674],[127.41697,37.96733],[127.41715,37.96737],[127.41715,37.96746],[127.41706,37.96746]]]}},{"type":"Feature","properties":{"valleyId":"nonnamgi","layer":"canopy","date":"2026-08-01"},"geometry":{"type":"Polygon","coordinates":[[[127.41588,37.96721],[127.41583,37.96719],[127.41583,37.96713],[127.41599,37.9671],[127.41599,37.96717],[127.41595,37.96721],[127.41588,37.96721]]]}},{"type":"Feature","properties":{"valleyId":"nonnamgi","layer":"canopy","date":"2026-08-01"},"geometry":{"type":"Polygon","coordinates":[[[127.41747,37.96721],[127.41729,37.96719],[127.41727,37.96712],[127.41779,37.96712],[127.41779,37.9672],[127.41747,37.96721]]]}},{"type":"Feature","properties":{"valleyId":"nonnamgi","layer":"canopy","date":"2026-08-01"},"geometry":{"type":"Polygon","coordinates":[[[127.4082,37.97038],[127.40811,37.97033],[127.40786,37.97032],[127.40773,37.97029],[127.40768,37.9702],[127.4075,37.97019],[127.40741,37.9701],[127.4073,37.97008],[127.40721,37.97001],[127.40719,37.96994],[127.40712,37.96988],[127.40705,37.96988],[127.40701,37.96979],[127.40694,37.96973],[127.4069,37.96973],[127.4069,37.9697],[127.40685,37.96968],[127.40686,37.96959],[127.40704,37.9693],[127.40709,37.96929],[127.40714,37.9692],[127.40725,37.96913],[127.40725,37.96909],[127.40751,37.96889],[127.40755,37.9689],[127.40762,37.96882],[127.40774,37.96879],[127.40788,37.96856],[127.40793,37.96854],[127.40795,37.96847],[127.408,37.96845],[127.408,37.96841],[127.40804,37.9684],[127.40804,37.96836],[127.40809,37.96834],[127.40809,37.96831],[127.40814,37.96829],[127.40832,37.96804],[127.40839,37.96804],[127.40836,37.96824],[127.40843,37.96828],[127.40845,37.96837],[127.4085,37.96837],[127.4085,37.96846],[127.40845,37.96848],[127.40845,37.96853],[127.40833,37.96856],[127.40833,37.96876],[127.40844,37.96875],[127.40845,37.96867],[127.40856,37.96857],[127.4087,37.96855],[127.40877,37.96837],[127.40859,37.96833],[127.40855,37.96822],[127.4085,37.96821],[127.40848,37.9681],[127.40855,37.96803],[127.40855,37.96795],[127.40853,37.9679],[127.40844,37.9679],[127.40844,37.96784],[127.40861,37.96759],[127.4087,37.96752],[127.40872,37.96745],[127.40879,37.96745],[127.40879,37.96751],[127.40877,37.96761],[127.4087,37.96765],[127.40867,37.96776],[127.40881,37.96774],[127.40893,37.96754],[127.409,37.96749],[127.40909,37.96749],[127.40909,37.96744],[127.409,37.96738],[127.40895,37.96731],[127.40898,37.96724],[127.4093,37.9673],[127.40932,37.96739],[127.40925,37.96744],[127.40925,37.96749],[127.40947,37.96748],[127.40961,37.96763],[127.40958,37.9677],[127.40947,37.96771],[127.4094,37.96768],[127.4094,37.96762],[127.40931,37.96762],[127.40924,37.96758],[127.40925,37.96751],[127.40911,37.96753],[127.4091,37.96774],[127.40906,37.96776],[127.40906,37.96782],[127.40913,37.96782],[127.40917,37.96787],[127.40928,37.96789],[127.4093,37.96795],[127.40937,37.96795],[127.4094,37.96777],[127.4096,37.96779],[127.4096,37.96773],[127.40994,37.96783],[127.41015,37.96781],[127.41019,37.96787],[127.41038,37.96791],[127.4104,37.96794],[127.41062,37.96795],[127.41063,37.96791],[127.41069,37.96789],[127.4107,37.9678],[127.41058,37.96778],[127.41052,37.96767],[127.41045,37.96767],[127.41034,37.9676],[127.41034,37.96744],[127.41027,37.96744],[127.41025,37.96738],[127.41011,37.96738],[127.41011,37.96734],[127.41,37.96732],[127.40984,37.9672],[127.40987,37.96705],[127.41001,37.967],[127.41001,37.96693],[127.40992,37.96685],[127.4099,37.96666],[127.40999,37.96664],[127.41009,37.96657],[127.41031,37.9665],[127.41034,37.96646],[127.41061,37.96638],[127.41064,37.96634],[127.41077,37.96629],[127.41084,37.96629],[127.41093,37.96624],[127.41114,37.96619],[127.41148,37.96614],[127.41248,37.96617],[127.41301,37.9663],[127.41321,37.96641],[127.41332,37.96641],[127.41376,37.9661],[127.41381,37.9661],[127.41388,37.96603],[127.41399,37.96599],[127.41445,37.96562],[127.41457,37.96562],[127.41466,37.96569],[127.41493,37.96571],[127.41518,37.96561],[127.41532,37.96561],[127.41543,37.96569],[127.41543,37.96578],[127.41534,37.96579],[127.41522,37.96588],[127.41522,37.96593],[127.4154,37.96597],[127.41547,37.96603],[127.41554,37.96603],[127.41561,37.96596],[127.41574,37.96596],[127.41591,37.9658],[127.41598,37.9658],[127.416,37.96584],[127.41616,37.96588],[127.41616,37.96591],[127.41622,37.96595],[127.41619,37.96633],[127.41612,37.96638],[127.41603,37.96638],[127.41603,37.9665],[127.41598,37.96654],[127.41596,37.96665],[127.41578,37.96666],[127.41573,37.96659],[127.41555,37.96657],[127.41551,37.96652],[127.41541,37.96653],[127.41545,37.96679],[127.41552,37.96679],[127.41557,37.96684],[127.41584,37.96684],[127.41584,37.96697],[127.41574,37.9671],[127.41567,37.96711],[127.4156,37.96724],[127.4156,37.96729],[127.41572,37.96731],[127.41567,37.96744],[127.41548,37.96747],[127.41549,37.9674],[127.41556,37.96736],[127.41556,37.96731],[127.41547,37.96731],[127.41544,37.96725],[127.41531,37.96725],[127.41528,37.96731],[127.41519,37.96732],[127.41515,37.96738],[127.41505,37.96737],[127.41503,37.96741],[127.41496,37.96741],[127.41492,37.96746],[127.4148,37.96748],[127.41482,37.96768],[127.41473,37.96769],[127.41461,37.96791],[127.41454,37.96793],[127.41454,37.96798],[127.4144,37.96805],[127.4144,37.9681],[127.41436,37.9681],[127.41429,37.96816],[127.4141,37.96819],[127.41401,37.96828],[127.41392,37.9683],[127.4139,37.96833],[127.41351,37.96833],[127.41339,37.96834],[127.41337,37.96838],[127.41305,37.96838],[127.41287,37.9683],[127.41278,37.96823],[127.41278,37.96819],[127.41244,37.9681],[127.41224,37.96791],[127.41206,37.96788],[127.41193,37.96782],[127.4119,37.96778],[127.41161,37.96776],[127.41156,37.96772],[127.41133,37.96776],[127.41131,37.96779],[127.41095,37.96779],[127.41083,37.96782],[127.41085,37.96789],[127.41099,37.96791],[127.41096,37.96804],[127.4109,37.96804],[127.41083,37.96811],[127.41073,37.96815],[127.41062,37.96814],[127.41053,37.96823],[127.41041,37.96825],[127.41039,37.9683],[127.41016,37.96832],[127.41018,37.96841],[127.41041,37.96841],[127.41043,37.9685],[127.41036,37.9685],[127.41025,37.96857],[127.40993,37.9686],[127.40993,37.96864],[127.40979,37.96869],[127.40968,37.96867],[127.40968,37.96835],[127.40959,37.96827],[127.40955,37.96827],[127.40953,37.9682],[127.40946,37.9682],[127.40939,37.96831],[127.40934,37.96832],[127.40932,37.96847],[127.40925,37.96852],[127.40924,37.96859],[127.40933,37.96869],[127.40931,37.9689],[127.40921,37.96897],[127.40921,37.96901],[127.40912,37.96904],[127.40912,37.96913],[127.40919,37.96913],[127.40919,37.9691],[127.40928,37.96908],[127.40933,37.96903],[127.40946,37.96903],[127.40953,37.96908],[127.40957,37.96923],[127.40955,37.96936],[127.4095,37.96939],[127.4095,37.96953],[127.40943,37.96955],[127.40933,37.96978],[127.40904,37.9698],[127.40901,37.96976],[127.40886,37.96976],[127.40885,37.9698],[127.40867,37.96979],[127.40865,37.9699],[127.4086,37.96994],[127.40853,37.96994],[127.40851,37.96988],[127.40844,37.96986],[127.40845,37.96974],[127.40836,37.96961],[127.40822,37.96961],[127.4082,37.96952],[127.40806,37.96952],[127.40806,37.96964],[127.40795,37.96968],[127.40794,37.96975],[127.40801,37.96978],[127.40801,37.96993],[127.40787,37.96998],[127.40787,37.97005],[127.4078,37.97012],[127.4078,37.97018],[127.4083,37.97026],[127.40839,37.97022],[127.40839,37.97019],[127.4086,37.97021],[127.40878,37.97017],[127.40878,37.97023],[127.40857,37.97026],[127.40852,37.97031],[127.40839,37.97031],[127.40839,37.97035],[127.40832,37.97038],[127.4082,37.97038]],[[127.40987,37.96803],[127.40994,37.96803],[127.40992,37.96795],[127.40985,37.96795],[127.40987,37.96803]],[[127.41298,37.96744],[127.41305,37.96744],[127.41305,37.96737],[127.41296,37.96713],[127.41285,37.96709],[127.41281,37.96704],[127.41274,37.96704],[127.41272,37.96698],[127.41265,37.96693],[127.4126,37.96693],[127.41263,37.96669],[127.41254,37.9666],[127.41248,37.9666],[127.41223,37.96636],[127.41214,37.96636],[127.41214,37.96643],[127.41218,37.96645],[127.41227,37.96667],[127.41245,37.96674],[127.41245,37.96694],[127.41251,37.967],[127.41253,37.96707],[127.4126,37.96709],[127.41262,37.96716],[127.41274,37.96722],[127.41276,37.96729],[127.41282,37.96731],[127.41298,37.96744]],[[127.41387,37.96646],[127.41396,37.96644],[127.41396,37.96637],[127.41387,37.96637],[127.41387,37.96646]],[[127.4153,37.96639],[127.41549,37.96639],[127.41555,37.96634],[127.41556,37.96626],[127.4154,37.96624],[127.41528,37.96628],[127.41526,37.96635],[127.4153,37.96639]]]}},{"type":"Feature","properties":{"valleyId":"nonnamgi","layer":"canopy","date":"2026-08-01"},"geometry":{"type":"Polygon","coordinates":[[[127.41523,37.96554],[127.41491,37.96544],[127.41491,37.96539],[127.41503,37.96536],[127.41512,37.96528],[127.41526,37.96525],[127.41528,37.96521],[127.4156,37.96509],[127.41567,37.96509],[127.41567,37.96542],[127.41541,37.96554],[127.41523,37.96554]]]}},{"type":"Feature","properties":{"valleyId":"nonnamgi","layer":"canopy","date":"2026-08-01"},"geometry":{"type":"Polygon","coordinates":[[[127.42263,37.96782],[127.42258,37.96775],[127.42251,37.96771],[127.42252,37.96767],[127.42227,37.96753],[127.4222,37.96752],[127.42206,37.9676],[127.42177,37.96757],[127.42172,37.96754],[127.42172,37.96745],[127.42161,37.96744],[127.42161,37.96734],[127.42136,37.96733],[127.42129,37.96726],[127.42107,37.96726],[127.42089,37.96718],[127.4208,37.96718],[127.42068,37.96723],[127.42052,37.96723],[127.4205,37.96727],[127.42045,37.96727],[127.42041,37.9673],[127.4204,37.96736],[127.42045,37.96736],[127.42045,37.96747],[127.41999,37.96748],[127.41999,37.96741],[127.41982,37.96726],[127.41961,37.96724],[127.41943,37.96738],[127.41913,37.96738],[127.41911,37.96734],[127.41902,37.96734],[127.41897,37.96745],[127.41874,37.96746],[127.41863,37.9674],[127.41863,37.96722],[127.41859,37.96721],[127.41854,37.9671],[127.4185,37.96706],[127.41834,37.96706],[127.41829,37.96702],[127.4183,37.96695],[127.41848,37.96695],[127.41855,37.96684],[127.41871,37.96683],[127.41884,37.96685],[127.41887,37.9669],[127.41907,37.96692],[127.41909,37.96696],[127.41925,37.967],[127.41936,37.96709],[127.41943,37.96709],[127.41944,37.96689],[127.41939,37.96687],[127.41935,37.96675],[127.4193,37.96673],[127.4193,37.96669],[127.41926,37.96669],[127.41921,37.9666],[127.41903,37.9666],[127.41892,37.96669],[127.4188,37.96669],[127.41878,37.96672],[127.41857,37.9667],[127.41855,37.96666],[127.4183,37.96666],[127.41821,37.9667],[127.41821,37.96673],[127.4181,37.96675],[127.41809,37.96693],[127.41795,37.96705],[127.41775,37.96707],[127.41773,37.967],[127.41761,37.96699],[127.41757,37.96672],[127.41741,37.96669],[127.41741,37.96665],[127.41735,37.96659],[127.41728,37.96659],[127.4171,37.9665],[127.4171,37.96646],[127.41699,37.96639],[127.41699,37.96634],[127.41694,37.96632],[127.41694,37.96626],[127.41688,37.96621],[127.41686,37.96608],[127.41679,37.96603],[127.4168,37.96567],[127.41673,37.96558],[127.41674,37.9654],[127.41678,37.96527],[127.41688,37.9652],[127.4169,37.96497],[127.41736,37.96504],[127.41813,37.96531],[127.41817,37.96536],[127.41819,37.96549],[127.41824,37.96552],[127.41835,37.96551],[127.4184,37.9654],[127.41856,37.9654],[127.41865,37.96544],[127.41876,37.96544],[127.41885,37.96548],[127.41897,37.96548],[127.41906,37.96552],[127.41917,37.96552],[127.41926,37.96556],[127.41949,37.96558],[127.42003,37.96569],[127.4211,37.96576],[127.42201,37.96595],[127.4225,37.96614],[127.42252,37.96618],[127.42277,37.96629],[127.42282,37.96634],[127.42293,37.96638],[127.42297,37.96644],[127.42309,37.96647],[127.42313,37.96653],[127.42324,37.96657],[127.42329,37.96662],[127.42333,37.96662],[127.42331,37.96694],[127.42323,37.96711],[127.42323,37.96725],[127.42312,37.96728],[127.42313,37.96752],[127.42318,37.96754],[127.42318,37.96763],[127.42313,37.96765],[127.42313,37.96768],[127.42295,37.96768],[127.42295,37.96772],[127.42276,37.96782],[127.42263,37.96782]],[[127.41795,37.96606],[127.41804,37.96606],[127.41809,37.96603],[127.4182,37.96601],[127.4183,37.96594],[127.4183,37.96589],[127.41823,37.96589],[127.41816,37.96594],[127.41789,37.96593],[127.41782,37.96588],[127.41775,37.96588],[127.41766,37.96577],[127.41766,37.96564],[127.41762,37.96561],[127.41751,37.96559],[127.41744,37.96553],[127.4174,37.96542],[127.41728,37.96535],[127.41728,37.96531],[127.41715,37.96529],[127.4171,37.96547],[127.41716,37.96558],[127.41723,37.9656],[127.41725,37.96567],[127.41743,37.96582],[127.41752,37.96584],[127.41768,37.966],[127.41786,37.96601],[127.41795,37.96606]]]}},{"type":"Feature","properties":{"valleyId":"nonnamgi","layer":"canopy","date":"2026-08-01"},"geometry":{"type":"Polygon","coordinates":[[[127.41589,37.96569],[127.4158,37.96562],[127.41583,37.96538],[127.41578,37.96533],[127.41576,37.96506],[127.41581,37.96502],[127.41597,37.96501],[127.41604,37.96497],[127.41627,37.96496],[127.41627,37.96503],[127.41622,37.96507],[127.41622,37.96512],[127.41617,37.96514],[127.41615,37.96526],[127.41617,37.96535],[127.41628,37.96544],[127.41628,37.96552],[127.41621,37.96559],[127.41612,37.9656],[127.41602,37.96568],[127.41589,37.96569]]]}}]}
