{"type":"FeatureCollection","metadata":{"description":"개방지(CHM ≤ 2 m)에 드리운 나무·지형 그림자, 2026-08-01 17:00 KST. canopy 위에 겹쳐 그린다","source":"위성 기반 추정 — Copernicus GLO-30 지형(30 m) + Meta/WRI 수관 높이(1 m CHM, 2018~2019 촬영). 그늘 = 수관(CHM > 2 m) ∪ 나무·지형 그림자 ∪ 원거리 지형 마스크. 현장과 다를 수 있음.","datasetVersion":"2026-09-06.0","collectedAt":"2026-09-06","coordinateOrder":"[longitude, latitude]","crs":"EPSG:4326","representativeDate":"2026-08-01","hours":["10:00","11:00","12:00","13:00","14:00","15:00","16:00","17:00","18:00"],"chmAcquisition":["2018-03","2019-03"],"assets":{"glo30":{"dataset":"Copernicus DEM GLO-30 (COG, s3://copernicus-dem-30m)","tiles":["Copernicus_DSM_COG_10_N37_00_E127_00_DEM","Copernicus_DSM_COG_10_N38_00_E127_00_DEM"]},"chm":{"dataset":"Meta/WRI Global Canopy Height Map v1 (alsgedi_global_v6_float, 1 m, CC-BY 4.0)","quadkeys":["132110303"],"acquisition":["2018-03","2019-03"]}},"method":{"gridResM":2,"canopyThresholdM":2,"bufferHalfM":25,"corridorHalfM":200,"simplifyTolM":2,"minAreaM2":25,"coordDecimals":5},"generator":"scripts/shade 0.1.0","builtAt":"2026-09-06T06:00:15Z","layer":"shadow","timeLocal":"17:00"},"features":[{"type":"Feature","properties":{"valleyId":"nonnamgi","layer":"shadow","date":"2026-08-01","timeLocal":"17:00"},"geometry":{"type":"Polygon","coordinates":[[[127.40895,37.97169],[127.40895,37.97158],[127.40902,37.97158],[127.40902,37.97169],[127.40895,37.97169]]]}},{"type":"Feature","properties":{"valleyId":"nonnamgi","layer":"shadow","date":"2026-08-01","timeLocal":"17:00"},"geometry":{"type":"Polygon","coordinates":[[[127.40758,37.97102],[127.40751,37.97095],[127.40751,37.9709],[127.40762,37.9709],[127.40764,37.97102],[127.40758,37.97102]]]}},{"type":"Feature","properties":{"valleyId":"nonnamgi","layer":"shadow","date":"2026-08-01","timeLocal":"17:00"},"geometry":{"type":"Polygon","coordinates":[[[127.40767,37.97086],[127.40767,37.97081],[127.40774,37.97081],[127.40774,37.97086],[127.40767,37.97086]]]}},{"type":"Feature","properties":{"valleyId":"nonnamgi","layer":"shadow","date":"2026-08-01","timeLocal":"17:00"},"geometry":{"type":"Polygon","coordinates":[[[127.40745,37.97032],[127.40739,37.97028],[127.40739,37.97023],[127.40752,37.97026],[127.40752,37.97032],[127.40745,37.97032]]]}},{"type":"Feature","properties":{"valleyId":"nonnamgi","layer":"shadow","date":"2026-08-01","timeLocal":"17:00"},"geometry":{"type":"Polygon","coordinates":[[[127.40675,37.97013],[127.40673,37.97006],[127.4068,37.97006],[127.40682,37.97013],[127.40675,37.97013]]]}},{"type":"Feature","properties":{"valleyId":"nonnamgi","layer":"shadow","date":"2026-08-01","timeLocal":"17:00"},"geometry":{"type":"Polygon","coordinates":[[[127.40865,37.96992],[127.40867,37.96979],[127.40885,37.9698],[127.40886,37.96976],[127.40892,37.96976],[127.40892,37.96982],[127.40888,37.96981],[127.40885,37.96987],[127.40876,37.96989],[127.40874,37.96992],[127.40865,37.96992]]]}},{"type":"Feature","properties":{"valleyId":"nonnamgi","layer":"shadow","date":"2026-08-01","timeLocal":"17:00"},"geometry":{"type":"Polygon","coordinates":[[[127.4153,37.96976],[127.4153,37.96969],[127.41541,37.96969],[127.41541,37.96974],[127.4153,37.96976]]]}},{"type":"Feature","properties":{"valleyId":"nonnamgi","layer":"shadow","date":"2026-08-01","timeLocal":"17:00"},"geometry":{"type":"Polygon","coordinates":[[[127.4078,37.97018],[127.4078,37.97012],[127.40787,37.97005],[127.40787,37.96998],[127.40801,37.96993],[127.40801,37.96978],[127.40794,37.96975],[127.40795,37.96968],[127.40806,37.96964],[127.40806,37.96952],[127.4082,37.96952],[127.40819,37.96977],[127.40826,37.96979],[127.40826,37.96984],[127.40822,37.96986],[127.40821,37.9699],[127.40805,37.96995],[127.40805,37.97004],[127.40791,37.97013],[127.40791,37.97016],[127.4078,37.97018]]]}},{"type":"Feature","properties":{"valleyId":"nonnamgi","layer":"shadow","date":"2026-08-01","timeLocal":"17:00"},"geometry":{"type":"Polygon","coordinates":[[[127.41181,37.97018],[127.41177,37.96996],[127.41181,37.96993],[127.41186,37.96978],[127.41189,37.96955],[127.41196,37.96955],[127.41197,37.96982],[127.41195,37.96989],[127.41186,37.96996],[127.41186,37.97002],[127.4119,37.97004],[127.41187,37.97018],[127.41181,37.97018]]]}},{"type":"Feature","properties":{"valleyId":"nonnamgi","layer":"shadow","date":"2026-08-01","timeLocal":"17:00"},"geometry":{"type":"Polygon","coordinates":[[[127.41212,37.96948],[127.41212,37.96939],[127.41221,37.96939],[127.41221,37.96946],[127.41212,37.96948]]]}},{"type":"Feature","properties":{"valleyId":"nonnamgi","layer":"shadow","date":"2026-08-01","timeLocal":"17:00"},"geometry":{"type":"Polygon","coordinates":[[[127.42079,37.96961],[127.42079,37.96956],[127.42068,37.96956],[127.42065,37.96952],[127.42056,37.9695],[127.42052,37.96947],[127.42052,37.96939],[127.42059,37.9694],[127.42077,37.96947],[127.42077,37.96951],[127.42081,37.96951],[127.42081,37.96956],[127.42086,37.96956],[127.42086,37.96962],[127.42079,37.96961]]]}},{"type":"Feature","properties":{"valleyId":"nonnamgi","layer":"shadow","date":"2026-08-01","timeLocal":"17:00"},"geometry":{"type":"Polygon","coordinates":[[[127.42104,37.96937],[127.42105,37.96931],[127.42111,37.96931],[127.42111,37.96937],[127.42104,37.96937]]]}},{"type":"Feature","properties":{"valleyId":"nonnamgi","layer":"shadow","date":"2026-08-01","timeLocal":"17:00"},"geometry":{"type":"Polygon","coordinates":[[[127.40998,37.96923],[127.41001,37.96915],[127.41014,37.96913],[127.41014,37.96918],[127.41007,37.96924],[127.40998,37.96923]]]}},{"type":"Feature","properties":{"valleyId":"nonnamgi","layer":"shadow","date":"2026-08-01","timeLocal":"17:00"},"geometry":{"type":"Polygon","coordinates":[[[127.42136,37.96933],[127.42137,37.96928],[127.42143,37.96928],[127.42143,37.96933],[127.42136,37.96933]]]}},{"type":"Feature","properties":{"valleyId":"nonnamgi","layer":"shadow","date":"2026-08-01","timeLocal":"17:00"},"geometry":{"type":"Polygon","coordinates":[[[127.42007,37.9693],[127.42007,37.96923],[127.42014,37.96923],[127.42016,37.9693],[127.42007,37.9693]]]}},{"type":"Feature","properties":{"valleyId":"nonnamgi","layer":"shadow","date":"2026-08-01","timeLocal":"17:00"},"geometry":{"type":"Polygon","coordinates":[[[127.41576,37.96935],[127.4157,37.96931],[127.41567,37.96922],[127.41563,37.96922],[127.41563,37.96917],[127.41572,37.96917],[127.41581,37.96922],[127.41583,37.96935],[127.41576,37.96935]]]}},{"type":"Feature","properties":{"valleyId":"nonnamgi","layer":"shadow","date":"2026-08-01","timeLocal":"17:00"},"geometry":{"type":"Polygon","coordinates":[[[127.40936,37.96977],[127.40941,37.96959],[127.40945,37.96953],[127.4095,37.96953],[127.4095,37.96939],[127.40955,37.96936],[127.40957,37.96923],[127.40955,37.9691],[127.40962,37.9691],[127.40962,37.96905],[127.40969,37.96905],[127.40969,37.96921],[127.40978,37.9693],[127.40977,37.96938],[127.40968,37.96941],[127.40968,37.96959],[127.40961,37.96959],[127.40961,37.96954],[127.40952,37.96953],[127.40952,37.96963],[127.40956,37.96963],[127.40956,37.96968],[127.40945,37.96977],[127.40936,37.96977]]]}},{"type":"Feature","properties":{"valleyId":"nonnamgi","layer":"shadow","date":"2026-08-01","timeLocal":"17:00"},"geometry":{"type":"Polygon","coordinates":[[[127.42298,37.9695],[127.42298,37.96941],[127.42289,37.96935],[127.42289,37.96932],[127.42273,37.96926],[127.42273,37.96921],[127.42291,37.96925],[127.42291,37.9693],[127.42316,37.96939],[127.42316,37.96947],[127.42298,37.9695]]]}},{"type":"Feature","properties":{"valleyId":"nonnamgi","layer":"shadow","date":"2026-08-01","timeLocal":"17:00"},"geometry":{"type":"Polygon","coordinates":[[[127.4101,37.96906],[127.41012,37.96897],[127.41022,37.96895],[127.41021,37.96902],[127.41017,37.96906],[127.4101,37.96906]]]}},{"type":"Feature","properties":{"valleyId":"nonnamgi","layer":"shadow","date":"2026-08-01","timeLocal":"17:00"},"geometry":{"type":"Polygon","coordinates":[[[127.42032,37.96919],[127.42037,37.96905],[127.42044,37.96905],[127.42044,37.96909],[127.42053,37.96911],[127.42053,37.96918],[127.42032,37.96919]]]}},{"type":"Feature","properties":{"valleyId":"nonnamgi","layer":"shadow","date":"2026-08-01","timeLocal":"17:00"},"geometry":{"type":"Polygon","coordinates":[[[127.41488,37.96905],[127.41489,37.96887],[127.41495,37.96887],[127.41495,37.96905],[127.41488,37.96905]]]}},{"type":"Feature","properties":{"valleyId":"nonnamgi","layer":"shadow","date":"2026-08-01","timeLocal":"17:00"},"geometry":{"type":"Polygon","coordinates":[[[127.41976,37.96895],[127.41976,37.9689],[127.41983,37.9689],[127.41982,37.96895],[127.41976,37.96895]]]}},{"type":"Feature","properties":{"valleyId":"nonnamgi","layer":"shadow","date":"2026-08-01","timeLocal":"17:00"},"geometry":{"type":"Polygon","coordinates":[[[127.42292,37.96898],[127.42292,37.9689],[127.42299,37.96891],[127.42299,37.96898],[127.42292,37.96898]]]}},{"type":"Feature","properties":{"valleyId":"nonnamgi","layer":"shadow","date":"2026-08-01","timeLocal":"17:00"},"geometry":{"type":"Polygon","coordinates":[[[127.42021,37.96883],[127.42022,37.96878],[127.42028,37.96878],[127.42028,37.96883],[127.42021,37.96883]]]}},{"type":"Feature","properties":{"valleyId":"nonnamgi","layer":"shadow","date":"2026-08-01","timeLocal":"17:00"},"geometry":{"type":"Polygon","coordinates":[[[127.41498,37.96878],[127.41498,37.96867],[127.41505,37.96867],[127.41505,37.96878],[127.41498,37.96878]]]}},{"type":"Feature","properties":{"valleyId":"nonnamgi","layer":"shadow","date":"2026-08-01","timeLocal":"17:00"},"geometry":{"type":"Polygon","coordinates":[[[127.41673,37.96879],[127.41673,37.9687],[127.4168,37.9687],[127.4168,37.96879],[127.41673,37.96879]]]}},{"type":"Feature","properties":{"valleyId":"nonnamgi","layer":"shadow","date":"2026-08-01","timeLocal":"17:00"},"geometry":{"type":"Polygon","coordinates":[[[127.41625,37.96894],[127.41628,37.96867],[127.41635,37.96867],[127.41636,37.96894],[127.41625,37.96894]]]}},{"type":"Feature","properties":{"valleyId":"nonnamgi","layer":"shadow","date":"2026-08-01","timeLocal":"17:00"},"geometry":{"type":"Polygon","coordinates":[[[127.42014,37.96905],[127.42012,37.96894],[127.41999,37.96888],[127.41994,37.96879],[127.41987,37.96879],[127.41987,37.96872],[127.42012,37.96878],[127.42012,37.96883],[127.42021,37.96883],[127.42021,37.96889],[127.4203,37.96889],[127.42032,37.96901],[127.42014,37.96905]]]}},{"type":"Feature","properties":{"valleyId":"nonnamgi","layer":"shadow","date":"2026-08-01","timeLocal":"17:00"},"geometry":{"type":"Polygon","coordinates":[[[127.4193,37.96877],[127.41931,37.96871],[127.41937,37.96871],[127.41937,37.96877],[127.4193,37.96877]]]}},{"type":"Feature","properties":{"valleyId":"nonnamgi","layer":"shadow","date":"2026-08-01","timeLocal":"17:00"},"geometry":{"type":"Polygon","coordinates":[[[127.40988,37.96869],[127.40988,37.96864],[127.40993,37.96864],[127.40993,37.9686],[127.41027,37.96857],[127.41027,37.96863],[127.41013,37.96868],[127.40988,37.96869]]]}},{"type":"Feature","properties":{"valleyId":"nonnamgi","layer":"shadow","date":"2026-08-01","timeLocal":"17:00"},"geometry":{"type":"Polygon","coordinates":[[[127.41705,37.96883],[127.41705,37.96865],[127.41712,37.96865],[127.41714,37.96879],[127.41712,37.96883],[127.41705,37.96883]]]}},{"type":"Feature","properties":{"valleyId":"nonnamgi","layer":"shadow","date":"2026-08-01","timeLocal":"17:00"},"geometry":{"type":"Polygon","coordinates":[[[127.42138,37.96876],[127.4214,37.96863],[127.42147,37.96863],[127.42144,37.96876],[127.42138,37.96876]]]}},{"type":"Feature","properties":{"valleyId":"nonnamgi","layer":"shadow","date":"2026-08-01","timeLocal":"17:00"},"geometry":{"type":"Polygon","coordinates":[[[127.41728,37.96867],[127.41728,37.96858],[127.41742,37.96858],[127.41739,37.96865],[127.41728,37.96867]]]}},{"type":"Feature","properties":{"valleyId":"nonnamgi","layer":"shadow","date":"2026-08-01","timeLocal":"17:00"},"geometry":{"type":"Polygon","coordinates":[[[127.41683,37.96859],[127.41683,37.9685],[127.41692,37.9685],[127.41692,37.96859],[127.41683,37.96859]]]}},{"type":"Feature","properties":{"valleyId":"nonnamgi","layer":"shadow","date":"2026-08-01","timeLocal":"17:00"},"geometry":{"type":"Polygon","coordinates":[[[127.41942,37.96862],[127.41942,37.96853],[127.41954,37.96855],[127.41954,37.96861],[127.41942,37.96862]]]}},{"type":"Feature","properties":{"valleyId":"nonnamgi","layer":"shadow","date":"2026-08-01","timeLocal":"17:00"},"geometry":{"type":"Polygon","coordinates":[[[127.42031,37.96876],[127.42031,37.96869],[127.42015,37.96861],[127.42013,37.96852],[127.42029,37.96854],[127.42036,37.9686],[127.42042,37.9686],[127.42042,37.96855],[127.42049,37.96855],[127.42049,37.96862],[127.42042,37.96862],[127.42042,37.96869],[127.42047,37.96869],[127.42047,37.96875],[127.42031,37.96876]]]}},{"type":"Feature","properties":{"valleyId":"nonnamgi","layer":"shadow","date":"2026-08-01","timeLocal":"17:00"},"geometry":{"type":"Polygon","coordinates":[[[127.41889,37.96876],[127.41885,37.96874],[127.41883,37.96858],[127.41878,37.96858],[127.41876,37.96849],[127.41883,37.96849],[127.41885,37.96854],[127.4189,37.96854],[127.4189,37.96858],[127.41894,37.9686],[127.41896,37.96876],[127.41889,37.96876]]]}},{"type":"Feature","properties":{"valleyId":"nonnamgi","layer":"shadow","date":"2026-08-01","timeLocal":"17:00"},"geometry":{"type":"Polygon","coordinates":[[[127.42156,37.96858],[127.42156,37.96853],[127.42163,37.96853],[127.42163,37.96858],[127.42156,37.96858]]]}},{"type":"Feature","properties":{"valleyId":"nonnamgi","layer":"shadow","date":"2026-08-01","timeLocal":"17:00"},"geometry":{"type":"Polygon","coordinates":[[[127.41018,37.96841],[127.41018,37.96835],[127.41025,37.96836],[127.41025,37.96841],[127.41018,37.96841]]]}},{"type":"Feature","properties":{"valleyId":"nonnamgi","layer":"shadow","date":"2026-08-01","timeLocal":"17:00"},"geometry":{"type":"Polygon","coordinates":[[[127.41899,37.96853],[127.41899,37.96847],[127.41906,37.96847],[127.41906,37.96853],[127.41899,37.96853]]]}},{"type":"Feature","properties":{"valleyId":"nonnamgi","layer":"shadow","date":"2026-08-01","timeLocal":"17:00"},"geometry":{"type":"Polygon","coordinates":[[[127.42172,37.96849],[127.42173,37.96844],[127.42179,37.96844],[127.42179,37.96849],[127.42172,37.96849]]]}},{"type":"Feature","properties":{"valleyId":"nonnamgi","layer":"shadow","date":"2026-08-01","timeLocal":"17:00"},"geometry":{"type":"Polygon","coordinates":[[[127.41551,37.96855],[127.41551,37.9685],[127.41555,37.96846],[127.41554,37.9683],[127.41563,37.9683],[127.41567,37.96846],[127.4156,37.9685],[127.41558,37.96855],[127.41551,37.96855]]]}},{"type":"Feature","properties":{"valleyId":"nonnamgi","layer":"shadow","date":"2026-08-01","timeLocal":"17:00"},"geometry":{"type":"Polygon","coordinates":[[[127.40912,37.96913],[127.40912,37.96904],[127.40919,37.96903],[127.40931,37.9689],[127.40931,37.96865],[127.40924,37.96859],[127.40925,37.96852],[127.40932,37.96847],[127.40932,37.96836],[127.40939,37.96831],[127.40941,37.96824],[127.40946,37.9682],[127.40953,37.9682],[127.40955,37.96827],[127.40959,37.96827],[127.40966,37.96833],[127.40966,37.9684],[127.40955,37.9684],[127.40948,37.96845],[127.40936,37.96847],[127.40938,37.96863],[127.40954,37.96871],[127.40956,37.96889],[127.40963,37.96889],[127.40963,37.96882],[127.4097,37.96882],[127.40969,37.96889],[127.40965,37.96889],[127.40962,37.96905],[127.40949,37.96907],[127.40946,37.96903],[127.40939,37.96903],[127.40937,37.96906],[127.40921,37.96908],[127.40919,37.96913],[127.40912,37.96913]]]}},{"type":"Feature","properties":{"valleyId":"nonnamgi","layer":"shadow","date":"2026-08-01","timeLocal":"17:00"},"geometry":{"type":"Polygon","coordinates":[[[127.41956,37.96841],[127.41956,37.96834],[127.41952,37.96834],[127.41952,37.96828],[127.41959,37.96828],[127.41959,37.96832],[127.41963,37.96832],[127.41963,37.96841],[127.41956,37.96841]]]}},{"type":"Feature","properties":{"valleyId":"nonnamgi","layer":"shadow","date":"2026-08-01","timeLocal":"17:00"},"geometry":{"type":"Polygon","coordinates":[[[127.4166,37.96846],[127.4166,37.96842],[127.41654,37.96837],[127.41649,37.96821],[127.41672,37.96824],[127.41667,37.96846],[127.4166,37.96846]]]}},{"type":"Feature","properties":{"valleyId":"nonnamgi","layer":"shadow","date":"2026-08-01","timeLocal":"17:00"},"geometry":{"type":"Polygon","coordinates":[[[127.41668,37.96819],[127.41668,37.96814],[127.41675,37.96814],[127.41674,37.96819],[127.41668,37.96819]]]}},{"type":"Feature","properties":{"valleyId":"nonnamgi","layer":"shadow","date":"2026-08-01","timeLocal":"17:00"},"geometry":{"type":"Polygon","coordinates":[[[127.4108,37.96822],[127.4108,37.96811],[127.4109,37.96804],[127.41108,37.96801],[127.41108,37.96808],[127.41092,37.96813],[127.41092,37.96818],[127.41087,37.96822],[127.4108,37.96822]]]}},{"type":"Feature","properties":{"valleyId":"nonnamgi","layer":"shadow","date":"2026-08-01","timeLocal":"17:00"},"geometry":{"type":"Polygon","coordinates":[[[127.41961,37.96818],[127.41961,37.96812],[127.41968,37.96812],[127.41968,37.96818],[127.41961,37.96818]]]}},{"type":"Feature","properties":{"valleyId":"nonnamgi","layer":"shadow","date":"2026-08-01","timeLocal":"17:00"},"geometry":{"type":"Polygon","coordinates":[[[127.41565,37.96828],[127.41568,37.96805],[127.41575,37.96805],[127.41579,37.96827],[127.41565,37.96828]]]}},{"type":"Feature","properties":{"valleyId":"nonnamgi","layer":"shadow","date":"2026-08-01","timeLocal":"17:00"},"geometry":{"type":"Polygon","coordinates":[[[127.41442,37.96809],[127.41443,37.96803],[127.41449,37.96803],[127.41449,37.96809],[127.41442,37.96809]]]}},{"type":"Feature","properties":{"valleyId":"nonnamgi","layer":"shadow","date":"2026-08-01","timeLocal":"17:00"},"geometry":{"type":"Polygon","coordinates":[[[127.41606,37.96807],[127.41607,37.968],[127.41613,37.968],[127.41613,37.96807],[127.41606,37.96807]]]}},{"type":"Feature","properties":{"valleyId":"nonnamgi","layer":"shadow","date":"2026-08-01","timeLocal":"17:00"},"geometry":{"type":"Polygon","coordinates":[[[127.40833,37.96876],[127.40833,37.96856],[127.40843,37.96855],[127.40845,37.96848],[127.4085,37.96846],[127.4085,37.96837],[127.40845,37.96837],[127.40843,37.96828],[127.40836,37.96824],[127.40837,37.9681],[127.40844,37.96792],[127.40849,37.96788],[127.40855,37.96788],[127.40855,37.96803],[127.40848,37.9681],[127.40848,37.96817],[127.40855,37.96822],[127.40859,37.96833],[127.40877,37.96837],[127.40877,37.96843],[127.4087,37.96855],[127.40856,37.96857],[127.40847,37.96864],[127.40844,37.96875],[127.40833,37.96876]]]}},{"type":"Feature","properties":{"valleyId":"nonnamgi","layer":"shadow","date":"2026-08-01","timeLocal":"17:00"},"geometry":{"type":"Polygon","coordinates":[[[127.41645,37.96808],[127.41645,37.96799],[127.41654,37.96799],[127.41656,37.96806],[127.41645,37.96808]]]}},{"type":"Feature","properties":{"valleyId":"nonnamgi","layer":"shadow","date":"2026-08-01","timeLocal":"17:00"},"geometry":{"type":"Polygon","coordinates":[[[127.41625,37.96802],[127.41625,37.96797],[127.41632,37.96797],[127.41632,37.96802],[127.41625,37.96802]]]}},{"type":"Feature","properties":{"valleyId":"nonnamgi","layer":"shadow","date":"2026-08-01","timeLocal":"17:00"},"geometry":{"type":"Polygon","coordinates":[[[127.41557,37.96794],[127.41557,37.96787],[127.41564,37.96787],[127.41563,37.96794],[127.41557,37.96794]]]}},{"type":"Feature","properties":{"valleyId":"nonnamgi","layer":"shadow","date":"2026-08-01","timeLocal":"17:00"},"geometry":{"type":"Polygon","coordinates":[[[127.41723,37.96791],[127.41723,37.96784],[127.4173,37.96784],[127.4173,37.96791],[127.41723,37.96791]]]}},{"type":"Feature","properties":{"valleyId":"nonnamgi","layer":"shadow","date":"2026-08-01","timeLocal":"17:00"},"geometry":{"type":"Polygon","coordinates":[[[127.41461,37.96793],[127.41466,37.96778],[127.41473,37.96778],[127.41468,37.96793],[127.41461,37.96793]]]}},{"type":"Feature","properties":{"valleyId":"nonnamgi","layer":"shadow","date":"2026-08-01","timeLocal":"17:00"},"geometry":{"type":"Polygon","coordinates":[[[127.41937,37.96779],[127.41937,37.96772],[127.41944,37.96772],[127.41944,37.96779],[127.41937,37.96779]]]}},{"type":"Feature","properties":{"valleyId":"nonnamgi","layer":"shadow","date":"2026-08-01","timeLocal":"17:00"},"geometry":{"type":"Polygon","coordinates":[[[127.40917,37.96787],[127.40913,37.96782],[127.40906,37.96782],[127.40906,37.96776],[127.4091,37.96774],[127.40908,37.9676],[127.40911,37.96753],[127.40925,37.96751],[127.40924,37.96758],[127.40938,37.96764],[127.40938,37.96773],[127.40924,37.96776],[127.40924,37.96787],[127.40917,37.96787]]]}},{"type":"Feature","properties":{"valleyId":"nonnamgi","layer":"shadow","date":"2026-08-01","timeLocal":"17:00"},"geometry":{"type":"Polygon","coordinates":[[[127.41714,37.96769],[127.41712,37.96762],[127.41723,37.96762],[127.41723,37.96767],[127.41714,37.96769]]]}},{"type":"Feature","properties":{"valleyId":"nonnamgi","layer":"shadow","date":"2026-08-01","timeLocal":"17:00"},"geometry":{"type":"Polygon","coordinates":[[[127.41482,37.96768],[127.4148,37.96748],[127.41492,37.96746],[127.41491,37.96752],[127.41487,37.96753],[127.41489,37.96768],[127.41482,37.96768]]]}},{"type":"Feature","properties":{"valleyId":"nonnamgi","layer":"shadow","date":"2026-08-01","timeLocal":"17:00"},"geometry":{"type":"Polygon","coordinates":[[[127.40925,37.96749],[127.40929,37.96739],[127.40936,37.96739],[127.40936,37.96746],[127.40931,37.9675],[127.40925,37.96749]]]}},{"type":"Feature","properties":{"valleyId":"nonnamgi","layer":"shadow","date":"2026-08-01","timeLocal":"17:00"},"geometry":{"type":"Polygon","coordinates":[[[127.41687,37.96751],[127.41687,37.96745],[127.41694,37.96745],[127.41694,37.96751],[127.41687,37.96751]]]}},{"type":"Feature","properties":{"valleyId":"nonnamgi","layer":"shadow","date":"2026-08-01","timeLocal":"17:00"},"geometry":{"type":"Polygon","coordinates":[[[127.41746,37.96761],[127.41746,37.96753],[127.41753,37.9675],[127.41753,37.96744],[127.4176,37.96745],[127.4176,37.96754],[127.41753,37.96761],[127.41746,37.96761]]]}},{"type":"Feature","properties":{"valleyId":"nonnamgi","layer":"shadow","date":"2026-08-01","timeLocal":"17:00"},"geometry":{"type":"Polygon","coordinates":[[[127.40867,37.96776],[127.4087,37.96765],[127.40877,37.96761],[127.40882,37.96738],[127.40889,37.96731],[127.40895,37.96731],[127.40895,37.96735],[127.40904,37.9674],[127.40904,37.96749],[127.40895,37.96751],[127.40881,37.96774],[127.40867,37.96776]]]}},{"type":"Feature","properties":{"valleyId":"nonnamgi","layer":"shadow","date":"2026-08-01","timeLocal":"17:00"},"geometry":{"type":"Polygon","coordinates":[[[127.41715,37.96746],[127.41715,37.96737],[127.41735,37.96737],[127.41733,37.96744],[127.41715,37.96746]]]}},{"type":"Feature","properties":{"valleyId":"nonnamgi","layer":"shadow","date":"2026-08-01","timeLocal":"17:00"},"geometry":{"type":"Polygon","coordinates":[[[127.42045,37.96745],[127.42045,37.96738],[127.42052,37.96738],[127.42054,37.96745],[127.42045,37.96745]]]}},{"type":"Feature","properties":{"valleyId":"nonnamgi","layer":"shadow","date":"2026-08-01","timeLocal":"17:00"},"geometry":{"type":"Polygon","coordinates":[[[127.41899,37.96745],[127.41899,37.96736],[127.41911,37.96734],[127.41911,37.96741],[127.41906,37.96745],[127.41899,37.96745]]]}},{"type":"Feature","properties":{"valleyId":"nonnamgi","layer":"shadow","date":"2026-08-01","timeLocal":"17:00"},"geometry":{"type":"Polygon","coordinates":[[[127.41278,37.96731],[127.41276,37.96724],[127.41283,37.96724],[127.41285,37.96731],[127.41278,37.96731]]]}},{"type":"Feature","properties":{"valleyId":"nonnamgi","layer":"shadow","date":"2026-08-01","timeLocal":"17:00"},"geometry":{"type":"Polygon","coordinates":[[[127.4204,37.96736],[127.42041,37.9673],[127.42047,37.9673],[127.42047,37.96736],[127.4204,37.96736]]]}},{"type":"Feature","properties":{"valleyId":"nonnamgi","layer":"shadow","date":"2026-08-01","timeLocal":"17:00"},"geometry":{"type":"Polygon","coordinates":[[[127.41264,37.96718],[127.41262,37.96711],[127.41256,37.96709],[127.41251,37.967],[127.41247,37.96698],[127.41245,37.96689],[127.41267,37.96689],[127.41267,37.96711],[127.41271,37.96713],[127.41271,37.96718],[127.41264,37.96718]]]}},{"type":"Feature","properties":{"valleyId":"nonnamgi","layer":"shadow","date":"2026-08-01","timeLocal":"17:00"},"geometry":{"type":"Polygon","coordinates":[[[127.42313,37.9677],[127.42313,37.96765],[127.42318,37.96763],[127.42318,37.96754],[127.42313,37.96752],[127.42312,37.96728],[127.42323,37.96725],[127.42323,37.96711],[127.42331,37.96694],[127.42331,37.96675],[127.42333,37.96667],[127.4234,37.96668],[127.42367,37.9669],[127.42367,37.96695],[127.4236,37.96698],[127.42359,37.96731],[127.42343,37.96733],[127.42336,37.96749],[127.42329,37.9675],[127.42329,37.96763],[127.4232,37.9677],[127.42313,37.9677]]]}},{"type":"Feature","properties":{"valleyId":"nonnamgi","layer":"shadow","date":"2026-08-01","timeLocal":"17:00"},"geometry":{"type":"Polygon","coordinates":[[[127.41543,37.96677],[127.41541,37.96655],[127.41548,37.96655],[127.4155,37.96677],[127.41543,37.96677]]]}},{"type":"Feature","properties":{"valleyId":"nonnamgi","layer":"shadow","date":"2026-08-01","timeLocal":"17:00"},"geometry":{"type":"Polygon","coordinates":[[[127.41229,37.96669],[127.41218,37.96651],[127.41218,37.96645],[127.41214,37.96643],[127.41214,37.96636],[127.41221,37.96636],[127.41221,37.9664],[127.4123,37.96645],[127.41236,37.96662],[127.41236,37.96669],[127.41229,37.96669]]]}},{"type":"Feature","properties":{"valleyId":"nonnamgi","layer":"shadow","date":"2026-08-01","timeLocal":"17:00"},"geometry":{"type":"Polygon","coordinates":[[[127.41619,37.96629],[127.41619,37.96624],[127.41626,37.96624],[127.41626,37.96629],[127.41619,37.96629]]]}},{"type":"Feature","properties":{"valleyId":"nonnamgi","layer":"shadow","date":"2026-08-01","timeLocal":"17:00"},"geometry":{"type":"Polygon","coordinates":[[[127.41522,37.96593],[127.41522,37.96588],[127.41527,37.96588],[127.41527,37.96585],[127.41534,37.96585],[127.41534,37.9659],[127.41529,37.9659],[127.41529,37.96594],[127.41522,37.96593]]]}},{"type":"Feature","properties":{"valleyId":"nonnamgi","layer":"shadow","date":"2026-08-01","timeLocal":"17:00"},"geometry":{"type":"Polygon","coordinates":[[[127.41766,37.96599],[127.41761,37.96595],[127.41761,37.96588],[127.41773,37.9659],[127.41772,37.96599],[127.41766,37.96599]]]}},{"type":"Feature","properties":{"valleyId":"nonnamgi","layer":"shadow","date":"2026-08-01","timeLocal":"17:00"},"geometry":{"type":"Polygon","coordinates":[[[127.41748,37.96584],[127.41737,37.96577],[127.41737,37.96573],[127.41732,37.96573],[127.41732,37.96566],[127.41739,37.96566],[127.41739,37.96571],[127.41746,37.96571],[127.41755,37.96577],[127.41755,37.96584],[127.41748,37.96584]]]}},{"type":"Feature","properties":{"valleyId":"nonnamgi","layer":"shadow","date":"2026-08-01","timeLocal":"17:00"},"geometry":{"type":"Polygon","coordinates":[[[127.41566,37.96545],[127.41569,37.96529],[127.41576,37.96529],[127.41578,37.9654],[127.41573,37.96542],[127.41573,37.96546],[127.41566,37.96545]]]}},{"type":"Feature","properties":{"valleyId":"nonnamgi","layer":"shadow","date":"2026-08-01","timeLocal":"17:00"},"geometry":{"type":"Polygon","coordinates":[[[127.41569,37.96515],[127.4157,37.96506],[127.41576,37.96506],[127.41576,37.96515],[127.41569,37.96515]]]}}]}
