{"type":"FeatureCollection","metadata":{"description":"개방지(CHM ≤ 2 m)에 드리운 나무·지형 그림자, 2026-08-01 18:00 KST. canopy 위에 겹쳐 그린다","source":"위성 기반 추정 — Copernicus GLO-30 지형(30 m) + Meta/WRI 수관 높이(1 m CHM, 2018~2019 촬영). 그늘 = 수관(CHM > 2 m) ∪ 나무·지형 그림자 ∪ 원거리 지형 마스크. 현장과 다를 수 있음.","datasetVersion":"2026-09-06.0","collectedAt":"2026-09-06","coordinateOrder":"[longitude, latitude]","crs":"EPSG:4326","representativeDate":"2026-08-01","hours":["10:00","11:00","12:00","13:00","14:00","15:00","16:00","17:00","18:00"],"chmAcquisition":["2018-03","2019-03"],"assets":{"glo30":{"dataset":"Copernicus DEM GLO-30 (COG, s3://copernicus-dem-30m)","tiles":["Copernicus_DSM_COG_10_N37_00_E127_00_DEM","Copernicus_DSM_COG_10_N38_00_E127_00_DEM"]},"chm":{"dataset":"Meta/WRI Global Canopy Height Map v1 (alsgedi_global_v6_float, 1 m, CC-BY 4.0)","quadkeys":["132110303"],"acquisition":["2018-03","2019-03"]}},"method":{"gridResM":2,"canopyThresholdM":2,"bufferHalfM":25,"corridorHalfM":200,"simplifyTolM":2,"minAreaM2":25,"coordDecimals":5},"generator":"scripts/shade 0.1.0","builtAt":"2026-09-06T06:00:15Z","layer":"shadow","timeLocal":"18:00"},"features":[{"type":"Feature","properties":{"valleyId":"nonnamgi","layer":"shadow","date":"2026-08-01","timeLocal":"18:00"},"geometry":{"type":"Polygon","coordinates":[[[127.40892,37.97201],[127.4089,37.97194],[127.40901,37.97196],[127.40901,37.97202],[127.40892,37.97201]]]}},{"type":"Feature","properties":{"valleyId":"nonnamgi","layer":"shadow","date":"2026-08-01","timeLocal":"18:00"},"geometry":{"type":"Polygon","coordinates":[[[127.40888,37.97185],[127.40888,37.97178],[127.40895,37.97171],[127.40895,37.97158],[127.40898,37.97155],[127.40907,37.97155],[127.40906,37.97167],[127.409,37.97171],[127.40899,37.97182],[127.40897,37.97185],[127.40888,37.97185]]]}},{"type":"Feature","properties":{"valleyId":"nonnamgi","layer":"shadow","date":"2026-08-01","timeLocal":"18:00"},"geometry":{"type":"Polygon","coordinates":[[[127.40752,37.97171],[127.40747,37.97167],[127.40747,37.9716],[127.40754,37.97154],[127.40754,37.97147],[127.4075,37.97145],[127.40748,37.97133],[127.40743,37.97133],[127.40746,37.97124],[127.40759,37.97126],[127.40764,37.97129],[127.40764,37.97135],[127.40768,37.97137],[127.40768,37.97144],[127.40761,37.97149],[127.40763,37.97162],[127.40758,37.97165],[127.40758,37.97171],[127.40752,37.97171]]]}},{"type":"Feature","properties":{"valleyId":"nonnamgi","layer":"shadow","date":"2026-08-01","timeLocal":"18:00"},"geometry":{"type":"Polygon","coordinates":[[[127.40812,37.97112],[127.40812,37.97105],[127.40821,37.97103],[127.40821,37.97112],[127.40812,37.97112]]]}},{"type":"Feature","properties":{"valleyId":"nonnamgi","layer":"shadow","date":"2026-08-01","timeLocal":"18:00"},"geometry":{"type":"Polygon","coordinates":[[[127.4076,37.97104],[127.40753,37.97099],[127.40751,37.9709],[127.40762,37.9709],[127.40767,37.97088],[127.40767,37.97081],[127.40774,37.97081],[127.40774,37.97088],[127.40769,37.97088],[127.40769,37.97102],[127.4076,37.97104]]]}},{"type":"Feature","properties":{"valleyId":"nonnamgi","layer":"shadow","date":"2026-08-01","timeLocal":"18:00"},"geometry":{"type":"Polygon","coordinates":[[[127.40821,37.97098],[127.40822,37.97091],[127.40815,37.97089],[127.40815,37.9708],[127.4082,37.9708],[127.40826,37.97074],[127.40827,37.97069],[127.40833,37.97069],[127.40838,37.97075],[127.40837,37.97096],[127.40821,37.97098]]]}},{"type":"Feature","properties":{"valleyId":"nonnamgi","layer":"shadow","date":"2026-08-01","timeLocal":"18:00"},"geometry":{"type":"Polygon","coordinates":[[[127.40855,37.97033],[127.40855,37.97026],[127.40864,37.97026],[127.40864,37.97032],[127.40855,37.97033]]]}},{"type":"Feature","properties":{"valleyId":"nonnamgi","layer":"shadow","date":"2026-08-01","timeLocal":"18:00"},"geometry":{"type":"Polygon","coordinates":[[[127.40823,37.97026],[127.40823,37.9702],[127.4083,37.9702],[127.4083,37.97026],[127.40823,37.97026]]]}},{"type":"Feature","properties":{"valleyId":"nonnamgi","layer":"shadow","date":"2026-08-01","timeLocal":"18:00"},"geometry":{"type":"Polygon","coordinates":[[[127.40845,37.97067],[127.40841,37.97058],[127.40829,37.97058],[127.40825,37.97053],[127.40807,37.97049],[127.40804,37.97045],[127.40784,37.97045],[127.40784,37.9704],[127.40768,37.97041],[127.40764,37.97032],[127.4075,37.97034],[127.40728,37.97019],[127.40705,37.97019],[127.40693,37.97013],[127.40675,37.97013],[127.40671,37.97007],[127.40671,37.96995],[127.4068,37.96993],[127.40689,37.97],[127.40703,37.97004],[127.4073,37.97006],[127.40735,37.9701],[127.40741,37.9701],[127.4075,37.97019],[127.40768,37.9702],[127.40773,37.97029],[127.40814,37.97035],[127.40816,37.9704],[127.40823,37.97042],[127.40827,37.97047],[127.40836,37.97047],[127.40838,37.97051],[127.4085,37.97051],[127.4085,37.97055],[127.40854,37.97055],[127.40854,37.97068],[127.40845,37.97067]]]}},{"type":"Feature","properties":{"valleyId":"nonnamgi","layer":"shadow","date":"2026-08-01","timeLocal":"18:00"},"geometry":{"type":"Polygon","coordinates":[[[127.40928,37.97004],[127.40928,37.96996],[127.40922,37.96996],[127.40922,37.96991],[127.40931,37.96991],[127.40931,37.96995],[127.40938,37.96995],[127.40935,37.97004],[127.40928,37.97004]]]}},{"type":"Feature","properties":{"valleyId":"nonnamgi","layer":"shadow","date":"2026-08-01","timeLocal":"18:00"},"geometry":{"type":"Polygon","coordinates":[[[127.40865,37.96994],[127.40867,37.96979],[127.40885,37.9698],[127.40886,37.96976],[127.40904,37.96978],[127.40904,37.96983],[127.40892,37.96985],[127.40892,37.96989],[127.40878,37.96989],[127.40878,37.96992],[127.40865,37.96994]]]}},{"type":"Feature","properties":{"valleyId":"nonnamgi","layer":"shadow","date":"2026-08-01","timeLocal":"18:00"},"geometry":{"type":"Polygon","coordinates":[[[127.4153,37.96976],[127.4153,37.96969],[127.41541,37.96969],[127.41541,37.96974],[127.4153,37.96976]]]}},{"type":"Feature","properties":{"valleyId":"nonnamgi","layer":"shadow","date":"2026-08-01","timeLocal":"18:00"},"geometry":{"type":"Polygon","coordinates":[[[127.40784,37.9702],[127.4078,37.97018],[127.4078,37.97012],[127.40785,37.97011],[127.40787,37.96998],[127.40801,37.96993],[127.40801,37.96978],[127.40794,37.96975],[127.40795,37.96968],[127.40806,37.96964],[127.40806,37.96952],[127.4082,37.96952],[127.40822,37.96961],[127.40836,37.96961],[127.40838,37.9697],[127.40845,37.96974],[127.40844,37.96983],[127.40821,37.96991],[127.40821,37.97],[127.4081,37.97004],[127.40807,37.97009],[127.40798,37.97013],[127.40798,37.9702],[127.40784,37.9702]]]}},{"type":"Feature","properties":{"valleyId":"nonnamgi","layer":"shadow","date":"2026-08-01","timeLocal":"18:00"},"geometry":{"type":"Polygon","coordinates":[[[127.41181,37.97018],[127.41177,37.96996],[127.41181,37.96993],[127.41186,37.96978],[127.41189,37.96951],[127.41196,37.96951],[127.41197,37.96996],[127.41192,37.96998],[127.41192,37.97009],[127.41188,37.97013],[127.41187,37.97018],[127.41181,37.97018]]]}},{"type":"Feature","properties":{"valleyId":"nonnamgi","layer":"shadow","date":"2026-08-01","timeLocal":"18:00"},"geometry":{"type":"Polygon","coordinates":[[[127.41271,37.96954],[127.41271,37.96947],[127.4128,37.96945],[127.41278,37.96954],[127.41271,37.96954]]]}},{"type":"Feature","properties":{"valleyId":"nonnamgi","layer":"shadow","date":"2026-08-01","timeLocal":"18:00"},"geometry":{"type":"Polygon","coordinates":[[[127.42218,37.96951],[127.42218,37.96945],[127.42225,37.96945],[127.42225,37.96951],[127.42218,37.96951]]]}},{"type":"Feature","properties":{"valleyId":"nonnamgi","layer":"shadow","date":"2026-08-01","timeLocal":"18:00"},"geometry":{"type":"Polygon","coordinates":[[[127.41209,37.96952],[127.4121,37.96935],[127.41214,37.96934],[127.41217,37.96926],[127.4123,37.96928],[127.4123,37.96939],[127.41223,37.96943],[127.41221,37.9695],[127.41209,37.96952]]]}},{"type":"Feature","properties":{"valleyId":"nonnamgi","layer":"shadow","date":"2026-08-01","timeLocal":"18:00"},"geometry":{"type":"Polygon","coordinates":[[[127.42136,37.96935],[127.42137,37.96926],[127.42153,37.96926],[127.4215,37.96935],[127.42136,37.96935]]]}},{"type":"Feature","properties":{"valleyId":"nonnamgi","layer":"shadow","date":"2026-08-01","timeLocal":"18:00"},"geometry":{"type":"Polygon","coordinates":[[[127.4115,37.96962],[127.4113,37.96945],[127.41128,37.96932],[127.41121,37.96929],[127.41121,37.96909],[127.41128,37.96909],[127.41131,37.96913],[127.4113,37.96927],[127.41139,37.96931],[127.41139,37.96942],[127.41168,37.96949],[127.41168,37.96956],[127.41164,37.96956],[127.41159,37.96962],[127.4115,37.96962]]]}},{"type":"Feature","properties":{"valleyId":"nonnamgi","layer":"shadow","date":"2026-08-01","timeLocal":"18:00"},"geometry":{"type":"Polygon","coordinates":[[[127.42218,37.9694],[127.42219,37.96925],[127.42228,37.96924],[127.42225,37.9694],[127.42218,37.9694]]]}},{"type":"Feature","properties":{"valleyId":"nonnamgi","layer":"shadow","date":"2026-08-01","timeLocal":"18:00"},"geometry":{"type":"Polygon","coordinates":[[[127.41576,37.96935],[127.4157,37.96931],[127.41567,37.96922],[127.41552,37.96915],[127.41552,37.96908],[127.4159,37.9691],[127.41585,37.96933],[127.41576,37.96935]]]}},{"type":"Feature","properties":{"valleyId":"nonnamgi","layer":"shadow","date":"2026-08-01","timeLocal":"18:00"},"geometry":{"type":"Polygon","coordinates":[[[127.41527,37.96914],[127.4152,37.96912],[127.4152,37.96907],[127.41543,37.96909],[127.41543,37.96915],[127.41527,37.96914]]]}},{"type":"Feature","properties":{"valleyId":"nonnamgi","layer":"shadow","date":"2026-08-01","timeLocal":"18:00"},"geometry":{"type":"Polygon","coordinates":[[[127.42198,37.96923],[127.42201,37.96914],[127.42207,37.96915],[127.42207,37.96924],[127.42198,37.96923]]]}},{"type":"Feature","properties":{"valleyId":"nonnamgi","layer":"shadow","date":"2026-08-01","timeLocal":"18:00"},"geometry":{"type":"Polygon","coordinates":[[[127.42247,37.96975],[127.42243,37.96965],[127.42236,37.96964],[127.42236,37.96958],[127.42229,37.96958],[127.42229,37.96953],[127.42236,37.96953],[127.42236,37.96956],[127.42252,37.96957],[127.42254,37.9696],[127.42263,37.9696],[127.42264,37.96951],[127.42273,37.96951],[127.42273,37.96946],[127.42298,37.96948],[127.42298,37.96941],[127.42284,37.9693],[127.42269,37.96924],[127.42267,37.96917],[127.42292,37.96914],[127.42328,37.96914],[127.42328,37.9692],[127.42355,37.9692],[127.42355,37.96927],[127.42325,37.96949],[127.42321,37.96948],[127.42304,37.96959],[127.42268,37.96973],[127.42247,37.96975]]]}},{"type":"Feature","properties":{"valleyId":"nonnamgi","layer":"shadow","date":"2026-08-01","timeLocal":"18:00"},"geometry":{"type":"Polygon","coordinates":[[[127.41616,37.9691],[127.41616,37.96903],[127.41623,37.96903],[127.41622,37.9691],[127.41616,37.9691]]]}},{"type":"Feature","properties":{"valleyId":"nonnamgi","layer":"shadow","date":"2026-08-01","timeLocal":"18:00"},"geometry":{"type":"Polygon","coordinates":[[[127.41891,37.96919],[127.41852,37.96912],[127.4185,37.96903],[127.41866,37.96905],[127.41866,37.96908],[127.41873,37.9691],[127.41898,37.9691],[127.41898,37.96919],[127.41891,37.96919]]]}},{"type":"Feature","properties":{"valleyId":"nonnamgi","layer":"shadow","date":"2026-08-01","timeLocal":"18:00"},"geometry":{"type":"Polygon","coordinates":[[[127.41589,37.96895],[127.41589,37.9689],[127.41595,37.9689],[127.41595,37.96895],[127.41589,37.96895]]]}},{"type":"Feature","properties":{"valleyId":"nonnamgi","layer":"shadow","date":"2026-08-01","timeLocal":"18:00"},"geometry":{"type":"Polygon","coordinates":[[[127.42274,37.96906],[127.42271,37.96899],[127.42281,37.96899],[127.4228,37.96907],[127.42274,37.96906]]]}},{"type":"Feature","properties":{"valleyId":"nonnamgi","layer":"shadow","date":"2026-08-01","timeLocal":"18:00"},"geometry":{"type":"Polygon","coordinates":[[[127.41129,37.96895],[127.41127,37.96882],[127.41136,37.96882],[127.41135,37.96895],[127.41129,37.96895]]]}},{"type":"Feature","properties":{"valleyId":"nonnamgi","layer":"shadow","date":"2026-08-01","timeLocal":"18:00"},"geometry":{"type":"Polygon","coordinates":[[[127.41208,37.9689],[127.41209,37.96881],[127.41215,37.96881],[127.41215,37.9689],[127.41208,37.9689]]]}},{"type":"Feature","properties":{"valleyId":"nonnamgi","layer":"shadow","date":"2026-08-01","timeLocal":"18:00"},"geometry":{"type":"Polygon","coordinates":[[[127.41315,37.96892],[127.41316,37.96881],[127.41325,37.96881],[127.41325,37.96892],[127.41315,37.96892]]]}},{"type":"Feature","properties":{"valleyId":"nonnamgi","layer":"shadow","date":"2026-08-01","timeLocal":"18:00"},"geometry":{"type":"Polygon","coordinates":[[[127.41976,37.96897],[127.41976,37.9689],[127.41983,37.9689],[127.41982,37.96897],[127.41976,37.96897]]]}},{"type":"Feature","properties":{"valleyId":"nonnamgi","layer":"shadow","date":"2026-08-01","timeLocal":"18:00"},"geometry":{"type":"Polygon","coordinates":[[[127.42183,37.96896],[127.42183,37.96891],[127.4219,37.96891],[127.4219,37.96896],[127.42183,37.96896]]]}},{"type":"Feature","properties":{"valleyId":"nonnamgi","layer":"shadow","date":"2026-08-01","timeLocal":"18:00"},"geometry":{"type":"Polygon","coordinates":[[[127.42292,37.96898],[127.42292,37.96887],[127.42315,37.96889],[127.42315,37.96894],[127.42292,37.96898]]]}},{"type":"Feature","properties":{"valleyId":"nonnamgi","layer":"shadow","date":"2026-08-01","timeLocal":"18:00"},"geometry":{"type":"Polygon","coordinates":[[[127.4114,37.96879],[127.41141,37.96871],[127.41147,37.96871],[127.41147,37.96879],[127.4114,37.96879]]]}},{"type":"Feature","properties":{"valleyId":"nonnamgi","layer":"shadow","date":"2026-08-01","timeLocal":"18:00"},"geometry":{"type":"Polygon","coordinates":[[[127.41177,37.96875],[127.41177,37.9687],[127.41184,37.9687],[127.41184,37.96876],[127.41177,37.96875]]]}},{"type":"Feature","properties":{"valleyId":"nonnamgi","layer":"shadow","date":"2026-08-01","timeLocal":"18:00"},"geometry":{"type":"Polygon","coordinates":[[[127.41675,37.96884],[127.41673,37.9687],[127.41682,37.96868],[127.41682,37.96884],[127.41675,37.96884]]]}},{"type":"Feature","properties":{"valleyId":"nonnamgi","layer":"shadow","date":"2026-08-01","timeLocal":"18:00"},"geometry":{"type":"Polygon","coordinates":[[[127.41111,37.96869],[127.41111,37.9686],[127.41118,37.9686],[127.41118,37.96869],[127.41111,37.96869]]]}},{"type":"Feature","properties":{"valleyId":"nonnamgi","layer":"shadow","date":"2026-08-01","timeLocal":"18:00"},"geometry":{"type":"Polygon","coordinates":[[[127.41495,37.96909],[127.41493,37.96905],[127.41488,37.96905],[127.41489,37.96887],[127.41498,37.96878],[127.41498,37.96867],[127.41503,37.96864],[127.4151,37.96864],[127.41509,37.96878],[127.415,37.96883],[127.41506,37.96909],[127.41495,37.96909]]]}},{"type":"Feature","properties":{"valleyId":"nonnamgi","layer":"shadow","date":"2026-08-01","timeLocal":"18:00"},"geometry":{"type":"Polygon","coordinates":[[[127.41965,37.96881],[127.41965,37.9687],[127.41972,37.9687],[127.41974,37.96881],[127.41965,37.96881]]]}},{"type":"Feature","properties":{"valleyId":"nonnamgi","layer":"shadow","date":"2026-08-01","timeLocal":"18:00"},"geometry":{"type":"Polygon","coordinates":[[[127.41528,37.96868],[127.41528,37.96862],[127.41532,37.96859],[127.41539,37.96859],[127.41539,37.96864],[127.41534,37.96868],[127.41528,37.96868]]]}},{"type":"Feature","properties":{"valleyId":"nonnamgi","layer":"shadow","date":"2026-08-01","timeLocal":"18:00"},"geometry":{"type":"Polygon","coordinates":[[[127.42249,37.96877],[127.42249,37.96866],[127.42256,37.96867],[127.42258,37.96876],[127.42249,37.96877]]]}},{"type":"Feature","properties":{"valleyId":"nonnamgi","layer":"shadow","date":"2026-08-01","timeLocal":"18:00"},"geometry":{"type":"Polygon","coordinates":[[[127.41728,37.96868],[127.41728,37.96856],[127.41758,37.96856],[127.41758,37.96862],[127.41728,37.96868]]]}},{"type":"Feature","properties":{"valleyId":"nonnamgi","layer":"shadow","date":"2026-08-01","timeLocal":"18:00"},"geometry":{"type":"Polygon","coordinates":[[[127.41639,37.969],[127.41639,37.96894],[127.41625,37.96894],[127.41628,37.96867],[127.41623,37.96865],[127.41623,37.9686],[127.4163,37.96856],[127.4163,37.96853],[127.4164,37.96851],[127.41642,37.96847],[127.41651,37.96848],[127.41651,37.96853],[127.41646,37.96853],[127.41646,37.96862],[127.41653,37.96862],[127.41653,37.96875],[127.41666,37.96877],[127.41666,37.96882],[127.41653,37.96884],[127.41655,37.96898],[127.41639,37.969]]]}},{"type":"Feature","properties":{"valleyId":"nonnamgi","layer":"shadow","date":"2026-08-01","timeLocal":"18:00"},"geometry":{"type":"Polygon","coordinates":[[[127.41084,37.96847],[127.41082,37.96838],[127.41091,37.96838],[127.41093,37.96845],[127.41084,37.96847]]]}},{"type":"Feature","properties":{"valleyId":"nonnamgi","layer":"shadow","date":"2026-08-01","timeLocal":"18:00"},"geometry":{"type":"Polygon","coordinates":[[[127.4237,37.96859],[127.4237,37.96854],[127.42377,37.96854],[127.42377,37.96859],[127.4237,37.96859]]]}},{"type":"Feature","properties":{"valleyId":"nonnamgi","layer":"shadow","date":"2026-08-01","timeLocal":"18:00"},"geometry":{"type":"Polygon","coordinates":[[[127.42126,37.96977],[127.42079,37.96961],[127.42079,37.96956],[127.42068,37.96956],[127.42065,37.96952],[127.42056,37.9695],[127.4205,37.96941],[127.42041,37.96941],[127.42029,37.96932],[127.42007,37.9693],[127.42007,37.96919],[127.42032,37.96918],[127.42035,37.96903],[127.42026,37.96903],[127.42025,37.96907],[127.42014,37.96907],[127.42012,37.96894],[127.41999,37.96888],[127.41994,37.96879],[127.41987,37.96879],[127.41985,37.96872],[127.41981,37.96872],[127.41981,37.96866],[127.42003,37.96869],[127.42008,37.96872],[127.42015,37.96872],[127.42019,37.96878],[127.42026,37.96878],[127.42031,37.96876],[127.42031,37.96869],[127.42015,37.96861],[127.42015,37.96858],[127.42008,37.96854],[127.42008,37.96849],[127.42086,37.96848],[127.42086,37.96853],[127.42079,37.96855],[127.42079,37.96859],[127.4207,37.9686],[127.42069,37.96873],[127.42074,37.96878],[127.42081,37.96879],[127.42083,37.96891],[127.42078,37.96891],[127.42078,37.96897],[127.42055,37.96898],[127.42055,37.96903],[127.42073,37.96902],[127.42073,37.96898],[127.4208,37.96898],[127.42085,37.96904],[127.42101,37.96904],[127.42101,37.96909],[127.42094,37.96909],[127.42094,37.96913],[127.42082,37.96913],[127.42082,37.96922],[127.42089,37.96924],[127.42089,37.96929],[127.42082,37.96929],[127.42082,37.96934],[127.42104,37.96937],[127.42105,37.96928],[127.42123,37.96928],[127.4212,37.96939],[127.42125,37.9694],[127.42125,37.96946],[127.42134,37.96955],[127.42133,37.96977],[127.42126,37.96977]],[[127.42036,37.9686],[127.42042,37.9686],[127.42042,37.96855],[127.42036,37.96855],[127.42036,37.9686]]]}},{"type":"Feature","properties":{"valleyId":"nonnamgi","layer":"shadow","date":"2026-08-01","timeLocal":"18:00"},"geometry":{"type":"Polygon","coordinates":[[[127.41894,37.9689],[127.41896,37.9688],[127.41894,37.96876],[127.41885,37.96874],[127.41883,37.96858],[127.41878,37.96858],[127.41876,37.96847],[127.41886,37.96847],[127.41888,37.96853],[127.41899,37.96853],[127.41899,37.96842],[127.41922,37.96842],[127.41922,37.96848],[127.41917,37.96849],[127.41917,37.9686],[127.41913,37.9686],[127.41912,37.96867],[127.41906,37.96869],[127.41905,37.96891],[127.41894,37.9689]]]}},{"type":"Feature","properties":{"valleyId":"nonnamgi","layer":"shadow","date":"2026-08-01","timeLocal":"18:00"},"geometry":{"type":"Polygon","coordinates":[[[127.42138,37.96845],[127.42138,37.96838],[127.42145,37.96838],[127.42145,37.96845],[127.42138,37.96845]]]}},{"type":"Feature","properties":{"valleyId":"nonnamgi","layer":"shadow","date":"2026-08-01","timeLocal":"18:00"},"geometry":{"type":"Polygon","coordinates":[[[127.42081,37.96846],[127.42082,37.96835],[127.42095,37.96837],[127.42095,37.96843],[127.4209,37.96846],[127.42081,37.96846]]]}},{"type":"Feature","properties":{"valleyId":"nonnamgi","layer":"shadow","date":"2026-08-01","timeLocal":"18:00"},"geometry":{"type":"Polygon","coordinates":[[[127.41403,37.9683],[127.41403,37.96824],[127.4141,37.96825],[127.4141,37.9683],[127.41403,37.9683]]]}},{"type":"Feature","properties":{"valleyId":"nonnamgi","layer":"shadow","date":"2026-08-01","timeLocal":"18:00"},"geometry":{"type":"Polygon","coordinates":[[[127.40933,37.96982],[127.40941,37.96959],[127.40945,37.96953],[127.4095,37.96953],[127.4095,37.96939],[127.40955,37.96936],[127.40957,37.96916],[127.40946,37.96903],[127.40921,37.96908],[127.40919,37.96913],[127.40912,37.96913],[127.40912,37.96904],[127.40919,37.96903],[127.40931,37.9689],[127.40931,37.96865],[127.40924,37.96859],[127.40925,37.96852],[127.40932,37.96847],[127.40932,37.96836],[127.40939,37.96831],[127.40941,37.96824],[127.40946,37.9682],[127.40953,37.9682],[127.40955,37.96827],[127.40959,37.96827],[127.40968,37.96835],[127.40968,37.96867],[127.40979,37.96869],[127.40993,37.96864],[127.40993,37.9686],[127.41025,37.96857],[127.41032,37.96852],[127.41043,37.9685],[127.41041,37.96841],[127.41018,37.96841],[127.41016,37.96832],[127.41039,37.9683],[127.41041,37.96825],[127.41048,37.96825],[127.41057,37.96818],[127.41064,37.96818],[127.41064,37.96823],[127.41073,37.96825],[127.41073,37.96829],[127.4108,37.96833],[127.4108,37.96838],[127.41073,37.9684],[127.41075,37.96852],[127.4107,37.96852],[127.4107,37.96858],[127.41077,37.9686],[127.41077,37.96869],[127.41068,37.9687],[127.41065,37.96876],[127.41061,37.96876],[127.41058,37.96879],[127.41058,37.96903],[127.41042,37.96902],[127.41042,37.96908],[127.41037,37.96908],[127.4103,37.96919],[127.41023,37.9692],[127.41023,37.96929],[127.41014,37.96931],[127.41009,37.96943],[127.41002,37.96945],[127.41002,37.96949],[127.40998,37.96949],[127.40995,37.96954],[127.40984,37.96956],[127.40979,37.96966],[127.40974,37.9697],[127.40968,37.9697],[127.40968,37.96975],[127.40961,37.96981],[127.40933,37.96982]],[[127.40952,37.96963],[127.40961,37.96961],[127.40961,37.96954],[127.40952,37.96953],[127.40952,37.96963]],[[127.40973,37.9695],[127.40979,37.9695],[127.40977,37.96943],[127.4097,37.96943],[127.40973,37.9695]],[[127.4098,37.96927],[127.40989,37.96927],[127.40991,37.96923],[127.40996,37.96923],[127.41001,37.96915],[127.41012,37.96913],[127.4101,37.969],[127.41015,37.96897],[127.41015,37.96891],[127.41003,37.96891],[127.40997,37.96896],[127.40994,37.96904],[127.4098,37.96912],[127.4098,37.96927]]]}},{"type":"Feature","properties":{"valleyId":"nonnamgi","layer":"shadow","date":"2026-08-01","timeLocal":"18:00"},"geometry":{"type":"Polygon","coordinates":[[[127.42255,37.96841],[127.42255,37.96834],[127.42264,37.96834],[127.42264,37.96841],[127.42255,37.96841]]]}},{"type":"Feature","properties":{"valleyId":"nonnamgi","layer":"shadow","date":"2026-08-01","timeLocal":"18:00"},"geometry":{"type":"Polygon","coordinates":[[[127.41435,37.96828],[127.41435,37.96821],[127.41442,37.96821],[127.41442,37.96829],[127.41435,37.96828]]]}},{"type":"Feature","properties":{"valleyId":"nonnamgi","layer":"shadow","date":"2026-08-01","timeLocal":"18:00"},"geometry":{"type":"Polygon","coordinates":[[[127.4141,37.96825],[127.4141,37.96819],[127.41422,37.96817],[127.41422,37.96823],[127.4141,37.96825]]]}},{"type":"Feature","properties":{"valleyId":"nonnamgi","layer":"shadow","date":"2026-08-01","timeLocal":"18:00"},"geometry":{"type":"Polygon","coordinates":[[[127.41433,37.96819],[127.41433,37.96812],[127.4144,37.96812],[127.4144,37.96819],[127.41433,37.96819]]]}},{"type":"Feature","properties":{"valleyId":"nonnamgi","layer":"shadow","date":"2026-08-01","timeLocal":"18:00"},"geometry":{"type":"Polygon","coordinates":[[[127.42075,37.96824],[127.42075,37.96819],[127.42082,37.96819],[127.42082,37.96825],[127.42075,37.96824]]]}},{"type":"Feature","properties":{"valleyId":"nonnamgi","layer":"shadow","date":"2026-08-01","timeLocal":"18:00"},"geometry":{"type":"Polygon","coordinates":[[[127.41714,37.96886],[127.41705,37.96883],[127.41707,37.9687],[127.41701,37.96861],[127.41683,37.96861],[127.41681,37.96848],[127.4166,37.96846],[127.4166,37.96842],[127.41654,37.96837],[127.41651,37.96826],[127.41645,37.96822],[127.41645,37.96817],[127.41668,37.96815],[127.41668,37.9681],[127.41684,37.96814],[127.41711,37.96814],[127.41713,37.96825],[127.41704,37.96825],[127.41702,37.96828],[127.41697,37.96828],[127.41692,37.96832],[127.41692,37.96841],[127.41699,37.96843],[127.41699,37.96846],[127.41712,37.96859],[127.41714,37.96872],[127.41728,37.9687],[127.41728,37.96877],[127.41723,37.96877],[127.41723,37.96886],[127.41714,37.96886]]]}},{"type":"Feature","properties":{"valleyId":"nonnamgi","layer":"shadow","date":"2026-08-01","timeLocal":"18:00"},"geometry":{"type":"Polygon","coordinates":[[[127.42128,37.96886],[127.42131,37.96877],[127.42138,37.96874],[127.4214,37.96863],[127.42154,37.96858],[127.42154,37.96849],[127.42168,37.96851],[127.42172,37.96847],[127.42173,37.9684],[127.42182,37.9684],[127.42182,37.96831],[127.42175,37.96829],[127.42175,37.96826],[127.42155,37.96826],[127.42155,37.96818],[127.42173,37.96819],[127.42175,37.96824],[127.42193,37.96826],[127.42196,37.96817],[127.42203,37.96817],[127.42202,37.96833],[127.42193,37.96835],[127.42193,37.96846],[127.42182,37.96847],[127.42177,37.96855],[127.42165,37.96858],[127.42158,37.96863],[127.42158,37.96871],[127.42144,37.96883],[127.42128,37.96886]]]}},{"type":"Feature","properties":{"valleyId":"nonnamgi","layer":"shadow","date":"2026-08-01","timeLocal":"18:00"},"geometry":{"type":"Polygon","coordinates":[[[127.40987,37.96803],[127.40985,37.96795],[127.40992,37.96795],[127.40994,37.96803],[127.40987,37.96803]]]}},{"type":"Feature","properties":{"valleyId":"nonnamgi","layer":"shadow","date":"2026-08-01","timeLocal":"18:00"},"geometry":{"type":"Polygon","coordinates":[[[127.42057,37.96819],[127.4205,37.96817],[127.42048,37.96806],[127.42062,37.96808],[127.42064,37.96819],[127.42057,37.96819]]]}},{"type":"Feature","properties":{"valleyId":"nonnamgi","layer":"shadow","date":"2026-08-01","timeLocal":"18:00"},"geometry":{"type":"Polygon","coordinates":[[[127.40833,37.96876],[127.40833,37.96856],[127.40843,37.96855],[127.40845,37.96848],[127.4085,37.96846],[127.4085,37.96837],[127.40845,37.96837],[127.40843,37.96828],[127.40836,37.96824],[127.40837,37.9681],[127.40844,37.96792],[127.40849,37.96788],[127.40855,37.96788],[127.40855,37.96803],[127.40848,37.9681],[127.40848,37.96817],[127.40855,37.96822],[127.40859,37.96833],[127.40877,37.96837],[127.40877,37.96843],[127.4087,37.96855],[127.40856,37.96857],[127.40847,37.96864],[127.40844,37.96875],[127.40833,37.96876]]]}},{"type":"Feature","properties":{"valleyId":"nonnamgi","layer":"shadow","date":"2026-08-01","timeLocal":"18:00"},"geometry":{"type":"Polygon","coordinates":[[[127.41085,37.96813],[127.41085,37.96807],[127.4109,37.96804],[127.41099,37.96804],[127.41099,37.96791],[127.41108,37.96792],[127.4111,37.96795],[127.41126,37.96794],[127.41126,37.96801],[127.4111,37.96801],[127.41108,37.9681],[127.41085,37.96813]]]}},{"type":"Feature","properties":{"valleyId":"nonnamgi","layer":"shadow","date":"2026-08-01","timeLocal":"18:00"},"geometry":{"type":"Polygon","coordinates":[[[127.41606,37.96807],[127.41607,37.96798],[127.41616,37.96798],[127.41616,37.96806],[127.41606,37.96807]]]}},{"type":"Feature","properties":{"valleyId":"nonnamgi","layer":"shadow","date":"2026-08-01","timeLocal":"18:00"},"geometry":{"type":"Polygon","coordinates":[[[127.42203,37.9681],[127.42203,37.96805],[127.4221,37.96805],[127.4221,37.9681],[127.42203,37.9681]]]}},{"type":"Feature","properties":{"valleyId":"nonnamgi","layer":"shadow","date":"2026-08-01","timeLocal":"18:00"},"geometry":{"type":"Polygon","coordinates":[[[127.41923,37.96884],[127.41924,37.96878],[127.4193,37.96878],[127.41931,37.96869],[127.41935,37.96869],[127.41942,37.96862],[127.41942,37.9685],[127.41956,37.96848],[127.41956,37.96835],[127.41952,37.96834],[127.41952,37.96825],[127.41961,37.96818],[127.41962,37.96807],[127.41966,37.96805],[127.41966,37.96798],[127.41975,37.96798],[127.41975,37.96809],[127.41984,37.96809],[127.41984,37.96814],[127.41975,37.96819],[127.41968,37.96819],[127.41968,37.96825],[127.41977,37.96825],[127.41977,37.96829],[127.41986,37.9683],[127.41986,37.96836],[127.41981,37.96836],[127.41981,37.96839],[127.41972,37.96839],[127.41974,37.96857],[127.41967,37.96857],[127.41967,37.96863],[127.41951,37.96864],[127.41947,37.96868],[127.41946,37.96875],[127.41942,37.96875],[127.41935,37.96884],[127.41923,37.96884]]]}},{"type":"Feature","properties":{"valleyId":"nonnamgi","layer":"shadow","date":"2026-08-01","timeLocal":"18:00"},"geometry":{"type":"Polygon","coordinates":[[[127.41645,37.9681],[127.41648,37.96792],[127.41668,37.96792],[127.41668,37.96796],[127.41675,37.96796],[127.41675,37.96803],[127.41668,37.96803],[127.41668,37.96806],[127.41645,37.9681]]]}},{"type":"Feature","properties":{"valleyId":"nonnamgi","layer":"shadow","date":"2026-08-01","timeLocal":"18:00"},"geometry":{"type":"Polygon","coordinates":[[[127.42185,37.96811],[127.42185,37.96804],[127.42192,37.96804],[127.42192,37.96799],[127.42199,37.96799],[127.42198,37.96806],[127.42194,37.96806],[127.42191,37.96812],[127.42185,37.96811]]]}},{"type":"Feature","properties":{"valleyId":"nonnamgi","layer":"shadow","date":"2026-08-01","timeLocal":"18:00"},"geometry":{"type":"Polygon","coordinates":[[[127.41625,37.96802],[127.41623,37.96791],[127.41636,37.96792],[127.41632,37.96802],[127.41625,37.96802]]]}},{"type":"Feature","properties":{"valleyId":"nonnamgi","layer":"shadow","date":"2026-08-01","timeLocal":"18:00"},"geometry":{"type":"Polygon","coordinates":[[[127.41124,37.96785],[127.41124,37.96779],[127.4114,37.96776],[127.4114,37.96785],[127.41124,37.96785]]]}},{"type":"Feature","properties":{"valleyId":"nonnamgi","layer":"shadow","date":"2026-08-01","timeLocal":"18:00"},"geometry":{"type":"Polygon","coordinates":[[[127.42078,37.96808],[127.42075,37.96803],[127.42066,37.96799],[127.42064,37.96788],[127.42083,37.9679],[127.42084,37.96808],[127.42078,37.96808]]]}},{"type":"Feature","properties":{"valleyId":"nonnamgi","layer":"shadow","date":"2026-08-01","timeLocal":"18:00"},"geometry":{"type":"Polygon","coordinates":[[[127.41551,37.96857],[127.41551,37.9685],[127.41555,37.96846],[127.41554,37.9683],[127.41565,37.96828],[127.41568,37.96805],[127.41563,37.96803],[127.41563,37.96796],[127.41557,37.96794],[127.41559,37.96772],[127.41566,37.96773],[127.41568,37.96791],[127.41575,37.968],[127.41584,37.968],[127.41583,37.96812],[127.41593,37.96813],[127.41595,37.96823],[127.41576,37.96827],[127.41576,37.96832],[127.41583,37.96832],[127.41583,37.96841],[127.41567,37.96855],[127.41551,37.96857]]]}},{"type":"Feature","properties":{"valleyId":"nonnamgi","layer":"shadow","date":"2026-08-01","timeLocal":"18:00"},"geometry":{"type":"Polygon","coordinates":[[[127.41671,37.96788],[127.41671,37.96783],[127.41682,37.96774],[127.41696,37.96772],[127.41696,37.96778],[127.41689,37.9678],[127.41689,37.96783],[127.41684,37.96783],[127.41677,37.96788],[127.41671,37.96788]]]}},{"type":"Feature","properties":{"valleyId":"nonnamgi","layer":"shadow","date":"2026-08-01","timeLocal":"18:00"},"geometry":{"type":"Polygon","coordinates":[[[127.42315,37.96786],[127.42315,37.96781],[127.42322,37.96781],[127.42322,37.96786],[127.42315,37.96786]]]}},{"type":"Feature","properties":{"valleyId":"nonnamgi","layer":"shadow","date":"2026-08-01","timeLocal":"18:00"},"geometry":{"type":"Polygon","coordinates":[[[127.41516,37.96772],[127.41516,37.96766],[127.41523,37.96767],[127.41523,37.96772],[127.41516,37.96772]]]}},{"type":"Feature","properties":{"valleyId":"nonnamgi","layer":"shadow","date":"2026-08-01","timeLocal":"18:00"},"geometry":{"type":"Polygon","coordinates":[[[127.42283,37.96782],[127.42283,37.96777],[127.4229,37.96777],[127.4229,37.96782],[127.42283,37.96782]]]}},{"type":"Feature","properties":{"valleyId":"nonnamgi","layer":"shadow","date":"2026-08-01","timeLocal":"18:00"},"geometry":{"type":"Polygon","coordinates":[[[127.4173,37.96798],[127.4173,37.96795],[127.41725,37.96794],[127.41723,37.96791],[127.41723,37.9678],[127.4173,37.96778],[127.4173,37.96773],[127.41737,37.96766],[127.41744,37.96766],[127.41741,37.9678],[127.4175,37.9678],[127.4175,37.96786],[127.41739,37.96787],[127.41736,37.96798],[127.4173,37.96798]]]}},{"type":"Feature","properties":{"valleyId":"nonnamgi","layer":"shadow","date":"2026-08-01","timeLocal":"18:00"},"geometry":{"type":"Polygon","coordinates":[[[127.41937,37.96779],[127.41935,37.96768],[127.41955,37.96771],[127.41953,37.96778],[127.41937,37.96779]]]}},{"type":"Feature","properties":{"valleyId":"nonnamgi","layer":"shadow","date":"2026-08-01","timeLocal":"18:00"},"geometry":{"type":"Polygon","coordinates":[[[127.41908,37.9677],[127.41908,37.96763],[127.41917,37.96763],[127.41917,37.96768],[127.41908,37.9677]]]}},{"type":"Feature","properties":{"valleyId":"nonnamgi","layer":"shadow","date":"2026-08-01","timeLocal":"18:00"},"geometry":{"type":"Polygon","coordinates":[[[127.42292,37.96773],[127.42293,37.96768],[127.42306,37.96768],[127.42306,37.96773],[127.42292,37.96773]]]}},{"type":"Feature","properties":{"valleyId":"nonnamgi","layer":"shadow","date":"2026-08-01","timeLocal":"18:00"},"geometry":{"type":"Polygon","coordinates":[[[127.41714,37.96769],[127.4171,37.96764],[127.4171,37.96756],[127.41726,37.96758],[127.41726,37.96766],[127.41721,37.96769],[127.41714,37.96769]]]}},{"type":"Feature","properties":{"valleyId":"nonnamgi","layer":"shadow","date":"2026-08-01","timeLocal":"18:00"},"geometry":{"type":"Polygon","coordinates":[[[127.42356,37.96767],[127.42356,37.96758],[127.42361,37.96754],[127.42368,37.96754],[127.42368,37.96763],[127.42363,37.96763],[127.42363,37.96767],[127.42356,37.96767]]]}},{"type":"Feature","properties":{"valleyId":"nonnamgi","layer":"shadow","date":"2026-08-01","timeLocal":"18:00"},"geometry":{"type":"Polygon","coordinates":[[[127.40867,37.96776],[127.4087,37.96765],[127.40877,37.96761],[127.40877,37.96751],[127.40884,37.96734],[127.40889,37.96731],[127.40898,37.96731],[127.409,37.96738],[127.40909,37.96744],[127.40909,37.96749],[127.409,37.96749],[127.40893,37.96754],[127.40881,37.96774],[127.40867,37.96776]]]}},{"type":"Feature","properties":{"valleyId":"nonnamgi","layer":"shadow","date":"2026-08-01","timeLocal":"18:00"},"geometry":{"type":"Polygon","coordinates":[[[127.41687,37.96753],[127.41687,37.96745],[127.41671,37.96743],[127.41672,37.96736],[127.4169,37.96736],[127.4169,37.96744],[127.41706,37.96744],[127.41706,37.96749],[127.41687,37.96753]]]}},{"type":"Feature","properties":{"valleyId":"nonnamgi","layer":"shadow","date":"2026-08-01","timeLocal":"18:00"},"geometry":{"type":"Polygon","coordinates":[[[127.4144,37.9681],[127.4144,37.96805],[127.41447,37.96803],[127.41454,37.96798],[127.41454,37.96793],[127.41461,37.96791],[127.41473,37.96769],[127.41482,37.96768],[127.4148,37.96748],[127.41492,37.96746],[127.41496,37.96741],[127.41503,37.96741],[127.41505,37.96737],[127.41515,37.96738],[127.41519,37.96732],[127.41533,37.96731],[127.41523,37.96754],[127.41516,37.96754],[127.41509,37.96759],[127.41509,37.96763],[127.41505,37.96763],[127.41505,37.96774],[127.41493,37.96773],[127.41489,37.96777],[127.41488,37.96786],[127.4147,37.96796],[127.4147,37.96804],[127.41458,37.96804],[127.41451,37.96811],[127.4144,37.9681]]]}},{"type":"Feature","properties":{"valleyId":"nonnamgi","layer":"shadow","date":"2026-08-01","timeLocal":"18:00"},"geometry":{"type":"Polygon","coordinates":[[[127.41899,37.96745],[127.41899,37.96736],[127.41911,37.96734],[127.41913,37.96741],[127.41908,37.96745],[127.41899,37.96745]]]}},{"type":"Feature","properties":{"valleyId":"nonnamgi","layer":"shadow","date":"2026-08-01","timeLocal":"18:00"},"geometry":{"type":"Polygon","coordinates":[[[127.41744,37.96766],[127.41746,37.96753],[127.41753,37.9675],[127.41751,37.96741],[127.41744,37.96741],[127.41744,37.96744],[127.41715,37.96746],[127.41715,37.96737],[127.41704,37.96735],[127.41704,37.96729],[127.41715,37.96729],[127.4172,37.96733],[127.41767,37.96732],[127.41763,37.96743],[127.41772,37.96743],[127.41776,37.96747],[127.41774,37.96755],[127.4176,37.96761],[127.41758,37.96766],[127.41744,37.96766]]]}},{"type":"Feature","properties":{"valleyId":"nonnamgi","layer":"shadow","date":"2026-08-01","timeLocal":"18:00"},"geometry":{"type":"Polygon","coordinates":[[[127.41947,37.96738],[127.41947,37.96733],[127.41959,37.96731],[127.41959,37.96736],[127.41947,37.96738]]]}},{"type":"Feature","properties":{"valleyId":"nonnamgi","layer":"shadow","date":"2026-08-01","timeLocal":"18:00"},"geometry":{"type":"Polygon","coordinates":[[[127.42045,37.96747],[127.42045,37.96736],[127.4204,37.96736],[127.42041,37.9673],[127.42045,37.96727],[127.42054,37.96727],[127.42054,37.96736],[127.42059,37.96738],[127.42059,37.96743],[127.42054,37.96743],[127.42054,37.96747],[127.42045,37.96747]]]}},{"type":"Feature","properties":{"valleyId":"nonnamgi","layer":"shadow","date":"2026-08-01","timeLocal":"18:00"},"geometry":{"type":"Polygon","coordinates":[[[127.4093,37.96795],[127.40928,37.96789],[127.40921,37.96789],[127.40913,37.96782],[127.40906,37.96782],[127.40906,37.96776],[127.4091,37.96774],[127.40911,37.96753],[127.40925,37.96751],[127.40924,37.96758],[127.40931,37.96762],[127.4094,37.96762],[127.4094,37.96768],[127.40947,37.96771],[127.40958,37.9677],[127.40961,37.96763],[127.40947,37.96748],[127.40925,37.96749],[127.40925,37.96744],[127.40932,37.96739],[127.4093,37.9673],[127.4092,37.9673],[127.40918,37.96726],[127.40905,37.96726],[127.40902,37.96719],[127.40923,37.96703],[127.40928,37.96703],[127.4093,37.96699],[127.40939,37.96699],[127.40951,37.96708],[127.40955,37.96708],[127.40955,37.96712],[127.4096,37.96712],[127.40964,37.96721],[127.40971,37.96725],[127.40973,37.96732],[127.40977,37.96732],[127.40979,37.96739],[127.40993,37.9674],[127.40993,37.96759],[127.41004,37.96767],[127.41004,37.96783],[127.40976,37.96779],[127.40967,37.96773],[127.4096,37.96773],[127.4096,37.96779],[127.4094,37.96777],[127.40937,37.96795],[127.4093,37.96795]]]}},{"type":"Feature","properties":{"valleyId":"nonnamgi","layer":"shadow","date":"2026-08-01","timeLocal":"18:00"},"geometry":{"type":"Polygon","coordinates":[[[127.41599,37.96717],[127.41599,37.96708],[127.41613,37.96708],[127.41613,37.96714],[127.41608,37.96717],[127.41599,37.96717]]]}},{"type":"Feature","properties":{"valleyId":"nonnamgi","layer":"shadow","date":"2026-08-01","timeLocal":"18:00"},"geometry":{"type":"Polygon","coordinates":[[[127.41779,37.96718],[127.41779,37.96711],[127.41788,37.96711],[127.41788,37.96718],[127.41779,37.96718]]]}},{"type":"Feature","properties":{"valleyId":"nonnamgi","layer":"shadow","date":"2026-08-01","timeLocal":"18:00"},"geometry":{"type":"Polygon","coordinates":[[[127.41569,37.96742],[127.41572,37.96731],[127.41569,37.96728],[127.41563,37.96727],[127.41563,37.96718],[127.41577,37.96704],[127.41584,37.96704],[127.41581,37.96713],[127.41577,37.96713],[127.41576,37.96719],[127.41572,37.9672],[127.41572,37.96726],[127.41579,37.96726],[127.41581,37.96737],[127.41576,37.96738],[127.41576,37.96742],[127.41569,37.96742]]]}},{"type":"Feature","properties":{"valleyId":"nonnamgi","layer":"shadow","date":"2026-08-01","timeLocal":"18:00"},"geometry":{"type":"Polygon","coordinates":[[[127.41759,37.96712],[127.41759,37.96707],[127.41768,37.96707],[127.41768,37.96712],[127.41759,37.96712]]]}},{"type":"Feature","properties":{"valleyId":"nonnamgi","layer":"shadow","date":"2026-08-01","timeLocal":"18:00"},"geometry":{"type":"Polygon","coordinates":[[[127.41581,37.96702],[127.41589,37.96681],[127.41598,37.96681],[127.41597,37.96697],[127.41593,37.96697],[127.4159,37.96703],[127.41581,37.96702]]]}},{"type":"Feature","properties":{"valleyId":"nonnamgi","layer":"shadow","date":"2026-08-01","timeLocal":"18:00"},"geometry":{"type":"Polygon","coordinates":[[[127.41596,37.96667],[127.41596,37.96659],[127.41603,37.96659],[127.41603,37.96667],[127.41596,37.96667]]]}},{"type":"Feature","properties":{"valleyId":"nonnamgi","layer":"shadow","date":"2026-08-01","timeLocal":"18:00"},"geometry":{"type":"Polygon","coordinates":[[[127.42313,37.96774],[127.42318,37.96754],[127.42313,37.96752],[127.42312,37.96728],[127.42323,37.96725],[127.42323,37.96711],[127.42331,37.96694],[127.42331,37.96675],[127.42333,37.96667],[127.4234,37.96668],[127.4236,37.96682],[127.4236,37.96686],[127.42378,37.96701],[127.42378,37.96704],[127.42383,37.96706],[127.42385,37.96713],[127.42394,37.96722],[127.42393,37.96731],[127.42387,37.96731],[127.42387,37.96735],[127.42382,37.96737],[127.42382,37.96751],[127.42377,37.96753],[127.42377,37.96756],[127.4237,37.96756],[127.42375,37.96742],[127.4235,37.96742],[127.42345,37.96765],[127.42324,37.96768],[127.42322,37.96774],[127.42313,37.96774]]]}},{"type":"Feature","properties":{"valleyId":"nonnamgi","layer":"shadow","date":"2026-08-01","timeLocal":"18:00"},"geometry":{"type":"Polygon","coordinates":[[[127.41552,37.9668],[127.41543,37.96677],[127.41544,37.96651],[127.41551,37.96652],[127.41555,37.96655],[127.41557,37.96675],[127.41564,37.96675],[127.41564,37.96681],[127.41552,37.9668]]]}},{"type":"Feature","properties":{"valleyId":"nonnamgi","layer":"shadow","date":"2026-08-01","timeLocal":"18:00"},"geometry":{"type":"Polygon","coordinates":[[[127.41603,37.96659],[127.41603,37.9665],[127.41614,37.96651],[127.41614,37.96656],[127.4161,37.9666],[127.41603,37.96659]]]}},{"type":"Feature","properties":{"valleyId":"nonnamgi","layer":"shadow","date":"2026-08-01","timeLocal":"18:00"},"geometry":{"type":"Polygon","coordinates":[[[127.41298,37.96744],[127.41282,37.96731],[127.41278,37.96731],[127.41274,37.96722],[127.41262,37.96716],[127.41262,37.96711],[127.41253,37.96707],[127.41251,37.967],[127.41245,37.96694],[127.41245,37.96674],[127.41227,37.96667],[127.41218,37.96645],[127.41214,37.96643],[127.41214,37.96636],[127.41223,37.96636],[127.41236,37.96647],[127.41236,37.96651],[127.41248,37.9666],[127.41254,37.9666],[127.41263,37.96669],[127.41263,37.96689],[127.41267,37.96689],[127.41267,37.96696],[127.41274,37.96704],[127.41281,37.96704],[127.41285,37.96709],[127.41296,37.96713],[127.41296,37.96718],[127.41301,37.96722],[127.41305,37.96744],[127.41298,37.96744]]]}},{"type":"Feature","properties":{"valleyId":"nonnamgi","layer":"shadow","date":"2026-08-01","timeLocal":"18:00"},"geometry":{"type":"Polygon","coordinates":[[[127.41387,37.96646],[127.41387,37.96637],[127.41396,37.96637],[127.41396,37.96644],[127.41387,37.96646]]]}},{"type":"Feature","properties":{"valleyId":"nonnamgi","layer":"shadow","date":"2026-08-01","timeLocal":"18:00"},"geometry":{"type":"Polygon","coordinates":[[[127.41612,37.96642],[127.41612,37.96636],[127.41621,37.96636],[127.41621,37.96642],[127.41612,37.96642]]]}},{"type":"Feature","properties":{"valleyId":"nonnamgi","layer":"shadow","date":"2026-08-01","timeLocal":"18:00"},"geometry":{"type":"Polygon","coordinates":[[[127.4153,37.96639],[127.41526,37.96635],[127.41526,37.9663],[127.41533,37.96626],[127.41544,37.96626],[127.41544,37.96639],[127.4153,37.96639]]]}},{"type":"Feature","properties":{"valleyId":"nonnamgi","layer":"shadow","date":"2026-08-01","timeLocal":"18:00"},"geometry":{"type":"Polygon","coordinates":[[[127.41619,37.96633],[127.4162,37.96616],[127.41626,37.96617],[127.41628,37.96633],[127.41619,37.96633]]]}},{"type":"Feature","properties":{"valleyId":"nonnamgi","layer":"shadow","date":"2026-08-01","timeLocal":"18:00"},"geometry":{"type":"Polygon","coordinates":[[[127.41531,37.96597],[127.41529,37.96594],[127.41522,37.96593],[127.41522,37.96588],[127.41534,37.96579],[127.41545,37.96579],[127.41543,37.96597],[127.41531,37.96597]]]}},{"type":"Feature","properties":{"valleyId":"nonnamgi","layer":"shadow","date":"2026-08-01","timeLocal":"18:00"},"geometry":{"type":"Polygon","coordinates":[[[127.41466,37.96569],[127.41464,37.96562],[127.41477,37.96564],[127.41477,37.96569],[127.41466,37.96569]]]}},{"type":"Feature","properties":{"valleyId":"nonnamgi","layer":"shadow","date":"2026-08-01","timeLocal":"18:00"},"geometry":{"type":"Polygon","coordinates":[[[127.41545,37.96579],[127.41545,37.96569],[127.41541,37.96569],[127.41534,37.96563],[127.41534,37.96556],[127.41543,37.96556],[127.41543,37.96561],[127.41548,37.96561],[127.41548,37.96569],[127.41552,37.96569],[127.41552,37.96579],[127.41545,37.96579]]]}},{"type":"Feature","properties":{"valleyId":"nonnamgi","layer":"shadow","date":"2026-08-01","timeLocal":"18:00"},"geometry":{"type":"Polygon","coordinates":[[[127.41632,37.96559],[127.41632,37.96552],[127.41639,37.96552],[127.41639,37.96559],[127.41632,37.96559]]]}},{"type":"Feature","properties":{"valleyId":"nonnamgi","layer":"shadow","date":"2026-08-01","timeLocal":"18:00"},"geometry":{"type":"Polygon","coordinates":[[[127.41791,37.96604],[127.41791,37.96601],[127.41768,37.966],[127.41752,37.96584],[127.41743,37.96582],[127.41732,37.96573],[127.41733,37.96546],[127.41742,37.96548],[127.41744,37.96557],[127.41762,37.96561],[127.41764,37.96577],[127.41768,37.96577],[127.41775,37.96588],[127.41782,37.96588],[127.41789,37.96593],[127.418,37.96594],[127.41797,37.96604],[127.41791,37.96604]]]}},{"type":"Feature","properties":{"valleyId":"nonnamgi","layer":"shadow","date":"2026-08-01","timeLocal":"18:00"},"geometry":{"type":"Polygon","coordinates":[[[127.41564,37.96547],[127.41564,37.96542],[127.41569,37.96538],[127.41567,37.96513],[127.4157,37.96506],[127.41576,37.96506],[127.4158,37.9654],[127.41573,37.96542],[127.41573,37.96547],[127.41564,37.96547]]]}}]}
