{
  "$schema": "../.schema/valleys.schema.json",
  "type": "FeatureCollection",
  "metadata": {
    "description": "백둔리계곡 시설 2개 — 표준데이터 주차장 0 · 화장실 2 · 쓰레기통·놀이터 0 · OSM 0 · 수기 0. 계곡 점 반경 3 km, 쓰레기통·놀이터는 중심선 1200 m.",
    "source": "전국주차장정보·공중화장실·휴지통·도시공원 표준데이터(공공누리 1유형) + 행안부 어린이놀이시설 API + OSM amenity·leisure(ODbL) + 수기 · 데스크 검수(현장 미확인)",
    "sourceFile": "scripts/seed/build.mts (pnpm seed:build)",
    "datasetVersion": "2026-09-23.0",
    "collectedAt": "2026-09-23",
    "coordinateOrder": "[longitude, latitude]",
    "crs": "EPSG:4326",
    "filter": "계곡 점 반경 3000 m · 표준데이터 ↔ OSM 주차장 50 m 중복 제거",
    "verified": "desk",
    "sources": [
      "https://www.openstreetmap.org/copyright",
      "https://www.data.go.kr/data/15012892/standard.do (전국공중화장실표준데이터, 공공누리 1유형)"
    ]
  },
  "features": [
    {
      "type": "Feature",
      "geometry": {
        "type": "Point",
        "coordinates": [127.462908, 37.901507]
      },
      "properties": {
        "id": "baekdunri-std-r-15970",
        "valleyId": "baekdunri",
        "name": "산촌마을 공중화장실",
        "facilityType": "restroom",
        "operatingHours": "09:00~21:00",
        "mapIconTier": 1,
        "mapImportance": 20
      }
    },
    {
      "type": "Feature",
      "geometry": {
        "type": "Point",
        "coordinates": [127.496162, 37.919614]
      },
      "properties": {
        "id": "baekdunri-std-r-15977",
        "valleyId": "baekdunri",
        "name": "성락기도원앞 화장실",
        "facilityType": "restroom",
        "operatingHours": "09:00~21:00",
        "mapIconTier": 1,
        "mapImportance": 21
      }
    }
  ]
}
