{
  "$schema": "../.schema/valleys.schema.json",
  "type": "FeatureCollection",
  "metadata": {
    "description": "어비계곡 시설 9개 — 표준데이터 주차장 0 · 화장실 4 · 쓰레기통·놀이터 0 · OSM 5 · 수기 0. 계곡 점 반경 3 km, 쓰레기통·놀이터는 중심선 1200 m.",
    "source": "전국주차장정보·공중화장실·휴지통·도시공원 표준데이터(공공누리 1유형) + 행안부 어린이놀이시설 API + OSM amenity·leisure(ODbL) + 수기 · 데스크 검수(현장 미확인)",
    "sourceFile": "scripts/seed/build.mts (pnpm seed:build)",
    "datasetVersion": "2026-09-23.0",
    "collectedAt": "2026-09-23",
    "coordinateOrder": "[longitude, latitude]",
    "crs": "EPSG:4326",
    "filter": "계곡 점 반경 3000 m · 표준데이터 ↔ OSM 주차장 50 m 중복 제거",
    "verified": "desk",
    "sources": [
      "https://www.openstreetmap.org/copyright",
      "https://www.data.go.kr/data/15012892/standard.do (전국공중화장실표준데이터, 공공누리 1유형)"
    ]
  },
  "features": [
    {
      "type": "Feature",
      "geometry": {
        "type": "Point",
        "coordinates": [127.488881, 37.592288]
      },
      "properties": {
        "id": "eobi-std-r-30061",
        "valleyId": "eobi",
        "name": "유명산 공중화장실",
        "facilityType": "restroom",
        "operatingHours": "09:00~21:00",
        "mapIconTier": 1,
        "mapImportance": 20
      }
    },
    {
      "type": "Feature",
      "geometry": {
        "type": "Point",
        "coordinates": [127.497283, 37.597654]
      },
      "properties": {
        "id": "eobi-osm-food-368731707",
        "valleyId": "eobi",
        "name": "가인만당",
        "facilityType": "food",
        "mapIconTier": 1,
        "mapImportance": 21
      }
    },
    {
      "type": "Feature",
      "geometry": {
        "type": "Point",
        "coordinates": [127.493628, 37.599996]
      },
      "properties": {
        "id": "eobi-osm-store-10796181990",
        "valleyId": "eobi",
        "name": "CU",
        "facilityType": "store",
        "mapIconTier": 1,
        "mapImportance": 22
      }
    },
    {
      "type": "Feature",
      "geometry": {
        "type": "Point",
        "coordinates": [127.491531, 37.591884]
      },
      "properties": {
        "id": "eobi-osm-parking-1094659200",
        "valleyId": "eobi",
        "name": "주차장",
        "facilityType": "parking",
        "mapIconTier": 0,
        "mapImportance": 5
      }
    },
    {
      "type": "Feature",
      "geometry": {
        "type": "Point",
        "coordinates": [127.490169, 37.591061]
      },
      "properties": {
        "id": "eobi-osm-parking-1414543328",
        "valleyId": "eobi",
        "name": "주차장",
        "facilityType": "parking",
        "mapIconTier": 0,
        "mapImportance": 5
      }
    },
    {
      "type": "Feature",
      "geometry": {
        "type": "Point",
        "coordinates": [127.488759, 37.592559]
      },
      "properties": {
        "id": "eobi-osm-parking-1414543330",
        "valleyId": "eobi",
        "name": "주차장",
        "facilityType": "parking",
        "mapIconTier": 0,
        "mapImportance": 5
      }
    },
    {
      "type": "Feature",
      "geometry": {
        "type": "Point",
        "coordinates": [127.494887, 37.621234]
      },
      "properties": {
        "id": "eobi-std-r-15998",
        "valleyId": "eobi",
        "name": "설악IC주유소",
        "facilityType": "restroom",
        "operatingHours": "09:00~21:00",
        "mapIconTier": 1,
        "mapImportance": 26
      }
    },
    {
      "type": "Feature",
      "geometry": {
        "type": "Point",
        "coordinates": [127.510787, 37.590763]
      },
      "properties": {
        "id": "eobi-std-r-16001",
        "valleyId": "eobi",
        "name": "가일리 공중화장실",
        "facilityType": "restroom",
        "operatingHours": "09:00~21:00",
        "mapIconTier": 1,
        "mapImportance": 27
      }
    },
    {
      "type": "Feature",
      "geometry": {
        "type": "Point",
        "coordinates": [127.496626, 37.622847]
      },
      "properties": {
        "id": "eobi-std-r-29965",
        "valleyId": "eobi",
        "name": "방일리 보건진료소",
        "facilityType": "restroom",
        "operatingHours": "09:00~21:00",
        "mapIconTier": 1,
        "mapImportance": 28
      }
    }
  ]
}
