{
  "$schema": "../.schema/valleys.schema.json",
  "type": "FeatureCollection",
  "metadata": {
    "description": "현등사계곡(운악산) 시설 4개 — 표준데이터 주차장 0 · 화장실 0 · OSM 4 · 수기 0. 계곡 점 반경 1.5 km.",
    "source": "전국주차장정보·공중화장실 표준데이터(공공누리 1유형) + OSM amenity(ODbL) + 수기 · 데스크 검수(현장 미확인)",
    "sourceFile": "scripts/seed/build.mts (pnpm seed:build)",
    "datasetVersion": "2026-09-06.0",
    "collectedAt": "2026-09-06",
    "coordinateOrder": "[longitude, latitude]",
    "crs": "EPSG:4326",
    "filter": "계곡 점 반경 1500 m · 표준데이터 ↔ OSM 주차장 50 m 중복 제거",
    "verified": "desk",
    "sources": ["https://www.openstreetmap.org/copyright"]
  },
  "features": [
    {
      "type": "Feature",
      "geometry": {
        "type": "Point",
        "coordinates": [127.343296, 37.865403]
      },
      "properties": {
        "id": "hyeondeungsa-osm-restroom-10303571326",
        "valleyId": "hyeondeungsa",
        "name": "화장실",
        "facilityType": "restroom",
        "mapIconTier": 1,
        "mapImportance": 20
      }
    },
    {
      "type": "Feature",
      "geometry": {
        "type": "Point",
        "coordinates": [127.342583, 37.86561]
      },
      "properties": {
        "id": "hyeondeungsa-osm-restroom-10303571327",
        "valleyId": "hyeondeungsa",
        "name": "화장실",
        "facilityType": "restroom",
        "mapIconTier": 1,
        "mapImportance": 21
      }
    },
    {
      "type": "Feature",
      "geometry": {
        "type": "Point",
        "coordinates": [127.334706, 37.869216]
      },
      "properties": {
        "id": "hyeondeungsa-osm-restroom-10303571328",
        "valleyId": "hyeondeungsa",
        "name": "화장실",
        "facilityType": "restroom",
        "mapIconTier": 1,
        "mapImportance": 22
      }
    },
    {
      "type": "Feature",
      "geometry": {
        "type": "Point",
        "coordinates": [127.346276, 37.865122]
      },
      "properties": {
        "id": "hyeondeungsa-osm-cafe-11984898712",
        "valleyId": "hyeondeungsa",
        "name": "아테네커피랩",
        "facilityType": "cafe",
        "mapIconTier": 1,
        "mapImportance": 23
      }
    }
  ]
}
