{
  "$schema": "../.schema/valleys.schema.json",
  "type": "FeatureCollection",
  "metadata": {
    "description": "조무락골 시설 1개 — 표준데이터 주차장 0 · 화장실 0 · 쓰레기통·놀이터 0 · OSM 0 · 수기 1. 계곡 점 반경 3 km, 쓰레기통·놀이터는 중심선 1200 m.",
    "source": "전국주차장정보·공중화장실·휴지통·도시공원 표준데이터(공공누리 1유형) + 행안부 어린이놀이시설 API + OSM amenity·leisure(ODbL) + 수기 · 데스크 검수(현장 미확인)",
    "sourceFile": "scripts/seed/build.mts (pnpm seed:build)",
    "datasetVersion": "2026-09-23.0",
    "collectedAt": "2026-09-23",
    "coordinateOrder": "[longitude, latitude]",
    "crs": "EPSG:4326",
    "filter": "계곡 점 반경 3000 m · 표준데이터 ↔ OSM 주차장 50 m 중복 제거",
    "verified": "desk",
    "sources": ["https://www.openstreetmap.org/copyright"]
  },
  "features": [
    {
      "type": "Feature",
      "geometry": {
        "type": "Point",
        "coordinates": [127.437583, 37.98685]
      },
      "properties": {
        "id": "jomurak-manual-yongsudong-stop",
        "valleyId": "jomurak",
        "name": "용수동 종점 (33-4번 버스)",
        "facilityType": "station",
        "mapIconTier": 1,
        "mapImportance": 20
      }
    }
  ]
}
