{
  "$schema": "../.schema/valleys.schema.json",
  "type": "FeatureCollection",
  "metadata": {
    "description": "소요산계곡 시설 44개 — 표준데이터 주차장 4 · 화장실 23 · 쓰레기통·놀이터 0 · OSM 17 · 수기 0. 계곡 점 반경 3 km, 쓰레기통·놀이터는 중심선 1200 m.",
    "source": "전국주차장정보·공중화장실·휴지통·도시공원 표준데이터(공공누리 1유형) + 행안부 어린이놀이시설 API + OSM amenity·leisure(ODbL) + 수기 · 데스크 검수(현장 미확인)",
    "sourceFile": "scripts/seed/build.mts (pnpm seed:build)",
    "datasetVersion": "2026-09-23.0",
    "collectedAt": "2026-09-23",
    "coordinateOrder": "[longitude, latitude]",
    "crs": "EPSG:4326",
    "filter": "계곡 점 반경 3000 m · 표준데이터 ↔ OSM 주차장 50 m 중복 제거",
    "verified": "desk",
    "sources": [
      "https://www.openstreetmap.org/copyright",
      "https://www.data.go.kr/data/15012896/standard.do (전국주차장정보표준데이터, 공공누리 1유형)",
      "https://www.data.go.kr/data/15012892/standard.do (전국공중화장실표준데이터, 공공누리 1유형)"
    ]
  },
  "features": [
    {
      "type": "Feature",
      "geometry": {
        "type": "Point",
        "coordinates": [127.051418, 37.928622]
      },
      "properties": {
        "id": "soyosan-std-p-215-1-000024",
        "valleyId": "soyosan",
        "name": "동두천일반산업단지 내",
        "facilityType": "parking",
        "capacity": 174,
        "feeNote": "무료",
        "operatingHours": "00:00~23:59",
        "mapIconTier": 0,
        "mapImportance": 5
      }
    },
    {
      "type": "Feature",
      "geometry": {
        "type": "Point",
        "coordinates": [127.053554, 37.928648]
      },
      "properties": {
        "id": "soyosan-std-p-215-1-000023",
        "valleyId": "soyosan",
        "name": "동두천역 철길(담장) 옆",
        "facilityType": "parking",
        "capacity": 39,
        "feeNote": "무료",
        "operatingHours": "00:00~23:59",
        "mapIconTier": 0,
        "mapImportance": 5
      }
    },
    {
      "type": "Feature",
      "geometry": {
        "type": "Point",
        "coordinates": [127.061214, 37.947953]
      },
      "properties": {
        "id": "soyosan-std-r-3567",
        "valleyId": "soyosan",
        "name": "소요산역 화장실",
        "facilityType": "restroom",
        "operatingHours": "연중무휴",
        "mapIconTier": 1,
        "mapImportance": 22
      }
    },
    {
      "type": "Feature",
      "geometry": {
        "type": "Point",
        "coordinates": [127.065131, 37.946402]
      },
      "properties": {
        "id": "soyosan-std-r-3578",
        "valleyId": "soyosan",
        "name": "소요119안전센터 화장실",
        "facilityType": "restroom",
        "operatingHours": "연중무휴",
        "mapIconTier": 1,
        "mapImportance": 23
      }
    },
    {
      "type": "Feature",
      "geometry": {
        "type": "Point",
        "coordinates": [127.064452, 37.944672]
      },
      "properties": {
        "id": "soyosan-std-r-3595",
        "valleyId": "soyosan",
        "name": "소요산어린이공원 화장실",
        "facilityType": "restroom",
        "operatingHours": "연중무휴",
        "mapIconTier": 1,
        "mapImportance": 24
      }
    },
    {
      "type": "Feature",
      "geometry": {
        "type": "Point",
        "coordinates": [127.054029, 37.94849]
      },
      "properties": {
        "id": "soyosan-std-r-3609",
        "valleyId": "soyosan",
        "name": "지혜의등대 화장실",
        "facilityType": "restroom",
        "operatingHours": "(평일)09:00~18:00+(주말)이용불가+(공휴일)이용불가",
        "mapIconTier": 1,
        "mapImportance": 25
      }
    },
    {
      "type": "Feature",
      "geometry": {
        "type": "Point",
        "coordinates": [127.050298, 37.929547]
      },
      "properties": {
        "id": "soyosan-std-r-3629",
        "valleyId": "soyosan",
        "name": "안흥교회 화장실",
        "facilityType": "restroom",
        "operatingHours": "연중무휴",
        "mapIconTier": 1,
        "mapImportance": 26
      }
    },
    {
      "type": "Feature",
      "geometry": {
        "type": "Point",
        "coordinates": [127.066056, 37.942502]
      },
      "properties": {
        "id": "soyosan-std-r-3640",
        "valleyId": "soyosan",
        "name": "자유수호평화박물관 화장실(야외)",
        "facilityType": "restroom",
        "operatingHours": "(평일)09:00~18:00+(주말)이용불가+(공휴일)이용불가",
        "mapIconTier": 1,
        "mapImportance": 27
      }
    },
    {
      "type": "Feature",
      "geometry": {
        "type": "Point",
        "coordinates": [127.064425, 37.945836]
      },
      "properties": {
        "id": "soyosan-std-r-3644",
        "valleyId": "soyosan",
        "name": "소요산축산물브랜드육타운 화장실",
        "facilityType": "restroom",
        "operatingHours": "연중무휴",
        "mapIconTier": 1,
        "mapImportance": 28
      }
    },
    {
      "type": "Feature",
      "geometry": {
        "type": "Point",
        "coordinates": [127.059992, 37.944102]
      },
      "properties": {
        "id": "soyosan-std-r-3655",
        "valleyId": "soyosan",
        "name": "스마트주유소 화장실",
        "facilityType": "restroom",
        "operatingHours": "연중무휴",
        "mapIconTier": 1,
        "mapImportance": 29
      }
    },
    {
      "type": "Feature",
      "geometry": {
        "type": "Point",
        "coordinates": [127.060312, 37.946184]
      },
      "properties": {
        "id": "soyosan-std-r-3657",
        "valleyId": "soyosan",
        "name": "소요산주유소 화장실",
        "facilityType": "restroom",
        "operatingHours": "연중무휴",
        "mapIconTier": 1,
        "mapImportance": 30
      }
    },
    {
      "type": "Feature",
      "geometry": {
        "type": "Point",
        "coordinates": [127.055366, 37.941527]
      },
      "properties": {
        "id": "soyosan-std-r-3662",
        "valleyId": "soyosan",
        "name": "동성주유소 화장실",
        "facilityType": "restroom",
        "operatingHours": "연중무휴",
        "mapIconTier": 1,
        "mapImportance": 31
      }
    },
    {
      "type": "Feature",
      "geometry": {
        "type": "Point",
        "coordinates": [127.062767, 37.959957]
      },
      "properties": {
        "id": "soyosan-std-r-3665",
        "valleyId": "soyosan",
        "name": "광나는주유소 화장실",
        "facilityType": "restroom",
        "operatingHours": "연중무휴",
        "mapIconTier": 1,
        "mapImportance": 32
      }
    },
    {
      "type": "Feature",
      "geometry": {
        "type": "Point",
        "coordinates": [127.060847, 37.94413]
      },
      "properties": {
        "id": "soyosan-std-r-3696",
        "valleyId": "soyosan",
        "name": "창림에너지 화장실",
        "facilityType": "restroom",
        "operatingHours": "연중무휴",
        "mapIconTier": 1,
        "mapImportance": 33
      }
    },
    {
      "type": "Feature",
      "geometry": {
        "type": "Point",
        "coordinates": [127.055788, 37.939487]
      },
      "properties": {
        "id": "soyosan-std-r-3697",
        "valleyId": "soyosan",
        "name": "착한주유소 화장실",
        "facilityType": "restroom",
        "operatingHours": "연중무휴",
        "mapIconTier": 1,
        "mapImportance": 34
      }
    },
    {
      "type": "Feature",
      "geometry": {
        "type": "Point",
        "coordinates": [127.051969, 37.93844]
      },
      "properties": {
        "id": "soyosan-std-r-3699",
        "valleyId": "soyosan",
        "name": "중앙LPG충전소 화장실",
        "facilityType": "restroom",
        "operatingHours": "연중무휴",
        "mapIconTier": 1,
        "mapImportance": 35
      }
    },
    {
      "type": "Feature",
      "geometry": {
        "type": "Point",
        "coordinates": [127.059522, 37.943379]
      },
      "properties": {
        "id": "soyosan-osm-store-368949092",
        "valleyId": "soyosan",
        "name": "놀부편의점",
        "facilityType": "store",
        "mapIconTier": 1,
        "mapImportance": 36
      }
    },
    {
      "type": "Feature",
      "geometry": {
        "type": "Point",
        "coordinates": [127.065479, 37.94567]
      },
      "properties": {
        "id": "soyosan-osm-food-9092988204",
        "valleyId": "soyosan",
        "name": "작은성",
        "facilityType": "food",
        "mapIconTier": 1,
        "mapImportance": 37
      }
    },
    {
      "type": "Feature",
      "geometry": {
        "type": "Point",
        "coordinates": [127.046291, 37.937247]
      },
      "properties": {
        "id": "soyosan-osm-food-9093006043",
        "valleyId": "soyosan",
        "name": "참좋은미식",
        "facilityType": "food",
        "mapIconTier": 1,
        "mapImportance": 38
      }
    },
    {
      "type": "Feature",
      "geometry": {
        "type": "Point",
        "coordinates": [127.065994, 37.95019]
      },
      "properties": {
        "id": "soyosan-osm-restroom-11297605529",
        "valleyId": "soyosan",
        "name": "화장실",
        "facilityType": "restroom",
        "mapIconTier": 1,
        "mapImportance": 39
      }
    },
    {
      "type": "Feature",
      "geometry": {
        "type": "Point",
        "coordinates": [127.066277, 37.950057]
      },
      "properties": {
        "id": "soyosan-osm-cafe-11297605539",
        "valleyId": "soyosan",
        "name": "카페",
        "facilityType": "cafe",
        "mapIconTier": 1,
        "mapImportance": 40
      }
    },
    {
      "type": "Feature",
      "geometry": {
        "type": "Point",
        "coordinates": [127.054585, 37.93378]
      },
      "properties": {
        "id": "soyosan-osm-parking-683464989",
        "valleyId": "soyosan",
        "name": "주차장",
        "facilityType": "parking",
        "mapIconTier": 0,
        "mapImportance": 5
      }
    },
    {
      "type": "Feature",
      "geometry": {
        "type": "Point",
        "coordinates": [127.063313, 37.945863]
      },
      "properties": {
        "id": "soyosan-osm-parking-1095611766",
        "valleyId": "soyosan",
        "name": "주차장",
        "facilityType": "parking",
        "mapIconTier": 0,
        "mapImportance": 5
      }
    },
    {
      "type": "Feature",
      "geometry": {
        "type": "Point",
        "coordinates": [127.065134, 37.94236]
      },
      "properties": {
        "id": "soyosan-osm-parking-1095611772",
        "valleyId": "soyosan",
        "name": "주차장",
        "facilityType": "parking",
        "mapIconTier": 0,
        "mapImportance": 5
      }
    },
    {
      "type": "Feature",
      "geometry": {
        "type": "Point",
        "coordinates": [127.066937, 37.945934]
      },
      "properties": {
        "id": "soyosan-osm-parking-1095611791",
        "valleyId": "soyosan",
        "name": "주차장",
        "facilityType": "parking",
        "mapIconTier": 0,
        "mapImportance": 5
      }
    },
    {
      "type": "Feature",
      "geometry": {
        "type": "Point",
        "coordinates": [127.065282, 37.949497]
      },
      "properties": {
        "id": "soyosan-osm-parking-1219283744",
        "valleyId": "soyosan",
        "name": "주차장",
        "facilityType": "parking",
        "mapIconTier": 0,
        "mapImportance": 5
      }
    },
    {
      "type": "Feature",
      "geometry": {
        "type": "Point",
        "coordinates": [127.06535, 37.950653]
      },
      "properties": {
        "id": "soyosan-osm-parking-1219283866",
        "valleyId": "soyosan",
        "name": "주차장",
        "facilityType": "parking",
        "mapIconTier": 0,
        "mapImportance": 5
      }
    },
    {
      "type": "Feature",
      "geometry": {
        "type": "Point",
        "coordinates": [127.056342, 37.936045]
      },
      "properties": {
        "id": "soyosan-osm-parking-1450031786",
        "valleyId": "soyosan",
        "name": "주차장",
        "facilityType": "parking",
        "mapIconTier": 0,
        "mapImportance": 5
      }
    },
    {
      "type": "Feature",
      "geometry": {
        "type": "Point",
        "coordinates": [127.064641, 37.958732]
      },
      "properties": {
        "id": "soyosan-osm-parking-1546486324",
        "valleyId": "soyosan",
        "name": "주차장",
        "facilityType": "parking",
        "mapIconTier": 0,
        "mapImportance": 5
      }
    },
    {
      "type": "Feature",
      "geometry": {
        "type": "Point",
        "coordinates": [127.056921, 37.93058]
      },
      "properties": {
        "id": "soyosan-osm-food-13299674329",
        "valleyId": "soyosan",
        "name": "유정부대찌개",
        "facilityType": "food",
        "mapIconTier": 1,
        "mapImportance": 49
      }
    },
    {
      "type": "Feature",
      "geometry": {
        "type": "Point",
        "coordinates": [127.069327, 37.945938]
      },
      "properties": {
        "id": "soyosan-std-r-3596",
        "valleyId": "soyosan",
        "name": "소요산산림욕장 화장실",
        "facilityType": "restroom",
        "operatingHours": "연중무휴",
        "mapIconTier": 1,
        "mapImportance": 50
      }
    },
    {
      "type": "Feature",
      "geometry": {
        "type": "Point",
        "coordinates": [127.0506, 37.926354]
      },
      "properties": {
        "id": "soyosan-std-r-3651",
        "valleyId": "soyosan",
        "name": "엄지주유소 화장실",
        "facilityType": "restroom",
        "operatingHours": "연중무휴",
        "mapIconTier": 1,
        "mapImportance": 51
      }
    },
    {
      "type": "Feature",
      "geometry": {
        "type": "Point",
        "coordinates": [127.055645, 37.9284]
      },
      "properties": {
        "id": "soyosan-std-p-215-2-000037",
        "valleyId": "soyosan",
        "name": "동두천역주차장",
        "facilityType": "parking",
        "capacity": 68,
        "feeNote": "무료",
        "operatingHours": "00:00~23:59",
        "mapIconTier": 0,
        "mapImportance": 5
      }
    },
    {
      "type": "Feature",
      "geometry": {
        "type": "Point",
        "coordinates": [127.054878, 37.927826]
      },
      "properties": {
        "id": "soyosan-std-r-3541",
        "valleyId": "soyosan",
        "name": "동두천역 화장실",
        "facilityType": "restroom",
        "operatingHours": "연중무휴",
        "mapIconTier": 1,
        "mapImportance": 53
      }
    },
    {
      "type": "Feature",
      "geometry": {
        "type": "Point",
        "coordinates": [127.057254, 37.92949]
      },
      "properties": {
        "id": "soyosan-std-r-3594",
        "valleyId": "soyosan",
        "name": "소요동행정복지센터 화장실",
        "facilityType": "restroom",
        "operatingHours": "연중무휴",
        "mapIconTier": 1,
        "mapImportance": 54
      }
    },
    {
      "type": "Feature",
      "geometry": {
        "type": "Point",
        "coordinates": [127.056435, 37.928636]
      },
      "properties": {
        "id": "soyosan-std-r-3577",
        "valleyId": "soyosan",
        "name": "소요파출소 화장실",
        "facilityType": "restroom",
        "operatingHours": "연중무휴",
        "mapIconTier": 1,
        "mapImportance": 55
      }
    },
    {
      "type": "Feature",
      "geometry": {
        "type": "Point",
        "coordinates": [127.0668, 37.964848]
      },
      "properties": {
        "id": "soyosan-std-r-3660",
        "valleyId": "soyosan",
        "name": "맘모스주유소 화장실",
        "facilityType": "restroom",
        "operatingHours": "연중무휴",
        "mapIconTier": 1,
        "mapImportance": 56
      }
    },
    {
      "type": "Feature",
      "geometry": {
        "type": "Point",
        "coordinates": [127.054012, 37.926949]
      },
      "properties": {
        "id": "soyosan-osm-food-12396858336",
        "valleyId": "soyosan",
        "name": "미소식당",
        "facilityType": "food",
        "operatingHours": "Mo-Su 10:00-22:00",
        "mapIconTier": 1,
        "mapImportance": 57
      }
    },
    {
      "type": "Feature",
      "geometry": {
        "type": "Point",
        "coordinates": [127.066195, 37.96527]
      },
      "properties": {
        "id": "soyosan-std-r-3701",
        "valleyId": "soyosan",
        "name": "정인주유소 화장실",
        "facilityType": "restroom",
        "operatingHours": "연중무휴",
        "mapIconTier": 1,
        "mapImportance": 58
      }
    },
    {
      "type": "Feature",
      "geometry": {
        "type": "Point",
        "coordinates": [127.055664, 37.92562]
      },
      "properties": {
        "id": "soyosan-std-r-3615",
        "valleyId": "soyosan",
        "name": "동안동민회관 화장실",
        "facilityType": "restroom",
        "operatingHours": "연중무휴",
        "mapIconTier": 1,
        "mapImportance": 59
      }
    },
    {
      "type": "Feature",
      "geometry": {
        "type": "Point",
        "coordinates": [127.056467, 37.922418]
      },
      "properties": {
        "id": "soyosan-std-p-215-2-000011",
        "valleyId": "soyosan",
        "name": "보산1펌프장지구",
        "facilityType": "parking",
        "capacity": 18,
        "feeNote": "무료",
        "operatingHours": "00:00~23:59",
        "mapIconTier": 0,
        "mapImportance": 5
      }
    },
    {
      "type": "Feature",
      "geometry": {
        "type": "Point",
        "coordinates": [127.067966, 37.970523]
      },
      "properties": {
        "id": "soyosan-std-r-3666",
        "valleyId": "soyosan",
        "name": "SK주유소",
        "facilityType": "restroom",
        "operatingHours": "연중무휴",
        "mapIconTier": 1,
        "mapImportance": 61
      }
    },
    {
      "type": "Feature",
      "geometry": {
        "type": "Point",
        "coordinates": [127.084289, 37.95545]
      },
      "properties": {
        "id": "soyosan-osm-restroom-10297611968",
        "valleyId": "soyosan",
        "name": "화장실",
        "facilityType": "restroom",
        "mapIconTier": 1,
        "mapImportance": 62
      }
    },
    {
      "type": "Feature",
      "geometry": {
        "type": "Point",
        "coordinates": [127.085715, 37.945447]
      },
      "properties": {
        "id": "soyosan-osm-restroom-1277948009",
        "valleyId": "soyosan",
        "name": "화장실",
        "facilityType": "restroom",
        "mapIconTier": 1,
        "mapImportance": 63
      }
    }
  ]
}
