{"type":"FeatureCollection","metadata":{"description":"수관 아래(CHM > 2 m) — 시각 무관. 구간 회랑 ±200 m 절단","source":"위성 기반 추정 — Copernicus GLO-30 지형(30 m) + Meta/WRI 수관 높이(1 m CHM, 2016 촬영). 그늘 = 수관(CHM > 2 m) ∪ 나무·지형 그림자 ∪ 원거리 지형 마스크. 현장과 다를 수 있음.","datasetVersion":"2026-09-06.0","collectedAt":"2026-09-06","coordinateOrder":"[longitude, latitude]","crs":"EPSG:4326","representativeDate":"2026-08-01","hours":["10:00","11:00","12:00","13:00","14:00","15:00","16:00","17:00","18:00"],"chmAcquisition":["2016-06"],"assets":{"glo30":{"dataset":"Copernicus DEM GLO-30 (COG, s3://copernicus-dem-30m)","tiles":["Copernicus_DSM_COG_10_N37_00_E127_00_DEM"]},"chm":{"dataset":"Meta/WRI Global Canopy Height Map v1 (alsgedi_global_v6_float, 1 m, CC-BY 4.0)","quadkeys":["132110303"],"acquisition":["2016-06"]}},"method":{"gridResM":2,"canopyThresholdM":2,"bufferHalfM":25,"corridorHalfM":200,"simplifyTolM":2,"minAreaM2":25,"coordDecimals":5},"generator":"scripts/shade 0.1.0","builtAt":"2026-09-06T06:11:29Z","layer":"canopy"},"features":[{"type":"Feature","properties":{"valleyId":"gugok","layer":"canopy","date":"2026-08-01"},"geometry":{"type":"Polygon","coordinates":[[[127.61728,37.79946],[127.61728,37.79941],[127.61735,37.79941],[127.61735,37.79947],[127.61728,37.79946]]]}},{"type":"Feature","properties":{"valleyId":"gugok","layer":"canopy","date":"2026-08-01"},"geometry":{"type":"Polygon","coordinates":[[[127.61854,37.79881],[127.6185,37.79878],[127.6185,37.79872],[127.61863,37.79871],[127.61865,37.7988],[127.61854,37.79881]]]}},{"type":"Feature","properties":{"valleyId":"gugok","layer":"canopy","date":"2026-08-01"},"geometry":{"type":"Polygon","coordinates":[[[127.61805,37.7985],[127.61807,37.79841],[127.61821,37.79843],[127.61818,37.7985],[127.61805,37.7985]]]}},{"type":"Feature","properties":{"valleyId":"gugok","layer":"canopy","date":"2026-08-01"},"geometry":{"type":"Polygon","coordinates":[[[127.61755,37.79849],[127.61748,37.79844],[127.61748,37.7984],[127.61737,37.79838],[127.61737,37.79833],[127.61748,37.79833],[127.61753,37.79837],[127.61769,37.79839],[127.61768,37.79848],[127.61755,37.79849]]]}},{"type":"Feature","properties":{"valleyId":"gugok","layer":"canopy","date":"2026-08-01"},"geometry":{"type":"Polygon","coordinates":[[[127.61635,37.79677],[127.61638,37.79666],[127.61645,37.79666],[127.61644,37.79677],[127.61635,37.79677]]]}},{"type":"Feature","properties":{"valleyId":"gugok","layer":"canopy","date":"2026-08-01"},"geometry":{"type":"Polygon","coordinates":[[[127.61625,37.79641],[127.61625,37.79635],[127.61631,37.79635],[127.61631,37.79641],[127.61625,37.79641]]]}},{"type":"Feature","properties":{"valleyId":"gugok","layer":"canopy","date":"2026-08-01"},"geometry":{"type":"Polygon","coordinates":[[[127.61616,37.79628],[127.61611,37.79624],[127.61611,37.79617],[127.61625,37.79621],[127.61625,37.79626],[127.61616,37.79628]]]}},{"type":"Feature","properties":{"valleyId":"gugok","layer":"canopy","date":"2026-08-01"},"geometry":{"type":"Polygon","coordinates":[[[127.61685,37.79951],[127.61651,37.79947],[127.61612,37.79938],[127.61581,37.79925],[127.61578,37.79921],[127.61569,37.79919],[127.61567,37.79914],[127.6156,37.79914],[127.61556,37.79908],[127.61551,37.79908],[127.61525,37.79886],[127.61525,37.79883],[127.61516,37.79877],[127.61505,37.79859],[127.615,37.79857],[127.61489,37.79839],[127.61487,37.79828],[127.61483,37.79825],[127.61476,37.79803],[127.61477,37.79733],[127.61489,37.79702],[127.61499,37.79691],[127.61501,37.79682],[127.6151,37.79681],[127.61515,37.79686],[127.61526,37.79686],[127.61526,37.79694],[127.6151,37.79706],[127.6151,37.7972],[127.61521,37.79721],[127.6153,37.79713],[127.61537,37.79714],[127.61539,37.79706],[127.61544,37.79705],[127.6158,37.79712],[127.61583,37.79701],[127.61594,37.79696],[127.61597,37.79682],[127.61585,37.7968],[127.61576,37.79694],[127.61551,37.79696],[127.61551,37.79699],[127.61542,37.79699],[127.6154,37.79692],[127.61531,37.7969],[127.61531,37.79676],[127.61522,37.79676],[127.61517,37.79672],[127.61517,37.79663],[127.6154,37.79645],[127.61541,37.79641],[127.61547,37.7964],[127.61561,37.79627],[127.61566,37.79627],[127.6157,37.79622],[127.61575,37.79622],[127.61589,37.79613],[127.61598,37.79613],[127.61598,37.79628],[127.61602,37.79635],[127.61607,37.79635],[127.61609,37.79639],[127.61622,37.79639],[127.61622,37.79662],[127.61615,37.79669],[127.61615,37.7968],[127.61626,37.79682],[127.61631,37.79686],[127.6163,37.79695],[127.61621,37.79707],[127.61601,37.79703],[127.61598,37.79711],[127.61619,37.79718],[127.61621,37.79724],[127.61641,37.79726],[127.61641,37.79731],[127.61646,37.79733],[127.61645,37.79742],[127.6165,37.79744],[127.61652,37.79756],[127.61659,37.79764],[127.61658,37.79773],[127.61654,37.79776],[127.61653,37.79801],[127.61655,37.79812],[127.61662,37.7982],[127.61662,37.79839],[127.61668,37.79845],[127.61668,37.79848],[127.61675,37.79849],[127.61682,37.79854],[127.61682,37.79861],[127.61688,37.79872],[127.61704,37.79871],[127.61702,37.79856],[127.61709,37.79856],[127.61714,37.7986],[127.61729,37.79862],[127.61732,37.79865],[127.61739,37.79866],[127.61741,37.79869],[127.61757,37.79873],[127.61756,37.79886],[127.61763,37.79886],[127.61766,37.79877],[127.61807,37.79874],[127.61807,37.79868],[127.61813,37.79868],[127.61813,37.79879],[127.6182,37.79883],[127.61822,37.79897],[127.61831,37.79908],[127.61831,37.79919],[127.61817,37.79924],[127.61815,37.79928],[127.61805,37.79929],[127.61803,37.79933],[127.61796,37.79933],[127.61783,37.7994],[127.61762,37.79945],[127.61748,37.79945],[127.61752,37.799],[127.61738,37.79896],[127.61726,37.79912],[127.61726,37.79928],[127.61719,37.7993],[127.61719,37.79939],[127.6171,37.79941],[127.6171,37.79952],[127.61685,37.79951]],[[127.61617,37.79826],[127.61623,37.79826],[127.61623,37.79821],[127.61617,37.79821],[127.61617,37.79826]],[[127.61542,37.79813],[127.61558,37.79813],[127.61558,37.79804],[127.61547,37.79802],[127.61542,37.79806],[127.61542,37.79813]],[[127.61563,37.79766],[127.61575,37.79766],[127.61575,37.79754],[127.61568,37.79754],[127.61563,37.79757],[127.61563,37.79766]]]}},{"type":"Feature","properties":{"valleyId":"gugok","layer":"canopy","date":"2026-08-01"},"geometry":{"type":"Polygon","coordinates":[[[127.61625,37.79615],[127.61623,37.79608],[127.61632,37.79608],[127.61632,37.79616],[127.61625,37.79615]]]}},{"type":"Feature","properties":{"valleyId":"gugok","layer":"canopy","date":"2026-08-01"},"geometry":{"type":"Polygon","coordinates":[[[127.61886,37.79862],[127.61882,37.79855],[127.61866,37.79845],[127.61866,37.7984],[127.61859,37.7984],[127.61859,37.79843],[127.61839,37.79843],[127.61839,37.79838],[127.6185,37.79838],[127.61848,37.79831],[127.61821,37.79832],[127.61816,37.7983],[127.61819,37.7982],[127.61812,37.7982],[127.61812,37.79823],[127.61807,37.79823],[127.61805,37.79828],[127.61798,37.79828],[127.61798,37.79821],[127.6178,37.7981],[127.61781,37.79803],[127.61772,37.79796],[127.61753,37.79797],[127.61747,37.7979],[127.61747,37.79777],[127.61752,37.79776],[127.61754,37.79765],[127.61761,37.79763],[127.61759,37.7975],[127.61761,37.79747],[127.61768,37.79747],[127.61768,37.79729],[127.61777,37.79727],[127.61782,37.79707],[127.61791,37.79708],[127.61792,37.79702],[127.61801,37.79697],[127.61801,37.79693],[127.6181,37.79693],[127.61812,37.79684],[127.61819,37.79683],[127.61817,37.79675],[127.61781,37.79684],[127.6178,37.79689],[127.61776,37.79691],[127.61773,37.79698],[127.61767,37.79698],[127.61766,37.79709],[127.61762,37.79718],[127.61752,37.79725],[127.61748,37.79725],[127.6175,37.79748],[127.61745,37.79752],[127.61745,37.79757],[127.61736,37.79765],[127.61713,37.7977],[127.61706,37.79768],[127.61697,37.79757],[127.61686,37.79757],[127.61682,37.79717],[127.61675,37.79717],[127.61669,37.79711],[127.61669,37.79708],[127.6166,37.79702],[127.6166,37.79693],[127.61651,37.7969],[127.61654,37.7967],[127.61647,37.7967],[127.61647,37.79664],[127.61649,37.79654],[127.61658,37.79654],[127.61663,37.79648],[127.61672,37.79647],[127.61677,37.79639],[127.61686,37.7964],[127.61686,37.79645],[127.61693,37.79647],[127.61699,37.79656],[127.61708,37.79656],[127.61718,37.79649],[127.61718,37.7964],[127.61713,37.79636],[127.61711,37.79627],[127.61707,37.79627],[127.61707,37.79622],[127.61718,37.7962],[127.61721,37.79591],[127.61773,37.79599],[127.61823,37.79618],[127.61868,37.79647],[127.61867,37.79651],[127.61879,37.79658],[127.61881,37.79665],[127.61888,37.79667],[127.61899,37.79685],[127.61903,37.79687],[127.61914,37.79707],[127.61925,37.79738],[127.61926,37.79797],[127.61917,37.79799],[127.61917,37.7981],[127.61908,37.79813],[127.61905,37.79837],[127.61909,37.79837],[127.61909,37.79844],[127.61898,37.79862],[127.61886,37.79862]],[[127.61847,37.79771],[127.61856,37.79771],[127.61861,37.79768],[127.61859,37.79759],[127.61852,37.79759],[127.61847,37.79762],[127.61847,37.79771]],[[127.61896,37.7972],[127.61903,37.7972],[127.61905,37.79711],[127.61898,37.79711],[127.61896,37.7972]],[[127.61842,37.79686],[127.61849,37.79687],[127.61849,37.79679],[127.61842,37.79679],[127.61842,37.79686]],[[127.61824,37.79674],[127.61837,37.79674],[127.61835,37.79661],[127.61829,37.79661],[127.61829,37.79665],[127.61824,37.79666],[127.61824,37.79674]]]}},{"type":"Feature","properties":{"valleyId":"gugok","layer":"canopy","date":"2026-08-01"},"geometry":{"type":"Polygon","coordinates":[[[127.60982,37.79525],[127.60979,37.79518],[127.60989,37.79518],[127.60991,37.79525],[127.60982,37.79525]]]}},{"type":"Feature","properties":{"valleyId":"gugok","layer":"canopy","date":"2026-08-01"},"geometry":{"type":"Polygon","coordinates":[[[127.61151,37.79089],[127.61151,37.79084],[127.6116,37.79084],[127.6116,37.79089],[127.61151,37.79089]]]}},{"type":"Feature","properties":{"valleyId":"gugok","layer":"canopy","date":"2026-08-01"},"geometry":{"type":"Polygon","coordinates":[[[127.61163,37.79053],[127.61163,37.79046],[127.61172,37.79044],[127.61172,37.79051],[127.61163,37.79053]]]}},{"type":"Feature","properties":{"valleyId":"gugok","layer":"canopy","date":"2026-08-01"},"geometry":{"type":"Polygon","coordinates":[[[127.61086,37.7893],[127.61081,37.78928],[127.61082,37.7892],[127.61088,37.78921],[127.61093,37.78924],[127.61093,37.7893],[127.61086,37.7893]]]}},{"type":"Feature","properties":{"valleyId":"gugok","layer":"canopy","date":"2026-08-01"},"geometry":{"type":"Polygon","coordinates":[[[127.60898,37.78904],[127.60898,37.78898],[127.60905,37.78899],[127.60905,37.78904],[127.60898,37.78904]]]}},{"type":"Feature","properties":{"valleyId":"gugok","layer":"canopy","date":"2026-08-01"},"geometry":{"type":"Polygon","coordinates":[[[127.60867,37.78867],[127.60867,37.78862],[127.60874,37.78862],[127.60874,37.78868],[127.60867,37.78867]]]}},{"type":"Feature","properties":{"valleyId":"gugok","layer":"canopy","date":"2026-08-01"},"geometry":{"type":"Polygon","coordinates":[[[127.60892,37.79569],[127.60831,37.79557],[127.60822,37.79552],[127.60806,37.79548],[127.60809,37.79537],[127.60802,37.79537],[127.60802,37.79543],[127.60795,37.79543],[127.60779,37.79532],[127.60775,37.79532],[127.60739,37.79504],[127.60739,37.795],[127.60726,37.79489],[127.60731,37.79472],[127.60724,37.7947],[127.60724,37.79461],[127.60717,37.79461],[127.60717,37.79464],[127.60708,37.79464],[127.60706,37.79455],[127.60701,37.79451],[127.60689,37.79408],[127.60689,37.79365],[127.60697,37.79338],[127.60739,37.79248],[127.60757,37.79248],[127.60756,37.79223],[127.60762,37.79223],[127.60763,37.79212],[127.60801,37.79213],[127.60801,37.79207],[127.60792,37.79204],[127.60763,37.79203],[127.60741,37.79165],[127.60741,37.7916],[127.60734,37.79153],[127.60732,37.79143],[127.60725,37.7914],[127.60725,37.79136],[127.60719,37.79132],[127.60719,37.79129],[127.60703,37.79116],[127.60703,37.79112],[127.60685,37.79094],[127.6067,37.79067],[127.60659,37.79034],[127.60658,37.78988],[127.60663,37.78962],[127.60667,37.78957],[127.60672,37.78939],[127.60703,37.78896],[127.60751,37.78859],[127.60763,37.78855],[127.60767,37.7885],[127.60811,37.78834],[127.60822,37.78834],[127.60819,37.78852],[127.60824,37.78854],[127.60824,37.7886],[127.60833,37.78865],[127.60844,37.78865],[127.60848,37.7888],[127.60855,37.78884],[127.60855,37.78889],[127.60862,37.78891],[127.60861,37.78909],[127.60871,37.78907],[127.60871,37.78898],[127.60875,37.78895],[127.60884,37.78895],[127.60889,37.78909],[127.6088,37.78909],[127.60879,37.78916],[127.60907,37.78918],[127.60907,37.78909],[127.60916,37.7891],[127.60916,37.78915],[127.60923,37.78917],[127.6092,37.78929],[127.60927,37.78937],[127.60927,37.78942],[127.60931,37.78942],[127.60931,37.78946],[127.60945,37.78946],[127.60945,37.7894],[127.60931,37.78935],[127.60932,37.78922],[127.60936,37.78919],[127.60952,37.78919],[127.60952,37.7893],[127.60963,37.78932],[127.60963,37.78917],[127.60952,37.78917],[127.60952,37.78912],[127.6093,37.78913],[127.6093,37.78906],[127.60946,37.78906],[127.60952,37.78903],[127.60953,37.78897],[127.6093,37.78899],[127.60935,37.78886],[127.60916,37.78886],[127.60914,37.78882],[127.60905,37.78882],[127.60905,37.78875],[127.60896,37.78875],[127.60889,37.78871],[127.60885,37.78857],[127.60874,37.78857],[127.60869,37.78853],[127.60869,37.78846],[127.60879,37.78846],[127.60883,37.7885],[127.60903,37.78848],[127.60904,37.78843],[127.60895,37.78841],[127.60895,37.78835],[127.60901,37.78835],[127.60906,37.78826],[127.60917,37.78827],[127.6097,37.78838],[127.60969,37.78856],[127.60976,37.78856],[127.60981,37.78845],[127.6099,37.78845],[127.61003,37.78851],[127.61044,37.78877],[127.61044,37.7888],[127.61053,37.78888],[127.61052,37.789],[127.61059,37.789],[127.61059,37.78897],[127.61066,37.78897],[127.61071,37.78901],[127.6107,37.7892],[127.61075,37.78922],[127.61075,37.78928],[127.61066,37.78927],[127.61063,37.78918],[127.61057,37.78918],[127.61054,37.78933],[127.61063,37.78933],[127.61063,37.78938],[127.61047,37.78942],[127.61042,37.78945],[127.6104,37.78954],[127.61031,37.78952],[127.61031,37.78945],[127.61027,37.78943],[127.61027,37.7894],[127.61018,37.7894],[127.61013,37.7893],[127.61006,37.7893],[127.61006,37.78948],[127.61022,37.78949],[127.61022,37.78956],[127.61006,37.78957],[127.61006,37.78963],[127.61024,37.78963],[127.61038,37.78967],[127.61058,37.78965],[127.61063,37.78953],[127.61067,37.78951],[127.61067,37.78946],[127.61079,37.78946],[127.61081,37.78938],[127.61097,37.78939],[127.61099,37.78942],[127.61108,37.78942],[127.61128,37.78964],[127.61139,37.78982],[127.61139,37.7899],[127.61144,37.7899],[127.61144,37.78997],[127.61139,37.78997],[127.61139,37.79006],[127.61153,37.79008],[127.61157,37.79021],[127.61164,37.79028],[127.61156,37.79055],[127.61149,37.79055],[127.6115,37.79047],[127.6114,37.79047],[127.61141,37.79042],[127.61134,37.79042],[127.61136,37.79056],[127.61143,37.79056],[127.61145,37.79062],[127.61156,37.79062],[127.61158,37.79066],[127.61172,37.79064],[127.61172,37.79073],[127.61179,37.79077],[127.61181,37.79087],[127.6119,37.79088],[127.6119,37.79079],[127.61197,37.79079],[127.61216,37.7912],[127.61224,37.79187],[127.61223,37.79254],[127.61213,37.79292],[127.61201,37.79318],[127.6118,37.79352],[127.6118,37.79358],[127.61173,37.79365],[127.61173,37.7937],[127.61161,37.79388],[127.61157,37.7939],[127.61121,37.79467],[127.61114,37.79472],[127.61114,37.79478],[127.6111,37.7948],[127.61098,37.79497],[127.61091,37.79501],[127.61091,37.79505],[127.61056,37.79531],[127.61052,37.79531],[127.61047,37.79537],[127.61043,37.79536],[127.61027,37.79547],[127.61004,37.79556],[127.60949,37.79568],[127.60892,37.79569]],[[127.60986,37.79536],[127.61,37.79536],[127.61,37.79532],[127.61013,37.79529],[127.61041,37.79529],[127.61045,37.79527],[127.61045,37.79522],[127.61018,37.79511],[127.61009,37.79502],[127.61003,37.79502],[127.61002,37.79509],[127.60993,37.79511],[127.60991,37.79503],[127.60975,37.79505],[127.60975,37.79501],[127.60955,37.79501],[127.6095,37.79496],[127.60946,37.79496],[127.60944,37.79488],[127.6093,37.79488],[127.6093,37.79494],[127.60923,37.79494],[127.60921,37.79486],[127.60907,37.7949],[127.60907,37.7951],[127.60925,37.79526],[127.60943,37.79528],[127.60948,37.79525],[127.60957,37.79525],[127.60959,37.79516],[127.60943,37.79515],[127.60943,37.79508],[127.60952,37.79507],[127.60955,37.7951],[127.60975,37.7951],[127.60975,37.79516],[127.60966,37.79516],[127.60966,37.79523],[127.60975,37.79528],[127.60977,37.79534],[127.60986,37.79536]],[[127.60771,37.79483],[127.6078,37.79483],[127.6078,37.79478],[127.60767,37.79476],[127.60767,37.79481],[127.60771,37.79483]],[[127.60951,37.79476],[127.60958,37.79476],[127.60958,37.79471],[127.60951,37.79471],[127.60951,37.79476]],[[127.60917,37.79466],[127.60924,37.79467],[127.60924,37.79463],[127.60933,37.79459],[127.60933,37.79454],[127.60915,37.79441],[127.60913,37.79436],[127.60906,37.79436],[127.60904,37.7943],[127.60893,37.7943],[127.60886,37.79419],[127.60886,37.79412],[127.60906,37.79414],[127.60907,37.79407],[127.60893,37.79409],[127.60888,37.79405],[127.60889,37.79396],[127.60882,37.79396],[127.60879,37.79401],[127.60864,37.79401],[127.60859,37.79399],[127.60859,37.79396],[127.60848,37.79395],[127.60843,37.79401],[127.60818,37.79402],[127.60818,37.79408],[127.60827,37.79408],[127.60843,37.79415],[127.60863,37.79415],[127.60868,37.79419],[127.60868,37.79432],[127.60874,37.79443],[127.60888,37.79443],[127.60892,37.79457],[127.60901,37.79457],[127.60903,37.79461],[127.6091,37.79461],[127.60917,37.79466]],[[127.61101,37.79463],[127.61115,37.79463],[127.61115,37.79458],[127.61103,37.79449],[127.61079,37.79447],[127.61078,37.79452],[127.61097,37.79452],[127.61101,37.79456],[127.61101,37.79463]],[[127.61076,37.79441],[127.61088,37.79441],[127.61088,37.79434],[127.61081,37.79432],[127.61081,37.79416],[127.61075,37.79412],[127.61063,37.79412],[127.61059,37.79416],[127.61059,37.79421],[127.61072,37.7943],[127.61076,37.79441]],[[127.61061,37.79407],[127.61068,37.79407],[127.6107,37.79394],[127.61075,37.79389],[127.61084,37.79387],[127.61084,37.79382],[127.61075,37.79382],[127.61075,37.79385],[127.61068,37.79385],[127.61068,37.79375],[127.61064,37.79375],[127.61062,37.79364],[127.61046,37.79356],[127.61046,37.79344],[127.61056,37.79333],[127.61056,37.79328],[127.61051,37.79317],[127.61045,37.79317],[127.6104,37.79318],[127.6104,37.79329],[127.61022,37.79325],[127.61024,37.79338],[127.6103,37.79342],[127.61028,37.79367],[127.61037,37.79369],[127.61039,37.79372],[127.61046,37.79372],[127.61048,37.79391],[127.61052,37.79391],[127.61052,37.794],[127.61061,37.79407]],[[127.609,37.79392],[127.60921,37.79393],[127.60923,37.7938],[127.60916,37.7938],[127.60914,37.79373],[127.60921,37.79371],[127.60923,37.79364],[127.6093,37.79364],[127.6093,37.79353],[127.60921,37.79353],[127.60912,37.79367],[127.60889,37.79371],[127.60887,37.7938],[127.609,37.7938],[127.609,37.79392]],[[127.60754,37.79333],[127.60763,37.79333],[127.60763,37.79328],[127.60751,37.79326],[127.60743,37.79315],[127.60729,37.79316],[127.60733,37.79331],[127.60754,37.79333]],[[127.6102,37.79314],[127.61026,37.79315],[127.61031,37.79309],[127.61038,37.79309],[127.61038,37.79304],[127.61018,37.79304],[127.6102,37.79314]],[[127.61013,37.79291],[127.61029,37.79291],[127.61027,37.79275],[127.61018,37.79275],[127.61011,37.79278],[127.61013,37.79291]],[[127.60978,37.79255],[127.60987,37.79255],[127.60989,37.79246],[127.60994,37.79244],[127.60996,37.79228],[127.60992,37.79222],[127.60971,37.79222],[127.60967,37.79226],[127.60969,37.79247],[127.60978,37.79255]],[[127.6096,37.7913],[127.60969,37.7913],[127.60973,37.79126],[127.60973,37.79121],[127.6096,37.79123],[127.6096,37.7913]],[[127.60953,37.79114],[127.60962,37.79114],[127.60962,37.79108],[127.60953,37.79108],[127.60953,37.79114]],[[127.61146,37.79098],[127.61153,37.79098],[127.61153,37.79094],[127.6116,37.79094],[127.6116,37.79098],[127.61169,37.79098],[127.61167,37.79086],[127.61172,37.79086],[127.61172,37.7908],[127.61156,37.7908],[127.61156,37.79076],[127.6114,37.79078],[127.6114,37.79085],[127.61144,37.79085],[127.61146,37.79098]],[[127.61108,37.79061],[127.61115,37.79061],[127.61115,37.79056],[127.61109,37.79056],[127.61108,37.79061]],[[127.61115,37.79054],[127.61124,37.79054],[127.61122,37.79044],[127.61113,37.79043],[127.61115,37.79054]],[[127.61093,37.79041],[127.61104,37.7904],[127.61104,37.79029],[127.61098,37.79029],[127.61093,37.79041]],[[127.6108,37.79023],[127.61086,37.79023],[127.61089,37.7902],[127.61087,37.79009],[127.6108,37.79009],[127.6108,37.79023]],[[127.61109,37.79015],[127.61116,37.79015],[127.61116,37.79007],[127.61112,37.79004],[127.61112,37.78995],[127.61105,37.78995],[127.61109,37.79015]],[[127.61125,37.79006],[127.61132,37.79006],[127.61132,37.79],[127.61125,37.79],[127.61125,37.79006]],[[127.60967,37.78962],[127.60976,37.78962],[127.60976,37.78957],[127.60967,37.78957],[127.60967,37.78962]],[[127.60797,37.78941],[127.60806,37.78939],[127.60807,37.78932],[127.60797,37.78933],[127.60797,37.78941]],[[127.60972,37.78932],[127.60979,37.78932],[127.60984,37.78928],[127.60984,37.78921],[127.60975,37.78921],[127.60972,37.78932]],[[127.60775,37.7891],[127.60782,37.7891],[127.60782,37.78899],[127.60769,37.78899],[127.60768,37.78904],[127.60775,37.7891]],[[127.60755,37.78882],[127.60767,37.78883],[127.60767,37.78873],[127.60758,37.78872],[127.60755,37.78868],[127.60749,37.78868],[127.60751,37.78879],[127.60755,37.78882]],[[127.60923,37.78881],[127.6093,37.78881],[127.60933,37.78874],[127.60914,37.7887],[127.60914,37.78875],[127.60923,37.78881]],[[127.60899,37.78866],[127.60921,37.78865],[127.60921,37.78859],[127.6091,37.78857],[127.6091,37.78861],[127.60899,37.78861],[127.60899,37.78866]]]}},{"type":"Feature","properties":{"valleyId":"gugok","layer":"canopy","date":"2026-08-01"},"geometry":{"type":"Polygon","coordinates":[[[127.60863,37.78837],[127.60865,37.78826],[127.60872,37.78826],[127.6087,37.78837],[127.60863,37.78837]]]}}]}
