{"type":"FeatureCollection","metadata":{"description":"개방지(CHM ≤ 2 m)에 드리운 나무·지형 그림자, 2026-08-01 10:00 KST. canopy 위에 겹쳐 그린다","source":"위성 기반 추정 — Copernicus GLO-30 지형(30 m) + Meta/WRI 수관 높이(1 m CHM, 2016 촬영). 그늘 = 수관(CHM > 2 m) ∪ 나무·지형 그림자 ∪ 원거리 지형 마스크. 현장과 다를 수 있음.","datasetVersion":"2026-09-06.0","collectedAt":"2026-09-06","coordinateOrder":"[longitude, latitude]","crs":"EPSG:4326","representativeDate":"2026-08-01","hours":["10:00","11:00","12:00","13:00","14:00","15:00","16:00","17:00","18:00"],"chmAcquisition":["2016-06"],"assets":{"glo30":{"dataset":"Copernicus DEM GLO-30 (COG, s3://copernicus-dem-30m)","tiles":["Copernicus_DSM_COG_10_N37_00_E127_00_DEM"]},"chm":{"dataset":"Meta/WRI Global Canopy Height Map v1 (alsgedi_global_v6_float, 1 m, CC-BY 4.0)","quadkeys":["132110303"],"acquisition":["2016-06"]}},"method":{"gridResM":2,"canopyThresholdM":2,"bufferHalfM":25,"corridorHalfM":200,"simplifyTolM":2,"minAreaM2":25,"coordDecimals":5},"generator":"scripts/shade 0.1.0","builtAt":"2026-09-06T06:11:29Z","layer":"shadow","timeLocal":"10:00"},"features":[{"type":"Feature","properties":{"valleyId":"gugok","layer":"shadow","date":"2026-08-01","timeLocal":"10:00"},"geometry":{"type":"Polygon","coordinates":[[[127.61742,37.79939],[127.61742,37.79932],[127.61749,37.79932],[127.61748,37.7994],[127.61742,37.79939]]]}},{"type":"Feature","properties":{"valleyId":"gugok","layer":"shadow","date":"2026-08-01","timeLocal":"10:00"},"geometry":{"type":"Polygon","coordinates":[[[127.61859,37.79847],[127.61859,37.7984],[127.61866,37.7984],[127.61866,37.79847],[127.61859,37.79847]]]}},{"type":"Feature","properties":{"valleyId":"gugok","layer":"shadow","date":"2026-08-01","timeLocal":"10:00"},"geometry":{"type":"Polygon","coordinates":[[[127.61837,37.79838],[127.61828,37.79834],[127.61828,37.79829],[127.61848,37.79831],[127.61846,37.79838],[127.61837,37.79838]]]}},{"type":"Feature","properties":{"valleyId":"gugok","layer":"shadow","date":"2026-08-01","timeLocal":"10:00"},"geometry":{"type":"Polygon","coordinates":[[[127.6181,37.79828],[127.61812,37.7982],[127.61819,37.7982],[127.61816,37.79829],[127.6181,37.79828]]]}},{"type":"Feature","properties":{"valleyId":"gugok","layer":"shadow","date":"2026-08-01","timeLocal":"10:00"},"geometry":{"type":"Polygon","coordinates":[[[127.61745,37.79775],[127.61745,37.7977],[127.61752,37.7977],[127.61752,37.79776],[127.61745,37.79775]]]}},{"type":"Feature","properties":{"valleyId":"gugok","layer":"shadow","date":"2026-08-01","timeLocal":"10:00"},"geometry":{"type":"Polygon","coordinates":[[[127.61568,37.79766],[127.61568,37.79761],[127.61575,37.79761],[127.61575,37.79766],[127.61568,37.79766]]]}},{"type":"Feature","properties":{"valleyId":"gugok","layer":"shadow","date":"2026-08-01","timeLocal":"10:00"},"geometry":{"type":"Polygon","coordinates":[[[127.61752,37.79763],[127.61752,37.79756],[127.61759,37.79756],[127.61761,37.79763],[127.61752,37.79763]]]}},{"type":"Feature","properties":{"valleyId":"gugok","layer":"shadow","date":"2026-08-01","timeLocal":"10:00"},"geometry":{"type":"Polygon","coordinates":[[[127.61761,37.79741],[127.61761,37.79736],[127.61768,37.79736],[127.61768,37.79741],[127.61761,37.79741]]]}},{"type":"Feature","properties":{"valleyId":"gugok","layer":"shadow","date":"2026-08-01","timeLocal":"10:00"},"geometry":{"type":"Polygon","coordinates":[[[127.61677,37.7974],[127.61675,37.79731],[127.61682,37.79731],[127.61684,37.7974],[127.61677,37.7974]]]}},{"type":"Feature","properties":{"valleyId":"gugok","layer":"shadow","date":"2026-08-01","timeLocal":"10:00"},"geometry":{"type":"Polygon","coordinates":[[[127.61898,37.79716],[127.61898,37.79711],[127.61905,37.79711],[127.61905,37.79716],[127.61898,37.79716]]]}},{"type":"Feature","properties":{"valleyId":"gugok","layer":"shadow","date":"2026-08-01","timeLocal":"10:00"},"geometry":{"type":"Polygon","coordinates":[[[127.61524,37.79683],[127.61524,37.79676],[127.61531,37.79676],[127.61531,37.79683],[127.61524,37.79683]]]}},{"type":"Feature","properties":{"valleyId":"gugok","layer":"shadow","date":"2026-08-01","timeLocal":"10:00"},"geometry":{"type":"Polygon","coordinates":[[[127.61708,37.79651],[127.61707,37.79631],[127.61713,37.79631],[127.61718,37.79649],[127.61708,37.79651]]]}},{"type":"Feature","properties":{"valleyId":"gugok","layer":"shadow","date":"2026-08-01","timeLocal":"10:00"},"geometry":{"type":"Polygon","coordinates":[[[127.61105,37.79463],[127.61097,37.79454],[127.61097,37.79449],[127.61103,37.79449],[127.61115,37.79458],[127.61115,37.79463],[127.61105,37.79463]]]}},{"type":"Feature","properties":{"valleyId":"gugok","layer":"shadow","date":"2026-08-01","timeLocal":"10:00"},"geometry":{"type":"Polygon","coordinates":[[[127.61081,37.79441],[127.61081,37.79434],[127.61088,37.79434],[127.61088,37.79441],[127.61081,37.79441]]]}},{"type":"Feature","properties":{"valleyId":"gugok","layer":"shadow","date":"2026-08-01","timeLocal":"10:00"},"geometry":{"type":"Polygon","coordinates":[[[127.61074,37.79427],[127.61072,37.79418],[127.61068,37.79418],[127.61068,37.79412],[127.61081,37.79416],[127.61081,37.79427],[127.61074,37.79427]]]}},{"type":"Feature","properties":{"valleyId":"gugok","layer":"shadow","date":"2026-08-01","timeLocal":"10:00"},"geometry":{"type":"Polygon","coordinates":[[[127.61053,37.79376],[127.61053,37.79362],[127.6106,37.79362],[127.61064,37.79376],[127.61053,37.79376]]]}},{"type":"Feature","properties":{"valleyId":"gugok","layer":"shadow","date":"2026-08-01","timeLocal":"10:00"},"geometry":{"type":"Polygon","coordinates":[[[127.6103,37.79367],[127.61031,37.79334],[127.61022,37.79331],[127.61022,37.79325],[127.6104,37.79329],[127.6104,37.79344],[127.61046,37.79344],[127.61048,37.79362],[127.61039,37.79362],[127.61039,37.79367],[127.6103,37.79367]]]}},{"type":"Feature","properties":{"valleyId":"gugok","layer":"shadow","date":"2026-08-01","timeLocal":"10:00"},"geometry":{"type":"Polygon","coordinates":[[[127.61046,37.79336],[127.61045,37.79317],[127.61051,37.79317],[127.61056,37.79333],[127.61053,37.79337],[127.61046,37.79336]]]}},{"type":"Feature","properties":{"valleyId":"gugok","layer":"shadow","date":"2026-08-01","timeLocal":"10:00"},"geometry":{"type":"Polygon","coordinates":[[[127.61022,37.79313],[127.61024,37.79302],[127.61038,37.79304],[127.61038,37.79309],[127.61029,37.79309],[127.61029,37.79313],[127.61022,37.79313]]]}},{"type":"Feature","properties":{"valleyId":"gugok","layer":"shadow","date":"2026-08-01","timeLocal":"10:00"},"geometry":{"type":"Polygon","coordinates":[[[127.6102,37.79291],[127.6102,37.79275],[127.61027,37.79275],[127.61029,37.79291],[127.6102,37.79291]]]}},{"type":"Feature","properties":{"valleyId":"gugok","layer":"shadow","date":"2026-08-01","timeLocal":"10:00"},"geometry":{"type":"Polygon","coordinates":[[[127.60978,37.79255],[127.60978,37.79249],[127.60989,37.79247],[127.60987,37.79255],[127.60978,37.79255]]]}},{"type":"Feature","properties":{"valleyId":"gugok","layer":"shadow","date":"2026-08-01","timeLocal":"10:00"},"geometry":{"type":"Polygon","coordinates":[[[127.60785,37.79209],[127.60786,37.79204],[127.60792,37.79204],[127.60792,37.79209],[127.60785,37.79209]]]}},{"type":"Feature","properties":{"valleyId":"gugok","layer":"shadow","date":"2026-08-01","timeLocal":"10:00"},"geometry":{"type":"Polygon","coordinates":[[[127.60958,37.79115],[127.60958,37.7911],[127.60967,37.7911],[127.60967,37.79116],[127.60958,37.79115]]]}},{"type":"Feature","properties":{"valleyId":"gugok","layer":"shadow","date":"2026-08-01","timeLocal":"10:00"},"geometry":{"type":"Polygon","coordinates":[[[127.60969,37.78964],[127.60967,37.78957],[127.60976,37.78957],[127.60976,37.78964],[127.60969,37.78964]]]}},{"type":"Feature","properties":{"valleyId":"gugok","layer":"shadow","date":"2026-08-01","timeLocal":"10:00"},"geometry":{"type":"Polygon","coordinates":[[[127.60936,37.78946],[127.60936,37.78942],[127.60927,37.7894],[127.60927,37.78931],[127.60922,37.78929],[127.60925,37.78922],[127.60932,37.78922],[127.60932,37.78928],[127.60938,37.7893],[127.60938,37.78939],[127.60947,37.78939],[127.60945,37.78946],[127.60936,37.78946]]]}},{"type":"Feature","properties":{"valleyId":"gugok","layer":"shadow","date":"2026-08-01","timeLocal":"10:00"},"geometry":{"type":"Polygon","coordinates":[[[127.60977,37.78926],[127.60977,37.78921],[127.60984,37.78921],[127.60984,37.78927],[127.60977,37.78926]]]}},{"type":"Feature","properties":{"valleyId":"gugok","layer":"shadow","date":"2026-08-01","timeLocal":"10:00"},"geometry":{"type":"Polygon","coordinates":[[[127.60956,37.78932],[127.60954,37.78917],[127.60963,37.78917],[127.60963,37.78932],[127.60956,37.78932]]]}},{"type":"Feature","properties":{"valleyId":"gugok","layer":"shadow","date":"2026-08-01","timeLocal":"10:00"},"geometry":{"type":"Polygon","coordinates":[[[127.609,37.78918],[127.609,37.78911],[127.60907,37.78911],[127.60907,37.78918],[127.609,37.78918]]]}},{"type":"Feature","properties":{"valleyId":"gugok","layer":"shadow","date":"2026-08-01","timeLocal":"10:00"},"geometry":{"type":"Polygon","coordinates":[[[127.60945,37.78917],[127.60945,37.78912],[127.60952,37.78912],[127.60952,37.78917],[127.60945,37.78917]]]}},{"type":"Feature","properties":{"valleyId":"gugok","layer":"shadow","date":"2026-08-01","timeLocal":"10:00"},"geometry":{"type":"Polygon","coordinates":[[[127.60918,37.78915],[127.60918,37.7891],[127.6093,37.78908],[127.60929,37.78915],[127.60918,37.78915]]]}},{"type":"Feature","properties":{"valleyId":"gugok","layer":"shadow","date":"2026-08-01","timeLocal":"10:00"},"geometry":{"type":"Polygon","coordinates":[[[127.60889,37.78907],[127.60889,37.78902],[127.60898,37.789],[127.60898,37.78907],[127.60889,37.78907]]]}},{"type":"Feature","properties":{"valleyId":"gugok","layer":"shadow","date":"2026-08-01","timeLocal":"10:00"},"geometry":{"type":"Polygon","coordinates":[[[127.60861,37.78909],[127.60862,37.789],[127.60871,37.78898],[127.60871,37.78907],[127.60861,37.78909]]]}},{"type":"Feature","properties":{"valleyId":"gugok","layer":"shadow","date":"2026-08-01","timeLocal":"10:00"},"geometry":{"type":"Polygon","coordinates":[[[127.60946,37.78903],[127.60946,37.78897],[127.60953,37.78897],[127.60952,37.78903],[127.60946,37.78903]]]}},{"type":"Feature","properties":{"valleyId":"gugok","layer":"shadow","date":"2026-08-01","timeLocal":"10:00"},"geometry":{"type":"Polygon","coordinates":[[[127.60925,37.78893],[127.60925,37.78886],[127.60935,37.78886],[127.60934,37.78892],[127.60925,37.78893]]]}},{"type":"Feature","properties":{"valleyId":"gugok","layer":"shadow","date":"2026-08-01","timeLocal":"10:00"},"geometry":{"type":"Polygon","coordinates":[[[127.60905,37.7889],[127.60905,37.78886],[127.60898,37.78886],[127.60898,37.78875],[127.60912,37.78877],[127.60912,37.78884],[127.60916,37.78884],[127.60916,37.7889],[127.60905,37.7889]]]}},{"type":"Feature","properties":{"valleyId":"gugok","layer":"shadow","date":"2026-08-01","timeLocal":"10:00"},"geometry":{"type":"Polygon","coordinates":[[[127.60923,37.78881],[127.60923,37.78874],[127.60933,37.78874],[127.60932,37.78879],[127.60923,37.78881]]]}},{"type":"Feature","properties":{"valleyId":"gugok","layer":"shadow","date":"2026-08-01","timeLocal":"10:00"},"geometry":{"type":"Polygon","coordinates":[[[127.60912,37.78866],[127.60912,37.78857],[127.60919,37.78857],[127.60921,37.78865],[127.60912,37.78866]]]}},{"type":"Feature","properties":{"valleyId":"gugok","layer":"shadow","date":"2026-08-01","timeLocal":"10:00"},"geometry":{"type":"Polygon","coordinates":[[[127.60882,37.7888],[127.6088,37.78869],[127.60874,37.78869],[127.60874,37.78862],[127.60865,37.78862],[127.60865,37.78858],[127.60858,37.78858],[127.60858,37.78853],[127.60863,37.78849],[127.60869,37.78849],[127.60874,37.78857],[127.60885,37.78857],[127.60889,37.78871],[127.60896,37.78873],[127.60896,37.78879],[127.60882,37.7888]]]}}]}
