{"type":"FeatureCollection","metadata":{"description":"개방지(CHM ≤ 2 m)에 드리운 나무·지형 그림자, 2026-08-01 15:00 KST. canopy 위에 겹쳐 그린다","source":"위성 기반 추정 — Copernicus GLO-30 지형(30 m) + Meta/WRI 수관 높이(1 m CHM, 2016 촬영). 그늘 = 수관(CHM > 2 m) ∪ 나무·지형 그림자 ∪ 원거리 지형 마스크. 현장과 다를 수 있음.","datasetVersion":"2026-09-06.0","collectedAt":"2026-09-06","coordinateOrder":"[longitude, latitude]","crs":"EPSG:4326","representativeDate":"2026-08-01","hours":["10:00","11:00","12:00","13:00","14:00","15:00","16:00","17:00","18:00"],"chmAcquisition":["2016-06"],"assets":{"glo30":{"dataset":"Copernicus DEM GLO-30 (COG, s3://copernicus-dem-30m)","tiles":["Copernicus_DSM_COG_10_N37_00_E127_00_DEM"]},"chm":{"dataset":"Meta/WRI Global Canopy Height Map v1 (alsgedi_global_v6_float, 1 m, CC-BY 4.0)","quadkeys":["132110303"],"acquisition":["2016-06"]}},"method":{"gridResM":2,"canopyThresholdM":2,"bufferHalfM":25,"corridorHalfM":200,"simplifyTolM":2,"minAreaM2":25,"coordDecimals":5},"generator":"scripts/shade 0.1.0","builtAt":"2026-09-06T06:11:29Z","layer":"shadow","timeLocal":"15:00"},"features":[{"type":"Feature","properties":{"valleyId":"gugok","layer":"shadow","date":"2026-08-01","timeLocal":"15:00"},"geometry":{"type":"Polygon","coordinates":[[[127.61563,37.79763],[127.61563,37.79757],[127.6157,37.79757],[127.6157,37.79763],[127.61563,37.79763]]]}},{"type":"Feature","properties":{"valleyId":"gugok","layer":"shadow","date":"2026-08-01","timeLocal":"15:00"},"geometry":{"type":"Polygon","coordinates":[[[127.61615,37.79675],[127.61615,37.79669],[127.61622,37.79669],[127.61622,37.79675],[127.61615,37.79675]]]}},{"type":"Feature","properties":{"valleyId":"gugok","layer":"shadow","date":"2026-08-01","timeLocal":"15:00"},"geometry":{"type":"Polygon","coordinates":[[[127.61829,37.79668],[127.61829,37.79661],[127.61835,37.79661],[127.61838,37.79668],[127.61829,37.79668]]]}},{"type":"Feature","properties":{"valleyId":"gugok","layer":"shadow","date":"2026-08-01","timeLocal":"15:00"},"geometry":{"type":"Polygon","coordinates":[[[127.60712,37.79471],[127.60712,37.79466],[127.60719,37.79466],[127.60719,37.79471],[127.60712,37.79471]]]}},{"type":"Feature","properties":{"valleyId":"gugok","layer":"shadow","date":"2026-08-01","timeLocal":"15:00"},"geometry":{"type":"Polygon","coordinates":[[[127.60818,37.79408],[127.60818,37.79402],[127.60829,37.79402],[127.60829,37.79408],[127.60818,37.79408]]]}},{"type":"Feature","properties":{"valleyId":"gugok","layer":"shadow","date":"2026-08-01","timeLocal":"15:00"},"geometry":{"type":"Polygon","coordinates":[[[127.60836,37.79404],[127.60836,37.79399],[127.60843,37.79399],[127.60843,37.79404],[127.60836,37.79404]]]}},{"type":"Feature","properties":{"valleyId":"gugok","layer":"shadow","date":"2026-08-01","timeLocal":"15:00"},"geometry":{"type":"Polygon","coordinates":[[[127.60845,37.79403],[127.60848,37.79395],[127.60859,37.79396],[127.60857,37.79403],[127.60845,37.79403]]]}},{"type":"Feature","properties":{"valleyId":"gugok","layer":"shadow","date":"2026-08-01","timeLocal":"15:00"},"geometry":{"type":"Polygon","coordinates":[[[127.60794,37.79213],[127.60781,37.79209],[127.60781,37.79204],[127.60799,37.79206],[127.60801,37.79213],[127.60794,37.79213]]]}},{"type":"Feature","properties":{"valleyId":"gugok","layer":"shadow","date":"2026-08-01","timeLocal":"15:00"},"geometry":{"type":"Polygon","coordinates":[[[127.6114,37.79083],[127.6114,37.79078],[127.61149,37.79076],[127.61149,37.79082],[127.6114,37.79083]]]}},{"type":"Feature","properties":{"valleyId":"gugok","layer":"shadow","date":"2026-08-01","timeLocal":"15:00"},"geometry":{"type":"Polygon","coordinates":[[[127.61115,37.79058],[127.61115,37.79051],[127.61122,37.79051],[127.61122,37.79058],[127.61115,37.79058]]]}},{"type":"Feature","properties":{"valleyId":"gugok","layer":"shadow","date":"2026-08-01","timeLocal":"15:00"},"geometry":{"type":"Polygon","coordinates":[[[127.61156,37.79057],[127.61156,37.79048],[127.61163,37.79048],[127.61163,37.79057],[127.61156,37.79057]]]}},{"type":"Feature","properties":{"valleyId":"gugok","layer":"shadow","date":"2026-08-01","timeLocal":"15:00"},"geometry":{"type":"Polygon","coordinates":[[[127.61136,37.79051],[127.61134,37.79042],[127.61147,37.79042],[127.61147,37.79049],[127.61136,37.79051]]]}},{"type":"Feature","properties":{"valleyId":"gugok","layer":"shadow","date":"2026-08-01","timeLocal":"15:00"},"geometry":{"type":"Polygon","coordinates":[[[127.61093,37.79041],[127.61098,37.79029],[127.61104,37.79029],[127.61104,37.79038],[127.611,37.79041],[127.61093,37.79041]]]}},{"type":"Feature","properties":{"valleyId":"gugok","layer":"shadow","date":"2026-08-01","timeLocal":"15:00"},"geometry":{"type":"Polygon","coordinates":[[[127.61109,37.79015],[127.61107,37.79004],[127.61114,37.79004],[127.61116,37.79015],[127.61109,37.79015]]]}},{"type":"Feature","properties":{"valleyId":"gugok","layer":"shadow","date":"2026-08-01","timeLocal":"15:00"},"geometry":{"type":"Polygon","coordinates":[[[127.61139,37.79006],[127.61139,37.78997],[127.61146,37.78997],[127.61146,37.79006],[127.61139,37.79006]]]}},{"type":"Feature","properties":{"valleyId":"gugok","layer":"shadow","date":"2026-08-01","timeLocal":"15:00"},"geometry":{"type":"Polygon","coordinates":[[[127.61105,37.79002],[127.61105,37.78995],[127.61112,37.78995],[127.61112,37.79002],[127.61105,37.79002]]]}},{"type":"Feature","properties":{"valleyId":"gugok","layer":"shadow","date":"2026-08-01","timeLocal":"15:00"},"geometry":{"type":"Polygon","coordinates":[[[127.61004,37.78941],[127.61004,37.78936],[127.61013,37.78936],[127.61013,37.78941],[127.61004,37.78941]]]}},{"type":"Feature","properties":{"valleyId":"gugok","layer":"shadow","date":"2026-08-01","timeLocal":"15:00"},"geometry":{"type":"Polygon","coordinates":[[[127.61054,37.78931],[127.61054,37.78926],[127.61061,37.78926],[127.61061,37.78931],[127.61054,37.78931]]]}},{"type":"Feature","properties":{"valleyId":"gugok","layer":"shadow","date":"2026-08-01","timeLocal":"15:00"},"geometry":{"type":"Polygon","coordinates":[[[127.61009,37.78923],[127.61009,37.78918],[127.61016,37.78918],[127.61016,37.78923],[127.61009,37.78923]]]}},{"type":"Feature","properties":{"valleyId":"gugok","layer":"shadow","date":"2026-08-01","timeLocal":"15:00"},"geometry":{"type":"Polygon","coordinates":[[[127.6107,37.78919],[127.6107,37.7891],[127.61077,37.7891],[127.61077,37.78919],[127.6107,37.78919]]]}},{"type":"Feature","properties":{"valleyId":"gugok","layer":"shadow","date":"2026-08-01","timeLocal":"15:00"},"geometry":{"type":"Polygon","coordinates":[[[127.60969,37.78856],[127.60969,37.78845],[127.60979,37.78844],[127.60976,37.78856],[127.60969,37.78856]]]}}]}
