{"type":"FeatureCollection","metadata":{"description":"개방지(CHM ≤ 2 m)에 드리운 나무·지형 그림자, 2026-08-01 16:00 KST. canopy 위에 겹쳐 그린다","source":"위성 기반 추정 — Copernicus GLO-30 지형(30 m) + Meta/WRI 수관 높이(1 m CHM, 2019 촬영). 그늘 = 수관(CHM > 2 m) ∪ 나무·지형 그림자 ∪ 원거리 지형 마스크. 현장과 다를 수 있음.","datasetVersion":"2026-09-09.0","collectedAt":"2026-09-09","coordinateOrder":"[longitude, latitude]","crs":"EPSG:4326","representativeDate":"2026-08-01","hours":["10:00","11:00","12:00","13:00","14:00","15:00","16:00","17:00","18:00"],"chmAcquisition":["2019-05"],"assets":{"glo30":{"dataset":"Copernicus DEM GLO-30 (COG, s3://copernicus-dem-30m)","tiles":["Copernicus_DSM_COG_10_N35_00_E126_00_DEM","Copernicus_DSM_COG_10_N35_00_E127_00_DEM"]},"chm":{"dataset":"Meta/WRI Global Canopy Height Map v1 (alsgedi_global_v6_float, 1 m, CC-BY 4.0)","quadkeys":["132112120"],"acquisition":["2019-05"]}},"method":{"gridResM":2,"canopyThresholdM":2,"bufferHalfM":25,"corridorHalfM":200,"simplifyTolM":2,"minAreaM2":25,"coordDecimals":5},"generator":"scripts/shade 0.1.0","builtAt":"2026-09-08T15:42:21Z","layer":"shadow","timeLocal":"16:00"},"features":[{"type":"Feature","properties":{"valleyId":"wonhyo","layer":"shadow","date":"2026-08-01","timeLocal":"16:00"},"geometry":{"type":"Polygon","coordinates":[[[126.99702,35.16761],[126.99703,35.16756],[126.99709,35.16756],[126.99709,35.16762],[126.99702,35.16761]]]}},{"type":"Feature","properties":{"valleyId":"wonhyo","layer":"shadow","date":"2026-08-01","timeLocal":"16:00"},"geometry":{"type":"Polygon","coordinates":[[[126.99833,35.16719],[126.99833,35.16713],[126.99842,35.16711],[126.99842,35.16717],[126.99833,35.16719]]]}},{"type":"Feature","properties":{"valleyId":"wonhyo","layer":"shadow","date":"2026-08-01","timeLocal":"16:00"},"geometry":{"type":"Polygon","coordinates":[[[126.99916,35.16628],[126.99917,35.16617],[126.99925,35.16617],[126.99925,35.16628],[126.99916,35.16628]]]}},{"type":"Feature","properties":{"valleyId":"wonhyo","layer":"shadow","date":"2026-08-01","timeLocal":"16:00"},"geometry":{"type":"Polygon","coordinates":[[[126.98151,35.16536],[126.98151,35.16528],[126.98158,35.16528],[126.98158,35.16536],[126.98151,35.16536]]]}},{"type":"Feature","properties":{"valleyId":"wonhyo","layer":"shadow","date":"2026-08-01","timeLocal":"16:00"},"geometry":{"type":"Polygon","coordinates":[[[126.99499,35.16372],[126.99499,35.16367],[126.99495,35.16367],[126.99495,35.16361],[126.99506,35.16363],[126.99506,35.16372],[126.99499,35.16372]]]}},{"type":"Feature","properties":{"valleyId":"wonhyo","layer":"shadow","date":"2026-08-01","timeLocal":"16:00"},"geometry":{"type":"Polygon","coordinates":[[[126.99536,35.16366],[126.99534,35.16357],[126.99545,35.16357],[126.99545,35.16364],[126.99536,35.16366]]]}},{"type":"Feature","properties":{"valleyId":"wonhyo","layer":"shadow","date":"2026-08-01","timeLocal":"16:00"},"geometry":{"type":"Polygon","coordinates":[[[126.98206,35.16262],[126.98206,35.16257],[126.98213,35.16257],[126.98213,35.16262],[126.98206,35.16262]]]}},{"type":"Feature","properties":{"valleyId":"wonhyo","layer":"shadow","date":"2026-08-01","timeLocal":"16:00"},"geometry":{"type":"Polygon","coordinates":[[[126.99715,35.16268],[126.99715,35.16262],[126.99721,35.16262],[126.99721,35.16268],[126.99715,35.16268]]]}},{"type":"Feature","properties":{"valleyId":"wonhyo","layer":"shadow","date":"2026-08-01","timeLocal":"16:00"},"geometry":{"type":"Polygon","coordinates":[[[126.97801,35.16221],[126.97801,35.16216],[126.9781,35.16216],[126.9781,35.16222],[126.97801,35.16221]]]}},{"type":"Feature","properties":{"valleyId":"wonhyo","layer":"shadow","date":"2026-08-01","timeLocal":"16:00"},"geometry":{"type":"Polygon","coordinates":[[[126.97898,35.16191],[126.97899,35.16185],[126.97905,35.16185],[126.97905,35.16191],[126.97898,35.16191]]]}},{"type":"Feature","properties":{"valleyId":"wonhyo","layer":"shadow","date":"2026-08-01","timeLocal":"16:00"},"geometry":{"type":"Polygon","coordinates":[[[126.99289,35.16176],[126.99289,35.1617],[126.99298,35.16171],[126.99297,35.16176],[126.99289,35.16176]]]}},{"type":"Feature","properties":{"valleyId":"wonhyo","layer":"shadow","date":"2026-08-01","timeLocal":"16:00"},"geometry":{"type":"Polygon","coordinates":[[[126.99144,35.16071],[126.99142,35.1606],[126.99153,35.1606],[126.99153,35.16071],[126.99144,35.16071]]]}},{"type":"Feature","properties":{"valleyId":"wonhyo","layer":"shadow","date":"2026-08-01","timeLocal":"16:00"},"geometry":{"type":"Polygon","coordinates":[[[126.99452,35.15973],[126.99454,35.1596],[126.99461,35.1596],[126.9946,35.15971],[126.99452,35.15973]]]}},{"type":"Feature","properties":{"valleyId":"wonhyo","layer":"shadow","date":"2026-08-01","timeLocal":"16:00"},"geometry":{"type":"Polygon","coordinates":[[[126.98965,35.15599],[126.9896,35.15592],[126.98961,35.15586],[126.98969,35.15586],[126.98971,35.15599],[126.98965,35.15599]]]}},{"type":"Feature","properties":{"valleyId":"wonhyo","layer":"shadow","date":"2026-08-01","timeLocal":"16:00"},"geometry":{"type":"Polygon","coordinates":[[[126.99127,35.15263],[126.99127,35.15257],[126.99133,35.15257],[126.99133,35.15263],[126.99127,35.15263]]]}},{"type":"Feature","properties":{"valleyId":"wonhyo","layer":"shadow","date":"2026-08-01","timeLocal":"16:00"},"geometry":{"type":"Polygon","coordinates":[[[126.98853,35.15226],[126.98853,35.15218],[126.9886,35.15218],[126.9886,35.15226],[126.98853,35.15226]]]}},{"type":"Feature","properties":{"valleyId":"wonhyo","layer":"shadow","date":"2026-08-01","timeLocal":"16:00"},"geometry":{"type":"Polygon","coordinates":[[[126.98865,35.15202],[126.98865,35.15197],[126.98871,35.15197],[126.98871,35.15202],[126.98865,35.15202]]]}},{"type":"Feature","properties":{"valleyId":"wonhyo","layer":"shadow","date":"2026-08-01","timeLocal":"16:00"},"geometry":{"type":"Polygon","coordinates":[[[126.98867,35.15192],[126.98868,35.15166],[126.9887,35.15163],[126.98877,35.15163],[126.98878,35.15179],[126.98874,35.15184],[126.98874,35.15192],[126.98867,35.15192]]]}},{"type":"Feature","properties":{"valleyId":"wonhyo","layer":"shadow","date":"2026-08-01","timeLocal":"16:00"},"geometry":{"type":"Polygon","coordinates":[[[126.98867,35.15118],[126.98863,35.1511],[126.98863,35.15089],[126.9887,35.15089],[126.9887,35.15094],[126.98874,35.15098],[126.98873,35.15118],[126.98867,35.15118]]]}},{"type":"Feature","properties":{"valleyId":"wonhyo","layer":"shadow","date":"2026-08-01","timeLocal":"16:00"},"geometry":{"type":"Polygon","coordinates":[[[126.9874,35.14906],[126.98743,35.14878],[126.9875,35.14878],[126.98751,35.14901],[126.98747,35.14903],[126.98747,35.14906],[126.9874,35.14906]]]}},{"type":"Feature","properties":{"valleyId":"wonhyo","layer":"shadow","date":"2026-08-01","timeLocal":"16:00"},"geometry":{"type":"Polygon","coordinates":[[[126.98721,35.14798],[126.98721,35.14789],[126.98728,35.14789],[126.98728,35.14798],[126.98721,35.14798]]]}},{"type":"Feature","properties":{"valleyId":"wonhyo","layer":"shadow","date":"2026-08-01","timeLocal":"16:00"},"geometry":{"type":"Polygon","coordinates":[[[126.98825,35.14758],[126.98825,35.14745],[126.98832,35.14746],[126.98834,35.14755],[126.98832,35.14758],[126.98825,35.14758]]]}},{"type":"Feature","properties":{"valleyId":"wonhyo","layer":"shadow","date":"2026-08-01","timeLocal":"16:00"},"geometry":{"type":"Polygon","coordinates":[[[126.98828,35.14718],[126.98828,35.14713],[126.98835,35.14713],[126.98835,35.14719],[126.98828,35.14718]]]}},{"type":"Feature","properties":{"valleyId":"wonhyo","layer":"shadow","date":"2026-08-01","timeLocal":"16:00"},"geometry":{"type":"Polygon","coordinates":[[[126.98498,35.14682],[126.98498,35.14675],[126.98504,35.14675],[126.98504,35.14682],[126.98498,35.14682]]]}},{"type":"Feature","properties":{"valleyId":"wonhyo","layer":"shadow","date":"2026-08-01","timeLocal":"16:00"},"geometry":{"type":"Polygon","coordinates":[[[126.98814,35.14496],[126.98814,35.14487],[126.98821,35.14488],[126.98821,35.14497],[126.98814,35.14496]]]}}]}
