{"type":"FeatureCollection","metadata":{"description":"개방지(CHM ≤ 2 m)에 드리운 나무·지형 그림자, 2026-08-01 10:00 KST. canopy 위에 겹쳐 그린다","source":"위성 기반 추정 — Copernicus GLO-30 지형(30 m) + Meta/WRI 수관 높이(1 m CHM, 2016 촬영). 그늘 = 수관(CHM > 2 m) ∪ 나무·지형 그림자 ∪ 원거리 지형 마스크. 현장과 다를 수 있음.","datasetVersion":"2026-09-06.0","collectedAt":"2026-09-06","coordinateOrder":"[longitude, latitude]","crs":"EPSG:4326","representativeDate":"2026-08-01","hours":["10:00","11:00","12:00","13:00","14:00","15:00","16:00","17:00","18:00"],"chmAcquisition":["2016-06"],"assets":{"glo30":{"dataset":"Copernicus DEM GLO-30 (COG, s3://copernicus-dem-30m)","tiles":["Copernicus_DSM_COG_10_N37_00_E127_00_DEM"]},"chm":{"dataset":"Meta/WRI Global Canopy Height Map v1 (alsgedi_global_v6_float, 1 m, CC-BY 4.0)","quadkeys":["132110321"],"acquisition":["2016-06"]}},"method":{"gridResM":2,"canopyThresholdM":2,"bufferHalfM":25,"corridorHalfM":200,"simplifyTolM":2,"minAreaM2":25,"coordDecimals":5},"generator":"scripts/shade 0.1.0","builtAt":"2026-09-06T05:57:25Z","layer":"shadow","timeLocal":"10:00"},"features":[{"type":"Feature","properties":{"valleyId":"yumyeongsan","layer":"shadow","date":"2026-08-01","timeLocal":"10:00"},"geometry":{"type":"Polygon","coordinates":[[[127.48972,37.59301],[127.48972,37.5929],[127.48979,37.5929],[127.48979,37.59301],[127.48972,37.59301]]]}},{"type":"Feature","properties":{"valleyId":"yumyeongsan","layer":"shadow","date":"2026-08-01","timeLocal":"10:00"},"geometry":{"type":"Polygon","coordinates":[[[127.48984,37.59274],[127.48984,37.59268],[127.48991,37.59268],[127.48991,37.59274],[127.48984,37.59274]]]}},{"type":"Feature","properties":{"valleyId":"yumyeongsan","layer":"shadow","date":"2026-08-01","timeLocal":"10:00"},"geometry":{"type":"Polygon","coordinates":[[[127.49165,37.59265],[127.49168,37.59256],[127.49175,37.59256],[127.49174,37.59265],[127.49165,37.59265]]]}},{"type":"Feature","properties":{"valleyId":"yumyeongsan","layer":"shadow","date":"2026-08-01","timeLocal":"10:00"},"geometry":{"type":"Polygon","coordinates":[[[127.49234,37.59216],[127.49234,37.59208],[127.49241,37.59209],[127.49241,37.59216],[127.49234,37.59216]]]}},{"type":"Feature","properties":{"valleyId":"yumyeongsan","layer":"shadow","date":"2026-08-01","timeLocal":"10:00"},"geometry":{"type":"Polygon","coordinates":[[[127.4937,37.59205],[127.49371,37.59192],[127.49377,37.59192],[127.49379,37.59203],[127.4937,37.59205]]]}},{"type":"Feature","properties":{"valleyId":"yumyeongsan","layer":"shadow","date":"2026-08-01","timeLocal":"10:00"},"geometry":{"type":"Polygon","coordinates":[[[127.48904,37.59193],[127.48897,37.5919],[127.48897,37.59184],[127.48911,37.59188],[127.48911,37.59194],[127.48904,37.59193]]]}},{"type":"Feature","properties":{"valleyId":"yumyeongsan","layer":"shadow","date":"2026-08-01","timeLocal":"10:00"},"geometry":{"type":"Polygon","coordinates":[[[127.49038,37.59177],[127.49038,37.59172],[127.49045,37.59172],[127.49045,37.59177],[127.49038,37.59177]]]}},{"type":"Feature","properties":{"valleyId":"yumyeongsan","layer":"shadow","date":"2026-08-01","timeLocal":"10:00"},"geometry":{"type":"Polygon","coordinates":[[[127.49357,37.5917],[127.49358,37.59165],[127.49367,37.59165],[127.49367,37.59171],[127.49357,37.5917]]]}},{"type":"Feature","properties":{"valleyId":"yumyeongsan","layer":"shadow","date":"2026-08-01","timeLocal":"10:00"},"geometry":{"type":"Polygon","coordinates":[[[127.49043,37.59166],[127.49043,37.59159],[127.4905,37.59159],[127.49049,37.59166],[127.49043,37.59166]]]}},{"type":"Feature","properties":{"valleyId":"yumyeongsan","layer":"shadow","date":"2026-08-01","timeLocal":"10:00"},"geometry":{"type":"Polygon","coordinates":[[[127.49152,37.59013],[127.49152,37.59007],[127.49159,37.59007],[127.49159,37.59013],[127.49152,37.59013]]]}},{"type":"Feature","properties":{"valleyId":"yumyeongsan","layer":"shadow","date":"2026-08-01","timeLocal":"10:00"},"geometry":{"type":"Polygon","coordinates":[[[127.49087,37.58976],[127.49087,37.5897],[127.49083,37.5897],[127.49081,37.5896],[127.49088,37.5896],[127.4909,37.58971],[127.49094,37.58971],[127.49094,37.58976],[127.49087,37.58976]]]}},{"type":"Feature","properties":{"valleyId":"yumyeongsan","layer":"shadow","date":"2026-08-01","timeLocal":"10:00"},"geometry":{"type":"Polygon","coordinates":[[[127.49284,37.58867],[127.49284,37.58861],[127.49291,37.58861],[127.49291,37.58867],[127.49284,37.58867]]]}},{"type":"Feature","properties":{"valleyId":"yumyeongsan","layer":"shadow","date":"2026-08-01","timeLocal":"10:00"},"geometry":{"type":"Polygon","coordinates":[[[127.49742,37.58425],[127.49742,37.5842],[127.49749,37.5842],[127.49748,37.58426],[127.49742,37.58425]]]}},{"type":"Feature","properties":{"valleyId":"yumyeongsan","layer":"shadow","date":"2026-08-01","timeLocal":"10:00"},"geometry":{"type":"Polygon","coordinates":[[[127.49558,37.5842],[127.49558,37.58414],[127.49565,37.58414],[127.49565,37.5842],[127.49558,37.5842]]]}},{"type":"Feature","properties":{"valleyId":"yumyeongsan","layer":"shadow","date":"2026-08-01","timeLocal":"10:00"},"geometry":{"type":"Polygon","coordinates":[[[127.49547,37.58416],[127.49545,37.58407],[127.49554,37.58405],[127.49556,37.58416],[127.49547,37.58416]]]}},{"type":"Feature","properties":{"valleyId":"yumyeongsan","layer":"shadow","date":"2026-08-01","timeLocal":"10:00"},"geometry":{"type":"Polygon","coordinates":[[[127.49745,37.58388],[127.49733,37.58384],[127.49734,37.58378],[127.49752,37.58382],[127.49751,37.58388],[127.49745,37.58388]]]}},{"type":"Feature","properties":{"valleyId":"yumyeongsan","layer":"shadow","date":"2026-08-01","timeLocal":"10:00"},"geometry":{"type":"Polygon","coordinates":[[[127.49924,37.57941],[127.49921,37.57932],[127.49928,37.57932],[127.49933,37.57936],[127.49933,37.57941],[127.49924,37.57941]]]}},{"type":"Feature","properties":{"valleyId":"yumyeongsan","layer":"shadow","date":"2026-08-01","timeLocal":"10:00"},"geometry":{"type":"Polygon","coordinates":[[[127.50026,37.57937],[127.50021,37.57935],[127.50017,37.57922],[127.50033,37.57924],[127.50035,37.57937],[127.50026,37.57937]]]}},{"type":"Feature","properties":{"valleyId":"yumyeongsan","layer":"shadow","date":"2026-08-01","timeLocal":"10:00"},"geometry":{"type":"Polygon","coordinates":[[[127.50001,37.5792],[127.50001,37.57908],[127.50008,37.57908],[127.50008,37.57921],[127.50001,37.5792]]]}}]}
