{"type":"FeatureCollection","metadata":{"description":"개방지(CHM ≤ 2 m)에 드리운 나무·지형 그림자, 2026-08-01 17:00 KST. canopy 위에 겹쳐 그린다","source":"위성 기반 추정 — Copernicus GLO-30 지형(30 m) + Meta/WRI 수관 높이(1 m CHM, 2016 촬영). 그늘 = 수관(CHM > 2 m) ∪ 나무·지형 그림자 ∪ 원거리 지형 마스크. 현장과 다를 수 있음.","datasetVersion":"2026-09-06.0","collectedAt":"2026-09-06","coordinateOrder":"[longitude, latitude]","crs":"EPSG:4326","representativeDate":"2026-08-01","hours":["10:00","11:00","12:00","13:00","14:00","15:00","16:00","17:00","18:00"],"chmAcquisition":["2016-06"],"assets":{"glo30":{"dataset":"Copernicus DEM GLO-30 (COG, s3://copernicus-dem-30m)","tiles":["Copernicus_DSM_COG_10_N37_00_E127_00_DEM"]},"chm":{"dataset":"Meta/WRI Global Canopy Height Map v1 (alsgedi_global_v6_float, 1 m, CC-BY 4.0)","quadkeys":["132110321"],"acquisition":["2016-06"]}},"method":{"gridResM":2,"canopyThresholdM":2,"bufferHalfM":25,"corridorHalfM":200,"simplifyTolM":2,"minAreaM2":25,"coordDecimals":5},"generator":"scripts/shade 0.1.0","builtAt":"2026-09-06T05:57:25Z","layer":"shadow","timeLocal":"17:00"},"features":[{"type":"Feature","properties":{"valleyId":"yumyeongsan","layer":"shadow","date":"2026-08-01","timeLocal":"17:00"},"geometry":{"type":"Polygon","coordinates":[[[127.48988,37.59416],[127.48981,37.59413],[127.48981,37.59407],[127.48997,37.59411],[127.48997,37.59416],[127.48988,37.59416]]]}},{"type":"Feature","properties":{"valleyId":"yumyeongsan","layer":"shadow","date":"2026-08-01","timeLocal":"17:00"},"geometry":{"type":"Polygon","coordinates":[[[127.48972,37.59403],[127.48968,37.594],[127.48968,37.59394],[127.48979,37.59396],[127.48979,37.59404],[127.48972,37.59403]]]}},{"type":"Feature","properties":{"valleyId":"yumyeongsan","layer":"shadow","date":"2026-08-01","timeLocal":"17:00"},"geometry":{"type":"Polygon","coordinates":[[[127.48956,37.59421],[127.48954,37.59416],[127.48947,37.59412],[127.48941,37.59398],[127.48936,37.59396],[127.48936,37.5939],[127.48932,37.5939],[127.48932,37.59385],[127.48927,37.59385],[127.48927,37.59379],[127.48934,37.5938],[127.48938,37.5939],[127.48952,37.59396],[127.48954,37.59407],[127.48963,37.59416],[127.48963,37.59421],[127.48956,37.59421]]]}},{"type":"Feature","properties":{"valleyId":"yumyeongsan","layer":"shadow","date":"2026-08-01","timeLocal":"17:00"},"geometry":{"type":"Polygon","coordinates":[[[127.4902,37.59408],[127.49004,37.59397],[127.49004,37.59389],[127.49011,37.59386],[127.49013,37.59377],[127.49025,37.59377],[127.4902,37.59393],[127.49029,37.59401],[127.49029,37.59406],[127.4902,37.59408]]]}},{"type":"Feature","properties":{"valleyId":"yumyeongsan","layer":"shadow","date":"2026-08-01","timeLocal":"17:00"},"geometry":{"type":"Polygon","coordinates":[[[127.49029,37.59375],[127.49034,37.59363],[127.49041,37.59363],[127.49043,37.59372],[127.49038,37.59375],[127.49029,37.59375]]]}},{"type":"Feature","properties":{"valleyId":"yumyeongsan","layer":"shadow","date":"2026-08-01","timeLocal":"17:00"},"geometry":{"type":"Polygon","coordinates":[[[127.48751,37.59361],[127.48749,37.59354],[127.48762,37.59356],[127.48762,37.59361],[127.48751,37.59361]]]}},{"type":"Feature","properties":{"valleyId":"yumyeongsan","layer":"shadow","date":"2026-08-01","timeLocal":"17:00"},"geometry":{"type":"Polygon","coordinates":[[[127.49086,37.59365],[127.49084,37.59356],[127.49091,37.59356],[127.49093,37.59365],[127.49086,37.59365]]]}},{"type":"Feature","properties":{"valleyId":"yumyeongsan","layer":"shadow","date":"2026-08-01","timeLocal":"17:00"},"geometry":{"type":"Polygon","coordinates":[[[127.48955,37.59367],[127.48948,37.59363],[127.48948,37.59349],[127.48953,37.59345],[127.48969,37.59344],[127.48966,37.59367],[127.48955,37.59367]]]}},{"type":"Feature","properties":{"valleyId":"yumyeongsan","layer":"shadow","date":"2026-08-01","timeLocal":"17:00"},"geometry":{"type":"Polygon","coordinates":[[[127.48991,37.59362],[127.48987,37.59357],[127.48987,37.59339],[127.48996,37.59339],[127.49,37.5935],[127.49,37.59362],[127.48991,37.59362]]]}},{"type":"Feature","properties":{"valleyId":"yumyeongsan","layer":"shadow","date":"2026-08-01","timeLocal":"17:00"},"geometry":{"type":"Polygon","coordinates":[[[127.48685,37.59355],[127.48681,37.59347],[127.48684,37.59331],[127.487,37.59333],[127.48699,37.59348],[127.48704,37.5935],[127.48704,37.59355],[127.48685,37.59355]]]}},{"type":"Feature","properties":{"valleyId":"yumyeongsan","layer":"shadow","date":"2026-08-01","timeLocal":"17:00"},"geometry":{"type":"Polygon","coordinates":[[[127.48923,37.59374],[127.48919,37.59367],[127.48919,37.59354],[127.4891,37.59343],[127.48908,37.5933],[127.48922,37.59331],[127.48921,37.59334],[127.48926,37.59334],[127.48923,37.59354],[127.48928,37.5936],[127.4893,37.59374],[127.48923,37.59374]]]}},{"type":"Feature","properties":{"valleyId":"yumyeongsan","layer":"shadow","date":"2026-08-01","timeLocal":"17:00"},"geometry":{"type":"Polygon","coordinates":[[[127.49016,37.59357],[127.49012,37.59335],[127.49014,37.59328],[127.49026,37.59328],[127.49025,37.59357],[127.49016,37.59357]]]}},{"type":"Feature","properties":{"valleyId":"yumyeongsan","layer":"shadow","date":"2026-08-01","timeLocal":"17:00"},"geometry":{"type":"Polygon","coordinates":[[[127.48974,37.59333],[127.48974,37.59328],[127.48981,37.59328],[127.4898,37.59333],[127.48974,37.59333]]]}},{"type":"Feature","properties":{"valleyId":"yumyeongsan","layer":"shadow","date":"2026-08-01","timeLocal":"17:00"},"geometry":{"type":"Polygon","coordinates":[[[127.49168,37.59341],[127.49173,37.59328],[127.4918,37.59329],[127.49177,37.59339],[127.49168,37.59341]]]}},{"type":"Feature","properties":{"valleyId":"yumyeongsan","layer":"shadow","date":"2026-08-01","timeLocal":"17:00"},"geometry":{"type":"Polygon","coordinates":[[[127.48804,37.59322],[127.48804,37.59317],[127.48811,37.59317],[127.48811,37.59322],[127.48804,37.59322]]]}},{"type":"Feature","properties":{"valleyId":"yumyeongsan","layer":"shadow","date":"2026-08-01","timeLocal":"17:00"},"geometry":{"type":"Polygon","coordinates":[[[127.48978,37.59324],[127.48978,37.59319],[127.48985,37.59319],[127.48985,37.59324],[127.48978,37.59324]]]}},{"type":"Feature","properties":{"valleyId":"yumyeongsan","layer":"shadow","date":"2026-08-01","timeLocal":"17:00"},"geometry":{"type":"Polygon","coordinates":[[[127.49135,37.59328],[127.49135,37.59314],[127.49142,37.59314],[127.49141,37.59328],[127.49135,37.59328]]]}},{"type":"Feature","properties":{"valleyId":"yumyeongsan","layer":"shadow","date":"2026-08-01","timeLocal":"17:00"},"geometry":{"type":"Polygon","coordinates":[[[127.48677,37.59331],[127.48668,37.59329],[127.48668,37.59324],[127.48682,37.5932],[127.48684,37.59304],[127.48693,37.59304],[127.48698,37.59308],[127.48709,37.5931],[127.48707,37.59321],[127.48684,37.59322],[127.48684,37.59331],[127.48677,37.59331]]]}},{"type":"Feature","properties":{"valleyId":"yumyeongsan","layer":"shadow","date":"2026-08-01","timeLocal":"17:00"},"geometry":{"type":"Polygon","coordinates":[[[127.49005,37.59325],[127.48997,37.59315],[127.48999,37.59308],[127.49006,37.59308],[127.49006,37.59316],[127.49012,37.59317],[127.49012,37.59325],[127.49005,37.59325]]]}},{"type":"Feature","properties":{"valleyId":"yumyeongsan","layer":"shadow","date":"2026-08-01","timeLocal":"17:00"},"geometry":{"type":"Polygon","coordinates":[[[127.48915,37.59316],[127.48915,37.59305],[127.48924,37.59305],[127.48924,37.59314],[127.48915,37.59316]]]}},{"type":"Feature","properties":{"valleyId":"yumyeongsan","layer":"shadow","date":"2026-08-01","timeLocal":"17:00"},"geometry":{"type":"Polygon","coordinates":[[[127.4896,37.59315],[127.48961,37.59306],[127.48967,37.59306],[127.48967,37.59315],[127.4896,37.59315]]]}},{"type":"Feature","properties":{"valleyId":"yumyeongsan","layer":"shadow","date":"2026-08-01","timeLocal":"17:00"},"geometry":{"type":"Polygon","coordinates":[[[127.48795,37.59316],[127.48795,37.59313],[127.48791,37.59311],[127.48791,37.59304],[127.48798,37.59304],[127.48802,37.59311],[127.48802,37.59317],[127.48795,37.59316]]]}},{"type":"Feature","properties":{"valleyId":"yumyeongsan","layer":"shadow","date":"2026-08-01","timeLocal":"17:00"},"geometry":{"type":"Polygon","coordinates":[[[127.48886,37.59307],[127.48886,37.593],[127.48893,37.593],[127.48893,37.59307],[127.48886,37.59307]]]}},{"type":"Feature","properties":{"valleyId":"yumyeongsan","layer":"shadow","date":"2026-08-01","timeLocal":"17:00"},"geometry":{"type":"Polygon","coordinates":[[[127.49013,37.59307],[127.49013,37.59299],[127.4902,37.59299],[127.49019,37.59307],[127.49013,37.59307]]]}},{"type":"Feature","properties":{"valleyId":"yumyeongsan","layer":"shadow","date":"2026-08-01","timeLocal":"17:00"},"geometry":{"type":"Polygon","coordinates":[[[127.49142,37.59308],[127.4914,37.59301],[127.49149,37.59299],[127.49149,37.59308],[127.49142,37.59308]]]}},{"type":"Feature","properties":{"valleyId":"yumyeongsan","layer":"shadow","date":"2026-08-01","timeLocal":"17:00"},"geometry":{"type":"Polygon","coordinates":[[[127.48893,37.593],[127.48893,37.59294],[127.48902,37.59294],[127.48902,37.593],[127.48893,37.593]]]}},{"type":"Feature","properties":{"valleyId":"yumyeongsan","layer":"shadow","date":"2026-08-01","timeLocal":"17:00"},"geometry":{"type":"Polygon","coordinates":[[[127.48967,37.59306],[127.48968,37.59288],[127.48979,37.59288],[127.48979,37.59301],[127.48974,37.59306],[127.48967,37.59306]]]}},{"type":"Feature","properties":{"valleyId":"yumyeongsan","layer":"shadow","date":"2026-08-01","timeLocal":"17:00"},"geometry":{"type":"Polygon","coordinates":[[[127.49151,37.59296],[127.49151,37.5929],[127.49158,37.5929],[127.49158,37.59296],[127.49151,37.59296]]]}},{"type":"Feature","properties":{"valleyId":"yumyeongsan","layer":"shadow","date":"2026-08-01","timeLocal":"17:00"},"geometry":{"type":"Polygon","coordinates":[[[127.48882,37.59289],[127.48882,37.59283],[127.48889,37.59283],[127.48888,37.59289],[127.48882,37.59289]]]}},{"type":"Feature","properties":{"valleyId":"yumyeongsan","layer":"shadow","date":"2026-08-01","timeLocal":"17:00"},"geometry":{"type":"Polygon","coordinates":[[[127.49008,37.59298],[127.49006,37.59285],[127.49002,37.59285],[127.49002,37.59279],[127.49009,37.5928],[127.49009,37.59285],[127.49018,37.59285],[127.49015,37.59298],[127.49008,37.59298]]]}},{"type":"Feature","properties":{"valleyId":"yumyeongsan","layer":"shadow","date":"2026-08-01","timeLocal":"17:00"},"geometry":{"type":"Polygon","coordinates":[[[127.49203,37.59284],[127.49206,37.59273],[127.49213,37.59273],[127.49212,37.59282],[127.49203,37.59284]]]}},{"type":"Feature","properties":{"valleyId":"yumyeongsan","layer":"shadow","date":"2026-08-01","timeLocal":"17:00"},"geometry":{"type":"Polygon","coordinates":[[[127.48977,37.59279],[127.48977,37.59272],[127.48986,37.5927],[127.48984,37.59279],[127.48977,37.59279]]]}},{"type":"Feature","properties":{"valleyId":"yumyeongsan","layer":"shadow","date":"2026-08-01","timeLocal":"17:00"},"geometry":{"type":"Polygon","coordinates":[[[127.49269,37.59279],[127.49269,37.59274],[127.49278,37.59274],[127.49278,37.59279],[127.49269,37.59279]]]}},{"type":"Feature","properties":{"valleyId":"yumyeongsan","layer":"shadow","date":"2026-08-01","timeLocal":"17:00"},"geometry":{"type":"Polygon","coordinates":[[[127.49299,37.59283],[127.49297,37.59269],[127.49303,37.59269],[127.49303,37.59272],[127.49308,37.59273],[127.49308,37.59282],[127.49299,37.59283]]]}},{"type":"Feature","properties":{"valleyId":"yumyeongsan","layer":"shadow","date":"2026-08-01","timeLocal":"17:00"},"geometry":{"type":"Polygon","coordinates":[[[127.4866,37.59264],[127.4866,37.59257],[127.48667,37.59257],[127.48669,37.59264],[127.4866,37.59264]]]}},{"type":"Feature","properties":{"valleyId":"yumyeongsan","layer":"shadow","date":"2026-08-01","timeLocal":"17:00"},"geometry":{"type":"Polygon","coordinates":[[[127.48975,37.59265],[127.48975,37.59259],[127.48982,37.59259],[127.48982,37.59265],[127.48975,37.59265]]]}},{"type":"Feature","properties":{"valleyId":"yumyeongsan","layer":"shadow","date":"2026-08-01","timeLocal":"17:00"},"geometry":{"type":"Polygon","coordinates":[[[127.49156,37.59267],[127.49156,37.59258],[127.49163,37.59258],[127.49165,37.59265],[127.49156,37.59267]]]}},{"type":"Feature","properties":{"valleyId":"yumyeongsan","layer":"shadow","date":"2026-08-01","timeLocal":"17:00"},"geometry":{"type":"Polygon","coordinates":[[[127.49068,37.59264],[127.49068,37.59257],[127.49075,37.59257],[127.49077,37.59264],[127.49068,37.59264]]]}},{"type":"Feature","properties":{"valleyId":"yumyeongsan","layer":"shadow","date":"2026-08-01","timeLocal":"17:00"},"geometry":{"type":"Polygon","coordinates":[[[127.49111,37.59263],[127.49111,37.59256],[127.49118,37.59256],[127.49118,37.59263],[127.49111,37.59263]]]}},{"type":"Feature","properties":{"valleyId":"yumyeongsan","layer":"shadow","date":"2026-08-01","timeLocal":"17:00"},"geometry":{"type":"Polygon","coordinates":[[[127.49011,37.59276],[127.49011,37.59263],[127.49023,37.59254],[127.49023,37.59251],[127.4903,37.59251],[127.49027,37.59273],[127.4902,37.59276],[127.49011,37.59276]]]}},{"type":"Feature","properties":{"valleyId":"yumyeongsan","layer":"shadow","date":"2026-08-01","timeLocal":"17:00"},"geometry":{"type":"Polygon","coordinates":[[[127.49265,37.59259],[127.49265,37.59254],[127.49272,37.59254],[127.49272,37.59259],[127.49265,37.59259]]]}},{"type":"Feature","properties":{"valleyId":"yumyeongsan","layer":"shadow","date":"2026-08-01","timeLocal":"17:00"},"geometry":{"type":"Polygon","coordinates":[[[127.49195,37.59269],[127.49193,37.59262],[127.49197,37.59251],[127.49206,37.59251],[127.49208,37.59266],[127.49206,37.59269],[127.49195,37.59269]]]}},{"type":"Feature","properties":{"valleyId":"yumyeongsan","layer":"shadow","date":"2026-08-01","timeLocal":"17:00"},"geometry":{"type":"Polygon","coordinates":[[[127.48742,37.59247],[127.48742,37.59242],[127.48749,37.59242],[127.48749,37.59247],[127.48742,37.59247]]]}},{"type":"Feature","properties":{"valleyId":"yumyeongsan","layer":"shadow","date":"2026-08-01","timeLocal":"17:00"},"geometry":{"type":"Polygon","coordinates":[[[127.48823,37.59256],[127.48826,37.59241],[127.48835,37.59241],[127.4883,37.59256],[127.48823,37.59256]]]}},{"type":"Feature","properties":{"valleyId":"yumyeongsan","layer":"shadow","date":"2026-08-01","timeLocal":"17:00"},"geometry":{"type":"Polygon","coordinates":[[[127.48661,37.59241],[127.48661,37.59235],[127.48668,37.59235],[127.48667,37.59241],[127.48661,37.59241]]]}},{"type":"Feature","properties":{"valleyId":"yumyeongsan","layer":"shadow","date":"2026-08-01","timeLocal":"17:00"},"geometry":{"type":"Polygon","coordinates":[[[127.49034,37.59246],[127.49034,37.59238],[127.49044,37.59237],[127.49043,37.59244],[127.49034,37.59246]]]}},{"type":"Feature","properties":{"valleyId":"yumyeongsan","layer":"shadow","date":"2026-08-01","timeLocal":"17:00"},"geometry":{"type":"Polygon","coordinates":[[[127.48806,37.59237],[127.48799,37.59232],[127.48799,37.59226],[127.4881,37.59228],[127.48812,37.59237],[127.48806,37.59237]]]}},{"type":"Feature","properties":{"valleyId":"yumyeongsan","layer":"shadow","date":"2026-08-01","timeLocal":"17:00"},"geometry":{"type":"Polygon","coordinates":[[[127.49188,37.5924],[127.49189,37.5923],[127.49195,37.5923],[127.49198,37.59239],[127.49188,37.5924]]]}},{"type":"Feature","properties":{"valleyId":"yumyeongsan","layer":"shadow","date":"2026-08-01","timeLocal":"17:00"},"geometry":{"type":"Polygon","coordinates":[[[127.48654,37.59234],[127.48659,37.59219],[127.48672,37.59221],[127.48672,37.59227],[127.48663,37.59228],[127.48663,37.59234],[127.48654,37.59234]]]}},{"type":"Feature","properties":{"valleyId":"yumyeongsan","layer":"shadow","date":"2026-08-01","timeLocal":"17:00"},"geometry":{"type":"Polygon","coordinates":[[[127.4872,37.59225],[127.4872,37.59218],[127.48734,37.59218],[127.48733,37.59224],[127.4872,37.59225]]]}},{"type":"Feature","properties":{"valleyId":"yumyeongsan","layer":"shadow","date":"2026-08-01","timeLocal":"17:00"},"geometry":{"type":"Polygon","coordinates":[[[127.49334,37.59233],[127.49331,37.59226],[127.49341,37.59224],[127.4934,37.59233],[127.49334,37.59233]]]}},{"type":"Feature","properties":{"valleyId":"yumyeongsan","layer":"shadow","date":"2026-08-01","timeLocal":"17:00"},"geometry":{"type":"Polygon","coordinates":[[[127.48894,37.59222],[127.48894,37.59215],[127.48906,37.59215],[127.48906,37.59221],[127.48894,37.59222]]]}},{"type":"Feature","properties":{"valleyId":"yumyeongsan","layer":"shadow","date":"2026-08-01","timeLocal":"17:00"},"geometry":{"type":"Polygon","coordinates":[[[127.49248,37.59225],[127.49248,37.59218],[127.49259,37.5922],[127.49259,37.59225],[127.49248,37.59225]]]}},{"type":"Feature","properties":{"valleyId":"yumyeongsan","layer":"shadow","date":"2026-08-01","timeLocal":"17:00"},"geometry":{"type":"Polygon","coordinates":[[[127.48777,37.59219],[127.48777,37.59208],[127.48784,37.59208],[127.48783,37.59219],[127.48777,37.59219]]]}},{"type":"Feature","properties":{"valleyId":"yumyeongsan","layer":"shadow","date":"2026-08-01","timeLocal":"17:00"},"geometry":{"type":"Polygon","coordinates":[[[127.493,37.59208],[127.493,37.59202],[127.49307,37.59202],[127.49307,37.59208],[127.493,37.59208]]]}},{"type":"Feature","properties":{"valleyId":"yumyeongsan","layer":"shadow","date":"2026-08-01","timeLocal":"17:00"},"geometry":{"type":"Polygon","coordinates":[[[127.48849,37.59202],[127.4885,37.59195],[127.48863,37.59195],[127.48863,37.592],[127.48849,37.59202]]]}},{"type":"Feature","properties":{"valleyId":"yumyeongsan","layer":"shadow","date":"2026-08-01","timeLocal":"17:00"},"geometry":{"type":"Polygon","coordinates":[[[127.48791,37.59199],[127.48791,37.59192],[127.48798,37.59192],[127.48797,37.59199],[127.48791,37.59199]]]}},{"type":"Feature","properties":{"valleyId":"yumyeongsan","layer":"shadow","date":"2026-08-01","timeLocal":"17:00"},"geometry":{"type":"Polygon","coordinates":[[[127.48888,37.59186],[127.48888,37.59181],[127.48895,37.59181],[127.48895,37.59186],[127.48888,37.59186]]]}},{"type":"Feature","properties":{"valleyId":"yumyeongsan","layer":"shadow","date":"2026-08-01","timeLocal":"17:00"},"geometry":{"type":"Polygon","coordinates":[[[127.4898,37.59225],[127.4898,37.59218],[127.48976,37.59216],[127.48979,37.59196],[127.48988,37.59189],[127.48988,37.59184],[127.48995,37.5918],[127.48995,37.59171],[127.49009,37.5917],[127.49008,37.59189],[127.48999,37.59195],[127.48999,37.59204],[127.4899,37.59207],[127.4899,37.59213],[127.48994,37.59213],[127.48994,37.59222],[127.4898,37.59225]]]}},{"type":"Feature","properties":{"valleyId":"yumyeongsan","layer":"shadow","date":"2026-08-01","timeLocal":"17:00"},"geometry":{"type":"Polygon","coordinates":[[[127.49024,37.59184],[127.49024,37.59175],[127.49029,37.59172],[127.49031,37.59161],[127.49038,37.59157],[127.49047,37.59157],[127.49049,37.59166],[127.49045,37.59166],[127.49042,37.59181],[127.49038,37.59184],[127.49024,37.59184]]]}},{"type":"Feature","properties":{"valleyId":"yumyeongsan","layer":"shadow","date":"2026-08-01","timeLocal":"17:00"},"geometry":{"type":"Polygon","coordinates":[[[127.49274,37.59166],[127.49274,37.5916],[127.49281,37.5916],[127.49281,37.59166],[127.49274,37.59166]]]}},{"type":"Feature","properties":{"valleyId":"yumyeongsan","layer":"shadow","date":"2026-08-01","timeLocal":"17:00"},"geometry":{"type":"Polygon","coordinates":[[[127.49057,37.59221],[127.49058,37.59199],[127.49068,37.59167],[127.49074,37.59161],[127.49079,37.59151],[127.49086,37.59147],[127.49089,37.5914],[127.49095,37.5914],[127.49086,37.59171],[127.49072,37.59194],[127.49066,37.59221],[127.49057,37.59221]]]}},{"type":"Feature","properties":{"valleyId":"yumyeongsan","layer":"shadow","date":"2026-08-01","timeLocal":"17:00"},"geometry":{"type":"Polygon","coordinates":[[[127.48724,37.59139],[127.48722,37.59123],[127.48726,37.59119],[127.48736,37.59119],[127.48731,37.59139],[127.48724,37.59139]]]}},{"type":"Feature","properties":{"valleyId":"yumyeongsan","layer":"shadow","date":"2026-08-01","timeLocal":"17:00"},"geometry":{"type":"Polygon","coordinates":[[[127.49087,37.59113],[127.49087,37.59107],[127.49094,37.59108],[127.49094,37.59113],[127.49087,37.59113]]]}},{"type":"Feature","properties":{"valleyId":"yumyeongsan","layer":"shadow","date":"2026-08-01","timeLocal":"17:00"},"geometry":{"type":"Polygon","coordinates":[[[127.48781,37.59107],[127.48784,37.59096],[127.48797,37.591],[127.48797,37.59106],[127.48781,37.59107]]]}},{"type":"Feature","properties":{"valleyId":"yumyeongsan","layer":"shadow","date":"2026-08-01","timeLocal":"17:00"},"geometry":{"type":"Polygon","coordinates":[[[127.49002,37.59142],[127.48998,37.59137],[127.48984,37.59135],[127.48985,37.59122],[127.4899,37.59101],[127.49001,37.59087],[127.49001,37.59078],[127.49008,37.59074],[127.49017,37.59074],[127.49017,37.59089],[127.4901,37.59096],[127.4901,37.59121],[127.49005,37.59121],[127.49005,37.59133],[127.49009,37.59137],[127.49009,37.59143],[127.49002,37.59142]]]}},{"type":"Feature","properties":{"valleyId":"yumyeongsan","layer":"shadow","date":"2026-08-01","timeLocal":"17:00"},"geometry":{"type":"Polygon","coordinates":[[[127.49036,37.59071],[127.49036,37.59062],[127.49029,37.59056],[127.49029,37.59051],[127.4902,37.59049],[127.49016,37.5904],[127.49011,37.59038],[127.49012,37.59027],[127.49023,37.59018],[127.49024,37.58991],[127.49033,37.58991],[127.49033,37.58997],[127.49044,37.59001],[127.49039,37.59019],[127.49032,37.59018],[127.49032,37.5904],[127.49038,37.59042],[127.49038,37.59047],[127.49045,37.59053],[127.49045,37.59071],[127.49036,37.59071]]]}},{"type":"Feature","properties":{"valleyId":"yumyeongsan","layer":"shadow","date":"2026-08-01","timeLocal":"17:00"},"geometry":{"type":"Polygon","coordinates":[[[127.48906,37.58999],[127.48901,37.58995],[127.48901,37.5899],[127.48917,37.5899],[127.48917,37.58995],[127.48912,37.58999],[127.48906,37.58999]]]}},{"type":"Feature","properties":{"valleyId":"yumyeongsan","layer":"shadow","date":"2026-08-01","timeLocal":"17:00"},"geometry":{"type":"Polygon","coordinates":[[[127.48998,37.59002],[127.48994,37.58998],[127.48994,37.58989],[127.49003,37.58989],[127.49008,37.58993],[127.49008,37.59],[127.48998,37.59002]]]}},{"type":"Feature","properties":{"valleyId":"yumyeongsan","layer":"shadow","date":"2026-08-01","timeLocal":"17:00"},"geometry":{"type":"Polygon","coordinates":[[[127.49076,37.58983],[127.49074,37.58972],[127.49081,37.58972],[127.49083,37.58983],[127.49076,37.58983]]]}},{"type":"Feature","properties":{"valleyId":"yumyeongsan","layer":"shadow","date":"2026-08-01","timeLocal":"17:00"},"geometry":{"type":"Polygon","coordinates":[[[127.48872,37.58975],[127.4887,37.58964],[127.48879,37.58964],[127.48879,37.58975],[127.48872,37.58975]]]}},{"type":"Feature","properties":{"valleyId":"yumyeongsan","layer":"shadow","date":"2026-08-01","timeLocal":"17:00"},"geometry":{"type":"Polygon","coordinates":[[[127.49035,37.58973],[127.49035,37.58968],[127.49045,37.58959],[127.49045,37.58948],[127.49054,37.58948],[127.49054,37.58932],[127.49063,37.58932],[127.49065,37.58943],[127.49072,37.58947],[127.49072,37.58972],[127.49065,37.58972],[127.49061,37.58956],[127.49054,37.58956],[127.49047,37.58972],[127.49035,37.58973]]]}},{"type":"Feature","properties":{"valleyId":"yumyeongsan","layer":"shadow","date":"2026-08-01","timeLocal":"17:00"},"geometry":{"type":"Polygon","coordinates":[[[127.49031,37.58936],[127.49025,37.58934],[127.49025,37.58928],[127.49038,37.58927],[127.49038,37.58936],[127.49031,37.58936]]]}},{"type":"Feature","properties":{"valleyId":"yumyeongsan","layer":"shadow","date":"2026-08-01","timeLocal":"17:00"},"geometry":{"type":"Polygon","coordinates":[[[127.4905,37.5892],[127.4905,37.58914],[127.49057,37.58909],[127.49059,37.589],[127.49071,37.58891],[127.4908,37.58891],[127.4908,37.58896],[127.49073,37.589],[127.4907,37.58911],[127.49066,37.58911],[127.49066,37.58914],[127.49057,37.5892],[127.4905,37.5892]]]}},{"type":"Feature","properties":{"valleyId":"yumyeongsan","layer":"shadow","date":"2026-08-01","timeLocal":"17:00"},"geometry":{"type":"Polygon","coordinates":[[[127.49208,37.58853],[127.49205,37.58846],[127.49208,37.58842],[127.49215,37.58842],[127.49217,37.58853],[127.49208,37.58853]]]}},{"type":"Feature","properties":{"valleyId":"yumyeongsan","layer":"shadow","date":"2026-08-01","timeLocal":"17:00"},"geometry":{"type":"Polygon","coordinates":[[[127.49105,37.58763],[127.49105,37.58758],[127.49112,37.58758],[127.49112,37.58764],[127.49105,37.58763]]]}},{"type":"Feature","properties":{"valleyId":"yumyeongsan","layer":"shadow","date":"2026-08-01","timeLocal":"17:00"},"geometry":{"type":"Polygon","coordinates":[[[127.49381,37.58662],[127.4938,37.58635],[127.49389,37.58634],[127.49388,37.58662],[127.49381,37.58662]]]}},{"type":"Feature","properties":{"valleyId":"yumyeongsan","layer":"shadow","date":"2026-08-01","timeLocal":"17:00"},"geometry":{"type":"Polygon","coordinates":[[[127.49366,37.58617],[127.49364,37.5861],[127.49376,37.58608],[127.49378,37.58617],[127.49366,37.58617]]]}},{"type":"Feature","properties":{"valleyId":"yumyeongsan","layer":"shadow","date":"2026-08-01","timeLocal":"17:00"},"geometry":{"type":"Polygon","coordinates":[[[127.49522,37.58432],[127.49522,37.58426],[127.49529,37.58426],[127.49529,37.58432],[127.49522,37.58432]]]}},{"type":"Feature","properties":{"valleyId":"yumyeongsan","layer":"shadow","date":"2026-08-01","timeLocal":"17:00"},"geometry":{"type":"Polygon","coordinates":[[[127.49554,37.58421],[127.49552,37.58416],[127.49536,37.58417],[127.49536,37.58405],[127.49554,37.58405],[127.49556,37.58412],[127.49563,37.58414],[127.49563,37.58421],[127.49554,37.58421]]]}},{"type":"Feature","properties":{"valleyId":"yumyeongsan","layer":"shadow","date":"2026-08-01","timeLocal":"17:00"},"geometry":{"type":"Polygon","coordinates":[[[127.49536,37.5839],[127.49536,37.58383],[127.4953,37.58378],[127.49528,37.58369],[127.49537,37.58369],[127.49543,37.58376],[127.49543,37.5839],[127.49536,37.5839]]]}},{"type":"Feature","properties":{"valleyId":"yumyeongsan","layer":"shadow","date":"2026-08-01","timeLocal":"17:00"},"geometry":{"type":"Polygon","coordinates":[[[127.49579,37.58312],[127.49581,37.58295],[127.4959,37.58294],[127.49588,37.58312],[127.49579,37.58312]]]}},{"type":"Feature","properties":{"valleyId":"yumyeongsan","layer":"shadow","date":"2026-08-01","timeLocal":"17:00"},"geometry":{"type":"Polygon","coordinates":[[[127.49655,37.58237],[127.49655,37.58231],[127.49662,37.58232],[127.49662,37.58237],[127.49655,37.58237]]]}},{"type":"Feature","properties":{"valleyId":"yumyeongsan","layer":"shadow","date":"2026-08-01","timeLocal":"17:00"},"geometry":{"type":"Polygon","coordinates":[[[127.49437,37.58236],[127.49435,37.58232],[127.49424,37.58229],[127.49424,37.58221],[127.49451,37.58225],[127.49451,37.58232],[127.49447,37.58232],[127.49447,37.58236],[127.49437,37.58236]]]}},{"type":"Feature","properties":{"valleyId":"yumyeongsan","layer":"shadow","date":"2026-08-01","timeLocal":"17:00"},"geometry":{"type":"Polygon","coordinates":[[[127.49411,37.5821],[127.49409,37.58203],[127.49418,37.58201],[127.49418,37.5821],[127.49411,37.5821]]]}},{"type":"Feature","properties":{"valleyId":"yumyeongsan","layer":"shadow","date":"2026-08-01","timeLocal":"17:00"},"geometry":{"type":"Polygon","coordinates":[[[127.4964,37.5819],[127.49633,37.58183],[127.49631,37.58173],[127.49627,37.58173],[127.49616,37.58161],[127.496,37.58153],[127.49598,37.58142],[127.49591,37.58141],[127.49578,37.5813],[127.49576,37.58121],[127.49567,37.58115],[127.49567,37.58111],[127.4956,37.58109],[127.49556,37.58102],[127.49556,37.58066],[127.49561,37.58063],[127.49568,37.58063],[127.49581,37.58074],[127.49581,37.58079],[127.49574,37.58083],[127.49578,37.58094],[127.49583,37.58094],[127.49587,37.58099],[127.49608,37.58097],[127.49603,37.58112],[127.4961,37.58116],[127.49614,37.5813],[127.49619,37.5813],[127.49621,37.58134],[127.49621,37.58139],[127.49609,37.58144],[127.49609,37.5815],[127.4962,37.58157],[127.49634,37.58157],[127.49641,37.58147],[127.49654,37.58147],[127.49661,37.5815],[127.49656,37.58167],[127.49647,37.5817],[127.49649,37.58188],[127.4964,37.5819]]]}},{"type":"Feature","properties":{"valleyId":"yumyeongsan","layer":"shadow","date":"2026-08-01","timeLocal":"17:00"},"geometry":{"type":"Polygon","coordinates":[[[127.49917,37.57941],[127.49919,37.5793],[127.49926,37.5793],[127.49933,37.57936],[127.49933,37.57941],[127.49917,37.57941]]]}},{"type":"Feature","properties":{"valleyId":"yumyeongsan","layer":"shadow","date":"2026-08-01","timeLocal":"17:00"},"geometry":{"type":"Polygon","coordinates":[[[127.49999,37.57919],[127.49999,37.57913],[127.50006,37.57913],[127.50006,37.57919],[127.49999,37.57919]]]}}]}
