{"type":"FeatureCollection","metadata":{"description":"개방지(CHM ≤ 2 m)에 드리운 나무·지형 그림자, 2026-08-01 16:00 KST. canopy 위에 겹쳐 그린다","source":"위성 기반 추정 — Copernicus GLO-30 지형(30 m) + Meta/WRI 수관 높이(1 m CHM, 2016 촬영). 그늘 = 수관(CHM > 2 m) ∪ 나무·지형 그림자 ∪ 원거리 지형 마스크. 현장과 다를 수 있음.","datasetVersion":"2026-09-06.0","collectedAt":"2026-09-06","coordinateOrder":"[longitude, latitude]","crs":"EPSG:4326","representativeDate":"2026-08-01","hours":["10:00","11:00","12:00","13:00","14:00","15:00","16:00","17:00","18:00"],"chmAcquisition":["2016-06"],"assets":{"glo30":{"dataset":"Copernicus DEM GLO-30 (COG, s3://copernicus-dem-30m)","tiles":["Copernicus_DSM_COG_10_N37_00_E127_00_DEM"]},"chm":{"dataset":"Meta/WRI Global Canopy Height Map v1 (alsgedi_global_v6_float, 1 m, CC-BY 4.0)","quadkeys":["132110321"],"acquisition":["2016-06"]}},"method":{"gridResM":2,"canopyThresholdM":2,"bufferHalfM":25,"corridorHalfM":200,"simplifyTolM":2,"minAreaM2":25,"coordDecimals":5},"generator":"scripts/shade 0.1.0","builtAt":"2026-09-06T05:57:25Z","layer":"shadow","timeLocal":"16:00"},"features":[{"type":"Feature","properties":{"valleyId":"yumyeongsan","layer":"shadow","date":"2026-08-01","timeLocal":"16:00"},"geometry":{"type":"Polygon","coordinates":[[[127.48983,37.59414],[127.48983,37.59409],[127.48992,37.59409],[127.48992,37.59414],[127.48983,37.59414]]]}},{"type":"Feature","properties":{"valleyId":"yumyeongsan","layer":"shadow","date":"2026-08-01","timeLocal":"16:00"},"geometry":{"type":"Polygon","coordinates":[[[127.48968,37.594],[127.48968,37.59394],[127.48975,37.59394],[127.48975,37.594],[127.48968,37.594]]]}},{"type":"Feature","properties":{"valleyId":"yumyeongsan","layer":"shadow","date":"2026-08-01","timeLocal":"16:00"},"geometry":{"type":"Polygon","coordinates":[[[127.49006,37.59398],[127.49004,37.59389],[127.49013,37.59388],[127.49013,37.59399],[127.49006,37.59398]]]}},{"type":"Feature","properties":{"valleyId":"yumyeongsan","layer":"shadow","date":"2026-08-01","timeLocal":"16:00"},"geometry":{"type":"Polygon","coordinates":[[[127.48956,37.59421],[127.48954,37.59416],[127.48947,37.59412],[127.48941,37.59398],[127.48936,37.59396],[127.48936,37.5939],[127.48932,37.5939],[127.48932,37.59385],[127.48927,37.59385],[127.48927,37.59379],[127.48934,37.5938],[127.48938,37.5939],[127.48947,37.59392],[127.4895,37.59401],[127.48963,37.59416],[127.48963,37.59421],[127.48956,37.59421]]]}},{"type":"Feature","properties":{"valleyId":"yumyeongsan","layer":"shadow","date":"2026-08-01","timeLocal":"16:00"},"geometry":{"type":"Polygon","coordinates":[[[127.49011,37.59386],[127.49013,37.59377],[127.4902,37.59377],[127.49018,37.59386],[127.49011,37.59386]]]}},{"type":"Feature","properties":{"valleyId":"yumyeongsan","layer":"shadow","date":"2026-08-01","timeLocal":"16:00"},"geometry":{"type":"Polygon","coordinates":[[[127.48948,37.59363],[127.48948,37.59349],[127.48957,37.59349],[127.48959,37.5936],[127.48955,37.5936],[127.48955,37.59364],[127.48948,37.59363]]]}},{"type":"Feature","properties":{"valleyId":"yumyeongsan","layer":"shadow","date":"2026-08-01","timeLocal":"16:00"},"geometry":{"type":"Polygon","coordinates":[[[127.48923,37.59374],[127.48919,37.59367],[127.48919,37.59354],[127.48914,37.5935],[127.48914,37.59345],[127.48923,37.59347],[127.48923,37.59354],[127.48928,37.5936],[127.4893,37.59374],[127.48923,37.59374]]]}},{"type":"Feature","properties":{"valleyId":"yumyeongsan","layer":"shadow","date":"2026-08-01","timeLocal":"16:00"},"geometry":{"type":"Polygon","coordinates":[[[127.48987,37.59357],[127.48987,37.59344],[127.48994,37.59344],[127.48994,37.59357],[127.48987,37.59357]]]}},{"type":"Feature","properties":{"valleyId":"yumyeongsan","layer":"shadow","date":"2026-08-01","timeLocal":"16:00"},"geometry":{"type":"Polygon","coordinates":[[[127.48683,37.59344],[127.48684,37.59337],[127.4869,37.59337],[127.4869,37.59344],[127.48683,37.59344]]]}},{"type":"Feature","properties":{"valleyId":"yumyeongsan","layer":"shadow","date":"2026-08-01","timeLocal":"16:00"},"geometry":{"type":"Polygon","coordinates":[[[127.49012,37.59341],[127.49012,37.59335],[127.49019,37.59336],[127.49019,37.59341],[127.49012,37.59341]]]}},{"type":"Feature","properties":{"valleyId":"yumyeongsan","layer":"shadow","date":"2026-08-01","timeLocal":"16:00"},"geometry":{"type":"Polygon","coordinates":[[[127.48679,37.59324],[127.48679,37.59319],[127.48689,37.59317],[127.48688,37.59322],[127.48679,37.59324]]]}},{"type":"Feature","properties":{"valleyId":"yumyeongsan","layer":"shadow","date":"2026-08-01","timeLocal":"16:00"},"geometry":{"type":"Polygon","coordinates":[[[127.48997,37.59315],[127.48997,37.5931],[127.49004,37.5931],[127.49003,37.59315],[127.48997,37.59315]]]}},{"type":"Feature","properties":{"valleyId":"yumyeongsan","layer":"shadow","date":"2026-08-01","timeLocal":"16:00"},"geometry":{"type":"Polygon","coordinates":[[[127.48967,37.59304],[127.48968,37.59288],[127.48977,37.59288],[127.48974,37.59304],[127.48967,37.59304]]]}},{"type":"Feature","properties":{"valleyId":"yumyeongsan","layer":"shadow","date":"2026-08-01","timeLocal":"16:00"},"geometry":{"type":"Polygon","coordinates":[[[127.49006,37.59296],[127.49006,37.59288],[127.49013,37.59289],[127.49013,37.59296],[127.49006,37.59296]]]}},{"type":"Feature","properties":{"valleyId":"yumyeongsan","layer":"shadow","date":"2026-08-01","timeLocal":"16:00"},"geometry":{"type":"Polygon","coordinates":[[[127.49203,37.59282],[127.49204,37.59277],[127.4921,37.59277],[127.4921,37.59282],[127.49203,37.59282]]]}},{"type":"Feature","properties":{"valleyId":"yumyeongsan","layer":"shadow","date":"2026-08-01","timeLocal":"16:00"},"geometry":{"type":"Polygon","coordinates":[[[127.49011,37.59274],[127.49011,37.59263],[127.49016,37.59262],[127.49016,37.59258],[127.49023,37.59258],[127.49018,37.59274],[127.49011,37.59274]]]}},{"type":"Feature","properties":{"valleyId":"yumyeongsan","layer":"shadow","date":"2026-08-01","timeLocal":"16:00"},"geometry":{"type":"Polygon","coordinates":[[[127.49195,37.59269],[127.49195,37.59257],[127.49202,37.59257],[127.49204,37.59268],[127.49195,37.59269]]]}},{"type":"Feature","properties":{"valleyId":"yumyeongsan","layer":"shadow","date":"2026-08-01","timeLocal":"16:00"},"geometry":{"type":"Polygon","coordinates":[[[127.4898,37.59225],[127.4898,37.5922],[127.48987,37.5922],[127.48987,37.59225],[127.4898,37.59225]]]}},{"type":"Feature","properties":{"valleyId":"yumyeongsan","layer":"shadow","date":"2026-08-01","timeLocal":"16:00"},"geometry":{"type":"Polygon","coordinates":[[[127.48888,37.59186],[127.48888,37.59181],[127.48897,37.59181],[127.48897,37.59186],[127.48888,37.59186]]]}},{"type":"Feature","properties":{"valleyId":"yumyeongsan","layer":"shadow","date":"2026-08-01","timeLocal":"16:00"},"geometry":{"type":"Polygon","coordinates":[[[127.48976,37.59216],[127.48979,37.59196],[127.48988,37.59189],[127.48988,37.59184],[127.48995,37.5918],[127.48995,37.59171],[127.49004,37.59169],[127.49004,37.59182],[127.48999,37.59184],[127.48997,37.59195],[127.4899,37.59198],[127.4899,37.59207],[127.48983,37.59211],[127.48983,37.59216],[127.48976,37.59216]]]}},{"type":"Feature","properties":{"valleyId":"yumyeongsan","layer":"shadow","date":"2026-08-01","timeLocal":"16:00"},"geometry":{"type":"Polygon","coordinates":[[[127.49024,37.59184],[127.49024,37.59175],[127.49029,37.59172],[127.49031,37.59161],[127.49045,37.59157],[127.49045,37.59166],[127.49038,37.59183],[127.49024,37.59184]]]}},{"type":"Feature","properties":{"valleyId":"yumyeongsan","layer":"shadow","date":"2026-08-01","timeLocal":"16:00"},"geometry":{"type":"Polygon","coordinates":[[[127.49058,37.59215],[127.4906,37.59186],[127.49065,37.59181],[127.49068,37.59167],[127.49074,37.59161],[127.49077,37.59154],[127.49084,37.59154],[127.49084,37.5916],[127.49079,37.59163],[127.49079,37.59174],[127.49067,37.59196],[127.49064,37.59215],[127.49058,37.59215]]]}},{"type":"Feature","properties":{"valleyId":"yumyeongsan","layer":"shadow","date":"2026-08-01","timeLocal":"16:00"},"geometry":{"type":"Polygon","coordinates":[[[127.48722,37.5913],[127.48722,37.59123],[127.48729,37.59123],[127.48729,37.5913],[127.48722,37.5913]]]}},{"type":"Feature","properties":{"valleyId":"yumyeongsan","layer":"shadow","date":"2026-08-01","timeLocal":"16:00"},"geometry":{"type":"Polygon","coordinates":[[[127.48781,37.59105],[127.48784,37.59096],[127.4879,37.59096],[127.4879,37.59105],[127.48781,37.59105]]]}},{"type":"Feature","properties":{"valleyId":"yumyeongsan","layer":"shadow","date":"2026-08-01","timeLocal":"16:00"},"geometry":{"type":"Polygon","coordinates":[[[127.48984,37.59135],[127.4899,37.59101],[127.49001,37.59087],[127.49001,37.59078],[127.49008,37.59078],[127.49008,37.5909],[127.49001,37.59097],[127.48999,37.5911],[127.49,37.59124],[127.48996,37.59124],[127.48996,37.59135],[127.48984,37.59135]]]}},{"type":"Feature","properties":{"valleyId":"yumyeongsan","layer":"shadow","date":"2026-08-01","timeLocal":"16:00"},"geometry":{"type":"Polygon","coordinates":[[[127.49011,37.59038],[127.49014,37.59024],[127.49018,37.5902],[127.49025,37.5902],[127.49025,37.59026],[127.49018,37.59029],[127.49018,37.59038],[127.49011,37.59038]]]}},{"type":"Feature","properties":{"valleyId":"yumyeongsan","layer":"shadow","date":"2026-08-01","timeLocal":"16:00"},"geometry":{"type":"Polygon","coordinates":[[[127.49023,37.59017],[127.49021,37.58993],[127.49028,37.58993],[127.49028,37.58999],[127.49032,37.59002],[127.49032,37.59017],[127.49023,37.59017]]]}},{"type":"Feature","properties":{"valleyId":"yumyeongsan","layer":"shadow","date":"2026-08-01","timeLocal":"16:00"},"geometry":{"type":"Polygon","coordinates":[[[127.48996,37.59],[127.48994,37.58989],[127.49003,37.58989],[127.49008,37.58993],[127.49008,37.58998],[127.48996,37.59]]]}},{"type":"Feature","properties":{"valleyId":"yumyeongsan","layer":"shadow","date":"2026-08-01","timeLocal":"16:00"},"geometry":{"type":"Polygon","coordinates":[[[127.49042,37.58964],[127.49045,37.58948],[127.49058,37.58948],[127.49058,37.58954],[127.49054,37.58954],[127.49049,37.58965],[127.49042,37.58964]]]}},{"type":"Feature","properties":{"valleyId":"yumyeongsan","layer":"shadow","date":"2026-08-01","timeLocal":"16:00"},"geometry":{"type":"Polygon","coordinates":[[[127.49025,37.58934],[127.49025,37.58928],[127.49034,37.58927],[127.49034,37.58932],[127.49025,37.58934]]]}},{"type":"Feature","properties":{"valleyId":"yumyeongsan","layer":"shadow","date":"2026-08-01","timeLocal":"16:00"},"geometry":{"type":"Polygon","coordinates":[[[127.49057,37.58909],[127.49059,37.589],[127.49066,37.589],[127.49064,37.58909],[127.49057,37.58909]]]}},{"type":"Feature","properties":{"valleyId":"yumyeongsan","layer":"shadow","date":"2026-08-01","timeLocal":"16:00"},"geometry":{"type":"Polygon","coordinates":[[[127.49536,37.58417],[127.49536,37.58405],[127.49552,37.58405],[127.49554,37.58416],[127.49536,37.58417]]]}},{"type":"Feature","properties":{"valleyId":"yumyeongsan","layer":"shadow","date":"2026-08-01","timeLocal":"16:00"},"geometry":{"type":"Polygon","coordinates":[[[127.49536,37.5839],[127.49536,37.58383],[127.4953,37.58378],[127.49528,37.58369],[127.49537,37.58369],[127.49543,37.58376],[127.49543,37.5839],[127.49536,37.5839]]]}},{"type":"Feature","properties":{"valleyId":"yumyeongsan","layer":"shadow","date":"2026-08-01","timeLocal":"16:00"},"geometry":{"type":"Polygon","coordinates":[[[127.49579,37.58312],[127.49581,37.58295],[127.4959,37.58294],[127.49588,37.5831],[127.49579,37.58312]]]}},{"type":"Feature","properties":{"valleyId":"yumyeongsan","layer":"shadow","date":"2026-08-01","timeLocal":"16:00"},"geometry":{"type":"Polygon","coordinates":[[[127.49655,37.58237],[127.49655,37.58231],[127.49662,37.58232],[127.49662,37.58237],[127.49655,37.58237]]]}},{"type":"Feature","properties":{"valleyId":"yumyeongsan","layer":"shadow","date":"2026-08-01","timeLocal":"16:00"},"geometry":{"type":"Polygon","coordinates":[[[127.49437,37.58236],[127.49435,37.58232],[127.49424,37.58229],[127.49424,37.58221],[127.49451,37.58225],[127.49451,37.58232],[127.49447,37.58232],[127.49447,37.58236],[127.49437,37.58236]]]}},{"type":"Feature","properties":{"valleyId":"yumyeongsan","layer":"shadow","date":"2026-08-01","timeLocal":"16:00"},"geometry":{"type":"Polygon","coordinates":[[[127.49411,37.5821],[127.49409,37.58203],[127.49418,37.58201],[127.49418,37.5821],[127.49411,37.5821]]]}},{"type":"Feature","properties":{"valleyId":"yumyeongsan","layer":"shadow","date":"2026-08-01","timeLocal":"16:00"},"geometry":{"type":"Polygon","coordinates":[[[127.4964,37.5819],[127.49633,37.58183],[127.49631,37.58173],[127.49627,37.58173],[127.49616,37.58161],[127.496,37.58153],[127.49598,37.58142],[127.49591,37.58141],[127.49578,37.5813],[127.49576,37.58121],[127.49567,37.58115],[127.49567,37.58111],[127.4956,37.58109],[127.49556,37.58102],[127.49556,37.58066],[127.49572,37.58066],[127.49572,37.5807],[127.49581,37.58074],[127.49581,37.58079],[127.49574,37.58083],[127.49574,37.58088],[127.49587,37.58101],[127.49589,37.58112],[127.49598,37.58112],[127.49598,37.58115],[127.49605,37.58115],[127.49605,37.58121],[127.49612,37.58123],[127.49616,37.58141],[127.49612,37.58141],[127.49609,37.5815],[127.49616,37.58155],[127.49634,37.58157],[127.49641,37.58147],[127.49654,37.58147],[127.49661,37.5815],[127.49659,37.58159],[127.49641,37.58159],[127.4964,37.58166],[127.49645,37.58166],[127.49649,37.58179],[127.49649,37.58188],[127.4964,37.5819]]]}}]}
