{"type":"FeatureCollection","metadata":{"description":"개방지(CHM ≤ 2 m)에 드리운 나무·지형 그림자, 2026-08-01 10:00 KST. canopy 위에 겹쳐 그린다","source":"위성 기반 추정 — Copernicus GLO-30 지형(30 m) + Meta/WRI 수관 높이(1 m CHM, 2016 촬영). 그늘 = 수관(CHM > 2 m) ∪ 나무·지형 그림자 ∪ 원거리 지형 마스크. 현장과 다를 수 있음.","datasetVersion":"2026-09-06.0","collectedAt":"2026-09-06","coordinateOrder":"[longitude, latitude]","crs":"EPSG:4326","representativeDate":"2026-08-01","hours":["10:00","11:00","12:00","13:00","14:00","15:00","16:00","17:00","18:00"],"chmAcquisition":["2016-06"],"assets":{"glo30":{"dataset":"Copernicus DEM GLO-30 (COG, s3://copernicus-dem-30m)","tiles":["Copernicus_DSM_COG_10_N37_00_E127_00_DEM"]},"chm":{"dataset":"Meta/WRI Global Canopy Height Map v1 (alsgedi_global_v6_float, 1 m, CC-BY 4.0)","quadkeys":["132110321"],"acquisition":["2016-06"]}},"method":{"gridResM":2,"canopyThresholdM":2,"bufferHalfM":25,"corridorHalfM":200,"simplifyTolM":2,"minAreaM2":25,"coordDecimals":5},"generator":"scripts/shade 0.1.0","builtAt":"2026-09-06T05:58:20Z","layer":"shadow","timeLocal":"10:00"},"features":[{"type":"Feature","properties":{"valleyId":"eobi","layer":"shadow","date":"2026-08-01","timeLocal":"10:00"},"geometry":{"type":"Polygon","coordinates":[[[127.49106,37.60952],[127.49109,37.60941],[127.49116,37.60941],[127.49115,37.60952],[127.49106,37.60952]]]}},{"type":"Feature","properties":{"valleyId":"eobi","layer":"shadow","date":"2026-08-01","timeLocal":"10:00"},"geometry":{"type":"Polygon","coordinates":[[[127.49281,37.6095],[127.49283,37.60936],[127.49288,37.60936],[127.49288,37.60929],[127.49295,37.60929],[127.49295,37.60936],[127.4929,37.60936],[127.4929,37.60949],[127.49281,37.6095]]]}},{"type":"Feature","properties":{"valleyId":"eobi","layer":"shadow","date":"2026-08-01","timeLocal":"10:00"},"geometry":{"type":"Polygon","coordinates":[[[127.49345,37.60931],[127.49345,37.60926],[127.49352,37.60926],[127.49351,37.60931],[127.49345,37.60931]]]}},{"type":"Feature","properties":{"valleyId":"eobi","layer":"shadow","date":"2026-08-01","timeLocal":"10:00"},"geometry":{"type":"Polygon","coordinates":[[[127.493,37.6092],[127.49302,37.60911],[127.49309,37.60911],[127.49309,37.6092],[127.493,37.6092]]]}},{"type":"Feature","properties":{"valleyId":"eobi","layer":"shadow","date":"2026-08-01","timeLocal":"10:00"},"geometry":{"type":"Polygon","coordinates":[[[127.49311,37.60907],[127.49311,37.609],[127.49307,37.609],[127.49305,37.60891],[127.49314,37.60891],[127.49314,37.60895],[127.4932,37.60899],[127.4932,37.60906],[127.49311,37.60907]]]}},{"type":"Feature","properties":{"valleyId":"eobi","layer":"shadow","date":"2026-08-01","timeLocal":"10:00"},"geometry":{"type":"Polygon","coordinates":[[[127.49307,37.60879],[127.49307,37.6087],[127.49314,37.6087],[127.49314,37.60879],[127.49307,37.60879]]]}},{"type":"Feature","properties":{"valleyId":"eobi","layer":"shadow","date":"2026-08-01","timeLocal":"10:00"},"geometry":{"type":"Polygon","coordinates":[[[127.49319,37.60853],[127.49317,37.60844],[127.49324,37.60845],[127.49326,37.60854],[127.49319,37.60853]]]}},{"type":"Feature","properties":{"valleyId":"eobi","layer":"shadow","date":"2026-08-01","timeLocal":"10:00"},"geometry":{"type":"Polygon","coordinates":[[[127.4946,37.60834],[127.49458,37.60825],[127.49469,37.60825],[127.49469,37.60834],[127.4946,37.60834]]]}},{"type":"Feature","properties":{"valleyId":"eobi","layer":"shadow","date":"2026-08-01","timeLocal":"10:00"},"geometry":{"type":"Polygon","coordinates":[[[127.49428,37.60833],[127.49428,37.60821],[127.49437,37.60821],[127.4944,37.60832],[127.49428,37.60833]]]}},{"type":"Feature","properties":{"valleyId":"eobi","layer":"shadow","date":"2026-08-01","timeLocal":"10:00"},"geometry":{"type":"Polygon","coordinates":[[[127.49227,37.60822],[127.49227,37.60816],[127.49234,37.60816],[127.49234,37.60822],[127.49227,37.60822]]]}},{"type":"Feature","properties":{"valleyId":"eobi","layer":"shadow","date":"2026-08-01","timeLocal":"10:00"},"geometry":{"type":"Polygon","coordinates":[[[127.49386,37.60811],[127.49383,37.60804],[127.49386,37.608],[127.49393,37.608],[127.49392,37.60811],[127.49386,37.60811]]]}},{"type":"Feature","properties":{"valleyId":"eobi","layer":"shadow","date":"2026-08-01","timeLocal":"10:00"},"geometry":{"type":"Polygon","coordinates":[[[127.49401,37.60824],[127.49397,37.6082],[127.49397,37.60811],[127.49404,37.6081],[127.49404,37.60795],[127.49399,37.60795],[127.49397,37.60786],[127.49404,37.60786],[127.49406,37.60795],[127.49411,37.60795],[127.49413,37.60799],[127.49413,37.60822],[127.49401,37.60824]]]}},{"type":"Feature","properties":{"valleyId":"eobi","layer":"shadow","date":"2026-08-01","timeLocal":"10:00"},"geometry":{"type":"Polygon","coordinates":[[[127.49502,37.60773],[127.49502,37.60768],[127.49509,37.60768],[127.49509,37.60773],[127.49502,37.60773]]]}},{"type":"Feature","properties":{"valleyId":"eobi","layer":"shadow","date":"2026-08-01","timeLocal":"10:00"},"geometry":{"type":"Polygon","coordinates":[[[127.49489,37.60753],[127.49489,37.60748],[127.49498,37.60748],[127.49498,37.60753],[127.49489,37.60753]]]}},{"type":"Feature","properties":{"valleyId":"eobi","layer":"shadow","date":"2026-08-01","timeLocal":"10:00"},"geometry":{"type":"Polygon","coordinates":[[[127.49425,37.60777],[127.4942,37.60774],[127.4942,37.60766],[127.49414,37.60765],[127.49414,37.60759],[127.49409,37.60757],[127.4941,37.60746],[127.49405,37.60743],[127.49405,37.60737],[127.49412,37.60738],[127.49412,37.60741],[127.49416,37.60741],[127.49419,37.60748],[127.49425,37.60752],[127.49432,37.60763],[127.49434,37.60776],[127.49425,37.60777]]]}},{"type":"Feature","properties":{"valleyId":"eobi","layer":"shadow","date":"2026-08-01","timeLocal":"10:00"},"geometry":{"type":"Polygon","coordinates":[[[127.49301,37.60731],[127.49301,37.60725],[127.49308,37.60725],[127.49308,37.60731],[127.49301,37.60731]]]}},{"type":"Feature","properties":{"valleyId":"eobi","layer":"shadow","date":"2026-08-01","timeLocal":"10:00"},"geometry":{"type":"Polygon","coordinates":[[[127.49539,37.60707],[127.4954,37.60701],[127.49546,37.60701],[127.49546,37.60707],[127.49539,37.60707]]]}},{"type":"Feature","properties":{"valleyId":"eobi","layer":"shadow","date":"2026-08-01","timeLocal":"10:00"},"geometry":{"type":"Polygon","coordinates":[[[127.49488,37.60695],[127.49486,37.60683],[127.49499,37.60685],[127.49499,37.60694],[127.49488,37.60695]]]}},{"type":"Feature","properties":{"valleyId":"eobi","layer":"shadow","date":"2026-08-01","timeLocal":"10:00"},"geometry":{"type":"Polygon","coordinates":[[[127.49377,37.6069],[127.49377,37.60687],[127.49372,37.60685],[127.49372,37.60678],[127.49381,37.60678],[127.49386,37.60685],[127.49386,37.6069],[127.49377,37.6069]]]}},{"type":"Feature","properties":{"valleyId":"eobi","layer":"shadow","date":"2026-08-01","timeLocal":"10:00"},"geometry":{"type":"Polygon","coordinates":[[[127.49449,37.60693],[127.49442,37.60689],[127.4944,37.60678],[127.49447,37.60678],[127.49449,37.60684],[127.49456,37.60688],[127.49456,37.60693],[127.49449,37.60693]]]}},{"type":"Feature","properties":{"valleyId":"eobi","layer":"shadow","date":"2026-08-01","timeLocal":"10:00"},"geometry":{"type":"Polygon","coordinates":[[[127.49447,37.60662],[127.49448,37.60657],[127.49457,37.60657],[127.49457,37.60662],[127.49447,37.60662]]]}},{"type":"Feature","properties":{"valleyId":"eobi","layer":"shadow","date":"2026-08-01","timeLocal":"10:00"},"geometry":{"type":"Polygon","coordinates":[[[127.49482,37.60646],[127.4948,37.60639],[127.49486,37.60639],[127.49489,37.60647],[127.49482,37.60646]]]}},{"type":"Feature","properties":{"valleyId":"eobi","layer":"shadow","date":"2026-08-01","timeLocal":"10:00"},"geometry":{"type":"Polygon","coordinates":[[[127.49364,37.60634],[127.49364,37.60627],[127.49371,37.60627],[127.49371,37.60634],[127.49364,37.60634]]]}},{"type":"Feature","properties":{"valleyId":"eobi","layer":"shadow","date":"2026-08-01","timeLocal":"10:00"},"geometry":{"type":"Polygon","coordinates":[[[127.49397,37.60602],[127.49397,37.60584],[127.49404,37.60584],[127.49406,37.606],[127.49397,37.60602]]]}},{"type":"Feature","properties":{"valleyId":"eobi","layer":"shadow","date":"2026-08-01","timeLocal":"10:00"},"geometry":{"type":"Polygon","coordinates":[[[127.49404,37.60573],[127.49404,37.60568],[127.49411,37.60568],[127.49411,37.60573],[127.49404,37.60573]]]}},{"type":"Feature","properties":{"valleyId":"eobi","layer":"shadow","date":"2026-08-01","timeLocal":"10:00"},"geometry":{"type":"Polygon","coordinates":[[[127.49411,37.60561],[127.49411,37.60555],[127.49418,37.60556],[127.49418,37.60561],[127.49411,37.60561]]]}},{"type":"Feature","properties":{"valleyId":"eobi","layer":"shadow","date":"2026-08-01","timeLocal":"10:00"},"geometry":{"type":"Polygon","coordinates":[[[127.49361,37.60558],[127.49361,37.60551],[127.49368,37.60551],[127.49368,37.60559],[127.49361,37.60558]]]}},{"type":"Feature","properties":{"valleyId":"eobi","layer":"shadow","date":"2026-08-01","timeLocal":"10:00"},"geometry":{"type":"Polygon","coordinates":[[[127.49427,37.60545],[127.49425,37.60534],[127.49432,37.60534],[127.49434,37.60545],[127.49427,37.60545]]]}},{"type":"Feature","properties":{"valleyId":"eobi","layer":"shadow","date":"2026-08-01","timeLocal":"10:00"},"geometry":{"type":"Polygon","coordinates":[[[127.49561,37.60447],[127.49556,37.60446],[127.49554,37.60437],[127.49563,37.60437],[127.49567,37.6044],[127.49567,37.60447],[127.49561,37.60447]]]}},{"type":"Feature","properties":{"valleyId":"eobi","layer":"shadow","date":"2026-08-01","timeLocal":"10:00"},"geometry":{"type":"Polygon","coordinates":[[[127.49548,37.60373],[127.49549,37.60363],[127.49555,37.60363],[127.49555,37.60373],[127.49548,37.60373]]]}},{"type":"Feature","properties":{"valleyId":"eobi","layer":"shadow","date":"2026-08-01","timeLocal":"10:00"},"geometry":{"type":"Polygon","coordinates":[[[127.49562,37.60354],[127.49563,37.60348],[127.49569,37.60348],[127.49569,37.60354],[127.49562,37.60354]]]}},{"type":"Feature","properties":{"valleyId":"eobi","layer":"shadow","date":"2026-08-01","timeLocal":"10:00"},"geometry":{"type":"Polygon","coordinates":[[[127.494,37.6033],[127.494,37.60325],[127.49407,37.60325],[127.49407,37.6033],[127.494,37.6033]]]}},{"type":"Feature","properties":{"valleyId":"eobi","layer":"shadow","date":"2026-08-01","timeLocal":"10:00"},"geometry":{"type":"Polygon","coordinates":[[[127.4962,37.60311],[127.4962,37.6029],[127.49623,37.60286],[127.49629,37.60286],[127.49634,37.60308],[127.49631,37.60311],[127.4962,37.60311]]]}},{"type":"Feature","properties":{"valleyId":"eobi","layer":"shadow","date":"2026-08-01","timeLocal":"10:00"},"geometry":{"type":"Polygon","coordinates":[[[127.49654,37.60285],[127.49655,37.60277],[127.49662,37.60268],[127.49664,37.60258],[127.49678,37.60254],[127.49678,37.60261],[127.49666,37.60272],[127.49664,37.60283],[127.49654,37.60285]]]}},{"type":"Feature","properties":{"valleyId":"eobi","layer":"shadow","date":"2026-08-01","timeLocal":"10:00"},"geometry":{"type":"Polygon","coordinates":[[[127.49665,37.60231],[127.49658,37.60214],[127.49663,37.60209],[127.4967,37.60209],[127.49676,37.60231],[127.49665,37.60231]]]}},{"type":"Feature","properties":{"valleyId":"eobi","layer":"shadow","date":"2026-08-01","timeLocal":"10:00"},"geometry":{"type":"Polygon","coordinates":[[[127.4972,37.60199],[127.49715,37.60195],[127.49715,37.6019],[127.49722,37.6019],[127.49727,37.60194],[127.49726,37.60199],[127.4972,37.60199]]]}},{"type":"Feature","properties":{"valleyId":"eobi","layer":"shadow","date":"2026-08-01","timeLocal":"10:00"},"geometry":{"type":"Polygon","coordinates":[[[127.49683,37.60193],[127.49684,37.60186],[127.4969,37.60186],[127.4969,37.60193],[127.49683,37.60193]]]}},{"type":"Feature","properties":{"valleyId":"eobi","layer":"shadow","date":"2026-08-01","timeLocal":"10:00"},"geometry":{"type":"Polygon","coordinates":[[[127.49709,37.60184],[127.49709,37.60179],[127.49715,37.60179],[127.49715,37.60184],[127.49709,37.60184]]]}},{"type":"Feature","properties":{"valleyId":"eobi","layer":"shadow","date":"2026-08-01","timeLocal":"10:00"},"geometry":{"type":"Polygon","coordinates":[[[127.4974,37.60181],[127.4974,37.60176],[127.49747,37.60176],[127.49747,37.60181],[127.4974,37.60181]]]}},{"type":"Feature","properties":{"valleyId":"eobi","layer":"shadow","date":"2026-08-01","timeLocal":"10:00"},"geometry":{"type":"Polygon","coordinates":[[[127.4958,37.60175],[127.4958,37.60165],[127.49587,37.60165],[127.49586,37.60176],[127.4958,37.60175]]]}},{"type":"Feature","properties":{"valleyId":"eobi","layer":"shadow","date":"2026-08-01","timeLocal":"10:00"},"geometry":{"type":"Polygon","coordinates":[[[127.49659,37.60175],[127.49657,37.60166],[127.49664,37.60166],[127.49666,37.60175],[127.49659,37.60175]]]}},{"type":"Feature","properties":{"valleyId":"eobi","layer":"shadow","date":"2026-08-01","timeLocal":"10:00"},"geometry":{"type":"Polygon","coordinates":[[[127.49756,37.60181],[127.49754,37.60169],[127.49766,37.60167],[127.49763,37.60181],[127.49756,37.60181]]]}},{"type":"Feature","properties":{"valleyId":"eobi","layer":"shadow","date":"2026-08-01","timeLocal":"10:00"},"geometry":{"type":"Polygon","coordinates":[[[127.49763,37.60163],[127.49763,37.60158],[127.49775,37.60156],[127.49772,37.60163],[127.49763,37.60163]]]}},{"type":"Feature","properties":{"valleyId":"eobi","layer":"shadow","date":"2026-08-01","timeLocal":"10:00"},"geometry":{"type":"Polygon","coordinates":[[[127.49566,37.60164],[127.4956,37.60161],[127.49562,37.60152],[127.49571,37.60152],[127.49571,37.60157],[127.49575,37.60159],[127.49575,37.60165],[127.49566,37.60164]]]}},{"type":"Feature","properties":{"valleyId":"eobi","layer":"shadow","date":"2026-08-01","timeLocal":"10:00"},"geometry":{"type":"Polygon","coordinates":[[[127.49426,37.60143],[127.49426,37.6013],[127.49433,37.6013],[127.49433,37.60143],[127.49426,37.60143]]]}},{"type":"Feature","properties":{"valleyId":"eobi","layer":"shadow","date":"2026-08-01","timeLocal":"10:00"},"geometry":{"type":"Polygon","coordinates":[[[127.4975,37.60138],[127.4975,37.60131],[127.49762,37.60133],[127.49762,37.60138],[127.4975,37.60138]]]}},{"type":"Feature","properties":{"valleyId":"eobi","layer":"shadow","date":"2026-08-01","timeLocal":"10:00"},"geometry":{"type":"Polygon","coordinates":[[[127.49714,37.60123],[127.49714,37.60118],[127.49721,37.60118],[127.49721,37.60123],[127.49714,37.60123]]]}},{"type":"Feature","properties":{"valleyId":"eobi","layer":"shadow","date":"2026-08-01","timeLocal":"10:00"},"geometry":{"type":"Polygon","coordinates":[[[127.49708,37.60116],[127.49708,37.6011],[127.49715,37.6011],[127.49714,37.60116],[127.49708,37.60116]]]}},{"type":"Feature","properties":{"valleyId":"eobi","layer":"shadow","date":"2026-08-01","timeLocal":"10:00"},"geometry":{"type":"Polygon","coordinates":[[[127.49737,37.60118],[127.49735,37.60111],[127.49746,37.60111],[127.49746,37.60116],[127.49737,37.60118]]]}},{"type":"Feature","properties":{"valleyId":"eobi","layer":"shadow","date":"2026-08-01","timeLocal":"10:00"},"geometry":{"type":"Polygon","coordinates":[[[127.49567,37.60125],[127.49556,37.60116],[127.49561,37.60105],[127.49567,37.60105],[127.49567,37.60114],[127.49574,37.6012],[127.49574,37.60125],[127.49567,37.60125]]]}},{"type":"Feature","properties":{"valleyId":"eobi","layer":"shadow","date":"2026-08-01","timeLocal":"10:00"},"geometry":{"type":"Polygon","coordinates":[[[127.49517,37.6011],[127.49515,37.60101],[127.49522,37.60101],[127.49524,37.6011],[127.49517,37.6011]]]}},{"type":"Feature","properties":{"valleyId":"eobi","layer":"shadow","date":"2026-08-01","timeLocal":"10:00"},"geometry":{"type":"Polygon","coordinates":[[[127.49685,37.60116],[127.49683,37.60108],[127.49674,37.60105],[127.49674,37.60099],[127.49683,37.60099],[127.49685,37.60107],[127.4969,37.60107],[127.49692,37.60116],[127.49685,37.60116]]]}},{"type":"Feature","properties":{"valleyId":"eobi","layer":"shadow","date":"2026-08-01","timeLocal":"10:00"},"geometry":{"type":"Polygon","coordinates":[[[127.49742,37.60096],[127.49742,37.60091],[127.49749,37.60091],[127.49749,37.60097],[127.49742,37.60096]]]}},{"type":"Feature","properties":{"valleyId":"eobi","layer":"shadow","date":"2026-08-01","timeLocal":"10:00"},"geometry":{"type":"Polygon","coordinates":[[[127.49706,37.60085],[127.49708,37.60076],[127.49715,37.60076],[127.49715,37.60083],[127.49706,37.60085]]]}},{"type":"Feature","properties":{"valleyId":"eobi","layer":"shadow","date":"2026-08-01","timeLocal":"10:00"},"geometry":{"type":"Polygon","coordinates":[[[127.49561,37.60096],[127.49554,37.6009],[127.49555,37.60069],[127.49561,37.60069],[127.49561,37.6008],[127.49568,37.60091],[127.49568,37.60096],[127.49561,37.60096]]]}},{"type":"Feature","properties":{"valleyId":"eobi","layer":"shadow","date":"2026-08-01","timeLocal":"10:00"},"geometry":{"type":"Polygon","coordinates":[[[127.49704,37.60071],[127.49702,37.6006],[127.49711,37.60058],[127.49711,37.60071],[127.49704,37.60071]]]}},{"type":"Feature","properties":{"valleyId":"eobi","layer":"shadow","date":"2026-08-01","timeLocal":"10:00"},"geometry":{"type":"Polygon","coordinates":[[[127.49727,37.60055],[127.49727,37.60049],[127.49736,37.60049],[127.49736,37.60055],[127.49727,37.60055]]]}},{"type":"Feature","properties":{"valleyId":"eobi","layer":"shadow","date":"2026-08-01","timeLocal":"10:00"},"geometry":{"type":"Polygon","coordinates":[[[127.49695,37.60051],[127.49696,37.60045],[127.49702,37.60045],[127.49702,37.60051],[127.49695,37.60051]]]}},{"type":"Feature","properties":{"valleyId":"eobi","layer":"shadow","date":"2026-08-01","timeLocal":"10:00"},"geometry":{"type":"Polygon","coordinates":[[[127.49668,37.60054],[127.49666,37.60045],[127.49662,37.60043],[127.49662,37.60036],[127.49669,37.60036],[127.49673,37.60045],[127.49682,37.60049],[127.49682,37.60054],[127.49668,37.60054]]]}},{"type":"Feature","properties":{"valleyId":"eobi","layer":"shadow","date":"2026-08-01","timeLocal":"10:00"},"geometry":{"type":"Polygon","coordinates":[[[127.49741,37.60039],[127.49741,37.60028],[127.49748,37.60023],[127.49755,37.60023],[127.49752,37.60035],[127.49748,37.60039],[127.49741,37.60039]]]}},{"type":"Feature","properties":{"valleyId":"eobi","layer":"shadow","date":"2026-08-01","timeLocal":"10:00"},"geometry":{"type":"Polygon","coordinates":[[[127.49633,37.59985],[127.49633,37.5998],[127.4964,37.5998],[127.4964,37.59985],[127.49633,37.59985]]]}},{"type":"Feature","properties":{"valleyId":"eobi","layer":"shadow","date":"2026-08-01","timeLocal":"10:00"},"geometry":{"type":"Polygon","coordinates":[[[127.49697,37.59993],[127.49695,37.59982],[127.49699,37.59982],[127.49699,37.59979],[127.49706,37.59979],[127.49706,37.5997],[127.49713,37.5997],[127.49713,37.59986],[127.49706,37.59986],[127.49703,37.59993],[127.49697,37.59993]]]}},{"type":"Feature","properties":{"valleyId":"eobi","layer":"shadow","date":"2026-08-01","timeLocal":"10:00"},"geometry":{"type":"Polygon","coordinates":[[[127.49622,37.59962],[127.49618,37.59958],[127.49618,37.59952],[127.49625,37.59953],[127.49629,37.59956],[127.49629,37.59962],[127.49622,37.59962]]]}},{"type":"Feature","properties":{"valleyId":"eobi","layer":"shadow","date":"2026-08-01","timeLocal":"10:00"},"geometry":{"type":"Polygon","coordinates":[[[127.49547,37.60002],[127.4954,37.59995],[127.49537,37.59944],[127.49532,37.59935],[127.49537,37.59917],[127.49544,37.59917],[127.49546,37.59926],[127.49543,37.59948],[127.49548,37.59955],[127.49549,37.59991],[127.49554,37.59997],[127.49554,37.60002],[127.49547,37.60002]]]}},{"type":"Feature","properties":{"valleyId":"eobi","layer":"shadow","date":"2026-08-01","timeLocal":"10:00"},"geometry":{"type":"Polygon","coordinates":[[[127.4973,37.5992],[127.49725,37.59918],[127.49725,37.59912],[127.49737,37.59914],[127.49737,37.5992],[127.4973,37.5992]]]}},{"type":"Feature","properties":{"valleyId":"eobi","layer":"shadow","date":"2026-08-01","timeLocal":"10:00"},"geometry":{"type":"Polygon","coordinates":[[[127.49617,37.59915],[127.49617,37.59909],[127.49623,37.59909],[127.49623,37.59915],[127.49617,37.59915]]]}},{"type":"Feature","properties":{"valleyId":"eobi","layer":"shadow","date":"2026-08-01","timeLocal":"10:00"},"geometry":{"type":"Polygon","coordinates":[[[127.49433,37.59903],[127.49432,37.59878],[127.49438,37.59878],[127.4944,37.59903],[127.49433,37.59903]]]}},{"type":"Feature","properties":{"valleyId":"eobi","layer":"shadow","date":"2026-08-01","timeLocal":"10:00"},"geometry":{"type":"Polygon","coordinates":[[[127.49564,37.59936],[127.49564,37.59925],[127.49551,37.59898],[127.49554,37.59887],[127.49549,37.59883],[127.49549,37.59874],[127.49543,37.59865],[127.49541,37.59852],[127.49548,37.59852],[127.49554,37.5986],[127.49554,37.59865],[127.49561,37.59872],[127.49563,37.5989],[127.49567,37.59894],[127.49567,37.59905],[127.49574,37.5991],[127.49571,37.59925],[127.49578,37.59928],[127.49578,37.59936],[127.49564,37.59936]]]}},{"type":"Feature","properties":{"valleyId":"eobi","layer":"shadow","date":"2026-08-01","timeLocal":"10:00"},"geometry":{"type":"Polygon","coordinates":[[[127.49319,37.59851],[127.49319,37.59846],[127.49326,37.59846],[127.49326,37.59851],[127.49319,37.59851]]]}},{"type":"Feature","properties":{"valleyId":"eobi","layer":"shadow","date":"2026-08-01","timeLocal":"10:00"},"geometry":{"type":"Polygon","coordinates":[[[127.49553,37.598],[127.49553,37.59795],[127.4956,37.59795],[127.4956,37.598],[127.49553,37.598]]]}},{"type":"Feature","properties":{"valleyId":"eobi","layer":"shadow","date":"2026-08-01","timeLocal":"10:00"},"geometry":{"type":"Polygon","coordinates":[[[127.49853,37.59782],[127.49853,37.59777],[127.49859,37.59777],[127.49859,37.59782],[127.49853,37.59782]]]}},{"type":"Feature","properties":{"valleyId":"eobi","layer":"shadow","date":"2026-08-01","timeLocal":"10:00"},"geometry":{"type":"Polygon","coordinates":[[[127.49681,37.59748],[127.49681,37.59742],[127.49688,37.59742],[127.49688,37.59748],[127.49681,37.59748]]]}},{"type":"Feature","properties":{"valleyId":"eobi","layer":"shadow","date":"2026-08-01","timeLocal":"10:00"},"geometry":{"type":"Polygon","coordinates":[[[127.49755,37.5968],[127.49755,37.59675],[127.49762,37.59675],[127.49762,37.5968],[127.49755,37.5968]]]}},{"type":"Feature","properties":{"valleyId":"eobi","layer":"shadow","date":"2026-08-01","timeLocal":"10:00"},"geometry":{"type":"Polygon","coordinates":[[[127.49807,37.59686],[127.49807,37.5967],[127.49814,37.5967],[127.49816,37.59686],[127.49807,37.59686]]]}},{"type":"Feature","properties":{"valleyId":"eobi","layer":"shadow","date":"2026-08-01","timeLocal":"10:00"},"geometry":{"type":"Polygon","coordinates":[[[127.49744,37.59649],[127.49744,37.59644],[127.49751,37.59644],[127.49751,37.59649],[127.49744,37.59649]]]}},{"type":"Feature","properties":{"valleyId":"eobi","layer":"shadow","date":"2026-08-01","timeLocal":"10:00"},"geometry":{"type":"Polygon","coordinates":[[[127.4916,37.59626],[127.49156,37.59617],[127.49156,37.59609],[127.49163,37.5961],[127.49167,37.5962],[127.49167,37.59626],[127.4916,37.59626]]]}},{"type":"Feature","properties":{"valleyId":"eobi","layer":"shadow","date":"2026-08-01","timeLocal":"10:00"},"geometry":{"type":"Polygon","coordinates":[[[127.49742,37.59635],[127.49738,37.59615],[127.49747,37.59613],[127.49749,37.59635],[127.49742,37.59635]]]}},{"type":"Feature","properties":{"valleyId":"eobi","layer":"shadow","date":"2026-08-01","timeLocal":"10:00"},"geometry":{"type":"Polygon","coordinates":[[[127.49147,37.59588],[127.49148,37.59582],[127.49154,37.59582],[127.49154,37.59588],[127.49147,37.59588]]]}},{"type":"Feature","properties":{"valleyId":"eobi","layer":"shadow","date":"2026-08-01","timeLocal":"10:00"},"geometry":{"type":"Polygon","coordinates":[[[127.49148,37.59561],[127.49148,37.59555],[127.49155,37.59555],[127.49155,37.59561],[127.49148,37.59561]]]}},{"type":"Feature","properties":{"valleyId":"eobi","layer":"shadow","date":"2026-08-01","timeLocal":"10:00"},"geometry":{"type":"Polygon","coordinates":[[[127.49141,37.59546],[127.4914,37.5953],[127.49146,37.5953],[127.49148,37.59546],[127.49141,37.59546]]]}},{"type":"Feature","properties":{"valleyId":"eobi","layer":"shadow","date":"2026-08-01","timeLocal":"10:00"},"geometry":{"type":"Polygon","coordinates":[[[127.49264,37.59557],[127.49264,37.59528],[127.49278,37.59526],[127.49273,37.59555],[127.49264,37.59557]]]}},{"type":"Feature","properties":{"valleyId":"eobi","layer":"shadow","date":"2026-08-01","timeLocal":"10:00"},"geometry":{"type":"Polygon","coordinates":[[[127.49192,37.59513],[127.4919,37.59505],[127.49194,37.59504],[127.49213,37.59506],[127.49212,37.59513],[127.49192,37.59513]]]}},{"type":"Feature","properties":{"valleyId":"eobi","layer":"shadow","date":"2026-08-01","timeLocal":"10:00"},"geometry":{"type":"Polygon","coordinates":[[[127.49116,37.59485],[127.49116,37.59479],[127.49122,37.59479],[127.49122,37.59485],[127.49116,37.59485]]]}},{"type":"Feature","properties":{"valleyId":"eobi","layer":"shadow","date":"2026-08-01","timeLocal":"10:00"},"geometry":{"type":"Polygon","coordinates":[[[127.49161,37.59471],[127.49164,37.59462],[127.4917,37.59462],[127.4917,37.59469],[127.49161,37.59471]]]}},{"type":"Feature","properties":{"valleyId":"eobi","layer":"shadow","date":"2026-08-01","timeLocal":"10:00"},"geometry":{"type":"Polygon","coordinates":[[[127.48967,37.59434],[127.48967,37.59429],[127.48974,37.59429],[127.48974,37.59434],[127.48967,37.59434]]]}},{"type":"Feature","properties":{"valleyId":"eobi","layer":"shadow","date":"2026-08-01","timeLocal":"10:00"},"geometry":{"type":"Polygon","coordinates":[[[127.49171,37.59438],[127.49171,37.59429],[127.49178,37.59429],[127.49178,37.59438],[127.49171,37.59438]]]}},{"type":"Feature","properties":{"valleyId":"eobi","layer":"shadow","date":"2026-08-01","timeLocal":"10:00"},"geometry":{"type":"Polygon","coordinates":[[[127.49069,37.59421],[127.49069,37.59414],[127.49076,37.59414],[127.49076,37.59421],[127.49069,37.59421]]]}},{"type":"Feature","properties":{"valleyId":"eobi","layer":"shadow","date":"2026-08-01","timeLocal":"10:00"},"geometry":{"type":"Polygon","coordinates":[[[127.49176,37.59422],[127.49176,37.59413],[127.49183,37.59413],[127.49182,37.59422],[127.49176,37.59422]]]}},{"type":"Feature","properties":{"valleyId":"eobi","layer":"shadow","date":"2026-08-01","timeLocal":"10:00"},"geometry":{"type":"Polygon","coordinates":[[[127.48972,37.59302],[127.48972,37.59292],[127.48979,37.59292],[127.48979,37.59303],[127.48972,37.59302]]]}},{"type":"Feature","properties":{"valleyId":"eobi","layer":"shadow","date":"2026-08-01","timeLocal":"10:00"},"geometry":{"type":"Polygon","coordinates":[[[127.49165,37.59265],[127.49168,37.59256],[127.49175,37.59256],[127.49174,37.59265],[127.49165,37.59265]]]}},{"type":"Feature","properties":{"valleyId":"eobi","layer":"shadow","date":"2026-08-01","timeLocal":"10:00"},"geometry":{"type":"Polygon","coordinates":[[[127.49234,37.59216],[127.49234,37.59208],[127.49241,37.59209],[127.49241,37.59216],[127.49234,37.59216]]]}},{"type":"Feature","properties":{"valleyId":"eobi","layer":"shadow","date":"2026-08-01","timeLocal":"10:00"},"geometry":{"type":"Polygon","coordinates":[[[127.4937,37.59205],[127.49371,37.59192],[127.49377,37.59192],[127.49379,37.59203],[127.4937,37.59205]]]}},{"type":"Feature","properties":{"valleyId":"eobi","layer":"shadow","date":"2026-08-01","timeLocal":"10:00"},"geometry":{"type":"Polygon","coordinates":[[[127.48904,37.59193],[127.48899,37.59192],[127.489,37.59186],[127.48911,37.59188],[127.48911,37.59194],[127.48904,37.59193]]]}},{"type":"Feature","properties":{"valleyId":"eobi","layer":"shadow","date":"2026-08-01","timeLocal":"10:00"},"geometry":{"type":"Polygon","coordinates":[[[127.49038,37.59177],[127.49038,37.59172],[127.49045,37.59172],[127.49045,37.59177],[127.49038,37.59177]]]}},{"type":"Feature","properties":{"valleyId":"eobi","layer":"shadow","date":"2026-08-01","timeLocal":"10:00"},"geometry":{"type":"Polygon","coordinates":[[[127.49362,37.59172],[127.4936,37.59165],[127.49367,37.59165],[127.49369,37.59172],[127.49362,37.59172]]]}},{"type":"Feature","properties":{"valleyId":"eobi","layer":"shadow","date":"2026-08-01","timeLocal":"10:00"},"geometry":{"type":"Polygon","coordinates":[[[127.49043,37.59166],[127.49043,37.59159],[127.4905,37.59159],[127.49049,37.59166],[127.49043,37.59166]]]}},{"type":"Feature","properties":{"valleyId":"eobi","layer":"shadow","date":"2026-08-01","timeLocal":"10:00"},"geometry":{"type":"Polygon","coordinates":[[[127.49152,37.59013],[127.49152,37.59007],[127.49159,37.59007],[127.49159,37.59013],[127.49152,37.59013]]]}},{"type":"Feature","properties":{"valleyId":"eobi","layer":"shadow","date":"2026-08-01","timeLocal":"10:00"},"geometry":{"type":"Polygon","coordinates":[[[127.49083,37.58969],[127.49081,37.5896],[127.49088,37.5896],[127.4909,37.58969],[127.49083,37.58969]]]}},{"type":"Feature","properties":{"valleyId":"eobi","layer":"shadow","date":"2026-08-01","timeLocal":"10:00"},"geometry":{"type":"Polygon","coordinates":[[[127.49284,37.58867],[127.49284,37.58861],[127.49291,37.58861],[127.49291,37.58867],[127.49284,37.58867]]]}}]}
