{"type":"FeatureCollection","metadata":{"description":"개방지(CHM ≤ 2 m)에 드리운 나무·지형 그림자, 2026-08-01 11:00 KST. canopy 위에 겹쳐 그린다","source":"위성 기반 추정 — Copernicus GLO-30 지형(30 m) + Meta/WRI 수관 높이(1 m CHM, 2016 촬영). 그늘 = 수관(CHM > 2 m) ∪ 나무·지형 그림자 ∪ 원거리 지형 마스크. 현장과 다를 수 있음.","datasetVersion":"2026-09-06.0","collectedAt":"2026-09-06","coordinateOrder":"[longitude, latitude]","crs":"EPSG:4326","representativeDate":"2026-08-01","hours":["10:00","11:00","12:00","13:00","14:00","15:00","16:00","17:00","18:00"],"chmAcquisition":["2016-06"],"assets":{"glo30":{"dataset":"Copernicus DEM GLO-30 (COG, s3://copernicus-dem-30m)","tiles":["Copernicus_DSM_COG_10_N37_00_E127_00_DEM"]},"chm":{"dataset":"Meta/WRI Global Canopy Height Map v1 (alsgedi_global_v6_float, 1 m, CC-BY 4.0)","quadkeys":["132110321"],"acquisition":["2016-06"]}},"method":{"gridResM":2,"canopyThresholdM":2,"bufferHalfM":25,"corridorHalfM":200,"simplifyTolM":2,"minAreaM2":25,"coordDecimals":5},"generator":"scripts/shade 0.1.0","builtAt":"2026-09-06T05:58:20Z","layer":"shadow","timeLocal":"11:00"},"features":[{"type":"Feature","properties":{"valleyId":"eobi","layer":"shadow","date":"2026-08-01","timeLocal":"11:00"},"geometry":{"type":"Polygon","coordinates":[[[127.49345,37.60931],[127.49345,37.60926],[127.49352,37.60926],[127.49351,37.60931],[127.49345,37.60931]]]}},{"type":"Feature","properties":{"valleyId":"eobi","layer":"shadow","date":"2026-08-01","timeLocal":"11:00"},"geometry":{"type":"Polygon","coordinates":[[[127.49406,37.60822],[127.49406,37.60817],[127.49413,37.60817],[127.49413,37.60822],[127.49406,37.60822]]]}},{"type":"Feature","properties":{"valleyId":"eobi","layer":"shadow","date":"2026-08-01","timeLocal":"11:00"},"geometry":{"type":"Polygon","coordinates":[[[127.49425,37.60768],[127.49423,37.60759],[127.4943,37.60759],[127.49432,37.60768],[127.49425,37.60768]]]}},{"type":"Feature","properties":{"valleyId":"eobi","layer":"shadow","date":"2026-08-01","timeLocal":"11:00"},"geometry":{"type":"Polygon","coordinates":[[[127.4945,37.60664],[127.49448,37.60657],[127.49457,37.60657],[127.49459,37.60664],[127.4945,37.60664]]]}},{"type":"Feature","properties":{"valleyId":"eobi","layer":"shadow","date":"2026-08-01","timeLocal":"11:00"},"geometry":{"type":"Polygon","coordinates":[[[127.49627,37.60308],[127.49627,37.603],[127.49634,37.60301],[127.49634,37.60308],[127.49627,37.60308]]]}},{"type":"Feature","properties":{"valleyId":"eobi","layer":"shadow","date":"2026-08-01","timeLocal":"11:00"},"geometry":{"type":"Polygon","coordinates":[[[127.49569,37.60165],[127.49569,37.60159],[127.49575,37.60159],[127.49575,37.60165],[127.49569,37.60165]]]}},{"type":"Feature","properties":{"valleyId":"eobi","layer":"shadow","date":"2026-08-01","timeLocal":"11:00"},"geometry":{"type":"Polygon","coordinates":[[[127.49565,37.60121],[127.49565,37.60116],[127.49572,37.60116],[127.49572,37.60121],[127.49565,37.60121]]]}},{"type":"Feature","properties":{"valleyId":"eobi","layer":"shadow","date":"2026-08-01","timeLocal":"11:00"},"geometry":{"type":"Polygon","coordinates":[[[127.49739,37.60116],[127.49739,37.60111],[127.49746,37.60111],[127.49746,37.60116],[127.49739,37.60116]]]}},{"type":"Feature","properties":{"valleyId":"eobi","layer":"shadow","date":"2026-08-01","timeLocal":"11:00"},"geometry":{"type":"Polygon","coordinates":[[[127.49539,37.59933],[127.49539,37.59926],[127.49546,37.59926],[127.49546,37.59933],[127.49539,37.59933]]]}},{"type":"Feature","properties":{"valleyId":"eobi","layer":"shadow","date":"2026-08-01","timeLocal":"11:00"},"geometry":{"type":"Polygon","coordinates":[[[127.49569,37.59932],[127.49567,37.59925],[127.49573,37.59925],[127.49575,37.59932],[127.49569,37.59932]]]}},{"type":"Feature","properties":{"valleyId":"eobi","layer":"shadow","date":"2026-08-01","timeLocal":"11:00"},"geometry":{"type":"Polygon","coordinates":[[[127.49567,37.59918],[127.49567,37.5991],[127.49574,37.5991],[127.49573,37.59918],[127.49567,37.59918]]]}},{"type":"Feature","properties":{"valleyId":"eobi","layer":"shadow","date":"2026-08-01","timeLocal":"11:00"},"geometry":{"type":"Polygon","coordinates":[[[127.4956,37.59901],[127.49558,37.5989],[127.49565,37.5989],[127.49567,37.59901],[127.4956,37.59901]]]}},{"type":"Feature","properties":{"valleyId":"eobi","layer":"shadow","date":"2026-08-01","timeLocal":"11:00"},"geometry":{"type":"Polygon","coordinates":[[[127.49206,37.59511],[127.49201,37.59509],[127.49201,37.59504],[127.49213,37.59506],[127.49212,37.59511],[127.49206,37.59511]]]}},{"type":"Feature","properties":{"valleyId":"eobi","layer":"shadow","date":"2026-08-01","timeLocal":"11:00"},"geometry":{"type":"Polygon","coordinates":[[[127.49284,37.58867],[127.49284,37.58861],[127.49291,37.58861],[127.49291,37.58867],[127.49284,37.58867]]]}}]}
