{"type":"FeatureCollection","metadata":{"description":"개방지(CHM ≤ 2 m)에 드리운 나무·지형 그림자, 2026-08-01 15:00 KST. canopy 위에 겹쳐 그린다","source":"위성 기반 추정 — Copernicus GLO-30 지형(30 m) + Meta/WRI 수관 높이(1 m CHM, 2016 촬영). 그늘 = 수관(CHM > 2 m) ∪ 나무·지형 그림자 ∪ 원거리 지형 마스크. 현장과 다를 수 있음.","datasetVersion":"2026-09-06.0","collectedAt":"2026-09-06","coordinateOrder":"[longitude, latitude]","crs":"EPSG:4326","representativeDate":"2026-08-01","hours":["10:00","11:00","12:00","13:00","14:00","15:00","16:00","17:00","18:00"],"chmAcquisition":["2016-06"],"assets":{"glo30":{"dataset":"Copernicus DEM GLO-30 (COG, s3://copernicus-dem-30m)","tiles":["Copernicus_DSM_COG_10_N37_00_E127_00_DEM"]},"chm":{"dataset":"Meta/WRI Global Canopy Height Map v1 (alsgedi_global_v6_float, 1 m, CC-BY 4.0)","quadkeys":["132110321"],"acquisition":["2016-06"]}},"method":{"gridResM":2,"canopyThresholdM":2,"bufferHalfM":25,"corridorHalfM":200,"simplifyTolM":2,"minAreaM2":25,"coordDecimals":5},"generator":"scripts/shade 0.1.0","builtAt":"2026-09-06T05:58:20Z","layer":"shadow","timeLocal":"15:00"},"features":[{"type":"Feature","properties":{"valleyId":"eobi","layer":"shadow","date":"2026-08-01","timeLocal":"15:00"},"geometry":{"type":"Polygon","coordinates":[[[127.49133,37.6095],[127.49134,37.60945],[127.4914,37.60945],[127.4914,37.6095],[127.49133,37.6095]]]}},{"type":"Feature","properties":{"valleyId":"eobi","layer":"shadow","date":"2026-08-01","timeLocal":"15:00"},"geometry":{"type":"Polygon","coordinates":[[[127.49376,37.60375],[127.49376,37.60369],[127.49383,37.60369],[127.49383,37.60375],[127.49376,37.60375]]]}},{"type":"Feature","properties":{"valleyId":"eobi","layer":"shadow","date":"2026-08-01","timeLocal":"15:00"},"geometry":{"type":"Polygon","coordinates":[[[127.49404,37.6037],[127.49404,37.60361],[127.4941,37.60361],[127.4941,37.6037],[127.49404,37.6037]]]}},{"type":"Feature","properties":{"valleyId":"eobi","layer":"shadow","date":"2026-08-01","timeLocal":"15:00"},"geometry":{"type":"Polygon","coordinates":[[[127.49379,37.60249],[127.49379,37.60243],[127.49386,37.60243],[127.49386,37.60249],[127.49379,37.60249]]]}},{"type":"Feature","properties":{"valleyId":"eobi","layer":"shadow","date":"2026-08-01","timeLocal":"15:00"},"geometry":{"type":"Polygon","coordinates":[[[127.49453,37.60138],[127.49454,37.60132],[127.4946,37.60132],[127.4946,37.60138],[127.49453,37.60138]]]}},{"type":"Feature","properties":{"valleyId":"eobi","layer":"shadow","date":"2026-08-01","timeLocal":"15:00"},"geometry":{"type":"Polygon","coordinates":[[[127.49564,37.59937],[127.49564,37.59932],[127.49571,37.59932],[127.49571,37.59937],[127.49564,37.59937]]]}},{"type":"Feature","properties":{"valleyId":"eobi","layer":"shadow","date":"2026-08-01","timeLocal":"15:00"},"geometry":{"type":"Polygon","coordinates":[[[127.49165,37.59851],[127.49163,37.59833],[127.4917,37.59833],[127.49172,37.59851],[127.49165,37.59851]]]}},{"type":"Feature","properties":{"valleyId":"eobi","layer":"shadow","date":"2026-08-01","timeLocal":"15:00"},"geometry":{"type":"Polygon","coordinates":[[[127.49319,37.59615],[127.49322,37.5959],[127.49331,37.59588],[127.4933,37.5961],[127.49328,37.59615],[127.49319,37.59615]]]}},{"type":"Feature","properties":{"valleyId":"eobi","layer":"shadow","date":"2026-08-01","timeLocal":"15:00"},"geometry":{"type":"Polygon","coordinates":[[[127.48919,37.59367],[127.48919,37.59361],[127.48925,37.59361],[127.48925,37.59367],[127.48919,37.59367]]]}},{"type":"Feature","properties":{"valleyId":"eobi","layer":"shadow","date":"2026-08-01","timeLocal":"15:00"},"geometry":{"type":"Polygon","coordinates":[[[127.48981,37.59198],[127.48981,37.59193],[127.4899,37.59191],[127.4899,37.59196],[127.48981,37.59198]]]}},{"type":"Feature","properties":{"valleyId":"eobi","layer":"shadow","date":"2026-08-01","timeLocal":"15:00"},"geometry":{"type":"Polygon","coordinates":[[[127.4906,37.59192],[127.4906,37.59186],[127.49067,37.59187],[127.49067,37.59192],[127.4906,37.59192]]]}},{"type":"Feature","properties":{"valleyId":"eobi","layer":"shadow","date":"2026-08-01","timeLocal":"15:00"},"geometry":{"type":"Polygon","coordinates":[[[127.49024,37.59181],[127.49027,37.59172],[127.49034,37.59172],[127.49031,37.59181],[127.49024,37.59181]]]}},{"type":"Feature","properties":{"valleyId":"eobi","layer":"shadow","date":"2026-08-01","timeLocal":"15:00"},"geometry":{"type":"Polygon","coordinates":[[[127.49065,37.59181],[127.49068,37.59167],[127.49074,37.59167],[127.49072,37.59181],[127.49065,37.59181]]]}},{"type":"Feature","properties":{"valleyId":"eobi","layer":"shadow","date":"2026-08-01","timeLocal":"15:00"},"geometry":{"type":"Polygon","coordinates":[[[127.48994,37.58998],[127.48994,37.58989],[127.49001,37.58989],[127.49001,37.58998],[127.48994,37.58998]]]}}]}
