{"type":"FeatureCollection","metadata":{"description":"개방지(CHM ≤ 2 m)에 드리운 나무·지형 그림자, 2026-08-01 16:00 KST. canopy 위에 겹쳐 그린다","source":"위성 기반 추정 — Copernicus GLO-30 지형(30 m) + Meta/WRI 수관 높이(1 m CHM, 2016 촬영). 그늘 = 수관(CHM > 2 m) ∪ 나무·지형 그림자 ∪ 원거리 지형 마스크. 현장과 다를 수 있음.","datasetVersion":"2026-09-06.0","collectedAt":"2026-09-06","coordinateOrder":"[longitude, latitude]","crs":"EPSG:4326","representativeDate":"2026-08-01","hours":["10:00","11:00","12:00","13:00","14:00","15:00","16:00","17:00","18:00"],"chmAcquisition":["2016-06"],"assets":{"glo30":{"dataset":"Copernicus DEM GLO-30 (COG, s3://copernicus-dem-30m)","tiles":["Copernicus_DSM_COG_10_N37_00_E127_00_DEM"]},"chm":{"dataset":"Meta/WRI Global Canopy Height Map v1 (alsgedi_global_v6_float, 1 m, CC-BY 4.0)","quadkeys":["132110321"],"acquisition":["2016-06"]}},"method":{"gridResM":2,"canopyThresholdM":2,"bufferHalfM":25,"corridorHalfM":200,"simplifyTolM":2,"minAreaM2":25,"coordDecimals":5},"generator":"scripts/shade 0.1.0","builtAt":"2026-09-06T05:58:20Z","layer":"shadow","timeLocal":"16:00"},"features":[{"type":"Feature","properties":{"valleyId":"eobi","layer":"shadow","date":"2026-08-01","timeLocal":"16:00"},"geometry":{"type":"Polygon","coordinates":[[[127.4912,37.60963],[127.4912,37.60957],[127.49127,37.60957],[127.49126,37.60963],[127.4912,37.60963]]]}},{"type":"Feature","properties":{"valleyId":"eobi","layer":"shadow","date":"2026-08-01","timeLocal":"16:00"},"geometry":{"type":"Polygon","coordinates":[[[127.49133,37.60952],[127.49136,37.60938],[127.49147,37.6094],[127.49145,37.6095],[127.49133,37.60952]]]}},{"type":"Feature","properties":{"valleyId":"eobi","layer":"shadow","date":"2026-08-01","timeLocal":"16:00"},"geometry":{"type":"Polygon","coordinates":[[[127.49029,37.60857],[127.49029,37.60844],[127.49034,37.60844],[127.49034,37.60841],[127.49041,37.60841],[127.49038,37.60855],[127.49029,37.60857]]]}},{"type":"Feature","properties":{"valleyId":"eobi","layer":"shadow","date":"2026-08-01","timeLocal":"16:00"},"geometry":{"type":"Polygon","coordinates":[[[127.49455,37.60835],[127.49458,37.60826],[127.49465,37.60827],[127.49464,37.60834],[127.49455,37.60835]]]}},{"type":"Feature","properties":{"valleyId":"eobi","layer":"shadow","date":"2026-08-01","timeLocal":"16:00"},"geometry":{"type":"Polygon","coordinates":[[[127.49061,37.60836],[127.49061,37.6083],[127.49079,37.6082],[127.4908,37.60814],[127.49086,37.60814],[127.49088,37.60825],[127.49079,37.60827],[127.49077,37.60834],[127.49061,37.60836]]]}},{"type":"Feature","properties":{"valleyId":"eobi","layer":"shadow","date":"2026-08-01","timeLocal":"16:00"},"geometry":{"type":"Polygon","coordinates":[[[127.49254,37.60822],[127.49254,37.60811],[127.49261,37.60811],[127.49261,37.60822],[127.49254,37.60822]]]}},{"type":"Feature","properties":{"valleyId":"eobi","layer":"shadow","date":"2026-08-01","timeLocal":"16:00"},"geometry":{"type":"Polygon","coordinates":[[[127.49225,37.60793],[127.49228,37.60775],[127.49234,37.60775],[127.49239,37.60789],[127.49225,37.60793]]]}},{"type":"Feature","properties":{"valleyId":"eobi","layer":"shadow","date":"2026-08-01","timeLocal":"16:00"},"geometry":{"type":"Polygon","coordinates":[[[127.49232,37.60773],[127.49235,37.6076],[127.49242,37.60761],[127.49244,37.6077],[127.49239,37.60773],[127.49232,37.60773]]]}},{"type":"Feature","properties":{"valleyId":"eobi","layer":"shadow","date":"2026-08-01","timeLocal":"16:00"},"geometry":{"type":"Polygon","coordinates":[[[127.49321,37.60731],[127.49322,37.60726],[127.49328,37.60726],[127.49328,37.60731],[127.49321,37.60731]]]}},{"type":"Feature","properties":{"valleyId":"eobi","layer":"shadow","date":"2026-08-01","timeLocal":"16:00"},"geometry":{"type":"Polygon","coordinates":[[[127.49143,37.60705],[127.49146,37.60693],[127.49152,37.60693],[127.49157,37.60696],[127.49157,37.60705],[127.49143,37.60705]]]}},{"type":"Feature","properties":{"valleyId":"eobi","layer":"shadow","date":"2026-08-01","timeLocal":"16:00"},"geometry":{"type":"Polygon","coordinates":[[[127.49146,37.60685],[127.49146,37.6068],[127.49153,37.6068],[127.49152,37.60686],[127.49146,37.60685]]]}},{"type":"Feature","properties":{"valleyId":"eobi","layer":"shadow","date":"2026-08-01","timeLocal":"16:00"},"geometry":{"type":"Polygon","coordinates":[[[127.49563,37.60667],[127.49563,37.60662],[127.4957,37.60662],[127.4957,37.60667],[127.49563,37.60667]]]}},{"type":"Feature","properties":{"valleyId":"eobi","layer":"shadow","date":"2026-08-01","timeLocal":"16:00"},"geometry":{"type":"Polygon","coordinates":[[[127.4919,37.60625],[127.4919,37.60619],[127.49197,37.60619],[127.49197,37.60625],[127.4919,37.60625]]]}},{"type":"Feature","properties":{"valleyId":"eobi","layer":"shadow","date":"2026-08-01","timeLocal":"16:00"},"geometry":{"type":"Polygon","coordinates":[[[127.49178,37.60558],[127.49178,37.60552],[127.49182,37.60553],[127.49182,37.60545],[127.49194,37.60547],[127.49194,37.60556],[127.49178,37.60558]]]}},{"type":"Feature","properties":{"valleyId":"eobi","layer":"shadow","date":"2026-08-01","timeLocal":"16:00"},"geometry":{"type":"Polygon","coordinates":[[[127.49244,37.60548],[127.49244,37.60542],[127.4925,37.60543],[127.4925,37.60548],[127.49244,37.60548]]]}},{"type":"Feature","properties":{"valleyId":"eobi","layer":"shadow","date":"2026-08-01","timeLocal":"16:00"},"geometry":{"type":"Polygon","coordinates":[[[127.49382,37.60555],[127.49382,37.60548],[127.49373,37.60533],[127.49373,37.60523],[127.4938,37.60523],[127.49384,37.60528],[127.49384,37.60542],[127.49389,37.60544],[127.49388,37.60555],[127.49382,37.60555]]]}},{"type":"Feature","properties":{"valleyId":"eobi","layer":"shadow","date":"2026-08-01","timeLocal":"16:00"},"geometry":{"type":"Polygon","coordinates":[[[127.49181,37.60486],[127.49182,37.60479],[127.49188,37.60479],[127.49188,37.60486],[127.49181,37.60486]]]}},{"type":"Feature","properties":{"valleyId":"eobi","layer":"shadow","date":"2026-08-01","timeLocal":"16:00"},"geometry":{"type":"Polygon","coordinates":[[[127.49399,37.60492],[127.49399,37.60485],[127.49395,37.60465],[127.49404,37.60467],[127.49406,37.60476],[127.49406,37.60492],[127.49399,37.60492]]]}},{"type":"Feature","properties":{"valleyId":"eobi","layer":"shadow","date":"2026-08-01","timeLocal":"16:00"},"geometry":{"type":"Polygon","coordinates":[[[127.49191,37.60443],[127.49191,37.60435],[127.49198,37.60436],[127.49198,37.60443],[127.49191,37.60443]]]}},{"type":"Feature","properties":{"valleyId":"eobi","layer":"shadow","date":"2026-08-01","timeLocal":"16:00"},"geometry":{"type":"Polygon","coordinates":[[[127.49361,37.60445],[127.49361,37.60438],[127.49368,37.60438],[127.49368,37.60445],[127.49361,37.60445]]]}},{"type":"Feature","properties":{"valleyId":"eobi","layer":"shadow","date":"2026-08-01","timeLocal":"16:00"},"geometry":{"type":"Polygon","coordinates":[[[127.49374,37.60391],[127.49374,37.60384],[127.49381,37.60384],[127.4938,37.60391],[127.49374,37.60391]]]}},{"type":"Feature","properties":{"valleyId":"eobi","layer":"shadow","date":"2026-08-01","timeLocal":"16:00"},"geometry":{"type":"Polygon","coordinates":[[[127.49256,37.60377],[127.49256,37.60371],[127.49263,37.60372],[127.49263,37.60377],[127.49256,37.60377]]]}},{"type":"Feature","properties":{"valleyId":"eobi","layer":"shadow","date":"2026-08-01","timeLocal":"16:00"},"geometry":{"type":"Polygon","coordinates":[[[127.49376,37.60375],[127.49376,37.60368],[127.49388,37.60369],[127.49388,37.60375],[127.49376,37.60375]]]}},{"type":"Feature","properties":{"valleyId":"eobi","layer":"shadow","date":"2026-08-01","timeLocal":"16:00"},"geometry":{"type":"Polygon","coordinates":[[[127.49261,37.6037],[127.49261,37.60361],[127.49268,37.60361],[127.49268,37.6037],[127.49261,37.6037]]]}},{"type":"Feature","properties":{"valleyId":"eobi","layer":"shadow","date":"2026-08-01","timeLocal":"16:00"},"geometry":{"type":"Polygon","coordinates":[[[127.49403,37.60371],[127.49404,37.60361],[127.49408,37.60359],[127.49408,37.60355],[127.49415,37.60355],[127.49415,37.60368],[127.4941,37.60372],[127.49403,37.60371]]]}},{"type":"Feature","properties":{"valleyId":"eobi","layer":"shadow","date":"2026-08-01","timeLocal":"16:00"},"geometry":{"type":"Polygon","coordinates":[[[127.49241,37.60346],[127.49246,37.60333],[127.49252,37.60334],[127.4925,37.60344],[127.49241,37.60346]]]}},{"type":"Feature","properties":{"valleyId":"eobi","layer":"shadow","date":"2026-08-01","timeLocal":"16:00"},"geometry":{"type":"Polygon","coordinates":[[[127.49386,37.60337],[127.49386,37.6033],[127.49393,37.6033],[127.49393,37.60337],[127.49386,37.60337]]]}},{"type":"Feature","properties":{"valleyId":"eobi","layer":"shadow","date":"2026-08-01","timeLocal":"16:00"},"geometry":{"type":"Polygon","coordinates":[[[127.49195,37.60354],[127.49189,37.60338],[127.49193,37.60336],[127.49194,37.60333],[127.49198,37.60333],[127.49198,37.60322],[127.49205,37.60322],[127.49207,37.60331],[127.49198,37.60338],[127.49202,37.60355],[127.49195,37.60354]]]}},{"type":"Feature","properties":{"valleyId":"eobi","layer":"shadow","date":"2026-08-01","timeLocal":"16:00"},"geometry":{"type":"Polygon","coordinates":[[[127.49253,37.60328],[127.49253,37.60323],[127.49259,37.60323],[127.49259,37.60328],[127.49253,37.60328]]]}},{"type":"Feature","properties":{"valleyId":"eobi","layer":"shadow","date":"2026-08-01","timeLocal":"16:00"},"geometry":{"type":"Polygon","coordinates":[[[127.49425,37.60332],[127.49425,37.60323],[127.49432,37.60323],[127.49434,37.60332],[127.49425,37.60332]]]}},{"type":"Feature","properties":{"valleyId":"eobi","layer":"shadow","date":"2026-08-01","timeLocal":"16:00"},"geometry":{"type":"Polygon","coordinates":[[[127.49255,37.60314],[127.49255,37.60307],[127.4926,37.60303],[127.49267,37.60303],[127.49264,37.60312],[127.49255,37.60314]]]}},{"type":"Feature","properties":{"valleyId":"eobi","layer":"shadow","date":"2026-08-01","timeLocal":"16:00"},"geometry":{"type":"Polygon","coordinates":[[[127.49391,37.60312],[127.49391,37.60305],[127.49398,37.60305],[127.49398,37.60312],[127.49391,37.60312]]]}},{"type":"Feature","properties":{"valleyId":"eobi","layer":"shadow","date":"2026-08-01","timeLocal":"16:00"},"geometry":{"type":"Polygon","coordinates":[[[127.4924,37.60285],[127.4924,37.60279],[127.49247,37.60279],[127.49247,37.60285],[127.4924,37.60285]]]}},{"type":"Feature","properties":{"valleyId":"eobi","layer":"shadow","date":"2026-08-01","timeLocal":"16:00"},"geometry":{"type":"Polygon","coordinates":[[[127.49378,37.60285],[127.49378,37.60274],[127.49385,37.60274],[127.49387,37.60281],[127.49385,37.60285],[127.49378,37.60285]]]}},{"type":"Feature","properties":{"valleyId":"eobi","layer":"shadow","date":"2026-08-01","timeLocal":"16:00"},"geometry":{"type":"Polygon","coordinates":[[[127.49265,37.60272],[127.49265,37.60267],[127.49272,37.60267],[127.49272,37.60272],[127.49265,37.60272]]]}},{"type":"Feature","properties":{"valleyId":"eobi","layer":"shadow","date":"2026-08-01","timeLocal":"16:00"},"geometry":{"type":"Polygon","coordinates":[[[127.49415,37.60247],[127.49415,37.6024],[127.49422,37.6024],[127.49422,37.60247],[127.49415,37.60247]]]}},{"type":"Feature","properties":{"valleyId":"eobi","layer":"shadow","date":"2026-08-01","timeLocal":"16:00"},"geometry":{"type":"Polygon","coordinates":[[[127.49379,37.60254],[127.49381,37.60236],[127.49388,37.60236],[127.49393,37.6024],[127.49392,37.60247],[127.4939,37.60251],[127.49386,37.6025],[127.49385,37.60254],[127.49379,37.60254]]]}},{"type":"Feature","properties":{"valleyId":"eobi","layer":"shadow","date":"2026-08-01","timeLocal":"16:00"},"geometry":{"type":"Polygon","coordinates":[[[127.49424,37.60237],[127.49424,37.60231],[127.49431,37.60231],[127.49431,37.60237],[127.49424,37.60237]]]}},{"type":"Feature","properties":{"valleyId":"eobi","layer":"shadow","date":"2026-08-01","timeLocal":"16:00"},"geometry":{"type":"Polygon","coordinates":[[[127.49287,37.60197],[127.49287,37.6019],[127.49294,37.6019],[127.49294,37.60197],[127.49287,37.60197]]]}},{"type":"Feature","properties":{"valleyId":"eobi","layer":"shadow","date":"2026-08-01","timeLocal":"16:00"},"geometry":{"type":"Polygon","coordinates":[[[127.49255,37.60195],[127.49255,37.60189],[127.49262,37.60189],[127.49262,37.60195],[127.49255,37.60195]]]}},{"type":"Feature","properties":{"valleyId":"eobi","layer":"shadow","date":"2026-08-01","timeLocal":"16:00"},"geometry":{"type":"Polygon","coordinates":[[[127.49749,37.60199],[127.49749,37.60194],[127.49756,37.60194],[127.49756,37.60199],[127.49749,37.60199]]]}},{"type":"Feature","properties":{"valleyId":"eobi","layer":"shadow","date":"2026-08-01","timeLocal":"16:00"},"geometry":{"type":"Polygon","coordinates":[[[127.49758,37.60192],[127.49758,37.60187],[127.49765,37.60187],[127.49765,37.60192],[127.49758,37.60192]]]}},{"type":"Feature","properties":{"valleyId":"eobi","layer":"shadow","date":"2026-08-01","timeLocal":"16:00"},"geometry":{"type":"Polygon","coordinates":[[[127.49548,37.60177],[127.49548,37.60164],[127.49555,37.60164],[127.49555,37.60177],[127.49548,37.60177]]]}},{"type":"Feature","properties":{"valleyId":"eobi","layer":"shadow","date":"2026-08-01","timeLocal":"16:00"},"geometry":{"type":"Polygon","coordinates":[[[127.49437,37.60166],[127.49437,37.60157],[127.49446,37.60156],[127.49444,37.60167],[127.49437,37.60166]]]}},{"type":"Feature","properties":{"valleyId":"eobi","layer":"shadow","date":"2026-08-01","timeLocal":"16:00"},"geometry":{"type":"Polygon","coordinates":[[[127.49558,37.60145],[127.49558,37.60136],[127.49565,37.60136],[127.49567,37.60145],[127.49558,37.60145]]]}},{"type":"Feature","properties":{"valleyId":"eobi","layer":"shadow","date":"2026-08-01","timeLocal":"16:00"},"geometry":{"type":"Polygon","coordinates":[[[127.49456,37.60141],[127.49454,37.60125],[127.49463,37.60125],[127.49463,37.60129],[127.49467,37.60131],[127.49467,37.60142],[127.49456,37.60141]]]}},{"type":"Feature","properties":{"valleyId":"eobi","layer":"shadow","date":"2026-08-01","timeLocal":"16:00"},"geometry":{"type":"Polygon","coordinates":[[[127.49506,37.6012],[127.49506,37.60115],[127.49513,37.60115],[127.49513,37.60121],[127.49506,37.6012]]]}},{"type":"Feature","properties":{"valleyId":"eobi","layer":"shadow","date":"2026-08-01","timeLocal":"16:00"},"geometry":{"type":"Polygon","coordinates":[[[127.49585,37.60121],[127.49583,37.60105],[127.4959,37.60105],[127.49594,37.60122],[127.49585,37.60121]]]}},{"type":"Feature","properties":{"valleyId":"eobi","layer":"shadow","date":"2026-08-01","timeLocal":"16:00"},"geometry":{"type":"Polygon","coordinates":[[[127.49314,37.60104],[127.49314,37.60095],[127.49321,37.60095],[127.49321,37.60104],[127.49314,37.60104]]]}},{"type":"Feature","properties":{"valleyId":"eobi","layer":"shadow","date":"2026-08-01","timeLocal":"16:00"},"geometry":{"type":"Polygon","coordinates":[[[127.49547,37.6011],[127.49545,37.60098],[127.49552,37.60098],[127.49552,37.60101],[127.49556,37.60103],[127.49556,37.6011],[127.49547,37.6011]]]}},{"type":"Feature","properties":{"valleyId":"eobi","layer":"shadow","date":"2026-08-01","timeLocal":"16:00"},"geometry":{"type":"Polygon","coordinates":[[[127.49579,37.60094],[127.49577,37.60082],[127.49584,37.60082],[127.49586,37.60094],[127.49579,37.60094]]]}},{"type":"Feature","properties":{"valleyId":"eobi","layer":"shadow","date":"2026-08-01","timeLocal":"16:00"},"geometry":{"type":"Polygon","coordinates":[[[127.49706,37.60085],[127.49706,37.60078],[127.49715,37.60078],[127.49715,37.60083],[127.49706,37.60085]]]}},{"type":"Feature","properties":{"valleyId":"eobi","layer":"shadow","date":"2026-08-01","timeLocal":"16:00"},"geometry":{"type":"Polygon","coordinates":[[[127.49575,37.6008],[127.49575,37.60071],[127.49582,37.60071],[127.49582,37.6008],[127.49575,37.6008]]]}},{"type":"Feature","properties":{"valleyId":"eobi","layer":"shadow","date":"2026-08-01","timeLocal":"16:00"},"geometry":{"type":"Polygon","coordinates":[[[127.495,37.60068],[127.495,37.60063],[127.49507,37.60063],[127.49507,37.60068],[127.495,37.60068]]]}},{"type":"Feature","properties":{"valleyId":"eobi","layer":"shadow","date":"2026-08-01","timeLocal":"16:00"},"geometry":{"type":"Polygon","coordinates":[[[127.49256,37.6006],[127.49256,37.60054],[127.49263,37.60054],[127.49262,37.6006],[127.49256,37.6006]]]}},{"type":"Feature","properties":{"valleyId":"eobi","layer":"shadow","date":"2026-08-01","timeLocal":"16:00"},"geometry":{"type":"Polygon","coordinates":[[[127.49505,37.60061],[127.49505,37.60056],[127.49512,37.60056],[127.49512,37.60061],[127.49505,37.60061]]]}},{"type":"Feature","properties":{"valleyId":"eobi","layer":"shadow","date":"2026-08-01","timeLocal":"16:00"},"geometry":{"type":"Polygon","coordinates":[[[127.49179,37.60066],[127.49179,37.60055],[127.49174,37.60051],[127.49172,37.60039],[127.49181,37.60041],[127.49181,37.60046],[127.49186,37.60048],[127.49186,37.60053],[127.4919,37.60057],[127.4919,37.60062],[127.49185,37.60066],[127.49179,37.60066]]]}},{"type":"Feature","properties":{"valleyId":"eobi","layer":"shadow","date":"2026-08-01","timeLocal":"16:00"},"geometry":{"type":"Polygon","coordinates":[[[127.49693,37.60053],[127.49693,37.60045],[127.497,37.60045],[127.49702,37.60053],[127.49693,37.60053]]]}},{"type":"Feature","properties":{"valleyId":"eobi","layer":"shadow","date":"2026-08-01","timeLocal":"16:00"},"geometry":{"type":"Polygon","coordinates":[[[127.49277,37.60033],[127.49277,37.60027],[127.49284,37.60027],[127.49283,37.60033],[127.49277,37.60033]]]}},{"type":"Feature","properties":{"valleyId":"eobi","layer":"shadow","date":"2026-08-01","timeLocal":"16:00"},"geometry":{"type":"Polygon","coordinates":[[[127.49732,37.60037],[127.49732,37.6003],[127.49739,37.6003],[127.49741,37.60037],[127.49732,37.60037]]]}},{"type":"Feature","properties":{"valleyId":"eobi","layer":"shadow","date":"2026-08-01","timeLocal":"16:00"},"geometry":{"type":"Polygon","coordinates":[[[127.49716,37.6002],[127.49717,37.60013],[127.49723,37.60013],[127.49723,37.6002],[127.49716,37.6002]]]}},{"type":"Feature","properties":{"valleyId":"eobi","layer":"shadow","date":"2026-08-01","timeLocal":"16:00"},"geometry":{"type":"Polygon","coordinates":[[[127.49144,37.59995],[127.49144,37.59988],[127.49151,37.59988],[127.49151,37.59995],[127.49144,37.59995]]]}},{"type":"Feature","properties":{"valleyId":"eobi","layer":"shadow","date":"2026-08-01","timeLocal":"16:00"},"geometry":{"type":"Polygon","coordinates":[[[127.49726,37.59993],[127.49728,37.59983],[127.49735,37.59983],[127.49733,37.59994],[127.49726,37.59993]]]}},{"type":"Feature","properties":{"valleyId":"eobi","layer":"shadow","date":"2026-08-01","timeLocal":"16:00"},"geometry":{"type":"Polygon","coordinates":[[[127.4969,37.59988],[127.4969,37.59982],[127.49697,37.59982],[127.49697,37.59988],[127.4969,37.59988]]]}},{"type":"Feature","properties":{"valleyId":"eobi","layer":"shadow","date":"2026-08-01","timeLocal":"16:00"},"geometry":{"type":"Polygon","coordinates":[[[127.49633,37.59985],[127.49633,37.5998],[127.4964,37.5998],[127.4964,37.59985],[127.49633,37.59985]]]}},{"type":"Feature","properties":{"valleyId":"eobi","layer":"shadow","date":"2026-08-01","timeLocal":"16:00"},"geometry":{"type":"Polygon","coordinates":[[[127.49187,37.59965],[127.49187,37.5996],[127.49194,37.5996],[127.49194,37.59965],[127.49187,37.59965]]]}},{"type":"Feature","properties":{"valleyId":"eobi","layer":"shadow","date":"2026-08-01","timeLocal":"16:00"},"geometry":{"type":"Polygon","coordinates":[[[127.49502,37.59969],[127.49505,37.59955],[127.49512,37.59955],[127.49514,37.59967],[127.49502,37.59969]]]}},{"type":"Feature","properties":{"valleyId":"eobi","layer":"shadow","date":"2026-08-01","timeLocal":"16:00"},"geometry":{"type":"Polygon","coordinates":[[[127.49185,37.59958],[127.49185,37.59951],[127.49192,37.59951],[127.49192,37.59958],[127.49185,37.59958]]]}},{"type":"Feature","properties":{"valleyId":"eobi","layer":"shadow","date":"2026-08-01","timeLocal":"16:00"},"geometry":{"type":"Polygon","coordinates":[[[127.49269,37.59953],[127.49269,37.59948],[127.49276,37.59948],[127.49276,37.59953],[127.49269,37.59953]]]}},{"type":"Feature","properties":{"valleyId":"eobi","layer":"shadow","date":"2026-08-01","timeLocal":"16:00"},"geometry":{"type":"Polygon","coordinates":[[[127.49009,37.5993],[127.49009,37.59923],[127.49016,37.59923],[127.49016,37.5993],[127.49009,37.5993]]]}},{"type":"Feature","properties":{"valleyId":"eobi","layer":"shadow","date":"2026-08-01","timeLocal":"16:00"},"geometry":{"type":"Polygon","coordinates":[[[127.49568,37.59945],[127.49564,37.59937],[127.49562,37.59919],[127.49569,37.59919],[127.49569,37.59925],[127.49573,37.59928],[127.49575,37.59945],[127.49568,37.59945]]]}},{"type":"Feature","properties":{"valleyId":"eobi","layer":"shadow","date":"2026-08-01","timeLocal":"16:00"},"geometry":{"type":"Polygon","coordinates":[[[127.4917,37.59909],[127.49168,37.59896],[127.49175,37.59896],[127.49177,37.59909],[127.4917,37.59909]]]}},{"type":"Feature","properties":{"valleyId":"eobi","layer":"shadow","date":"2026-08-01","timeLocal":"16:00"},"geometry":{"type":"Polygon","coordinates":[[[127.49087,37.59901],[127.49085,37.59893],[127.49091,37.59893],[127.49094,37.59901],[127.49087,37.59901]]]}},{"type":"Feature","properties":{"valleyId":"eobi","layer":"shadow","date":"2026-08-01","timeLocal":"16:00"},"geometry":{"type":"Polygon","coordinates":[[[127.49157,37.59889],[127.49157,37.59883],[127.49164,37.59884],[127.49164,37.59889],[127.49157,37.59889]]]}},{"type":"Feature","properties":{"valleyId":"eobi","layer":"shadow","date":"2026-08-01","timeLocal":"16:00"},"geometry":{"type":"Polygon","coordinates":[[[127.49551,37.59894],[127.49551,37.59888],[127.49558,37.59889],[127.49558,37.59894],[127.49551,37.59894]]]}},{"type":"Feature","properties":{"valleyId":"eobi","layer":"shadow","date":"2026-08-01","timeLocal":"16:00"},"geometry":{"type":"Polygon","coordinates":[[[127.49415,37.59894],[127.4942,37.5988],[127.49427,37.5988],[127.49431,37.59883],[127.49431,37.59889],[127.49422,37.59894],[127.49415,37.59894]]]}},{"type":"Feature","properties":{"valleyId":"eobi","layer":"shadow","date":"2026-08-01","timeLocal":"16:00"},"geometry":{"type":"Polygon","coordinates":[[[127.4908,37.59877],[127.49081,37.59868],[127.49087,37.59868],[127.49087,37.59877],[127.4908,37.59877]]]}},{"type":"Feature","properties":{"valleyId":"eobi","layer":"shadow","date":"2026-08-01","timeLocal":"16:00"},"geometry":{"type":"Polygon","coordinates":[[[127.49454,37.59884],[127.49452,37.59875],[127.49454,37.59871],[127.49461,37.59871],[127.49461,37.59884],[127.49454,37.59884]]]}},{"type":"Feature","properties":{"valleyId":"eobi","layer":"shadow","date":"2026-08-01","timeLocal":"16:00"},"geometry":{"type":"Polygon","coordinates":[[[127.49411,37.59876],[127.49409,37.59867],[127.49416,37.59867],[127.49418,37.59876],[127.49411,37.59876]]]}},{"type":"Feature","properties":{"valleyId":"eobi","layer":"shadow","date":"2026-08-01","timeLocal":"16:00"},"geometry":{"type":"Polygon","coordinates":[[[127.49307,37.59851],[127.49308,37.59846],[127.49314,37.59846],[127.49314,37.59851],[127.49307,37.59851]]]}},{"type":"Feature","properties":{"valleyId":"eobi","layer":"shadow","date":"2026-08-01","timeLocal":"16:00"},"geometry":{"type":"Polygon","coordinates":[[[127.49183,37.59835],[127.49183,37.5983],[127.4919,37.5983],[127.4919,37.59835],[127.49183,37.59835]]]}},{"type":"Feature","properties":{"valleyId":"eobi","layer":"shadow","date":"2026-08-01","timeLocal":"16:00"},"geometry":{"type":"Polygon","coordinates":[[[127.49151,37.59882],[127.49149,37.59869],[127.49165,37.59851],[127.49163,37.59826],[127.4917,37.59826],[127.49174,37.59835],[127.49181,37.59837],[127.49181,37.59851],[127.49174,37.59857],[127.49169,37.59857],[127.49169,37.59862],[127.49162,37.59866],[127.4916,37.59871],[127.49155,37.59871],[127.49157,37.59882],[127.49151,37.59882]]]}},{"type":"Feature","properties":{"valleyId":"eobi","layer":"shadow","date":"2026-08-01","timeLocal":"16:00"},"geometry":{"type":"Polygon","coordinates":[[[127.49156,37.59822],[127.4915,37.59806],[127.49145,37.59804],[127.49145,37.59799],[127.49154,37.59799],[127.49159,37.59808],[127.49163,37.5981],[127.49163,37.59822],[127.49156,37.59822]]]}},{"type":"Feature","properties":{"valleyId":"eobi","layer":"shadow","date":"2026-08-01","timeLocal":"16:00"},"geometry":{"type":"Polygon","coordinates":[[[127.49184,37.59797],[127.49184,37.59792],[127.49191,37.59792],[127.49191,37.59797],[127.49184,37.59797]]]}},{"type":"Feature","properties":{"valleyId":"eobi","layer":"shadow","date":"2026-08-01","timeLocal":"16:00"},"geometry":{"type":"Polygon","coordinates":[[[127.49141,37.5979],[127.49141,37.59784],[127.49148,37.59784],[127.49148,37.5979],[127.49141,37.5979]]]}},{"type":"Feature","properties":{"valleyId":"eobi","layer":"shadow","date":"2026-08-01","timeLocal":"16:00"},"geometry":{"type":"Polygon","coordinates":[[[127.49773,37.59798],[127.49773,37.5979],[127.4978,37.5979],[127.4978,37.59798],[127.49773,37.59798]]]}},{"type":"Feature","properties":{"valleyId":"eobi","layer":"shadow","date":"2026-08-01","timeLocal":"16:00"},"geometry":{"type":"Polygon","coordinates":[[[127.49816,37.59798],[127.49816,37.59791],[127.49823,37.59791],[127.49823,37.59798],[127.49816,37.59798]]]}},{"type":"Feature","properties":{"valleyId":"eobi","layer":"shadow","date":"2026-08-01","timeLocal":"16:00"},"geometry":{"type":"Polygon","coordinates":[[[127.49871,37.59783],[127.49871,37.59774],[127.4988,37.59774],[127.49877,37.59783],[127.49871,37.59783]]]}},{"type":"Feature","properties":{"valleyId":"eobi","layer":"shadow","date":"2026-08-01","timeLocal":"16:00"},"geometry":{"type":"Polygon","coordinates":[[[127.49585,37.59701],[127.49585,37.59694],[127.49594,37.59693],[127.49594,37.597],[127.49585,37.59701]]]}},{"type":"Feature","properties":{"valleyId":"eobi","layer":"shadow","date":"2026-08-01","timeLocal":"16:00"},"geometry":{"type":"Polygon","coordinates":[[[127.49148,37.59689],[127.49148,37.59683],[127.49155,37.59683],[127.49154,37.59689],[127.49148,37.59689]]]}},{"type":"Feature","properties":{"valleyId":"eobi","layer":"shadow","date":"2026-08-01","timeLocal":"16:00"},"geometry":{"type":"Polygon","coordinates":[[[127.49787,37.59681],[127.49787,37.59675],[127.49796,37.59674],[127.49796,37.59681],[127.49787,37.59681]]]}},{"type":"Feature","properties":{"valleyId":"eobi","layer":"shadow","date":"2026-08-01","timeLocal":"16:00"},"geometry":{"type":"Polygon","coordinates":[[[127.4901,37.59665],[127.4901,37.5966],[127.49017,37.5966],[127.49017,37.59665],[127.4901,37.59665]]]}},{"type":"Feature","properties":{"valleyId":"eobi","layer":"shadow","date":"2026-08-01","timeLocal":"16:00"},"geometry":{"type":"Polygon","coordinates":[[[127.48942,37.59664],[127.4894,37.5965],[127.48947,37.59646],[127.48956,37.59647],[127.48956,37.59656],[127.48951,37.59657],[127.48949,37.59664],[127.48942,37.59664]]]}},{"type":"Feature","properties":{"valleyId":"eobi","layer":"shadow","date":"2026-08-01","timeLocal":"16:00"},"geometry":{"type":"Polygon","coordinates":[[[127.49051,37.59673],[127.49051,37.59664],[127.49055,37.59659],[127.49054,37.59637],[127.4906,37.59637],[127.49065,37.59641],[127.49062,37.59664],[127.49057,37.59673],[127.49051,37.59673]]]}},{"type":"Feature","properties":{"valleyId":"eobi","layer":"shadow","date":"2026-08-01","timeLocal":"16:00"},"geometry":{"type":"Polygon","coordinates":[[[127.49613,37.5963],[127.49613,37.59623],[127.49622,37.59621],[127.49622,37.59628],[127.49613,37.5963]]]}},{"type":"Feature","properties":{"valleyId":"eobi","layer":"shadow","date":"2026-08-01","timeLocal":"16:00"},"geometry":{"type":"Polygon","coordinates":[[[127.48941,37.59616],[127.48941,37.59605],[127.48948,37.59605],[127.48948,37.59616],[127.48941,37.59616]]]}},{"type":"Feature","properties":{"valleyId":"eobi","layer":"shadow","date":"2026-08-01","timeLocal":"16:00"},"geometry":{"type":"Polygon","coordinates":[[[127.49711,37.59604],[127.49711,37.59599],[127.49718,37.59599],[127.49718,37.59604],[127.49711,37.59604]]]}},{"type":"Feature","properties":{"valleyId":"eobi","layer":"shadow","date":"2026-08-01","timeLocal":"16:00"},"geometry":{"type":"Polygon","coordinates":[[[127.48991,37.59595],[127.48991,37.59586],[127.48998,37.59586],[127.48998,37.59595],[127.48991,37.59595]]]}},{"type":"Feature","properties":{"valleyId":"eobi","layer":"shadow","date":"2026-08-01","timeLocal":"16:00"},"geometry":{"type":"Polygon","coordinates":[[[127.49319,37.59617],[127.49322,37.5959],[127.49326,37.59588],[127.49324,37.59574],[127.49345,37.59572],[127.49344,37.59606],[127.49335,37.59612],[127.49335,37.59615],[127.49319,37.59617]]]}},{"type":"Feature","properties":{"valleyId":"eobi","layer":"shadow","date":"2026-08-01","timeLocal":"16:00"},"geometry":{"type":"Polygon","coordinates":[[[127.49019,37.59557],[127.49019,37.59532],[127.49029,37.5953],[127.4903,37.5955],[127.49026,37.59557],[127.49019,37.59557]]]}},{"type":"Feature","properties":{"valleyId":"eobi","layer":"shadow","date":"2026-08-01","timeLocal":"16:00"},"geometry":{"type":"Polygon","coordinates":[[[127.49259,37.59535],[127.4926,37.5953],[127.49266,37.5953],[127.49266,37.59535],[127.49259,37.59535]]]}},{"type":"Feature","properties":{"valleyId":"eobi","layer":"shadow","date":"2026-08-01","timeLocal":"16:00"},"geometry":{"type":"Polygon","coordinates":[[[127.48879,37.59539],[127.48879,37.59527],[127.48881,37.59523],[127.48888,37.59523],[127.48886,37.59539],[127.48879,37.59539]]]}},{"type":"Feature","properties":{"valleyId":"eobi","layer":"shadow","date":"2026-08-01","timeLocal":"16:00"},"geometry":{"type":"Polygon","coordinates":[[[127.49128,37.59535],[127.49128,37.59524],[127.49135,37.59524],[127.49137,37.59535],[127.49128,37.59535]]]}},{"type":"Feature","properties":{"valleyId":"eobi","layer":"shadow","date":"2026-08-01","timeLocal":"16:00"},"geometry":{"type":"Polygon","coordinates":[[[127.49033,37.59521],[127.49033,37.59512],[127.49045,37.59511],[127.49042,37.5952],[127.49033,37.59521]]]}},{"type":"Feature","properties":{"valleyId":"eobi","layer":"shadow","date":"2026-08-01","timeLocal":"16:00"},"geometry":{"type":"Polygon","coordinates":[[[127.49051,37.59516],[127.49052,37.59511],[127.49058,37.59511],[127.49058,37.59516],[127.49051,37.59516]]]}},{"type":"Feature","properties":{"valleyId":"eobi","layer":"shadow","date":"2026-08-01","timeLocal":"16:00"},"geometry":{"type":"Polygon","coordinates":[[[127.49141,37.59481],[127.49141,37.59476],[127.49147,37.59476],[127.49147,37.59481],[127.49141,37.59481]]]}},{"type":"Feature","properties":{"valleyId":"eobi","layer":"shadow","date":"2026-08-01","timeLocal":"16:00"},"geometry":{"type":"Polygon","coordinates":[[[127.4907,37.59477],[127.49071,37.59468],[127.49077,37.59468],[127.49077,37.59477],[127.4907,37.59477]]]}},{"type":"Feature","properties":{"valleyId":"eobi","layer":"shadow","date":"2026-08-01","timeLocal":"16:00"},"geometry":{"type":"Polygon","coordinates":[[[127.49076,37.59437],[127.49076,37.5943],[127.49083,37.5943],[127.49083,37.59437],[127.49076,37.59437]]]}},{"type":"Feature","properties":{"valleyId":"eobi","layer":"shadow","date":"2026-08-01","timeLocal":"16:00"},"geometry":{"type":"Polygon","coordinates":[[[127.4901,37.59436],[127.4901,37.59433],[127.49001,37.59429],[127.49001,37.59422],[127.48995,37.5942],[127.48995,37.59415],[127.49004,37.59415],[127.49004,37.5942],[127.4901,37.5942],[127.49015,37.59424],[127.49017,37.59436],[127.4901,37.59436]]]}},{"type":"Feature","properties":{"valleyId":"eobi","layer":"shadow","date":"2026-08-01","timeLocal":"16:00"},"geometry":{"type":"Polygon","coordinates":[[[127.49096,37.59421],[127.49097,37.59414],[127.49103,37.59414],[127.49105,37.59421],[127.49096,37.59421]]]}},{"type":"Feature","properties":{"valleyId":"eobi","layer":"shadow","date":"2026-08-01","timeLocal":"16:00"},"geometry":{"type":"Polygon","coordinates":[[[127.48981,37.59413],[127.48981,37.59407],[127.48988,37.59407],[127.48988,37.59413],[127.48981,37.59413]]]}},{"type":"Feature","properties":{"valleyId":"eobi","layer":"shadow","date":"2026-08-01","timeLocal":"16:00"},"geometry":{"type":"Polygon","coordinates":[[[127.49115,37.59414],[127.49117,37.59402],[127.49124,37.59402],[127.49124,37.59413],[127.49115,37.59414]]]}},{"type":"Feature","properties":{"valleyId":"eobi","layer":"shadow","date":"2026-08-01","timeLocal":"16:00"},"geometry":{"type":"Polygon","coordinates":[[[127.48968,37.594],[127.48968,37.59394],[127.48975,37.59394],[127.48975,37.594],[127.48968,37.594]]]}},{"type":"Feature","properties":{"valleyId":"eobi","layer":"shadow","date":"2026-08-01","timeLocal":"16:00"},"geometry":{"type":"Polygon","coordinates":[[[127.49006,37.59398],[127.49004,37.59389],[127.49013,37.59388],[127.49013,37.59399],[127.49006,37.59398]]]}},{"type":"Feature","properties":{"valleyId":"eobi","layer":"shadow","date":"2026-08-01","timeLocal":"16:00"},"geometry":{"type":"Polygon","coordinates":[[[127.48971,37.59443],[127.48967,37.59432],[127.4896,37.59429],[127.48958,37.59421],[127.48947,37.59412],[127.48941,37.59398],[127.48936,37.59396],[127.48936,37.5939],[127.48932,37.5939],[127.48932,37.59385],[127.48927,37.59385],[127.48927,37.59379],[127.48934,37.5938],[127.48938,37.5939],[127.48947,37.59394],[127.48965,37.59423],[127.48978,37.59436],[127.48978,37.59443],[127.48971,37.59443]]]}},{"type":"Feature","properties":{"valleyId":"eobi","layer":"shadow","date":"2026-08-01","timeLocal":"16:00"},"geometry":{"type":"Polygon","coordinates":[[[127.49011,37.59386],[127.49011,37.5938],[127.49018,37.59381],[127.49018,37.59386],[127.49011,37.59386]]]}},{"type":"Feature","properties":{"valleyId":"eobi","layer":"shadow","date":"2026-08-01","timeLocal":"16:00"},"geometry":{"type":"Polygon","coordinates":[[[127.4895,37.59365],[127.48948,37.59349],[127.4896,37.59347],[127.48957,37.59365],[127.4895,37.59365]]]}},{"type":"Feature","properties":{"valleyId":"eobi","layer":"shadow","date":"2026-08-01","timeLocal":"16:00"},"geometry":{"type":"Polygon","coordinates":[[[127.48987,37.59357],[127.48987,37.59344],[127.48994,37.59344],[127.48994,37.59357],[127.48987,37.59357]]]}},{"type":"Feature","properties":{"valleyId":"eobi","layer":"shadow","date":"2026-08-01","timeLocal":"16:00"},"geometry":{"type":"Polygon","coordinates":[[[127.48683,37.59344],[127.48684,37.59337],[127.4869,37.59337],[127.4869,37.59344],[127.48683,37.59344]]]}},{"type":"Feature","properties":{"valleyId":"eobi","layer":"shadow","date":"2026-08-01","timeLocal":"16:00"},"geometry":{"type":"Polygon","coordinates":[[[127.48923,37.59374],[127.48919,37.59367],[127.48919,37.59354],[127.4891,37.59343],[127.4891,37.59336],[127.48917,37.59336],[127.48917,37.59341],[127.48923,37.59347],[127.4893,37.59369],[127.4893,37.59374],[127.48923,37.59374]]]}},{"type":"Feature","properties":{"valleyId":"eobi","layer":"shadow","date":"2026-08-01","timeLocal":"16:00"},"geometry":{"type":"Polygon","coordinates":[[[127.49012,37.59341],[127.49012,37.59335],[127.49019,37.59336],[127.49019,37.59341],[127.49012,37.59341]]]}},{"type":"Feature","properties":{"valleyId":"eobi","layer":"shadow","date":"2026-08-01","timeLocal":"16:00"},"geometry":{"type":"Polygon","coordinates":[[[127.48679,37.59324],[127.48679,37.59319],[127.48689,37.59317],[127.48688,37.59324],[127.48679,37.59324]]]}},{"type":"Feature","properties":{"valleyId":"eobi","layer":"shadow","date":"2026-08-01","timeLocal":"16:00"},"geometry":{"type":"Polygon","coordinates":[[[127.48997,37.59315],[127.48997,37.5931],[127.49004,37.5931],[127.49003,37.59315],[127.48997,37.59315]]]}},{"type":"Feature","properties":{"valleyId":"eobi","layer":"shadow","date":"2026-08-01","timeLocal":"16:00"},"geometry":{"type":"Polygon","coordinates":[[[127.48967,37.59304],[127.48968,37.59288],[127.48977,37.59288],[127.48974,37.59304],[127.48967,37.59304]]]}},{"type":"Feature","properties":{"valleyId":"eobi","layer":"shadow","date":"2026-08-01","timeLocal":"16:00"},"geometry":{"type":"Polygon","coordinates":[[[127.49006,37.59296],[127.49006,37.59288],[127.49013,37.59289],[127.49013,37.59296],[127.49006,37.59296]]]}},{"type":"Feature","properties":{"valleyId":"eobi","layer":"shadow","date":"2026-08-01","timeLocal":"16:00"},"geometry":{"type":"Polygon","coordinates":[[[127.49296,37.59278],[127.49297,37.59272],[127.49303,37.59272],[127.49303,37.59278],[127.49296,37.59278]]]}},{"type":"Feature","properties":{"valleyId":"eobi","layer":"shadow","date":"2026-08-01","timeLocal":"16:00"},"geometry":{"type":"Polygon","coordinates":[[[127.49011,37.59274],[127.49011,37.59263],[127.4902,37.59262],[127.49018,37.59274],[127.49011,37.59274]]]}},{"type":"Feature","properties":{"valleyId":"eobi","layer":"shadow","date":"2026-08-01","timeLocal":"16:00"},"geometry":{"type":"Polygon","coordinates":[[[127.49192,37.59267],[127.49195,37.59257],[127.49202,37.59257],[127.49204,37.59268],[127.49192,37.59267]]]}},{"type":"Feature","properties":{"valleyId":"eobi","layer":"shadow","date":"2026-08-01","timeLocal":"16:00"},"geometry":{"type":"Polygon","coordinates":[[[127.4898,37.59225],[127.4898,37.5922],[127.48987,37.5922],[127.48987,37.59225],[127.4898,37.59225]]]}},{"type":"Feature","properties":{"valleyId":"eobi","layer":"shadow","date":"2026-08-01","timeLocal":"16:00"},"geometry":{"type":"Polygon","coordinates":[[[127.49248,37.59225],[127.49248,37.59218],[127.49255,37.59218],[127.49254,37.59225],[127.49248,37.59225]]]}},{"type":"Feature","properties":{"valleyId":"eobi","layer":"shadow","date":"2026-08-01","timeLocal":"16:00"},"geometry":{"type":"Polygon","coordinates":[[[127.48888,37.59186],[127.48888,37.59181],[127.48897,37.59181],[127.48897,37.59186],[127.48888,37.59186]]]}},{"type":"Feature","properties":{"valleyId":"eobi","layer":"shadow","date":"2026-08-01","timeLocal":"16:00"},"geometry":{"type":"Polygon","coordinates":[[[127.48976,37.59216],[127.48979,37.59196],[127.48988,37.59189],[127.48988,37.59184],[127.48995,37.5918],[127.48995,37.59171],[127.49004,37.59169],[127.49004,37.59182],[127.48999,37.59184],[127.48997,37.59195],[127.4899,37.592],[127.4899,37.59207],[127.48983,37.59211],[127.48983,37.59216],[127.48976,37.59216]]]}},{"type":"Feature","properties":{"valleyId":"eobi","layer":"shadow","date":"2026-08-01","timeLocal":"16:00"},"geometry":{"type":"Polygon","coordinates":[[[127.49024,37.59184],[127.49024,37.59175],[127.49029,37.59172],[127.49031,37.59161],[127.49045,37.59157],[127.49045,37.59166],[127.49036,37.59184],[127.49024,37.59184]]]}},{"type":"Feature","properties":{"valleyId":"eobi","layer":"shadow","date":"2026-08-01","timeLocal":"16:00"},"geometry":{"type":"Polygon","coordinates":[[[127.49058,37.59215],[127.4906,37.59186],[127.49065,37.59181],[127.49068,37.59167],[127.49074,37.59161],[127.49077,37.59154],[127.49084,37.59154],[127.49076,37.59181],[127.49072,37.59183],[127.49067,37.59196],[127.49064,37.59215],[127.49058,37.59215]]]}},{"type":"Feature","properties":{"valleyId":"eobi","layer":"shadow","date":"2026-08-01","timeLocal":"16:00"},"geometry":{"type":"Polygon","coordinates":[[[127.48722,37.5913],[127.48722,37.59123],[127.48729,37.59123],[127.48729,37.5913],[127.48722,37.5913]]]}},{"type":"Feature","properties":{"valleyId":"eobi","layer":"shadow","date":"2026-08-01","timeLocal":"16:00"},"geometry":{"type":"Polygon","coordinates":[[[127.48781,37.59105],[127.48784,37.59096],[127.4879,37.59096],[127.4879,37.59104],[127.48781,37.59105]]]}},{"type":"Feature","properties":{"valleyId":"eobi","layer":"shadow","date":"2026-08-01","timeLocal":"16:00"},"geometry":{"type":"Polygon","coordinates":[[[127.48984,37.59135],[127.4899,37.59101],[127.49001,37.59087],[127.49001,37.59078],[127.49008,37.59078],[127.49008,37.5909],[127.49001,37.59097],[127.48996,37.59135],[127.48984,37.59135]]]}},{"type":"Feature","properties":{"valleyId":"eobi","layer":"shadow","date":"2026-08-01","timeLocal":"16:00"},"geometry":{"type":"Polygon","coordinates":[[[127.49011,37.59038],[127.49014,37.59024],[127.49018,37.5902],[127.49025,37.5902],[127.49025,37.59026],[127.49018,37.59029],[127.49018,37.59038],[127.49011,37.59038]]]}},{"type":"Feature","properties":{"valleyId":"eobi","layer":"shadow","date":"2026-08-01","timeLocal":"16:00"},"geometry":{"type":"Polygon","coordinates":[[[127.49023,37.59017],[127.49021,37.58993],[127.49028,37.58993],[127.49028,37.58999],[127.49032,37.59002],[127.49032,37.59017],[127.49023,37.59017]]]}},{"type":"Feature","properties":{"valleyId":"eobi","layer":"shadow","date":"2026-08-01","timeLocal":"16:00"},"geometry":{"type":"Polygon","coordinates":[[[127.48998,37.59002],[127.48994,37.58998],[127.48994,37.58989],[127.49005,37.58991],[127.49005,37.59002],[127.48998,37.59002]]]}},{"type":"Feature","properties":{"valleyId":"eobi","layer":"shadow","date":"2026-08-01","timeLocal":"16:00"},"geometry":{"type":"Polygon","coordinates":[[[127.49042,37.58964],[127.49045,37.5895],[127.49054,37.5895],[127.49049,37.58965],[127.49042,37.58964]]]}}]}
