{"type":"FeatureCollection","metadata":{"description":"개방지(CHM ≤ 2 m)에 드리운 나무·지형 그림자, 2026-08-01 17:00 KST. canopy 위에 겹쳐 그린다","source":"위성 기반 추정 — Copernicus GLO-30 지형(30 m) + Meta/WRI 수관 높이(1 m CHM, 2016 촬영). 그늘 = 수관(CHM > 2 m) ∪ 나무·지형 그림자 ∪ 원거리 지형 마스크. 현장과 다를 수 있음.","datasetVersion":"2026-09-06.0","collectedAt":"2026-09-06","coordinateOrder":"[longitude, latitude]","crs":"EPSG:4326","representativeDate":"2026-08-01","hours":["10:00","11:00","12:00","13:00","14:00","15:00","16:00","17:00","18:00"],"chmAcquisition":["2016-06"],"assets":{"glo30":{"dataset":"Copernicus DEM GLO-30 (COG, s3://copernicus-dem-30m)","tiles":["Copernicus_DSM_COG_10_N37_00_E127_00_DEM"]},"chm":{"dataset":"Meta/WRI Global Canopy Height Map v1 (alsgedi_global_v6_float, 1 m, CC-BY 4.0)","quadkeys":["132110321"],"acquisition":["2016-06"]}},"method":{"gridResM":2,"canopyThresholdM":2,"bufferHalfM":25,"corridorHalfM":200,"simplifyTolM":2,"minAreaM2":25,"coordDecimals":5},"generator":"scripts/shade 0.1.0","builtAt":"2026-09-06T05:58:20Z","layer":"shadow","timeLocal":"17:00"},"features":[{"type":"Feature","properties":{"valleyId":"eobi","layer":"shadow","date":"2026-08-01","timeLocal":"17:00"},"geometry":{"type":"Polygon","coordinates":[[[127.49121,37.61006],[127.49121,37.60993],[127.49128,37.60993],[127.4913,37.61006],[127.49121,37.61006]]]}},{"type":"Feature","properties":{"valleyId":"eobi","layer":"shadow","date":"2026-08-01","timeLocal":"17:00"},"geometry":{"type":"Polygon","coordinates":[[[127.4912,37.60963],[127.4912,37.60954],[127.49133,37.60952],[127.49133,37.60961],[127.4912,37.60963]]]}},{"type":"Feature","properties":{"valleyId":"eobi","layer":"shadow","date":"2026-08-01","timeLocal":"17:00"},"geometry":{"type":"Polygon","coordinates":[[[127.49133,37.60952],[127.49136,37.60936],[127.4915,37.60936],[127.49156,37.6094],[127.49154,37.60949],[127.49133,37.60952]]]}},{"type":"Feature","properties":{"valleyId":"eobi","layer":"shadow","date":"2026-08-01","timeLocal":"17:00"},"geometry":{"type":"Polygon","coordinates":[[[127.49107,37.60935],[127.49107,37.60928],[127.49114,37.60928],[127.49116,37.60936],[127.49107,37.60935]]]}},{"type":"Feature","properties":{"valleyId":"eobi","layer":"shadow","date":"2026-08-01","timeLocal":"17:00"},"geometry":{"type":"Polygon","coordinates":[[[127.48987,37.60903],[127.48985,37.60892],[127.48992,37.60893],[127.48994,37.60903],[127.48987,37.60903]]]}},{"type":"Feature","properties":{"valleyId":"eobi","layer":"shadow","date":"2026-08-01","timeLocal":"17:00"},"geometry":{"type":"Polygon","coordinates":[[[127.49035,37.60897],[127.49035,37.6089],[127.49042,37.6089],[127.49042,37.60897],[127.49035,37.60897]]]}},{"type":"Feature","properties":{"valleyId":"eobi","layer":"shadow","date":"2026-08-01","timeLocal":"17:00"},"geometry":{"type":"Polygon","coordinates":[[[127.49134,37.60903],[127.49139,37.60889],[127.49151,37.60891],[127.4915,37.60898],[127.49141,37.60903],[127.49134,37.60903]]]}},{"type":"Feature","properties":{"valleyId":"eobi","layer":"shadow","date":"2026-08-01","timeLocal":"17:00"},"geometry":{"type":"Polygon","coordinates":[[[127.49049,37.60884],[127.49049,37.60879],[127.49056,37.60879],[127.49056,37.60884],[127.49049,37.60884]]]}},{"type":"Feature","properties":{"valleyId":"eobi","layer":"shadow","date":"2026-08-01","timeLocal":"17:00"},"geometry":{"type":"Polygon","coordinates":[[[127.48979,37.60882],[127.48979,37.60876],[127.48988,37.60874],[127.48988,37.6088],[127.48979,37.60882]]]}},{"type":"Feature","properties":{"valleyId":"eobi","layer":"shadow","date":"2026-08-01","timeLocal":"17:00"},"geometry":{"type":"Polygon","coordinates":[[[127.48999,37.60864],[127.49002,37.60857],[127.49011,37.60859],[127.49011,37.60864],[127.48999,37.60864]]]}},{"type":"Feature","properties":{"valleyId":"eobi","layer":"shadow","date":"2026-08-01","timeLocal":"17:00"},"geometry":{"type":"Polygon","coordinates":[[[127.49051,37.60877],[127.49059,37.60848],[127.49068,37.60848],[127.49067,37.60857],[127.49063,37.60859],[127.49058,37.60877],[127.49051,37.60877]]]}},{"type":"Feature","properties":{"valleyId":"eobi","layer":"shadow","date":"2026-08-01","timeLocal":"17:00"},"geometry":{"type":"Polygon","coordinates":[[[127.49163,37.60841],[127.49163,37.60835],[127.4917,37.60835],[127.4917,37.60841],[127.49163,37.60841]]]}},{"type":"Feature","properties":{"valleyId":"eobi","layer":"shadow","date":"2026-08-01","timeLocal":"17:00"},"geometry":{"type":"Polygon","coordinates":[[[127.49455,37.60835],[127.49458,37.60825],[127.49469,37.60825],[127.49469,37.60832],[127.49455,37.60835]]]}},{"type":"Feature","properties":{"valleyId":"eobi","layer":"shadow","date":"2026-08-01","timeLocal":"17:00"},"geometry":{"type":"Polygon","coordinates":[[[127.49172,37.60817],[127.49173,37.60812],[127.49184,37.60812],[127.49184,37.60818],[127.49172,37.60817]]]}},{"type":"Feature","properties":{"valleyId":"eobi","layer":"shadow","date":"2026-08-01","timeLocal":"17:00"},"geometry":{"type":"Polygon","coordinates":[[[127.49254,37.60822],[127.49254,37.60811],[127.49261,37.60809],[127.49263,37.60802],[127.4927,37.60802],[127.4927,37.6082],[127.49254,37.60822]]]}},{"type":"Feature","properties":{"valleyId":"eobi","layer":"shadow","date":"2026-08-01","timeLocal":"17:00"},"geometry":{"type":"Polygon","coordinates":[[[127.49404,37.60808],[127.49404,37.60797],[127.49411,37.60797],[127.49413,37.60806],[127.49404,37.60808]]]}},{"type":"Feature","properties":{"valleyId":"eobi","layer":"shadow","date":"2026-08-01","timeLocal":"17:00"},"geometry":{"type":"Polygon","coordinates":[[[127.49029,37.60862],[127.49029,37.60844],[127.49034,37.60844],[127.49036,37.60839],[127.49059,37.60836],[127.49059,37.60832],[127.49079,37.6082],[127.4908,37.60802],[127.49091,37.608],[127.49094,37.60786],[127.49098,37.60782],[127.49099,37.60768],[127.49105,37.60768],[127.49105,37.60771],[127.49112,37.60775],[127.49116,37.60782],[127.49116,37.6079],[127.49107,37.60802],[127.49103,37.60802],[127.49102,37.60815],[127.49107,37.60815],[127.49107,37.60822],[127.49102,37.60822],[127.49102,37.60833],[127.49059,37.60838],[127.49056,37.60845],[127.49049,37.60846],[127.49045,37.60855],[127.49038,37.60857],[127.49036,37.60862],[127.49029,37.60862]]]}},{"type":"Feature","properties":{"valleyId":"eobi","layer":"shadow","date":"2026-08-01","timeLocal":"17:00"},"geometry":{"type":"Polygon","coordinates":[[[127.49493,37.60771],[127.49493,37.60766],[127.495,37.60766],[127.495,37.60771],[127.49493,37.60771]]]}},{"type":"Feature","properties":{"valleyId":"eobi","layer":"shadow","date":"2026-08-01","timeLocal":"17:00"},"geometry":{"type":"Polygon","coordinates":[[[127.4928,37.60774],[127.4928,37.60763],[127.49289,37.60761],[127.49289,37.60772],[127.4928,37.60774]]]}},{"type":"Feature","properties":{"valleyId":"eobi","layer":"shadow","date":"2026-08-01","timeLocal":"17:00"},"geometry":{"type":"Polygon","coordinates":[[[127.49227,37.60791],[127.49228,37.60775],[127.49235,37.60768],[127.49235,37.60757],[127.49244,37.60757],[127.49251,37.60761],[127.4925,37.60768],[127.49244,37.6077],[127.49248,37.60784],[127.49234,37.60791],[127.49227,37.60791]]]}},{"type":"Feature","properties":{"valleyId":"eobi","layer":"shadow","date":"2026-08-01","timeLocal":"17:00"},"geometry":{"type":"Polygon","coordinates":[[[127.49033,37.60771],[127.49028,37.60765],[127.49022,37.60763],[127.49017,37.60752],[127.49031,37.60754],[127.49033,37.60758],[127.49042,37.6076],[127.49046,37.60771],[127.49033,37.60771]]]}},{"type":"Feature","properties":{"valleyId":"eobi","layer":"shadow","date":"2026-08-01","timeLocal":"17:00"},"geometry":{"type":"Polygon","coordinates":[[[127.4906,37.6076],[127.4906,37.60751],[127.49074,37.60753],[127.49074,37.60758],[127.4906,37.6076]]]}},{"type":"Feature","properties":{"valleyId":"eobi","layer":"shadow","date":"2026-08-01","timeLocal":"17:00"},"geometry":{"type":"Polygon","coordinates":[[[127.49063,37.60738],[127.49061,37.60729],[127.4907,37.60728],[127.4907,37.60739],[127.49063,37.60738]]]}},{"type":"Feature","properties":{"valleyId":"eobi","layer":"shadow","date":"2026-08-01","timeLocal":"17:00"},"geometry":{"type":"Polygon","coordinates":[[[127.49321,37.60733],[127.49324,37.60722],[127.49333,37.60722],[127.49333,37.60729],[127.49328,37.60733],[127.49321,37.60733]]]}},{"type":"Feature","properties":{"valleyId":"eobi","layer":"shadow","date":"2026-08-01","timeLocal":"17:00"},"geometry":{"type":"Polygon","coordinates":[[[127.49263,37.60728],[127.49263,37.60718],[127.4927,37.60718],[127.49272,37.60727],[127.49263,37.60728]]]}},{"type":"Feature","properties":{"valleyId":"eobi","layer":"shadow","date":"2026-08-01","timeLocal":"17:00"},"geometry":{"type":"Polygon","coordinates":[[[127.49077,37.60722],[127.49077,37.60712],[127.49084,37.60712],[127.49086,37.60721],[127.49077,37.60722]]]}},{"type":"Feature","properties":{"valleyId":"eobi","layer":"shadow","date":"2026-08-01","timeLocal":"17:00"},"geometry":{"type":"Polygon","coordinates":[[[127.4927,37.60712],[127.4927,37.60707],[127.49277,37.60707],[127.49277,37.60712],[127.4927,37.60712]]]}},{"type":"Feature","properties":{"valleyId":"eobi","layer":"shadow","date":"2026-08-01","timeLocal":"17:00"},"geometry":{"type":"Polygon","coordinates":[[[127.49086,37.60703],[127.49089,37.60694],[127.49098,37.60692],[127.49095,37.60701],[127.49086,37.60703]]]}},{"type":"Feature","properties":{"valleyId":"eobi","layer":"shadow","date":"2026-08-01","timeLocal":"17:00"},"geometry":{"type":"Polygon","coordinates":[[[127.49263,37.60701],[127.49261,37.60692],[127.4927,37.60692],[127.49272,37.60701],[127.49263,37.60701]]]}},{"type":"Feature","properties":{"valleyId":"eobi","layer":"shadow","date":"2026-08-01","timeLocal":"17:00"},"geometry":{"type":"Polygon","coordinates":[[[127.49098,37.60683],[127.49101,37.60672],[127.49107,37.60672],[127.49107,37.60683],[127.49098,37.60683]]]}},{"type":"Feature","properties":{"valleyId":"eobi","layer":"shadow","date":"2026-08-01","timeLocal":"17:00"},"geometry":{"type":"Polygon","coordinates":[[[127.49131,37.60714],[127.49132,37.60707],[127.49141,37.60703],[127.49145,37.60698],[127.49146,37.6068],[127.49141,37.60678],[127.49141,37.60669],[127.49148,37.60669],[127.49153,37.60677],[127.49157,37.60677],[127.49159,37.6068],[127.49159,37.60691],[127.49173,37.60695],[127.49172,37.60702],[127.49148,37.60705],[127.49143,37.60714],[127.49131,37.60714]]]}},{"type":"Feature","properties":{"valleyId":"eobi","layer":"shadow","date":"2026-08-01","timeLocal":"17:00"},"geometry":{"type":"Polygon","coordinates":[[[127.49309,37.60666],[127.49309,37.60659],[127.49316,37.60659],[127.49316,37.60666],[127.49309,37.60666]]]}},{"type":"Feature","properties":{"valleyId":"eobi","layer":"shadow","date":"2026-08-01","timeLocal":"17:00"},"geometry":{"type":"Polygon","coordinates":[[[127.49563,37.60667],[127.49563,37.60662],[127.4957,37.60662],[127.4957,37.60667],[127.49563,37.60667]]]}},{"type":"Feature","properties":{"valleyId":"eobi","layer":"shadow","date":"2026-08-01","timeLocal":"17:00"},"geometry":{"type":"Polygon","coordinates":[[[127.49447,37.60662],[127.49448,37.60657],[127.49454,37.60657],[127.49454,37.60662],[127.49447,37.60662]]]}},{"type":"Feature","properties":{"valleyId":"eobi","layer":"shadow","date":"2026-08-01","timeLocal":"17:00"},"geometry":{"type":"Polygon","coordinates":[[[127.49164,37.60669],[127.49162,37.60659],[127.49151,37.60655],[127.49151,37.60649],[127.49144,37.60649],[127.49144,37.60644],[127.49156,37.60644],[127.4916,37.60637],[127.49181,37.60632],[127.49181,37.60637],[127.49174,37.60637],[127.49174,37.60643],[127.49162,37.60646],[127.49164,37.60657],[127.49176,37.60659],[127.49178,37.60668],[127.49164,37.60669]]]}},{"type":"Feature","properties":{"valleyId":"eobi","layer":"shadow","date":"2026-08-01","timeLocal":"17:00"},"geometry":{"type":"Polygon","coordinates":[[[127.49177,37.60616],[127.49174,37.60608],[127.49183,37.60607],[127.49183,37.60616],[127.49177,37.60616]]]}},{"type":"Feature","properties":{"valleyId":"eobi","layer":"shadow","date":"2026-08-01","timeLocal":"17:00"},"geometry":{"type":"Polygon","coordinates":[[[127.4958,37.60617],[127.4958,37.6061],[127.49587,37.6061],[127.49587,37.60617],[127.4958,37.60617]]]}},{"type":"Feature","properties":{"valleyId":"eobi","layer":"shadow","date":"2026-08-01","timeLocal":"17:00"},"geometry":{"type":"Polygon","coordinates":[[[127.49194,37.60632],[127.49194,37.60627],[127.4919,37.60625],[127.4919,37.60616],[127.49197,37.60616],[127.49193,37.60603],[127.49199,37.60603],[127.49206,37.60609],[127.49206,37.60616],[127.49203,37.6063],[127.49194,37.60632]]]}},{"type":"Feature","properties":{"valleyId":"eobi","layer":"shadow","date":"2026-08-01","timeLocal":"17:00"},"geometry":{"type":"Polygon","coordinates":[[[127.49181,37.60601],[127.49163,37.60594],[127.49152,37.60594],[127.49145,37.60588],[127.49143,37.60575],[127.49137,37.60574],[127.49137,37.60566],[127.49146,37.60554],[127.49153,37.60554],[127.49153,37.60558],[127.49162,37.60563],[127.49175,37.60563],[127.49175,37.60569],[127.49189,37.60574],[127.49184,37.60585],[127.49193,37.60587],[127.49193,37.60601],[127.49181,37.60601]]]}},{"type":"Feature","properties":{"valleyId":"eobi","layer":"shadow","date":"2026-08-01","timeLocal":"17:00"},"geometry":{"type":"Polygon","coordinates":[[[127.49227,37.60562],[127.49228,37.60555],[127.49237,37.60555],[127.49236,37.60562],[127.49227,37.60562]]]}},{"type":"Feature","properties":{"valleyId":"eobi","layer":"shadow","date":"2026-08-01","timeLocal":"17:00"},"geometry":{"type":"Polygon","coordinates":[[[127.49244,37.60548],[127.49244,37.60539],[127.49255,37.60541],[127.49255,37.60546],[127.49244,37.60548]]]}},{"type":"Feature","properties":{"valleyId":"eobi","layer":"shadow","date":"2026-08-01","timeLocal":"17:00"},"geometry":{"type":"Polygon","coordinates":[[[127.49178,37.60561],[127.49178,37.60552],[127.49182,37.60553],[127.49183,37.6054],[127.49176,37.6054],[127.49176,37.60529],[127.49183,37.60529],[127.49187,37.60531],[127.49189,37.6054],[127.49198,37.60542],[127.49201,37.60546],[127.4921,37.60546],[127.49212,37.60553],[127.49178,37.60561]]]}},{"type":"Feature","properties":{"valleyId":"eobi","layer":"shadow","date":"2026-08-01","timeLocal":"17:00"},"geometry":{"type":"Polygon","coordinates":[[[127.49169,37.60527],[127.49167,37.60518],[127.49174,37.60518],[127.49176,37.60527],[127.49169,37.60527]]]}},{"type":"Feature","properties":{"valleyId":"eobi","layer":"shadow","date":"2026-08-01","timeLocal":"17:00"},"geometry":{"type":"Polygon","coordinates":[[[127.494,37.60528],[127.49398,37.60517],[127.49405,37.60518],[127.49407,37.60528],[127.494,37.60528]]]}},{"type":"Feature","properties":{"valleyId":"eobi","layer":"shadow","date":"2026-08-01","timeLocal":"17:00"},"geometry":{"type":"Polygon","coordinates":[[[127.49228,37.60524],[127.49226,37.60512],[127.49235,37.60512],[127.49235,37.60524],[127.49228,37.60524]]]}},{"type":"Feature","properties":{"valleyId":"eobi","layer":"shadow","date":"2026-08-01","timeLocal":"17:00"},"geometry":{"type":"Polygon","coordinates":[[[127.49381,37.60568],[127.49382,37.60548],[127.49373,37.60533],[127.49369,37.60506],[127.49378,37.60508],[127.49378,37.60514],[127.49391,37.60528],[127.49391,37.60541],[127.49395,37.60543],[127.49395,37.60553],[127.49391,37.60553],[127.49388,37.60568],[127.49381,37.60568]]]}},{"type":"Feature","properties":{"valleyId":"eobi","layer":"shadow","date":"2026-08-01","timeLocal":"17:00"},"geometry":{"type":"Polygon","coordinates":[[[127.49401,37.60507],[127.49401,37.60498],[127.49395,37.60463],[127.49411,37.60465],[127.49408,37.60507],[127.49401,37.60507]]]}},{"type":"Feature","properties":{"valleyId":"eobi","layer":"shadow","date":"2026-08-01","timeLocal":"17:00"},"geometry":{"type":"Polygon","coordinates":[[[127.49556,37.60446],[127.49556,37.6044],[127.49563,37.6044],[127.49563,37.60446],[127.49556,37.60446]]]}},{"type":"Feature","properties":{"valleyId":"eobi","layer":"shadow","date":"2026-08-01","timeLocal":"17:00"},"geometry":{"type":"Polygon","coordinates":[[[127.49174,37.60509],[127.49182,37.60479],[127.49188,37.60475],[127.49189,37.60461],[127.49193,37.60455],[127.49198,37.60455],[127.49198,37.60448],[127.49191,37.60443],[127.49192,37.60425],[127.49203,37.60425],[127.49203,37.6043],[127.4921,37.60436],[127.49209,37.6045],[127.49216,37.6045],[127.49216,37.60456],[127.49205,37.60455],[127.49205,37.60463],[127.492,37.60464],[127.49202,37.60482],[127.49193,37.60486],[127.49193,37.60493],[127.49199,37.60493],[127.49199,37.60499],[127.49195,37.60502],[127.49188,37.60502],[127.49181,37.60509],[127.49174,37.60509]]]}},{"type":"Feature","properties":{"valleyId":"eobi","layer":"shadow","date":"2026-08-01","timeLocal":"17:00"},"geometry":{"type":"Polygon","coordinates":[[[127.49356,37.60456],[127.49361,37.60445],[127.4936,37.60405],[127.49367,37.60405],[127.49371,37.60413],[127.49368,37.60432],[127.49373,37.60436],[127.49373,37.60443],[127.49366,37.60447],[127.49366,37.60454],[127.49356,37.60456]]]}},{"type":"Feature","properties":{"valleyId":"eobi","layer":"shadow","date":"2026-08-01","timeLocal":"17:00"},"geometry":{"type":"Polygon","coordinates":[[[127.49194,37.60408],[127.49194,37.60401],[127.49201,37.60401],[127.49203,37.60409],[127.49194,37.60408]]]}},{"type":"Feature","properties":{"valleyId":"eobi","layer":"shadow","date":"2026-08-01","timeLocal":"17:00"},"geometry":{"type":"Polygon","coordinates":[[[127.49374,37.60391],[127.49374,37.60384],[127.49387,37.60384],[127.49385,37.60391],[127.49374,37.60391]]]}},{"type":"Feature","properties":{"valleyId":"eobi","layer":"shadow","date":"2026-08-01","timeLocal":"17:00"},"geometry":{"type":"Polygon","coordinates":[[[127.49245,37.60387],[127.49245,37.60378],[127.49254,37.60379],[127.49254,37.60388],[127.49245,37.60387]]]}},{"type":"Feature","properties":{"valleyId":"eobi","layer":"shadow","date":"2026-08-01","timeLocal":"17:00"},"geometry":{"type":"Polygon","coordinates":[[[127.49403,37.60384],[127.49403,37.60379],[127.4941,37.60379],[127.4941,37.60384],[127.49403,37.60384]]]}},{"type":"Feature","properties":{"valleyId":"eobi","layer":"shadow","date":"2026-08-01","timeLocal":"17:00"},"geometry":{"type":"Polygon","coordinates":[[[127.49437,37.60388],[127.4944,37.60376],[127.49446,37.60376],[127.49444,37.60388],[127.49437,37.60388]]]}},{"type":"Feature","properties":{"valleyId":"eobi","layer":"shadow","date":"2026-08-01","timeLocal":"17:00"},"geometry":{"type":"Polygon","coordinates":[[[127.49181,37.60381],[127.49182,37.60367],[127.49188,37.60367],[127.4919,37.60381],[127.49181,37.60381]]]}},{"type":"Feature","properties":{"valleyId":"eobi","layer":"shadow","date":"2026-08-01","timeLocal":"17:00"},"geometry":{"type":"Polygon","coordinates":[[[127.4922,37.6038],[127.4922,37.60375],[127.49227,37.60373],[127.49229,37.60364],[127.49236,37.60364],[127.49233,37.60375],[127.49229,37.60375],[127.49227,37.6038],[127.4922,37.6038]]]}},{"type":"Feature","properties":{"valleyId":"eobi","layer":"shadow","date":"2026-08-01","timeLocal":"17:00"},"geometry":{"type":"Polygon","coordinates":[[[127.49376,37.60375],[127.49376,37.60366],[127.49394,37.60368],[127.49394,37.60373],[127.49376,37.60375]]]}},{"type":"Feature","properties":{"valleyId":"eobi","layer":"shadow","date":"2026-08-01","timeLocal":"17:00"},"geometry":{"type":"Polygon","coordinates":[[[127.49442,37.60374],[127.49442,37.60367],[127.49449,37.60367],[127.49449,37.60374],[127.49442,37.60374]]]}},{"type":"Feature","properties":{"valleyId":"eobi","layer":"shadow","date":"2026-08-01","timeLocal":"17:00"},"geometry":{"type":"Polygon","coordinates":[[[127.4924,37.60366],[127.49241,37.6036],[127.49247,37.6036],[127.49247,37.60366],[127.4924,37.60366]]]}},{"type":"Feature","properties":{"valleyId":"eobi","layer":"shadow","date":"2026-08-01","timeLocal":"17:00"},"geometry":{"type":"Polygon","coordinates":[[[127.49256,37.60377],[127.49261,37.60359],[127.49275,37.60361],[127.49274,37.60368],[127.4927,37.60368],[127.4927,37.60373],[127.49256,37.60377]]]}},{"type":"Feature","properties":{"valleyId":"eobi","layer":"shadow","date":"2026-08-01","timeLocal":"17:00"},"geometry":{"type":"Polygon","coordinates":[[[127.49383,37.60351],[127.49384,37.60346],[127.49393,37.60346],[127.49393,37.60352],[127.49383,37.60351]]]}},{"type":"Feature","properties":{"valleyId":"eobi","layer":"shadow","date":"2026-08-01","timeLocal":"17:00"},"geometry":{"type":"Polygon","coordinates":[[[127.49404,37.6037],[127.49404,37.60361],[127.49408,37.60359],[127.49409,37.60345],[127.49418,37.60345],[127.49415,37.60355],[127.49417,37.60363],[127.49422,37.60363],[127.49422,37.60368],[127.49404,37.6037]]]}},{"type":"Feature","properties":{"valleyId":"eobi","layer":"shadow","date":"2026-08-01","timeLocal":"17:00"},"geometry":{"type":"Polygon","coordinates":[[[127.49386,37.60339],[127.49386,37.60328],[127.494,37.60332],[127.494,37.60337],[127.49386,37.60339]]]}},{"type":"Feature","properties":{"valleyId":"eobi","layer":"shadow","date":"2026-08-01","timeLocal":"17:00"},"geometry":{"type":"Polygon","coordinates":[[[127.49195,37.60354],[127.49189,37.60338],[127.49198,37.60331],[127.49198,37.60317],[127.49205,37.60317],[127.49219,37.60324],[127.49219,37.60329],[127.49214,37.60329],[127.49212,37.60333],[127.49214,37.60353],[127.49195,37.60354]]]}},{"type":"Feature","properties":{"valleyId":"eobi","layer":"shadow","date":"2026-08-01","timeLocal":"17:00"},"geometry":{"type":"Polygon","coordinates":[[[127.49425,37.60332],[127.49425,37.60319],[127.49438,37.60321],[127.49438,37.6033],[127.49425,37.60332]]]}},{"type":"Feature","properties":{"valleyId":"eobi","layer":"shadow","date":"2026-08-01","timeLocal":"17:00"},"geometry":{"type":"Polygon","coordinates":[[[127.49384,37.60326],[127.49384,37.60317],[127.49391,37.60317],[127.49391,37.60326],[127.49384,37.60326]]]}},{"type":"Feature","properties":{"valleyId":"eobi","layer":"shadow","date":"2026-08-01","timeLocal":"17:00"},"geometry":{"type":"Polygon","coordinates":[[[127.49393,37.60314],[127.49391,37.60305],[127.49405,37.60305],[127.49402,37.60314],[127.49393,37.60314]]]}},{"type":"Feature","properties":{"valleyId":"eobi","layer":"shadow","date":"2026-08-01","timeLocal":"17:00"},"geometry":{"type":"Polygon","coordinates":[[[127.49232,37.60357],[127.49232,37.60349],[127.49236,37.6035],[127.49236,37.60346],[127.49243,37.60344],[127.49243,37.60337],[127.49255,37.60323],[127.49255,37.60307],[127.49262,37.60303],[127.49265,37.60296],[127.49274,37.60296],[127.49276,37.60305],[127.49266,37.60312],[127.49268,37.60327],[127.49259,37.60328],[127.49259,37.60341],[127.49245,37.60344],[127.49245,37.60351],[127.49238,37.60351],[127.49238,37.60357],[127.49232,37.60357]]]}},{"type":"Feature","properties":{"valleyId":"eobi","layer":"shadow","date":"2026-08-01","timeLocal":"17:00"},"geometry":{"type":"Polygon","coordinates":[[[127.49407,37.60303],[127.4941,37.60292],[127.49419,37.60291],[127.49416,37.60301],[127.49407,37.60303]]]}},{"type":"Feature","properties":{"valleyId":"eobi","layer":"shadow","date":"2026-08-01","timeLocal":"17:00"},"geometry":{"type":"Polygon","coordinates":[[[127.49192,37.60286],[127.49192,37.6028],[127.49199,37.60281],[127.49199,37.60286],[127.49192,37.60286]]]}},{"type":"Feature","properties":{"valleyId":"eobi","layer":"shadow","date":"2026-08-01","timeLocal":"17:00"},"geometry":{"type":"Polygon","coordinates":[[[127.49643,37.60286],[127.49643,37.60279],[127.4965,37.60279],[127.4965,37.60286],[127.49643,37.60286]]]}},{"type":"Feature","properties":{"valleyId":"eobi","layer":"shadow","date":"2026-08-01","timeLocal":"17:00"},"geometry":{"type":"Polygon","coordinates":[[[127.4924,37.60285],[127.4924,37.60277],[127.49235,37.60277],[127.49236,37.60272],[127.49251,37.60276],[127.49251,37.60281],[127.49247,37.60285],[127.4924,37.60285]]]}},{"type":"Feature","properties":{"valleyId":"eobi","layer":"shadow","date":"2026-08-01","timeLocal":"17:00"},"geometry":{"type":"Polygon","coordinates":[[[127.49265,37.60272],[127.49265,37.60267],[127.49276,37.60267],[127.49276,37.60273],[127.49265,37.60272]]]}},{"type":"Feature","properties":{"valleyId":"eobi","layer":"shadow","date":"2026-08-01","timeLocal":"17:00"},"geometry":{"type":"Polygon","coordinates":[[[127.49382,37.60292],[127.49378,37.60285],[127.49378,37.60272],[127.49374,37.6027],[127.49374,37.60265],[127.49367,37.60263],[127.49367,37.60257],[127.49376,37.60258],[127.49376,37.60265],[127.49385,37.60267],[127.49387,37.60272],[127.49394,37.60274],[127.49394,37.60279],[127.49389,37.60281],[127.49389,37.60292],[127.49382,37.60292]]]}},{"type":"Feature","properties":{"valleyId":"eobi","layer":"shadow","date":"2026-08-01","timeLocal":"17:00"},"geometry":{"type":"Polygon","coordinates":[[[127.49444,37.60269],[127.49449,37.60259],[127.49462,37.60255],[127.4946,37.60264],[127.49451,37.60269],[127.49444,37.60269]]]}},{"type":"Feature","properties":{"valleyId":"eobi","layer":"shadow","date":"2026-08-01","timeLocal":"17:00"},"geometry":{"type":"Polygon","coordinates":[[[127.49354,37.60257],[127.49349,37.60254],[127.49349,37.60248],[127.49361,37.60248],[127.4936,37.60257],[127.49354,37.60257]]]}},{"type":"Feature","properties":{"valleyId":"eobi","layer":"shadow","date":"2026-08-01","timeLocal":"17:00"},"geometry":{"type":"Polygon","coordinates":[[[127.49415,37.60251],[127.49415,37.6024],[127.49427,37.6024],[127.49426,37.60249],[127.49415,37.60251]]]}},{"type":"Feature","properties":{"valleyId":"eobi","layer":"shadow","date":"2026-08-01","timeLocal":"17:00"},"geometry":{"type":"Polygon","coordinates":[[[127.49379,37.60254],[127.49381,37.60232],[127.49399,37.60236],[127.49401,37.60245],[127.49392,37.60252],[127.49379,37.60254]]]}},{"type":"Feature","properties":{"valleyId":"eobi","layer":"shadow","date":"2026-08-01","timeLocal":"17:00"},"geometry":{"type":"Polygon","coordinates":[[[127.49424,37.60237],[127.49424,37.60229],[127.49438,37.6023],[127.49438,37.60237],[127.49424,37.60237]]]}},{"type":"Feature","properties":{"valleyId":"eobi","layer":"shadow","date":"2026-08-01","timeLocal":"17:00"},"geometry":{"type":"Polygon","coordinates":[[[127.4946,37.60251],[127.49456,37.60235],[127.49461,37.6023],[127.49461,37.60223],[127.49468,37.60223],[127.49469,37.6025],[127.4946,37.60251]]]}},{"type":"Feature","properties":{"valleyId":"eobi","layer":"shadow","date":"2026-08-01","timeLocal":"17:00"},"geometry":{"type":"Polygon","coordinates":[[[127.49311,37.60233],[127.49311,37.60223],[127.49305,37.60217],[127.49305,37.60212],[127.49312,37.60212],[127.49316,37.60217],[127.49323,37.60219],[127.49322,37.60232],[127.49311,37.60233]]]}},{"type":"Feature","properties":{"valleyId":"eobi","layer":"shadow","date":"2026-08-01","timeLocal":"17:00"},"geometry":{"type":"Polygon","coordinates":[[[127.49375,37.60214],[127.49375,37.60209],[127.49384,37.60209],[127.49384,37.60214],[127.49375,37.60214]]]}},{"type":"Feature","properties":{"valleyId":"eobi","layer":"shadow","date":"2026-08-01","timeLocal":"17:00"},"geometry":{"type":"Polygon","coordinates":[[[127.49522,37.60216],[127.49522,37.60211],[127.49531,37.60209],[127.49531,37.60214],[127.49522,37.60216]]]}},{"type":"Feature","properties":{"valleyId":"eobi","layer":"shadow","date":"2026-08-01","timeLocal":"17:00"},"geometry":{"type":"Polygon","coordinates":[[[127.49237,37.60213],[127.49235,37.60202],[127.49246,37.60202],[127.49248,37.60211],[127.49237,37.60213]]]}},{"type":"Feature","properties":{"valleyId":"eobi","layer":"shadow","date":"2026-08-01","timeLocal":"17:00"},"geometry":{"type":"Polygon","coordinates":[[[127.49323,37.60208],[127.49323,37.60201],[127.4933,37.60201],[127.49332,37.60208],[127.49323,37.60208]]]}},{"type":"Feature","properties":{"valleyId":"eobi","layer":"shadow","date":"2026-08-01","timeLocal":"17:00"},"geometry":{"type":"Polygon","coordinates":[[[127.49574,37.6021],[127.49574,37.60204],[127.49581,37.60204],[127.49581,37.6021],[127.49574,37.6021]]]}},{"type":"Feature","properties":{"valleyId":"eobi","layer":"shadow","date":"2026-08-01","timeLocal":"17:00"},"geometry":{"type":"Polygon","coordinates":[[[127.49255,37.60198],[127.49255,37.60186],[127.49264,37.60186],[127.49264,37.60198],[127.49255,37.60198]]]}},{"type":"Feature","properties":{"valleyId":"eobi","layer":"shadow","date":"2026-08-01","timeLocal":"17:00"},"geometry":{"type":"Polygon","coordinates":[[[127.49715,37.60195],[127.49715,37.6019],[127.49722,37.6019],[127.49722,37.60195],[127.49715,37.60195]]]}},{"type":"Feature","properties":{"valleyId":"eobi","layer":"shadow","date":"2026-08-01","timeLocal":"17:00"},"geometry":{"type":"Polygon","coordinates":[[[127.49573,37.6019],[127.49573,37.60183],[127.49579,37.60183],[127.49579,37.6019],[127.49573,37.6019]]]}},{"type":"Feature","properties":{"valleyId":"eobi","layer":"shadow","date":"2026-08-01","timeLocal":"17:00"},"geometry":{"type":"Polygon","coordinates":[[[127.49751,37.60203],[127.49749,37.60194],[127.49758,37.60192],[127.49758,37.60183],[127.49765,37.60183],[127.49767,37.60192],[127.4976,37.60194],[127.4976,37.60203],[127.49751,37.60203]]]}},{"type":"Feature","properties":{"valleyId":"eobi","layer":"shadow","date":"2026-08-01","timeLocal":"17:00"},"geometry":{"type":"Polygon","coordinates":[[[127.49287,37.60208],[127.49282,37.60204],[127.49282,37.60195],[127.49287,37.60195],[127.49285,37.60181],[127.49287,37.60177],[127.49294,37.60177],[127.49294,37.60184],[127.49301,37.60188],[127.49301,37.60194],[127.49291,37.60195],[127.49291,37.60201],[127.49298,37.60203],[127.49298,37.60208],[127.49287,37.60208]]]}},{"type":"Feature","properties":{"valleyId":"eobi","layer":"shadow","date":"2026-08-01","timeLocal":"17:00"},"geometry":{"type":"Polygon","coordinates":[[[127.49756,37.60178],[127.49756,37.60172],[127.49763,37.60172],[127.49763,37.60178],[127.49756,37.60178]]]}},{"type":"Feature","properties":{"valleyId":"eobi","layer":"shadow","date":"2026-08-01","timeLocal":"17:00"},"geometry":{"type":"Polygon","coordinates":[[[127.49419,37.60172],[127.49419,37.60164],[127.49426,37.60164],[127.49426,37.60172],[127.49419,37.60172]]]}},{"type":"Feature","properties":{"valleyId":"eobi","layer":"shadow","date":"2026-08-01","timeLocal":"17:00"},"geometry":{"type":"Polygon","coordinates":[[[127.49722,37.60172],[127.49723,37.60166],[127.49729,37.60167],[127.49729,37.60172],[127.49722,37.60172]]]}},{"type":"Feature","properties":{"valleyId":"eobi","layer":"shadow","date":"2026-08-01","timeLocal":"17:00"},"geometry":{"type":"Polygon","coordinates":[[[127.49516,37.60173],[127.49514,37.6016],[127.49521,37.6016],[127.49523,37.60173],[127.49516,37.60173]]]}},{"type":"Feature","properties":{"valleyId":"eobi","layer":"shadow","date":"2026-08-01","timeLocal":"17:00"},"geometry":{"type":"Polygon","coordinates":[[[127.49342,37.60174],[127.49342,37.60167],[127.49338,37.60156],[127.49344,37.60156],[127.49351,37.60167],[127.49351,37.60173],[127.49342,37.60174]]]}},{"type":"Feature","properties":{"valleyId":"eobi","layer":"shadow","date":"2026-08-01","timeLocal":"17:00"},"geometry":{"type":"Polygon","coordinates":[[[127.49598,37.60174],[127.49603,37.60156],[127.49612,37.60156],[127.49614,37.60163],[127.49605,37.60165],[127.49605,37.60174],[127.49598,37.60174]]]}},{"type":"Feature","properties":{"valleyId":"eobi","layer":"shadow","date":"2026-08-01","timeLocal":"17:00"},"geometry":{"type":"Polygon","coordinates":[[[127.49441,37.60172],[127.49442,37.60168],[127.49437,37.60166],[127.49437,37.60157],[127.49442,37.60154],[127.49453,37.60154],[127.49448,37.60172],[127.49441,37.60172]]]}},{"type":"Feature","properties":{"valleyId":"eobi","layer":"shadow","date":"2026-08-01","timeLocal":"17:00"},"geometry":{"type":"Polygon","coordinates":[[[127.49745,37.60163],[127.49745,37.60158],[127.49752,37.60158],[127.49752,37.60163],[127.49745,37.60163]]]}},{"type":"Feature","properties":{"valleyId":"eobi","layer":"shadow","date":"2026-08-01","timeLocal":"17:00"},"geometry":{"type":"Polygon","coordinates":[[[127.49536,37.60202],[127.49536,37.60193],[127.49541,37.60189],[127.49543,37.6018],[127.49548,37.60179],[127.49548,37.60164],[127.49555,37.60157],[127.49555,37.60152],[127.49562,37.60152],[127.49559,37.60175],[127.49552,37.60179],[127.49552,37.60184],[127.49548,37.60186],[127.49547,37.60197],[127.49543,37.60198],[127.49543,37.60202],[127.49536,37.60202]]]}},{"type":"Feature","properties":{"valleyId":"eobi","layer":"shadow","date":"2026-08-01","timeLocal":"17:00"},"geometry":{"type":"Polygon","coordinates":[[[127.49288,37.60154],[127.49288,37.60147],[127.49297,37.60147],[127.49297,37.60154],[127.49288,37.60154]]]}},{"type":"Feature","properties":{"valleyId":"eobi","layer":"shadow","date":"2026-08-01","timeLocal":"17:00"},"geometry":{"type":"Polygon","coordinates":[[[127.49589,37.60154],[127.49587,37.60147],[127.49601,37.60149],[127.496,37.60154],[127.49589,37.60154]]]}},{"type":"Feature","properties":{"valleyId":"eobi","layer":"shadow","date":"2026-08-01","timeLocal":"17:00"},"geometry":{"type":"Polygon","coordinates":[[[127.49508,37.60151],[127.49505,37.60144],[127.49512,37.60144],[127.49514,37.60151],[127.49508,37.60151]]]}},{"type":"Feature","properties":{"valleyId":"eobi","layer":"shadow","date":"2026-08-01","timeLocal":"17:00"},"geometry":{"type":"Polygon","coordinates":[[[127.49417,37.60145],[127.49417,37.60139],[127.49424,37.60139],[127.49424,37.60145],[127.49417,37.60145]]]}},{"type":"Feature","properties":{"valleyId":"eobi","layer":"shadow","date":"2026-08-01","timeLocal":"17:00"},"geometry":{"type":"Polygon","coordinates":[[[127.49496,37.60142],[127.49497,37.60137],[127.49503,37.60137],[127.49503,37.60142],[127.49496,37.60142]]]}},{"type":"Feature","properties":{"valleyId":"eobi","layer":"shadow","date":"2026-08-01","timeLocal":"17:00"},"geometry":{"type":"Polygon","coordinates":[[[127.49533,37.60151],[127.49535,37.60128],[127.49542,37.60128],[127.49542,37.60152],[127.49533,37.60151]]]}},{"type":"Feature","properties":{"valleyId":"eobi","layer":"shadow","date":"2026-08-01","timeLocal":"17:00"},"geometry":{"type":"Polygon","coordinates":[[[127.49465,37.60143],[127.49456,37.60141],[127.49453,37.60138],[127.49454,37.6012],[127.49461,37.6012],[127.4947,37.60124],[127.49472,37.60129],[127.49476,37.60129],[127.49476,37.60143],[127.49465,37.60143]]]}},{"type":"Feature","properties":{"valleyId":"eobi","layer":"shadow","date":"2026-08-01","timeLocal":"17:00"},"geometry":{"type":"Polygon","coordinates":[[[127.49232,37.60112],[127.49232,37.60101],[127.49239,37.60101],[127.49241,37.6011],[127.49232,37.60112]]]}},{"type":"Feature","properties":{"valleyId":"eobi","layer":"shadow","date":"2026-08-01","timeLocal":"17:00"},"geometry":{"type":"Polygon","coordinates":[[[127.49501,37.60133],[127.49501,37.60124],[127.49506,37.6012],[127.49506,37.60106],[127.49513,37.60103],[127.49513,37.60099],[127.4952,37.60099],[127.4952,37.60119],[127.4951,37.60121],[127.4951,37.60133],[127.49501,37.60133]]]}},{"type":"Feature","properties":{"valleyId":"eobi","layer":"shadow","date":"2026-08-01","timeLocal":"17:00"},"geometry":{"type":"Polygon","coordinates":[[[127.49558,37.60145],[127.49558,37.60136],[127.49553,37.60132],[127.49551,37.60116],[127.49543,37.60101],[127.49543,37.60096],[127.49554,37.60096],[127.49563,37.60101],[127.49563,37.60109],[127.49558,37.6011],[127.4956,37.6013],[127.49571,37.60137],[127.49571,37.60143],[127.49558,37.60145]]]}},{"type":"Feature","properties":{"valleyId":"eobi","layer":"shadow","date":"2026-08-01","timeLocal":"17:00"},"geometry":{"type":"Polygon","coordinates":[[[127.49633,37.60102],[127.49633,37.60091],[127.4964,37.60092],[127.49642,37.60101],[127.49633,37.60102]]]}},{"type":"Feature","properties":{"valleyId":"eobi","layer":"shadow","date":"2026-08-01","timeLocal":"17:00"},"geometry":{"type":"Polygon","coordinates":[[[127.49314,37.60104],[127.49312,37.60087],[127.49319,37.60087],[127.4933,37.60095],[127.4933,37.60102],[127.49314,37.60104]]]}},{"type":"Feature","properties":{"valleyId":"eobi","layer":"shadow","date":"2026-08-01","timeLocal":"17:00"},"geometry":{"type":"Polygon","coordinates":[[[127.49187,37.60115],[127.49187,37.60106],[127.49178,37.60104],[127.49178,37.601],[127.49171,37.60096],[127.49165,37.60076],[127.49172,37.60077],[127.49171,37.6008],[127.4918,37.60084],[127.4918,37.60093],[127.49185,37.60093],[127.49187,37.60098],[127.49194,37.601],[127.49196,37.60115],[127.49187,37.60115]]]}},{"type":"Feature","properties":{"valleyId":"eobi","layer":"shadow","date":"2026-08-01","timeLocal":"17:00"},"geometry":{"type":"Polygon","coordinates":[[[127.49518,37.60094],[127.49516,37.60088],[127.49509,37.60084],[127.49509,37.60079],[127.49516,37.60079],[127.49527,37.60088],[127.49527,37.60094],[127.49518,37.60094]]]}},{"type":"Feature","properties":{"valleyId":"eobi","layer":"shadow","date":"2026-08-01","timeLocal":"17:00"},"geometry":{"type":"Polygon","coordinates":[[[127.49706,37.60085],[127.49706,37.60076],[127.49718,37.60076],[127.49717,37.60082],[127.49713,37.60085],[127.49706,37.60085]]]}},{"type":"Feature","properties":{"valleyId":"eobi","layer":"shadow","date":"2026-08-01","timeLocal":"17:00"},"geometry":{"type":"Polygon","coordinates":[[[127.49704,37.60071],[127.497,37.60067],[127.497,37.60062],[127.49709,37.60062],[127.49711,37.60065],[127.49711,37.60071],[127.49704,37.60071]]]}},{"type":"Feature","properties":{"valleyId":"eobi","layer":"shadow","date":"2026-08-01","timeLocal":"17:00"},"geometry":{"type":"Polygon","coordinates":[[[127.49256,37.60061],[127.49256,37.60052],[127.49267,37.60053],[127.49267,37.6006],[127.49256,37.60061]]]}},{"type":"Feature","properties":{"valleyId":"eobi","layer":"shadow","date":"2026-08-01","timeLocal":"17:00"},"geometry":{"type":"Polygon","coordinates":[[[127.49734,37.60062],[127.49734,37.60057],[127.49741,37.60057],[127.4974,37.60062],[127.49734,37.60062]]]}},{"type":"Feature","properties":{"valleyId":"eobi","layer":"shadow","date":"2026-08-01","timeLocal":"17:00"},"geometry":{"type":"Polygon","coordinates":[[[127.495,37.6007],[127.495,37.60063],[127.49505,37.60063],[127.4951,37.60045],[127.49521,37.60045],[127.49521,37.6005],[127.49516,37.60052],[127.49516,37.60061],[127.49507,37.60063],[127.49507,37.6007],[127.495,37.6007]]]}},{"type":"Feature","properties":{"valleyId":"eobi","layer":"shadow","date":"2026-08-01","timeLocal":"17:00"},"geometry":{"type":"Polygon","coordinates":[[[127.49585,37.60123],[127.49583,37.60105],[127.49579,37.601],[127.49579,37.60087],[127.49575,37.6008],[127.49577,37.60064],[127.49571,37.60058],[127.49571,37.60051],[127.49566,37.60051],[127.49566,37.60044],[127.49573,37.60044],[127.49573,37.60051],[127.49578,37.60051],[127.4958,37.60058],[127.49586,37.60062],[127.49586,37.60078],[127.49591,37.60084],[127.49588,37.601],[127.49601,37.60113],[127.49601,37.60118],[127.49597,37.60122],[127.49585,37.60123]]]}},{"type":"Feature","properties":{"valleyId":"eobi","layer":"shadow","date":"2026-08-01","timeLocal":"17:00"},"geometry":{"type":"Polygon","coordinates":[[[127.49247,37.6005],[127.49249,37.60038],[127.49256,37.60038],[127.49254,37.60051],[127.49247,37.6005]]]}},{"type":"Feature","properties":{"valleyId":"eobi","layer":"shadow","date":"2026-08-01","timeLocal":"17:00"},"geometry":{"type":"Polygon","coordinates":[[[127.49693,37.60053],[127.49693,37.60044],[127.49702,37.60044],[127.49702,37.60053],[127.49693,37.60053]]]}},{"type":"Feature","properties":{"valleyId":"eobi","layer":"shadow","date":"2026-08-01","timeLocal":"17:00"},"geometry":{"type":"Polygon","coordinates":[[[127.49277,37.60036],[127.49277,37.60022],[127.49286,37.60022],[127.4929,37.60026],[127.4929,37.60031],[127.49288,37.60035],[127.49277,37.60036]]]}},{"type":"Feature","properties":{"valleyId":"eobi","layer":"shadow","date":"2026-08-01","timeLocal":"17:00"},"geometry":{"type":"Polygon","coordinates":[[[127.49172,37.60075],[127.49172,37.60069],[127.49179,37.60066],[127.49179,37.60055],[127.49166,37.60033],[127.49166,37.60017],[127.49175,37.60017],[127.49179,37.60021],[127.49179,37.6003],[127.49188,37.60033],[127.4919,37.60039],[127.49195,37.60039],[127.49195,37.60044],[127.49202,37.60048],[127.49204,37.60053],[127.49204,37.60063],[127.4919,37.60068],[127.49187,37.60075],[127.49172,37.60075]]]}},{"type":"Feature","properties":{"valleyId":"eobi","layer":"shadow","date":"2026-08-01","timeLocal":"17:00"},"geometry":{"type":"Polygon","coordinates":[[[127.49732,37.60037],[127.49734,37.60024],[127.49744,37.60023],[127.49746,37.60035],[127.49732,37.60037]]]}},{"type":"Feature","properties":{"valleyId":"eobi","layer":"shadow","date":"2026-08-01","timeLocal":"17:00"},"geometry":{"type":"Polygon","coordinates":[[[127.49719,37.60022],[127.49717,37.60013],[127.49723,37.60013],[127.49725,37.60022],[127.49719,37.60022]]]}},{"type":"Feature","properties":{"valleyId":"eobi","layer":"shadow","date":"2026-08-01","timeLocal":"17:00"},"geometry":{"type":"Polygon","coordinates":[[[127.49252,37.6002],[127.49252,37.60002],[127.49261,37.60002],[127.49264,37.60006],[127.49268,37.60006],[127.49268,37.60016],[127.49252,37.6002]]]}},{"type":"Feature","properties":{"valleyId":"eobi","layer":"shadow","date":"2026-08-01","timeLocal":"17:00"},"geometry":{"type":"Polygon","coordinates":[[[127.49211,37.60028],[127.49209,37.60001],[127.49216,37.60001],[127.49223,37.60005],[127.49225,37.60016],[127.49218,37.60018],[127.49218,37.60028],[127.49211,37.60028]]]}},{"type":"Feature","properties":{"valleyId":"eobi","layer":"shadow","date":"2026-08-01","timeLocal":"17:00"},"geometry":{"type":"Polygon","coordinates":[[[127.49203,37.60001],[127.49198,37.59999],[127.49198,37.5999],[127.49209,37.59992],[127.49209,37.60001],[127.49203,37.60001]]]}},{"type":"Feature","properties":{"valleyId":"eobi","layer":"shadow","date":"2026-08-01","timeLocal":"17:00"},"geometry":{"type":"Polygon","coordinates":[[[127.49339,37.59998],[127.49339,37.5999],[127.49348,37.5999],[127.49348,37.59998],[127.49339,37.59998]]]}},{"type":"Feature","properties":{"valleyId":"eobi","layer":"shadow","date":"2026-08-01","timeLocal":"17:00"},"geometry":{"type":"Polygon","coordinates":[[[127.49143,37.60008],[127.49144,37.59984],[127.49162,37.59986],[127.49162,37.59993],[127.49157,37.59993],[127.49157,37.60004],[127.49153,37.60008],[127.49143,37.60008]]]}},{"type":"Feature","properties":{"valleyId":"eobi","layer":"shadow","date":"2026-08-01","timeLocal":"17:00"},"geometry":{"type":"Polygon","coordinates":[[[127.49728,37.59999],[127.49726,37.59986],[127.49728,37.59983],[127.49738,37.59983],[127.4974,37.59997],[127.49728,37.59999]]]}},{"type":"Feature","properties":{"valleyId":"eobi","layer":"shadow","date":"2026-08-01","timeLocal":"17:00"},"geometry":{"type":"Polygon","coordinates":[[[127.49692,37.59991],[127.4969,37.59982],[127.49699,37.59981],[127.49701,37.5999],[127.49692,37.59991]]]}},{"type":"Feature","properties":{"valleyId":"eobi","layer":"shadow","date":"2026-08-01","timeLocal":"17:00"},"geometry":{"type":"Polygon","coordinates":[[[127.49633,37.59985],[127.49633,37.5998],[127.4964,37.5998],[127.4964,37.59985],[127.49633,37.59985]]]}},{"type":"Feature","properties":{"valleyId":"eobi","layer":"shadow","date":"2026-08-01","timeLocal":"17:00"},"geometry":{"type":"Polygon","coordinates":[[[127.49124,37.59984],[127.49124,37.59973],[127.49119,37.59971],[127.49119,37.59966],[127.49142,37.59968],[127.49149,37.59972],[127.49149,37.59977],[127.49142,37.59979],[127.49142,37.59984],[127.49124,37.59984]]]}},{"type":"Feature","properties":{"valleyId":"eobi","layer":"shadow","date":"2026-08-01","timeLocal":"17:00"},"geometry":{"type":"Polygon","coordinates":[[[127.49505,37.59965],[127.49505,37.59951],[127.49516,37.59951],[127.49523,37.59955],[127.4952,37.59964],[127.49505,37.59965]]]}},{"type":"Feature","properties":{"valleyId":"eobi","layer":"shadow","date":"2026-08-01","timeLocal":"17:00"},"geometry":{"type":"Polygon","coordinates":[[[127.49269,37.59953],[127.49269,37.59946],[127.49281,37.59946],[127.4928,37.59954],[127.49269,37.59953]]]}},{"type":"Feature","properties":{"valleyId":"eobi","layer":"shadow","date":"2026-08-01","timeLocal":"17:00"},"geometry":{"type":"Polygon","coordinates":[[[127.49244,37.59949],[127.49244,37.59944],[127.49251,37.59944],[127.49251,37.5995],[127.49244,37.59949]]]}},{"type":"Feature","properties":{"valleyId":"eobi","layer":"shadow","date":"2026-08-01","timeLocal":"17:00"},"geometry":{"type":"Polygon","coordinates":[[[127.49487,37.59947],[127.49487,37.5994],[127.49496,37.5994],[127.49496,37.59945],[127.49487,37.59947]]]}},{"type":"Feature","properties":{"valleyId":"eobi","layer":"shadow","date":"2026-08-01","timeLocal":"17:00"},"geometry":{"type":"Polygon","coordinates":[[[127.49385,37.59935],[127.49381,37.59933],[127.49381,37.59928],[127.49392,37.5993],[127.49392,37.59935],[127.49385,37.59935]]]}},{"type":"Feature","properties":{"valleyId":"eobi","layer":"shadow","date":"2026-08-01","timeLocal":"17:00"},"geometry":{"type":"Polygon","coordinates":[[[127.4904,37.59952],[127.49034,37.5995],[127.49027,37.59943],[127.49022,37.59943],[127.49018,37.59936],[127.49009,37.5993],[127.49012,37.59921],[127.49023,37.5992],[127.49023,37.59925],[127.49034,37.59934],[127.49034,37.5994],[127.49047,37.59947],[127.49047,37.59952],[127.4904,37.59952]]]}},{"type":"Feature","properties":{"valleyId":"eobi","layer":"shadow","date":"2026-08-01","timeLocal":"17:00"},"geometry":{"type":"Polygon","coordinates":[[[127.49431,37.59928],[127.49428,37.59921],[127.49437,37.59921],[127.49437,37.59928],[127.49431,37.59928]]]}},{"type":"Feature","properties":{"valleyId":"eobi","layer":"shadow","date":"2026-08-01","timeLocal":"17:00"},"geometry":{"type":"Polygon","coordinates":[[[127.49066,37.59922],[127.49066,37.59917],[127.4908,37.59915],[127.4908,37.5992],[127.49066,37.59922]]]}},{"type":"Feature","properties":{"valleyId":"eobi","layer":"shadow","date":"2026-08-01","timeLocal":"17:00"},"geometry":{"type":"Polygon","coordinates":[[[127.4924,37.59922],[127.4924,37.59919],[127.49236,37.59919],[127.49236,37.59913],[127.49243,37.59913],[127.49243,37.59917],[127.49247,37.59917],[127.49247,37.59922],[127.4924,37.59922]]]}},{"type":"Feature","properties":{"valleyId":"eobi","layer":"shadow","date":"2026-08-01","timeLocal":"17:00"},"geometry":{"type":"Polygon","coordinates":[[[127.49568,37.59945],[127.49564,37.59937],[127.49564,37.59925],[127.4956,37.59914],[127.49569,37.59916],[127.49571,37.59925],[127.49578,37.5993],[127.49577,37.59945],[127.49568,37.59945]]]}},{"type":"Feature","properties":{"valleyId":"eobi","layer":"shadow","date":"2026-08-01","timeLocal":"17:00"},"geometry":{"type":"Polygon","coordinates":[[[127.49415,37.59916],[127.49415,37.5991],[127.49422,37.5991],[127.49422,37.59916],[127.49415,37.59916]]]}},{"type":"Feature","properties":{"valleyId":"eobi","layer":"shadow","date":"2026-08-01","timeLocal":"17:00"},"geometry":{"type":"Polygon","coordinates":[[[127.49718,37.59918],[127.49719,37.59912],[127.49725,37.59912],[127.49725,37.59918],[127.49718,37.59918]]]}},{"type":"Feature","properties":{"valleyId":"eobi","layer":"shadow","date":"2026-08-01","timeLocal":"17:00"},"geometry":{"type":"Polygon","coordinates":[[[127.49619,37.59924],[127.49619,37.59918],[127.49614,37.59915],[127.49614,37.59909],[127.49626,37.59911],[127.49625,37.59924],[127.49619,37.59924]]]}},{"type":"Feature","properties":{"valleyId":"eobi","layer":"shadow","date":"2026-08-01","timeLocal":"17:00"},"geometry":{"type":"Polygon","coordinates":[[[127.49272,37.59901],[127.4927,37.5989],[127.49284,37.59889],[127.49284,37.59896],[127.49279,37.59896],[127.49279,37.59901],[127.49272,37.59901]]]}},{"type":"Feature","properties":{"valleyId":"eobi","layer":"shadow","date":"2026-08-01","timeLocal":"17:00"},"geometry":{"type":"Polygon","coordinates":[[[127.49467,37.59904],[127.49463,37.59893],[127.49463,37.59887],[127.4947,37.59887],[127.49479,37.59893],[127.49476,37.59902],[127.49467,37.59904]]]}},{"type":"Feature","properties":{"valleyId":"eobi","layer":"shadow","date":"2026-08-01","timeLocal":"17:00"},"geometry":{"type":"Polygon","coordinates":[[[127.49064,37.59886],[127.49064,37.5988],[127.49071,37.59881],[127.49071,37.59886],[127.49064,37.59886]]]}},{"type":"Feature","properties":{"valleyId":"eobi","layer":"shadow","date":"2026-08-01","timeLocal":"17:00"},"geometry":{"type":"Polygon","coordinates":[[[127.49551,37.59896],[127.49551,37.59885],[127.49558,37.59885],[127.4956,37.59892],[127.49558,37.59896],[127.49551,37.59896]]]}},{"type":"Feature","properties":{"valleyId":"eobi","layer":"shadow","date":"2026-08-01","timeLocal":"17:00"},"geometry":{"type":"Polygon","coordinates":[[[127.49315,37.59904],[127.49316,37.59893],[127.49311,37.59891],[127.49311,37.59882],[127.4932,37.59882],[127.4932,37.59889],[127.49327,37.59896],[127.49327,37.59902],[127.49315,37.59904]]]}},{"type":"Feature","properties":{"valleyId":"eobi","layer":"shadow","date":"2026-08-01","timeLocal":"17:00"},"geometry":{"type":"Polygon","coordinates":[[[127.49366,37.59881],[127.49366,37.59874],[127.49373,37.59874],[127.49373,37.59881],[127.49366,37.59881]]]}},{"type":"Feature","properties":{"valleyId":"eobi","layer":"shadow","date":"2026-08-01","timeLocal":"17:00"},"geometry":{"type":"Polygon","coordinates":[[[127.49454,37.59884],[127.49454,37.59871],[127.49466,37.59871],[127.49468,37.59884],[127.49454,37.59884]]]}},{"type":"Feature","properties":{"valleyId":"eobi","layer":"shadow","date":"2026-08-01","timeLocal":"17:00"},"geometry":{"type":"Polygon","coordinates":[[[127.49257,37.59888],[127.49253,37.59879],[127.49244,37.59874],[127.49244,37.59868],[127.49257,37.5987],[127.49257,37.59876],[127.49266,37.59879],[127.49266,37.59888],[127.49257,37.59888]]]}},{"type":"Feature","properties":{"valleyId":"eobi","layer":"shadow","date":"2026-08-01","timeLocal":"17:00"},"geometry":{"type":"Polygon","coordinates":[[[127.4932,37.59882],[127.49321,37.59869],[127.49325,37.59869],[127.49325,37.59862],[127.49332,37.59862],[127.49332,37.59877],[127.49327,37.59878],[127.49327,37.59882],[127.4932,37.59882]]]}},{"type":"Feature","properties":{"valleyId":"eobi","layer":"shadow","date":"2026-08-01","timeLocal":"17:00"},"geometry":{"type":"Polygon","coordinates":[[[127.49466,37.59866],[127.49466,37.5986],[127.49473,37.5986],[127.49473,37.59866],[127.49466,37.59866]]]}},{"type":"Feature","properties":{"valleyId":"eobi","layer":"shadow","date":"2026-08-01","timeLocal":"17:00"},"geometry":{"type":"Polygon","coordinates":[[[127.49882,37.59873],[127.49883,37.5986],[127.4989,37.5986],[127.49892,37.59869],[127.49889,37.59873],[127.49882,37.59873]]]}},{"type":"Feature","properties":{"valleyId":"eobi","layer":"shadow","date":"2026-08-01","timeLocal":"17:00"},"geometry":{"type":"Polygon","coordinates":[[[127.49344,37.59859],[127.49344,37.59852],[127.49353,37.5985],[127.4935,37.59859],[127.49344,37.59859]]]}},{"type":"Feature","properties":{"valleyId":"eobi","layer":"shadow","date":"2026-08-01","timeLocal":"17:00"},"geometry":{"type":"Polygon","coordinates":[[[127.49292,37.59853],[127.49292,37.59847],[127.49301,37.59847],[127.49301,37.59853],[127.49292,37.59853]]]}},{"type":"Feature","properties":{"valleyId":"eobi","layer":"shadow","date":"2026-08-01","timeLocal":"17:00"},"geometry":{"type":"Polygon","coordinates":[[[127.49783,37.59875],[127.49783,37.5987],[127.4979,37.59864],[127.4979,37.59852],[127.49797,37.59852],[127.49806,37.59859],[127.49806,37.59865],[127.49799,37.59872],[127.49783,37.59875]]]}},{"type":"Feature","properties":{"valleyId":"eobi","layer":"shadow","date":"2026-08-01","timeLocal":"17:00"},"geometry":{"type":"Polygon","coordinates":[[[127.49473,37.59857],[127.49473,37.59851],[127.4948,37.5985],[127.4948,37.59846],[127.49487,37.59846],[127.49486,37.59853],[127.49482,37.59857],[127.49473,37.59857]]]}},{"type":"Feature","properties":{"valleyId":"eobi","layer":"shadow","date":"2026-08-01","timeLocal":"17:00"},"geometry":{"type":"Polygon","coordinates":[[[127.49415,37.59894],[127.4942,37.5988],[127.49409,37.59874],[127.49409,37.59867],[127.49402,37.59863],[127.494,37.59858],[127.49393,37.59856],[127.49389,37.59843],[127.49403,37.59847],[127.49407,37.59856],[127.49425,37.59867],[127.49427,37.59878],[127.49438,37.5988],[127.49438,37.59887],[127.49434,37.59892],[127.49415,37.59894]]]}},{"type":"Feature","properties":{"valleyId":"eobi","layer":"shadow","date":"2026-08-01","timeLocal":"17:00"},"geometry":{"type":"Polygon","coordinates":[[[127.49087,37.59911],[127.49089,37.59901],[127.4908,37.59891],[127.49081,37.5987],[127.49063,37.59859],[127.49063,37.59855],[127.49056,37.59852],[127.49056,37.59846],[127.4904,37.59839],[127.49041,37.59833],[127.49054,37.59835],[127.49058,37.59846],[127.49063,37.59846],[127.49072,37.59854],[127.4909,37.59856],[127.49101,37.59865],[127.49101,37.59874],[127.49096,37.59881],[127.49089,37.59883],[127.49089,37.59888],[127.49101,37.59892],[127.491,37.59904],[127.49096,37.59912],[127.49087,37.59911]]]}},{"type":"Feature","properties":{"valleyId":"eobi","layer":"shadow","date":"2026-08-01","timeLocal":"17:00"},"geometry":{"type":"Polygon","coordinates":[[[127.49453,37.59844],[127.49453,37.59835],[127.49462,37.59835],[127.49462,37.59842],[127.49453,37.59844]]]}},{"type":"Feature","properties":{"valleyId":"eobi","layer":"shadow","date":"2026-08-01","timeLocal":"17:00"},"geometry":{"type":"Polygon","coordinates":[[[127.49779,37.59852],[127.49774,37.59846],[127.4977,37.59846],[127.4977,37.59839],[127.49779,37.59839],[127.49779,37.59843],[127.49788,37.59846],[127.49788,37.59852],[127.49779,37.59852]]]}},{"type":"Feature","properties":{"valleyId":"eobi","layer":"shadow","date":"2026-08-01","timeLocal":"17:00"},"geometry":{"type":"Polygon","coordinates":[[[127.49457,37.59828],[127.49458,37.59821],[127.49467,37.59821],[127.49467,37.59826],[127.49457,37.59828]]]}},{"type":"Feature","properties":{"valleyId":"eobi","layer":"shadow","date":"2026-08-01","timeLocal":"17:00"},"geometry":{"type":"Polygon","coordinates":[[[127.49029,37.59833],[127.49029,37.5983],[127.49016,37.59828],[127.48989,37.59816],[127.48987,37.59809],[127.49002,37.59811],[127.4902,37.5982],[127.49036,37.59824],[127.49036,37.59833],[127.49029,37.59833]]]}},{"type":"Feature","properties":{"valleyId":"eobi","layer":"shadow","date":"2026-08-01","timeLocal":"17:00"},"geometry":{"type":"Polygon","coordinates":[[[127.4975,37.59839],[127.49741,37.5983],[127.49741,37.59817],[127.49748,37.59817],[127.49752,37.59821],[127.49752,37.59832],[127.49756,37.59833],[127.49756,37.59839],[127.4975,37.59839]]]}},{"type":"Feature","properties":{"valleyId":"eobi","layer":"shadow","date":"2026-08-01","timeLocal":"17:00"},"geometry":{"type":"Polygon","coordinates":[[[127.49265,37.59818],[127.49265,37.59807],[127.49272,37.59807],[127.49274,37.59815],[127.49272,37.59818],[127.49265,37.59818]]]}},{"type":"Feature","properties":{"valleyId":"eobi","layer":"shadow","date":"2026-08-01","timeLocal":"17:00"},"geometry":{"type":"Polygon","coordinates":[[[127.49759,37.59819],[127.49759,37.59812],[127.49768,37.59812],[127.49768,37.59817],[127.49759,37.59819]]]}},{"type":"Feature","properties":{"valleyId":"eobi","layer":"shadow","date":"2026-08-01","timeLocal":"17:00"},"geometry":{"type":"Polygon","coordinates":[[[127.49587,37.59811],[127.49587,37.59806],[127.49594,37.59806],[127.49594,37.59812],[127.49587,37.59811]]]}},{"type":"Feature","properties":{"valleyId":"eobi","layer":"shadow","date":"2026-08-01","timeLocal":"17:00"},"geometry":{"type":"Polygon","coordinates":[[[127.4896,37.59805],[127.48951,37.59798],[127.48951,37.59792],[127.48958,37.59793],[127.48971,37.598],[127.48971,37.59805],[127.4896,37.59805]]]}},{"type":"Feature","properties":{"valleyId":"eobi","layer":"shadow","date":"2026-08-01","timeLocal":"17:00"},"geometry":{"type":"Polygon","coordinates":[[[127.49268,37.59789],[127.49268,37.59784],[127.49275,37.59784],[127.49275,37.59789],[127.49268,37.59789]]]}},{"type":"Feature","properties":{"valleyId":"eobi","layer":"shadow","date":"2026-08-01","timeLocal":"17:00"},"geometry":{"type":"Polygon","coordinates":[[[127.49184,37.59799],[127.49184,37.59792],[127.49191,37.59788],[127.49191,37.59781],[127.492,37.59781],[127.492,37.59796],[127.49184,37.59799]]]}},{"type":"Feature","properties":{"valleyId":"eobi","layer":"shadow","date":"2026-08-01","timeLocal":"17:00"},"geometry":{"type":"Polygon","coordinates":[[[127.49773,37.59798],[127.49773,37.59789],[127.49787,37.59791],[127.49787,37.59796],[127.49773,37.59798]]]}},{"type":"Feature","properties":{"valleyId":"eobi","layer":"shadow","date":"2026-08-01","timeLocal":"17:00"},"geometry":{"type":"Polygon","coordinates":[[[127.48933,37.59792],[127.48926,37.59789],[127.48924,37.59778],[127.48942,37.59782],[127.48949,37.59787],[127.48948,37.59792],[127.48933,37.59792]]]}},{"type":"Feature","properties":{"valleyId":"eobi","layer":"shadow","date":"2026-08-01","timeLocal":"17:00"},"geometry":{"type":"Polygon","coordinates":[[[127.49816,37.59798],[127.49816,37.59786],[127.49823,37.59786],[127.49825,37.59796],[127.49816,37.59798]]]}},{"type":"Feature","properties":{"valleyId":"eobi","layer":"shadow","date":"2026-08-01","timeLocal":"17:00"},"geometry":{"type":"Polygon","coordinates":[[[127.4919,37.59965],[127.49185,37.59958],[127.4919,37.59943],[127.49181,37.59934],[127.49177,37.59934],[127.49172,37.59923],[127.49168,37.59923],[127.49168,37.59918],[127.49172,37.59918],[127.49171,37.59902],[127.49157,37.59889],[127.49155,37.59882],[127.49148,37.5988],[127.49149,37.59869],[127.49165,37.59851],[127.49163,37.59824],[127.49156,37.59822],[127.49156,37.59819],[127.49152,37.59817],[127.4915,37.59806],[127.49145,37.59804],[127.49146,37.59791],[127.49141,37.5979],[127.49141,37.59782],[127.49139,37.59779],[127.49135,37.59779],[127.49135,37.59773],[127.49141,37.59773],[127.49141,37.59777],[127.49155,37.59777],[127.49155,37.59781],[127.49159,37.59781],[127.49166,37.59786],[127.49166,37.59792],[127.49177,37.59803],[127.49177,37.59806],[127.49191,37.59806],[127.4919,37.59823],[127.49199,37.59823],[127.49201,37.59828],[127.49201,37.59835],[127.49183,37.59841],[127.49183,37.59848],[127.4919,37.59851],[127.49189,37.59862],[127.49171,37.59867],[127.49171,37.59878],[127.49189,37.59886],[127.49191,37.5992],[127.49199,37.59927],[127.49204,37.59942],[127.49199,37.59952],[127.49199,37.59965],[127.4919,37.59965]],[[127.49176,37.59835],[127.49183,37.59835],[127.49183,37.59826],[127.49172,37.59826],[127.49172,37.59831],[127.49176,37.59835]]]}},{"type":"Feature","properties":{"valleyId":"eobi","layer":"shadow","date":"2026-08-01","timeLocal":"17:00"},"geometry":{"type":"Polygon","coordinates":[[[127.49791,37.59785],[127.49785,37.5978],[127.49785,37.59774],[127.49796,37.59776],[127.49798,37.59785],[127.49791,37.59785]]]}},{"type":"Feature","properties":{"valleyId":"eobi","layer":"shadow","date":"2026-08-01","timeLocal":"17:00"},"geometry":{"type":"Polygon","coordinates":[[[127.49178,37.59776],[127.49173,37.5977],[127.49173,37.59763],[127.49182,37.59761],[127.49185,37.59768],[127.49189,37.5977],[127.49189,37.59776],[127.49178,37.59776]]]}},{"type":"Feature","properties":{"valleyId":"eobi","layer":"shadow","date":"2026-08-01","timeLocal":"17:00"},"geometry":{"type":"Polygon","coordinates":[[[127.49454,37.5977],[127.49454,37.59765],[127.49461,37.59765],[127.49461,37.5977],[127.49454,37.5977]]]}},{"type":"Feature","properties":{"valleyId":"eobi","layer":"shadow","date":"2026-08-01","timeLocal":"17:00"},"geometry":{"type":"Polygon","coordinates":[[[127.49871,37.59783],[127.49871,37.59768],[127.49878,37.59768],[127.4988,37.59772],[127.49885,37.59772],[127.49884,37.59777],[127.49882,37.59781],[127.49871,37.59783]]]}},{"type":"Feature","properties":{"valleyId":"eobi","layer":"shadow","date":"2026-08-01","timeLocal":"17:00"},"geometry":{"type":"Polygon","coordinates":[[[127.49171,37.59756],[127.49171,37.59748],[127.49178,37.59749],[127.49178,37.59756],[127.49171,37.59756]]]}},{"type":"Feature","properties":{"valleyId":"eobi","layer":"shadow","date":"2026-08-01","timeLocal":"17:00"},"geometry":{"type":"Polygon","coordinates":[[[127.49742,37.59756],[127.49742,37.5975],[127.49749,37.5975],[127.49749,37.59756],[127.49742,37.59756]]]}},{"type":"Feature","properties":{"valleyId":"eobi","layer":"shadow","date":"2026-08-01","timeLocal":"17:00"},"geometry":{"type":"Polygon","coordinates":[[[127.49862,37.59757],[127.49862,37.5975],[127.49869,37.5975],[127.49869,37.59757],[127.49862,37.59757]]]}},{"type":"Feature","properties":{"valleyId":"eobi","layer":"shadow","date":"2026-08-01","timeLocal":"17:00"},"geometry":{"type":"Polygon","coordinates":[[[127.49112,37.59777],[127.49094,37.59769],[127.49078,37.59756],[127.49079,37.59738],[127.49085,37.59738],[127.49088,37.59746],[127.49097,37.59749],[127.49096,37.59755],[127.49114,37.59766],[127.49119,37.59777],[127.49112,37.59777]]]}},{"type":"Feature","properties":{"valleyId":"eobi","layer":"shadow","date":"2026-08-01","timeLocal":"17:00"},"geometry":{"type":"Polygon","coordinates":[[[127.49158,37.59741],[127.49158,37.59734],[127.49165,37.59734],[127.49167,37.59741],[127.49158,37.59741]]]}},{"type":"Feature","properties":{"valleyId":"eobi","layer":"shadow","date":"2026-08-01","timeLocal":"17:00"},"geometry":{"type":"Polygon","coordinates":[[[127.49706,37.59748],[127.49706,37.59739],[127.49722,37.59741],[127.49722,37.59746],[127.49706,37.59748]]]}},{"type":"Feature","properties":{"valleyId":"eobi","layer":"shadow","date":"2026-08-01","timeLocal":"17:00"},"geometry":{"type":"Polygon","coordinates":[[[127.49074,37.59731],[127.49074,37.59726],[127.49081,37.59726],[127.49081,37.59731],[127.49074,37.59731]]]}},{"type":"Feature","properties":{"valleyId":"eobi","layer":"shadow","date":"2026-08-01","timeLocal":"17:00"},"geometry":{"type":"Polygon","coordinates":[[[127.49129,37.59732],[127.49129,37.59723],[127.49138,37.59723],[127.49138,37.59732],[127.49129,37.59732]]]}},{"type":"Feature","properties":{"valleyId":"eobi","layer":"shadow","date":"2026-08-01","timeLocal":"17:00"},"geometry":{"type":"Polygon","coordinates":[[[127.49423,37.5973],[127.49423,37.59723],[127.4943,37.59723],[127.4943,37.5973],[127.49423,37.5973]]]}},{"type":"Feature","properties":{"valleyId":"eobi","layer":"shadow","date":"2026-08-01","timeLocal":"17:00"},"geometry":{"type":"Polygon","coordinates":[[[127.49736,37.59732],[127.49736,37.59727],[127.49743,37.59727],[127.49743,37.59732],[127.49736,37.59732]]]}},{"type":"Feature","properties":{"valleyId":"eobi","layer":"shadow","date":"2026-08-01","timeLocal":"17:00"},"geometry":{"type":"Polygon","coordinates":[[[127.49013,37.59734],[127.48995,37.59719],[127.48995,37.59712],[127.49004,37.59712],[127.49018,37.59718],[127.49018,37.59723],[127.49025,37.59727],[127.49024,37.59732],[127.49013,37.59734]]]}},{"type":"Feature","properties":{"valleyId":"eobi","layer":"shadow","date":"2026-08-01","timeLocal":"17:00"},"geometry":{"type":"Polygon","coordinates":[[[127.49111,37.59719],[127.49111,37.59712],[127.49118,37.59712],[127.49118,37.59719],[127.49111,37.59719]]]}},{"type":"Feature","properties":{"valleyId":"eobi","layer":"shadow","date":"2026-08-01","timeLocal":"17:00"},"geometry":{"type":"Polygon","coordinates":[[[127.49134,37.59716],[127.49134,37.59705],[127.49141,37.59705],[127.4914,37.59716],[127.49134,37.59716]]]}},{"type":"Feature","properties":{"valleyId":"eobi","layer":"shadow","date":"2026-08-01","timeLocal":"17:00"},"geometry":{"type":"Polygon","coordinates":[[[127.49569,37.59714],[127.49569,37.59708],[127.49578,37.59707],[127.49578,37.59712],[127.49569,37.59714]]]}},{"type":"Feature","properties":{"valleyId":"eobi","layer":"shadow","date":"2026-08-01","timeLocal":"17:00"},"geometry":{"type":"Polygon","coordinates":[[[127.49367,37.59708],[127.49367,37.59699],[127.49376,37.59699],[127.49378,37.59706],[127.49367,37.59708]]]}},{"type":"Feature","properties":{"valleyId":"eobi","layer":"shadow","date":"2026-08-01","timeLocal":"17:00"},"geometry":{"type":"Polygon","coordinates":[[[127.49585,37.59701],[127.49587,37.59692],[127.49603,37.59689],[127.49603,37.59698],[127.49585,37.59701]]]}},{"type":"Feature","properties":{"valleyId":"eobi","layer":"shadow","date":"2026-08-01","timeLocal":"17:00"},"geometry":{"type":"Polygon","coordinates":[[[127.49148,37.59689],[127.49148,37.59681],[127.49157,37.59682],[127.49157,37.59687],[127.49148,37.59689]]]}},{"type":"Feature","properties":{"valleyId":"eobi","layer":"shadow","date":"2026-08-01","timeLocal":"17:00"},"geometry":{"type":"Polygon","coordinates":[[[127.49168,37.59711],[127.49168,37.59682],[127.49175,37.59682],[127.49174,37.59711],[127.49168,37.59711]]]}},{"type":"Feature","properties":{"valleyId":"eobi","layer":"shadow","date":"2026-08-01","timeLocal":"17:00"},"geometry":{"type":"Polygon","coordinates":[[[127.49338,37.59689],[127.49338,37.59682],[127.49347,37.59682],[127.49347,37.59688],[127.49338,37.59689]]]}},{"type":"Feature","properties":{"valleyId":"eobi","layer":"shadow","date":"2026-08-01","timeLocal":"17:00"},"geometry":{"type":"Polygon","coordinates":[[[127.49157,37.59682],[127.49157,37.59676],[127.49164,37.59676],[127.49164,37.59682],[127.49157,37.59682]]]}},{"type":"Feature","properties":{"valleyId":"eobi","layer":"shadow","date":"2026-08-01","timeLocal":"17:00"},"geometry":{"type":"Polygon","coordinates":[[[127.4985,37.5969],[127.49852,37.59683],[127.49861,37.59683],[127.49859,37.59691],[127.4985,37.5969]]]}},{"type":"Feature","properties":{"valleyId":"eobi","layer":"shadow","date":"2026-08-01","timeLocal":"17:00"},"geometry":{"type":"Polygon","coordinates":[[[127.49451,37.59682],[127.49451,37.59676],[127.49458,37.59676],[127.49458,37.59682],[127.49451,37.59682]]]}},{"type":"Feature","properties":{"valleyId":"eobi","layer":"shadow","date":"2026-08-01","timeLocal":"17:00"},"geometry":{"type":"Polygon","coordinates":[[[127.49576,37.59682],[127.49576,37.59673],[127.49587,37.59674],[127.49587,37.59682],[127.49576,37.59682]]]}},{"type":"Feature","properties":{"valleyId":"eobi","layer":"shadow","date":"2026-08-01","timeLocal":"17:00"},"geometry":{"type":"Polygon","coordinates":[[[127.49125,37.59676],[127.49123,37.59667],[127.4913,37.59667],[127.49132,37.59676],[127.49125,37.59676]]]}},{"type":"Feature","properties":{"valleyId":"eobi","layer":"shadow","date":"2026-08-01","timeLocal":"17:00"},"geometry":{"type":"Polygon","coordinates":[[[127.49005,37.59671],[127.4901,37.5966],[127.49024,37.59662],[127.49023,37.59667],[127.49005,37.59671]]]}},{"type":"Feature","properties":{"valleyId":"eobi","layer":"shadow","date":"2026-08-01","timeLocal":"17:00"},"geometry":{"type":"Polygon","coordinates":[[[127.49784,37.59682],[127.49784,37.59677],[127.49794,37.59672],[127.49794,37.59668],[127.49803,37.59666],[127.49803,37.59677],[127.49796,37.59683],[127.49784,37.59682]]]}},{"type":"Feature","properties":{"valleyId":"eobi","layer":"shadow","date":"2026-08-01","timeLocal":"17:00"},"geometry":{"type":"Polygon","coordinates":[[[127.48946,37.5967],[127.48942,37.59668],[127.4894,37.5965],[127.48951,37.59645],[127.48961,37.59645],[127.48965,37.59648],[127.48965,37.59661],[127.48956,37.59665],[127.48953,37.5967],[127.48946,37.5967]]]}},{"type":"Feature","properties":{"valleyId":"eobi","layer":"shadow","date":"2026-08-01","timeLocal":"17:00"},"geometry":{"type":"Polygon","coordinates":[[[127.49291,37.59642],[127.49292,37.59626],[127.49305,37.59624],[127.49305,37.59637],[127.49298,37.59642],[127.49291,37.59642]]]}},{"type":"Feature","properties":{"valleyId":"eobi","layer":"shadow","date":"2026-08-01","timeLocal":"17:00"},"geometry":{"type":"Polygon","coordinates":[[[127.49081,37.59623],[127.49081,37.59618],[127.49088,37.59618],[127.49088,37.59623],[127.49081,37.59623]]]}},{"type":"Feature","properties":{"valleyId":"eobi","layer":"shadow","date":"2026-08-01","timeLocal":"17:00"},"geometry":{"type":"Polygon","coordinates":[[[127.49051,37.59675],[127.49051,37.59664],[127.49055,37.59659],[127.49054,37.59632],[127.4904,37.59628],[127.4904,37.59624],[127.49034,37.59619],[127.49034,37.59613],[127.49047,37.59615],[127.49047,37.59619],[127.49054,37.59621],[127.4906,37.59632],[127.49076,37.59639],[127.49073,37.59668],[127.49062,37.59675],[127.49051,37.59675]]]}},{"type":"Feature","properties":{"valleyId":"eobi","layer":"shadow","date":"2026-08-01","timeLocal":"17:00"},"geometry":{"type":"Polygon","coordinates":[[[127.4962,37.59635],[127.49613,37.59632],[127.49613,37.59623],[127.49623,37.59617],[127.49632,37.59617],[127.49629,37.59635],[127.4962,37.59635]]]}},{"type":"Feature","properties":{"valleyId":"eobi","layer":"shadow","date":"2026-08-01","timeLocal":"17:00"},"geometry":{"type":"Polygon","coordinates":[[[127.48947,37.59619],[127.48945,37.59616],[127.48941,37.59616],[127.48941,37.59605],[127.48957,37.59607],[127.48956,37.5962],[127.48947,37.59619]]]}},{"type":"Feature","properties":{"valleyId":"eobi","layer":"shadow","date":"2026-08-01","timeLocal":"17:00"},"geometry":{"type":"Polygon","coordinates":[[[127.49122,37.59614],[127.49124,37.59604],[127.49131,37.59604],[127.49129,37.59615],[127.49122,37.59614]]]}},{"type":"Feature","properties":{"valleyId":"eobi","layer":"shadow","date":"2026-08-01","timeLocal":"17:00"},"geometry":{"type":"Polygon","coordinates":[[[127.49022,37.59613],[127.49016,37.59611],[127.49013,37.59602],[127.49023,37.59602],[127.49029,37.59608],[127.49034,37.59608],[127.49034,37.59613],[127.49022,37.59613]]]}},{"type":"Feature","properties":{"valleyId":"eobi","layer":"shadow","date":"2026-08-01","timeLocal":"17:00"},"geometry":{"type":"Polygon","coordinates":[[[127.49143,37.59674],[127.49145,37.59618],[127.49149,37.59615],[127.4915,37.59597],[127.49156,37.59597],[127.49158,37.59613],[127.49154,37.59617],[127.49151,37.59653],[127.49152,37.59674],[127.49143,37.59674]]]}},{"type":"Feature","properties":{"valleyId":"eobi","layer":"shadow","date":"2026-08-01","timeLocal":"17:00"},"geometry":{"type":"Polygon","coordinates":[[[127.49688,37.59614],[127.49691,37.59602],[127.49698,37.59602],[127.49695,37.59615],[127.49688,37.59614]]]}},{"type":"Feature","properties":{"valleyId":"eobi","layer":"shadow","date":"2026-08-01","timeLocal":"17:00"},"geometry":{"type":"Polygon","coordinates":[[[127.49711,37.59604],[127.49711,37.59597],[127.4972,37.59597],[127.4972,37.59602],[127.49711,37.59604]]]}},{"type":"Feature","properties":{"valleyId":"eobi","layer":"shadow","date":"2026-08-01","timeLocal":"17:00"},"geometry":{"type":"Polygon","coordinates":[[[127.49048,37.5959],[127.49048,37.59583],[127.49057,37.59583],[127.49057,37.5959],[127.49048,37.5959]]]}},{"type":"Feature","properties":{"valleyId":"eobi","layer":"shadow","date":"2026-08-01","timeLocal":"17:00"},"geometry":{"type":"Polygon","coordinates":[[[127.48998,37.596],[127.48991,37.59597],[127.48991,37.59586],[127.48984,37.59584],[127.48987,37.59571],[127.48994,37.59571],[127.48994,37.5958],[127.49007,37.59584],[127.49004,37.596],[127.48998,37.596]]]}},{"type":"Feature","properties":{"valleyId":"eobi","layer":"shadow","date":"2026-08-01","timeLocal":"17:00"},"geometry":{"type":"Polygon","coordinates":[[[127.49319,37.59617],[127.49322,37.5959],[127.49326,37.59588],[127.49324,37.59574],[127.49343,37.59572],[127.49349,37.59576],[127.49363,37.59576],[127.49362,37.59605],[127.49346,37.59614],[127.49319,37.59617]]]}},{"type":"Feature","properties":{"valleyId":"eobi","layer":"shadow","date":"2026-08-01","timeLocal":"17:00"},"geometry":{"type":"Polygon","coordinates":[[[127.49055,37.59569],[127.49055,37.59561],[127.49066,37.59563],[127.49066,37.59569],[127.49055,37.59569]]]}},{"type":"Feature","properties":{"valleyId":"eobi","layer":"shadow","date":"2026-08-01","timeLocal":"17:00"},"geometry":{"type":"Polygon","coordinates":[[[127.49096,37.59533],[127.49097,37.59528],[127.49103,37.59528],[127.49103,37.59533],[127.49096,37.59533]]]}},{"type":"Feature","properties":{"valleyId":"eobi","layer":"shadow","date":"2026-08-01","timeLocal":"17:00"},"geometry":{"type":"Polygon","coordinates":[[[127.49259,37.59555],[127.4926,37.5953],[127.49269,37.59528],[127.49266,37.59555],[127.49259,37.59555]]]}},{"type":"Feature","properties":{"valleyId":"eobi","layer":"shadow","date":"2026-08-01","timeLocal":"17:00"},"geometry":{"type":"Polygon","coordinates":[[[127.48896,37.59566],[127.48888,37.59556],[127.48885,37.59547],[127.48879,37.59541],[127.48881,37.59523],[127.4889,37.59523],[127.48899,37.59529],[127.48899,37.59536],[127.48892,37.59541],[127.48892,37.59548],[127.48899,37.59552],[127.48903,37.59567],[127.48896,37.59566]]]}},{"type":"Feature","properties":{"valleyId":"eobi","layer":"shadow","date":"2026-08-01","timeLocal":"17:00"},"geometry":{"type":"Polygon","coordinates":[[[127.49019,37.59563],[127.49019,37.59532],[127.49024,37.5953],[127.49024,37.59527],[127.49031,37.59525],[127.49033,37.59512],[127.49045,37.59511],[127.49047,37.59522],[127.49042,37.59521],[127.49035,37.59529],[127.49035,37.59534],[127.4904,37.59538],[127.49037,37.59552],[127.49026,37.59559],[127.49026,37.59563],[127.49019,37.59563]]]}},{"type":"Feature","properties":{"valleyId":"eobi","layer":"shadow","date":"2026-08-01","timeLocal":"17:00"},"geometry":{"type":"Polygon","coordinates":[[[127.49128,37.59539],[127.49128,37.59524],[127.49122,37.59517],[127.49124,37.59506],[127.49131,37.59506],[127.49133,37.59521],[127.49144,37.59526],[127.49144,37.59534],[127.49135,37.59539],[127.49128,37.59539]]]}},{"type":"Feature","properties":{"valleyId":"eobi","layer":"shadow","date":"2026-08-01","timeLocal":"17:00"},"geometry":{"type":"Polygon","coordinates":[[[127.49143,37.59483],[127.49138,37.59479],[127.49138,37.59474],[127.49154,37.59476],[127.49154,37.59483],[127.49143,37.59483]]]}},{"type":"Feature","properties":{"valleyId":"eobi","layer":"shadow","date":"2026-08-01","timeLocal":"17:00"},"geometry":{"type":"Polygon","coordinates":[[[127.49073,37.59477],[127.49068,37.59466],[127.49069,37.59457],[127.49082,37.59461],[127.49086,37.59468],[127.49086,37.59473],[127.49082,37.59477],[127.49073,37.59477]]]}},{"type":"Feature","properties":{"valleyId":"eobi","layer":"shadow","date":"2026-08-01","timeLocal":"17:00"},"geometry":{"type":"Polygon","coordinates":[[[127.48989,37.59454],[127.48989,37.59449],[127.48996,37.59449],[127.48996,37.59454],[127.48989,37.59454]]]}},{"type":"Feature","properties":{"valleyId":"eobi","layer":"shadow","date":"2026-08-01","timeLocal":"17:00"},"geometry":{"type":"Polygon","coordinates":[[[127.49051,37.59516],[127.49049,37.59505],[127.49038,37.59502],[127.49034,37.59489],[127.4902,37.59485],[127.4902,37.59482],[127.49009,37.59474],[127.49003,37.59463],[127.49003,37.59456],[127.4901,37.59456],[127.4901,37.59453],[127.49014,37.59453],[127.49014,37.59444],[127.49026,37.59446],[127.49026,37.59451],[127.49016,37.59454],[127.49016,37.59471],[127.49023,37.59471],[127.49023,37.59465],[127.49032,37.59465],[127.49043,37.59471],[127.49041,37.59484],[127.49036,37.59484],[127.49036,37.59489],[127.49041,37.59489],[127.49041,37.59493],[127.49047,37.59493],[127.49048,37.59484],[127.49059,37.59486],[127.49063,37.59515],[127.49051,37.59516]],[[127.49023,37.59476],[127.4903,37.59476],[127.4903,37.59471],[127.49023,37.59471],[127.49023,37.59476]]]}},{"type":"Feature","properties":{"valleyId":"eobi","layer":"shadow","date":"2026-08-01","timeLocal":"17:00"},"geometry":{"type":"Polygon","coordinates":[[[127.49044,37.59449],[127.49044,37.59444],[127.49051,37.59444],[127.49051,37.59449],[127.49044,37.59449]]]}},{"type":"Feature","properties":{"valleyId":"eobi","layer":"shadow","date":"2026-08-01","timeLocal":"17:00"},"geometry":{"type":"Polygon","coordinates":[[[127.49135,37.59442],[127.49135,37.59436],[127.49141,37.59436],[127.49141,37.59442],[127.49135,37.59442]]]}},{"type":"Feature","properties":{"valleyId":"eobi","layer":"shadow","date":"2026-08-01","timeLocal":"17:00"},"geometry":{"type":"Polygon","coordinates":[[[127.49076,37.59439],[127.49076,37.59428],[127.49089,37.5943],[127.49089,37.59436],[127.49085,37.59439],[127.49076,37.59439]]]}},{"type":"Feature","properties":{"valleyId":"eobi","layer":"shadow","date":"2026-08-01","timeLocal":"17:00"},"geometry":{"type":"Polygon","coordinates":[[[127.49096,37.59421],[127.49097,37.59414],[127.4911,37.59414],[127.4911,37.59421],[127.49096,37.59421]]]}},{"type":"Feature","properties":{"valleyId":"eobi","layer":"shadow","date":"2026-08-01","timeLocal":"17:00"},"geometry":{"type":"Polygon","coordinates":[[[127.49033,37.5944],[127.49026,37.59435],[127.4901,37.59436],[127.4901,37.59433],[127.49001,37.59429],[127.49001,37.59424],[127.48981,37.59413],[127.48981,37.59407],[127.48988,37.59407],[127.49008,37.59418],[127.49022,37.5942],[127.49024,37.59426],[127.49035,37.59429],[127.49035,37.59433],[127.4904,37.59435],[127.49039,37.5944],[127.49033,37.5944]]]}},{"type":"Feature","properties":{"valleyId":"eobi","layer":"shadow","date":"2026-08-01","timeLocal":"17:00"},"geometry":{"type":"Polygon","coordinates":[[[127.49115,37.59414],[127.49117,37.59398],[127.49126,37.59398],[127.49126,37.59402],[127.49131,37.59404],[127.49131,37.59411],[127.49115,37.59414]]]}},{"type":"Feature","properties":{"valleyId":"eobi","layer":"shadow","date":"2026-08-01","timeLocal":"17:00"},"geometry":{"type":"Polygon","coordinates":[[[127.48972,37.59403],[127.48968,37.594],[127.48968,37.59394],[127.48979,37.59396],[127.48979,37.59404],[127.48972,37.59403]]]}},{"type":"Feature","properties":{"valleyId":"eobi","layer":"shadow","date":"2026-08-01","timeLocal":"17:00"},"geometry":{"type":"Polygon","coordinates":[[[127.49101,37.59398],[127.49102,37.59392],[127.49108,37.59393],[127.49108,37.59398],[127.49101,37.59398]]]}},{"type":"Feature","properties":{"valleyId":"eobi","layer":"shadow","date":"2026-08-01","timeLocal":"17:00"},"geometry":{"type":"Polygon","coordinates":[[[127.49077,37.59389],[127.49077,37.59383],[127.49086,37.59383],[127.49086,37.59389],[127.49077,37.59389]]]}},{"type":"Feature","properties":{"valleyId":"eobi","layer":"shadow","date":"2026-08-01","timeLocal":"17:00"},"geometry":{"type":"Polygon","coordinates":[[[127.48976,37.59449],[127.48967,37.59432],[127.4896,37.59429],[127.48958,37.59421],[127.48947,37.59412],[127.48941,37.59398],[127.48936,37.59396],[127.48936,37.5939],[127.48932,37.5939],[127.48932,37.59385],[127.48927,37.59385],[127.48927,37.59379],[127.48934,37.5938],[127.48938,37.5939],[127.48952,37.59396],[127.48954,37.59407],[127.48961,37.59412],[127.48965,37.59423],[127.48974,37.59429],[127.48976,37.59436],[127.48987,37.59443],[127.48987,37.59449],[127.48976,37.59449]]]}},{"type":"Feature","properties":{"valleyId":"eobi","layer":"shadow","date":"2026-08-01","timeLocal":"17:00"},"geometry":{"type":"Polygon","coordinates":[[[127.49024,37.59415],[127.4902,37.59406],[127.49004,37.59397],[127.49004,37.59389],[127.49011,37.59386],[127.49013,37.59377],[127.49025,37.59377],[127.4902,37.59391],[127.49029,37.59401],[127.49031,37.59408],[127.49035,37.5941],[127.49035,37.59415],[127.49024,37.59415]]]}},{"type":"Feature","properties":{"valleyId":"eobi","layer":"shadow","date":"2026-08-01","timeLocal":"17:00"},"geometry":{"type":"Polygon","coordinates":[[[127.49099,37.59383],[127.491,37.59378],[127.49093,37.59374],[127.49093,37.59369],[127.491,37.59369],[127.49106,37.59376],[127.49106,37.59384],[127.49099,37.59383]]]}},{"type":"Feature","properties":{"valleyId":"eobi","layer":"shadow","date":"2026-08-01","timeLocal":"17:00"},"geometry":{"type":"Polygon","coordinates":[[[127.49029,37.59375],[127.49034,37.59363],[127.49041,37.59363],[127.49043,37.59372],[127.49038,37.59375],[127.49029,37.59375]]]}},{"type":"Feature","properties":{"valleyId":"eobi","layer":"shadow","date":"2026-08-01","timeLocal":"17:00"},"geometry":{"type":"Polygon","coordinates":[[[127.48751,37.59361],[127.48747,37.59357],[127.48747,37.59352],[127.48762,37.59356],[127.48762,37.59361],[127.48751,37.59361]]]}},{"type":"Feature","properties":{"valleyId":"eobi","layer":"shadow","date":"2026-08-01","timeLocal":"17:00"},"geometry":{"type":"Polygon","coordinates":[[[127.49086,37.59367],[127.49084,37.59356],[127.49091,37.59356],[127.49095,37.59367],[127.49086,37.59367]]]}},{"type":"Feature","properties":{"valleyId":"eobi","layer":"shadow","date":"2026-08-01","timeLocal":"17:00"},"geometry":{"type":"Polygon","coordinates":[[[127.48955,37.59367],[127.48948,37.59363],[127.48948,37.59349],[127.48953,37.59345],[127.48969,37.59344],[127.48966,37.59367],[127.48955,37.59367]]]}},{"type":"Feature","properties":{"valleyId":"eobi","layer":"shadow","date":"2026-08-01","timeLocal":"17:00"},"geometry":{"type":"Polygon","coordinates":[[[127.48991,37.59362],[127.48987,37.59357],[127.48987,37.59339],[127.48998,37.59339],[127.49,37.59362],[127.48991,37.59362]]]}},{"type":"Feature","properties":{"valleyId":"eobi","layer":"shadow","date":"2026-08-01","timeLocal":"17:00"},"geometry":{"type":"Polygon","coordinates":[[[127.48685,37.59355],[127.48681,37.59347],[127.48684,37.59331],[127.487,37.59333],[127.48699,37.59348],[127.48704,37.5935],[127.48704,37.59355],[127.48685,37.59355]]]}},{"type":"Feature","properties":{"valleyId":"eobi","layer":"shadow","date":"2026-08-01","timeLocal":"17:00"},"geometry":{"type":"Polygon","coordinates":[[[127.48923,37.59374],[127.48919,37.59367],[127.48919,37.59354],[127.4891,37.59343],[127.48908,37.5933],[127.48922,37.59331],[127.48921,37.59334],[127.48926,37.59334],[127.48923,37.59354],[127.48928,37.5936],[127.4893,37.59374],[127.48923,37.59374]]]}},{"type":"Feature","properties":{"valleyId":"eobi","layer":"shadow","date":"2026-08-01","timeLocal":"17:00"},"geometry":{"type":"Polygon","coordinates":[[[127.49016,37.59357],[127.49012,37.59335],[127.49014,37.59328],[127.49026,37.59328],[127.49025,37.59357],[127.49016,37.59357]]]}},{"type":"Feature","properties":{"valleyId":"eobi","layer":"shadow","date":"2026-08-01","timeLocal":"17:00"},"geometry":{"type":"Polygon","coordinates":[[[127.49168,37.59341],[127.49173,37.59328],[127.4918,37.59329],[127.49177,37.59339],[127.49168,37.59341]]]}},{"type":"Feature","properties":{"valleyId":"eobi","layer":"shadow","date":"2026-08-01","timeLocal":"17:00"},"geometry":{"type":"Polygon","coordinates":[[[127.48974,37.59333],[127.48978,37.59319],[127.48985,37.59319],[127.4898,37.59333],[127.48974,37.59333]]]}},{"type":"Feature","properties":{"valleyId":"eobi","layer":"shadow","date":"2026-08-01","timeLocal":"17:00"},"geometry":{"type":"Polygon","coordinates":[[[127.48804,37.59322],[127.48804,37.59317],[127.48811,37.59317],[127.48811,37.59322],[127.48804,37.59322]]]}},{"type":"Feature","properties":{"valleyId":"eobi","layer":"shadow","date":"2026-08-01","timeLocal":"17:00"},"geometry":{"type":"Polygon","coordinates":[[[127.49135,37.59328],[127.49135,37.59314],[127.49142,37.59314],[127.49141,37.59328],[127.49135,37.59328]]]}},{"type":"Feature","properties":{"valleyId":"eobi","layer":"shadow","date":"2026-08-01","timeLocal":"17:00"},"geometry":{"type":"Polygon","coordinates":[[[127.48677,37.59331],[127.48668,37.59329],[127.48668,37.59324],[127.48682,37.5932],[127.48684,37.59304],[127.48693,37.59304],[127.48698,37.59308],[127.48709,37.5931],[127.48707,37.59321],[127.48684,37.59322],[127.48684,37.59331],[127.48677,37.59331]]]}},{"type":"Feature","properties":{"valleyId":"eobi","layer":"shadow","date":"2026-08-01","timeLocal":"17:00"},"geometry":{"type":"Polygon","coordinates":[[[127.49005,37.59325],[127.48997,37.59315],[127.48999,37.59308],[127.49006,37.59308],[127.49006,37.59314],[127.49012,37.59316],[127.49012,37.59325],[127.49005,37.59325]]]}},{"type":"Feature","properties":{"valleyId":"eobi","layer":"shadow","date":"2026-08-01","timeLocal":"17:00"},"geometry":{"type":"Polygon","coordinates":[[[127.48915,37.59316],[127.48915,37.59305],[127.48924,37.59305],[127.48924,37.59314],[127.48915,37.59316]]]}},{"type":"Feature","properties":{"valleyId":"eobi","layer":"shadow","date":"2026-08-01","timeLocal":"17:00"},"geometry":{"type":"Polygon","coordinates":[[[127.4896,37.59315],[127.48961,37.59306],[127.48967,37.59306],[127.48967,37.59315],[127.4896,37.59315]]]}},{"type":"Feature","properties":{"valleyId":"eobi","layer":"shadow","date":"2026-08-01","timeLocal":"17:00"},"geometry":{"type":"Polygon","coordinates":[[[127.48795,37.59316],[127.48795,37.59313],[127.48791,37.59311],[127.48791,37.59304],[127.48798,37.59304],[127.48802,37.59311],[127.48802,37.59317],[127.48795,37.59316]]]}},{"type":"Feature","properties":{"valleyId":"eobi","layer":"shadow","date":"2026-08-01","timeLocal":"17:00"},"geometry":{"type":"Polygon","coordinates":[[[127.48886,37.59307],[127.48886,37.593],[127.48893,37.593],[127.48893,37.59307],[127.48886,37.59307]]]}},{"type":"Feature","properties":{"valleyId":"eobi","layer":"shadow","date":"2026-08-01","timeLocal":"17:00"},"geometry":{"type":"Polygon","coordinates":[[[127.49013,37.59307],[127.49013,37.59299],[127.4902,37.59299],[127.49019,37.59307],[127.49013,37.59307]]]}},{"type":"Feature","properties":{"valleyId":"eobi","layer":"shadow","date":"2026-08-01","timeLocal":"17:00"},"geometry":{"type":"Polygon","coordinates":[[[127.49142,37.59308],[127.4914,37.59301],[127.49149,37.59299],[127.49149,37.59308],[127.49142,37.59308]]]}},{"type":"Feature","properties":{"valleyId":"eobi","layer":"shadow","date":"2026-08-01","timeLocal":"17:00"},"geometry":{"type":"Polygon","coordinates":[[[127.48893,37.593],[127.48893,37.59294],[127.48902,37.59294],[127.48902,37.593],[127.48893,37.593]]]}},{"type":"Feature","properties":{"valleyId":"eobi","layer":"shadow","date":"2026-08-01","timeLocal":"17:00"},"geometry":{"type":"Polygon","coordinates":[[[127.48967,37.59306],[127.48968,37.59288],[127.48979,37.59288],[127.48979,37.59303],[127.48974,37.59306],[127.48967,37.59306]]]}},{"type":"Feature","properties":{"valleyId":"eobi","layer":"shadow","date":"2026-08-01","timeLocal":"17:00"},"geometry":{"type":"Polygon","coordinates":[[[127.49151,37.59296],[127.49151,37.5929],[127.49158,37.5929],[127.49158,37.59296],[127.49151,37.59296]]]}},{"type":"Feature","properties":{"valleyId":"eobi","layer":"shadow","date":"2026-08-01","timeLocal":"17:00"},"geometry":{"type":"Polygon","coordinates":[[[127.48882,37.59289],[127.48882,37.59283],[127.48889,37.59283],[127.48888,37.59289],[127.48882,37.59289]]]}},{"type":"Feature","properties":{"valleyId":"eobi","layer":"shadow","date":"2026-08-01","timeLocal":"17:00"},"geometry":{"type":"Polygon","coordinates":[[[127.49008,37.59298],[127.49006,37.59288],[127.49002,37.59285],[127.49004,37.59278],[127.49011,37.59278],[127.49011,37.59283],[127.49018,37.59285],[127.49015,37.59298],[127.49008,37.59298]]]}},{"type":"Feature","properties":{"valleyId":"eobi","layer":"shadow","date":"2026-08-01","timeLocal":"17:00"},"geometry":{"type":"Polygon","coordinates":[[[127.48977,37.59279],[127.48977,37.59272],[127.48984,37.59272],[127.48984,37.59279],[127.48977,37.59279]]]}},{"type":"Feature","properties":{"valleyId":"eobi","layer":"shadow","date":"2026-08-01","timeLocal":"17:00"},"geometry":{"type":"Polygon","coordinates":[[[127.49203,37.59284],[127.49206,37.59273],[127.49213,37.59273],[127.49212,37.59282],[127.49203,37.59284]]]}},{"type":"Feature","properties":{"valleyId":"eobi","layer":"shadow","date":"2026-08-01","timeLocal":"17:00"},"geometry":{"type":"Polygon","coordinates":[[[127.49269,37.59279],[127.49269,37.59274],[127.49278,37.59274],[127.49278,37.59279],[127.49269,37.59279]]]}},{"type":"Feature","properties":{"valleyId":"eobi","layer":"shadow","date":"2026-08-01","timeLocal":"17:00"},"geometry":{"type":"Polygon","coordinates":[[[127.49299,37.59283],[127.49297,37.59269],[127.49303,37.59269],[127.49303,37.59272],[127.49308,37.59273],[127.49308,37.59282],[127.49299,37.59283]]]}},{"type":"Feature","properties":{"valleyId":"eobi","layer":"shadow","date":"2026-08-01","timeLocal":"17:00"},"geometry":{"type":"Polygon","coordinates":[[[127.4866,37.59264],[127.4866,37.59257],[127.48667,37.59257],[127.48669,37.59264],[127.4866,37.59264]]]}},{"type":"Feature","properties":{"valleyId":"eobi","layer":"shadow","date":"2026-08-01","timeLocal":"17:00"},"geometry":{"type":"Polygon","coordinates":[[[127.49156,37.59267],[127.49156,37.59258],[127.49163,37.59258],[127.49165,37.59265],[127.49156,37.59267]]]}},{"type":"Feature","properties":{"valleyId":"eobi","layer":"shadow","date":"2026-08-01","timeLocal":"17:00"},"geometry":{"type":"Polygon","coordinates":[[[127.49068,37.59264],[127.49068,37.59257],[127.49075,37.59257],[127.49077,37.59264],[127.49068,37.59264]]]}},{"type":"Feature","properties":{"valleyId":"eobi","layer":"shadow","date":"2026-08-01","timeLocal":"17:00"},"geometry":{"type":"Polygon","coordinates":[[[127.49111,37.59263],[127.49111,37.59256],[127.49118,37.59256],[127.49118,37.59263],[127.49111,37.59263]]]}},{"type":"Feature","properties":{"valleyId":"eobi","layer":"shadow","date":"2026-08-01","timeLocal":"17:00"},"geometry":{"type":"Polygon","coordinates":[[[127.49011,37.59276],[127.49011,37.59263],[127.49023,37.59254],[127.49023,37.59251],[127.4903,37.59251],[127.49027,37.59273],[127.4902,37.59276],[127.49011,37.59276]]]}},{"type":"Feature","properties":{"valleyId":"eobi","layer":"shadow","date":"2026-08-01","timeLocal":"17:00"},"geometry":{"type":"Polygon","coordinates":[[[127.49265,37.59259],[127.49265,37.59254],[127.49272,37.59254],[127.49272,37.59259],[127.49265,37.59259]]]}},{"type":"Feature","properties":{"valleyId":"eobi","layer":"shadow","date":"2026-08-01","timeLocal":"17:00"},"geometry":{"type":"Polygon","coordinates":[[[127.49195,37.59269],[127.49193,37.59262],[127.49197,37.59251],[127.49206,37.59251],[127.49208,37.59266],[127.49206,37.59269],[127.49195,37.59269]]]}},{"type":"Feature","properties":{"valleyId":"eobi","layer":"shadow","date":"2026-08-01","timeLocal":"17:00"},"geometry":{"type":"Polygon","coordinates":[[[127.48823,37.59256],[127.48826,37.59241],[127.48835,37.59241],[127.4883,37.59256],[127.48823,37.59256]]]}},{"type":"Feature","properties":{"valleyId":"eobi","layer":"shadow","date":"2026-08-01","timeLocal":"17:00"},"geometry":{"type":"Polygon","coordinates":[[[127.48742,37.59247],[127.48742,37.5924],[127.48751,37.5924],[127.48751,37.59247],[127.48742,37.59247]]]}},{"type":"Feature","properties":{"valleyId":"eobi","layer":"shadow","date":"2026-08-01","timeLocal":"17:00"},"geometry":{"type":"Polygon","coordinates":[[[127.48661,37.59241],[127.48661,37.59235],[127.48668,37.59235],[127.48667,37.59241],[127.48661,37.59241]]]}},{"type":"Feature","properties":{"valleyId":"eobi","layer":"shadow","date":"2026-08-01","timeLocal":"17:00"},"geometry":{"type":"Polygon","coordinates":[[[127.49034,37.59246],[127.49034,37.59238],[127.49044,37.59237],[127.49043,37.59244],[127.49034,37.59246]]]}},{"type":"Feature","properties":{"valleyId":"eobi","layer":"shadow","date":"2026-08-01","timeLocal":"17:00"},"geometry":{"type":"Polygon","coordinates":[[[127.48806,37.59237],[127.48799,37.59232],[127.48799,37.59226],[127.4881,37.59228],[127.48812,37.59237],[127.48806,37.59237]]]}},{"type":"Feature","properties":{"valleyId":"eobi","layer":"shadow","date":"2026-08-01","timeLocal":"17:00"},"geometry":{"type":"Polygon","coordinates":[[[127.49188,37.5924],[127.49189,37.5923],[127.49195,37.5923],[127.49198,37.59239],[127.49188,37.5924]]]}},{"type":"Feature","properties":{"valleyId":"eobi","layer":"shadow","date":"2026-08-01","timeLocal":"17:00"},"geometry":{"type":"Polygon","coordinates":[[[127.48654,37.59234],[127.48659,37.59219],[127.48672,37.59221],[127.48672,37.59227],[127.48663,37.59228],[127.48663,37.59234],[127.48654,37.59234]]]}},{"type":"Feature","properties":{"valleyId":"eobi","layer":"shadow","date":"2026-08-01","timeLocal":"17:00"},"geometry":{"type":"Polygon","coordinates":[[[127.4872,37.59225],[127.4872,37.5922],[127.48731,37.5922],[127.48731,37.59225],[127.4872,37.59225]]]}},{"type":"Feature","properties":{"valleyId":"eobi","layer":"shadow","date":"2026-08-01","timeLocal":"17:00"},"geometry":{"type":"Polygon","coordinates":[[[127.49334,37.59233],[127.49331,37.59226],[127.49341,37.59224],[127.4934,37.59233],[127.49334,37.59233]]]}},{"type":"Feature","properties":{"valleyId":"eobi","layer":"shadow","date":"2026-08-01","timeLocal":"17:00"},"geometry":{"type":"Polygon","coordinates":[[[127.48894,37.59222],[127.48894,37.59215],[127.48906,37.59215],[127.48906,37.59221],[127.48894,37.59222]]]}},{"type":"Feature","properties":{"valleyId":"eobi","layer":"shadow","date":"2026-08-01","timeLocal":"17:00"},"geometry":{"type":"Polygon","coordinates":[[[127.49248,37.59225],[127.49248,37.59218],[127.49259,37.5922],[127.49259,37.59225],[127.49248,37.59225]]]}},{"type":"Feature","properties":{"valleyId":"eobi","layer":"shadow","date":"2026-08-01","timeLocal":"17:00"},"geometry":{"type":"Polygon","coordinates":[[[127.48777,37.59219],[127.48777,37.59208],[127.48784,37.59208],[127.48783,37.59219],[127.48777,37.59219]]]}},{"type":"Feature","properties":{"valleyId":"eobi","layer":"shadow","date":"2026-08-01","timeLocal":"17:00"},"geometry":{"type":"Polygon","coordinates":[[[127.493,37.59208],[127.493,37.59202],[127.49307,37.59202],[127.49307,37.59208],[127.493,37.59208]]]}},{"type":"Feature","properties":{"valleyId":"eobi","layer":"shadow","date":"2026-08-01","timeLocal":"17:00"},"geometry":{"type":"Polygon","coordinates":[[[127.48849,37.59202],[127.4885,37.59195],[127.48863,37.59195],[127.48863,37.592],[127.48849,37.59202]]]}},{"type":"Feature","properties":{"valleyId":"eobi","layer":"shadow","date":"2026-08-01","timeLocal":"17:00"},"geometry":{"type":"Polygon","coordinates":[[[127.48791,37.59199],[127.48791,37.5919],[127.48798,37.5919],[127.48797,37.59199],[127.48791,37.59199]]]}},{"type":"Feature","properties":{"valleyId":"eobi","layer":"shadow","date":"2026-08-01","timeLocal":"17:00"},"geometry":{"type":"Polygon","coordinates":[[[127.48888,37.59186],[127.48888,37.59181],[127.48895,37.59181],[127.48895,37.59186],[127.48888,37.59186]]]}},{"type":"Feature","properties":{"valleyId":"eobi","layer":"shadow","date":"2026-08-01","timeLocal":"17:00"},"geometry":{"type":"Polygon","coordinates":[[[127.4898,37.59225],[127.4898,37.59218],[127.48976,37.59216],[127.48979,37.59196],[127.48988,37.59189],[127.48988,37.59184],[127.48995,37.5918],[127.48995,37.59171],[127.49009,37.5917],[127.49008,37.59189],[127.48999,37.59195],[127.48999,37.59205],[127.4899,37.59209],[127.4899,37.59214],[127.48994,37.59214],[127.48994,37.59223],[127.4898,37.59225]]]}},{"type":"Feature","properties":{"valleyId":"eobi","layer":"shadow","date":"2026-08-01","timeLocal":"17:00"},"geometry":{"type":"Polygon","coordinates":[[[127.49024,37.59184],[127.49024,37.59175],[127.49029,37.59172],[127.49031,37.59161],[127.49038,37.59157],[127.49047,37.59157],[127.49049,37.59166],[127.49045,37.59166],[127.49042,37.59181],[127.49038,37.59184],[127.49024,37.59184]]]}},{"type":"Feature","properties":{"valleyId":"eobi","layer":"shadow","date":"2026-08-01","timeLocal":"17:00"},"geometry":{"type":"Polygon","coordinates":[[[127.49274,37.59166],[127.49274,37.5916],[127.49281,37.5916],[127.49281,37.59166],[127.49274,37.59166]]]}},{"type":"Feature","properties":{"valleyId":"eobi","layer":"shadow","date":"2026-08-01","timeLocal":"17:00"},"geometry":{"type":"Polygon","coordinates":[[[127.49057,37.59221],[127.49058,37.59199],[127.49068,37.59167],[127.49074,37.59161],[127.49079,37.59151],[127.49086,37.59147],[127.49089,37.5914],[127.49095,37.5914],[127.49086,37.59171],[127.49072,37.59194],[127.49066,37.59221],[127.49057,37.59221]]]}},{"type":"Feature","properties":{"valleyId":"eobi","layer":"shadow","date":"2026-08-01","timeLocal":"17:00"},"geometry":{"type":"Polygon","coordinates":[[[127.48726,37.59144],[127.48722,37.59123],[127.48731,37.59117],[127.48738,37.59117],[127.48733,37.59144],[127.48726,37.59144]]]}},{"type":"Feature","properties":{"valleyId":"eobi","layer":"shadow","date":"2026-08-01","timeLocal":"17:00"},"geometry":{"type":"Polygon","coordinates":[[[127.49087,37.59113],[127.49087,37.59107],[127.49094,37.59108],[127.49094,37.59113],[127.49087,37.59113]]]}},{"type":"Feature","properties":{"valleyId":"eobi","layer":"shadow","date":"2026-08-01","timeLocal":"17:00"},"geometry":{"type":"Polygon","coordinates":[[[127.48781,37.59107],[127.48784,37.59096],[127.48797,37.591],[127.48797,37.59106],[127.48781,37.59107]]]}},{"type":"Feature","properties":{"valleyId":"eobi","layer":"shadow","date":"2026-08-01","timeLocal":"17:00"},"geometry":{"type":"Polygon","coordinates":[[[127.49002,37.59142],[127.48998,37.59137],[127.48984,37.59135],[127.48985,37.59122],[127.4899,37.59101],[127.49001,37.59087],[127.49001,37.59078],[127.49008,37.59074],[127.49017,37.59074],[127.49017,37.59085],[127.49008,37.59097],[127.49005,37.59119],[127.49005,37.59133],[127.49007,37.59137],[127.49012,37.59137],[127.49011,37.59143],[127.49002,37.59142]]]}},{"type":"Feature","properties":{"valleyId":"eobi","layer":"shadow","date":"2026-08-01","timeLocal":"17:00"},"geometry":{"type":"Polygon","coordinates":[[[127.49036,37.59071],[127.49036,37.59062],[127.49029,37.59056],[127.49029,37.59051],[127.4902,37.59049],[127.49016,37.5904],[127.49011,37.59038],[127.49012,37.59027],[127.49023,37.59018],[127.49024,37.58991],[127.49033,37.58991],[127.49033,37.58997],[127.49044,37.59001],[127.49039,37.59019],[127.49032,37.59018],[127.49032,37.5904],[127.49036,37.5904],[127.49038,37.59047],[127.49045,37.59053],[127.49045,37.59071],[127.49036,37.59071]]]}},{"type":"Feature","properties":{"valleyId":"eobi","layer":"shadow","date":"2026-08-01","timeLocal":"17:00"},"geometry":{"type":"Polygon","coordinates":[[[127.48906,37.58999],[127.48901,37.58995],[127.48901,37.5899],[127.48917,37.5899],[127.48917,37.58995],[127.48912,37.58999],[127.48906,37.58999]]]}},{"type":"Feature","properties":{"valleyId":"eobi","layer":"shadow","date":"2026-08-01","timeLocal":"17:00"},"geometry":{"type":"Polygon","coordinates":[[[127.48998,37.59002],[127.48994,37.58998],[127.48994,37.58989],[127.49003,37.58989],[127.49008,37.58993],[127.49008,37.59],[127.48998,37.59002]]]}},{"type":"Feature","properties":{"valleyId":"eobi","layer":"shadow","date":"2026-08-01","timeLocal":"17:00"},"geometry":{"type":"Polygon","coordinates":[[[127.49076,37.58983],[127.49074,37.58972],[127.49081,37.58972],[127.49083,37.58983],[127.49076,37.58983]]]}},{"type":"Feature","properties":{"valleyId":"eobi","layer":"shadow","date":"2026-08-01","timeLocal":"17:00"},"geometry":{"type":"Polygon","coordinates":[[[127.48872,37.58975],[127.4887,37.58964],[127.48879,37.58962],[127.48879,37.58975],[127.48872,37.58975]]]}},{"type":"Feature","properties":{"valleyId":"eobi","layer":"shadow","date":"2026-08-01","timeLocal":"17:00"},"geometry":{"type":"Polygon","coordinates":[[[127.49035,37.58973],[127.49035,37.58968],[127.49045,37.58959],[127.49045,37.58948],[127.49054,37.58948],[127.49054,37.58932],[127.49063,37.58932],[127.49065,37.58943],[127.49072,37.58947],[127.49072,37.58972],[127.49065,37.58972],[127.49061,37.58956],[127.49054,37.58956],[127.49047,37.58972],[127.49035,37.58973]]]}},{"type":"Feature","properties":{"valleyId":"eobi","layer":"shadow","date":"2026-08-01","timeLocal":"17:00"},"geometry":{"type":"Polygon","coordinates":[[[127.49031,37.58936],[127.49025,37.58934],[127.49025,37.58928],[127.49038,37.58927],[127.49038,37.58936],[127.49031,37.58936]]]}},{"type":"Feature","properties":{"valleyId":"eobi","layer":"shadow","date":"2026-08-01","timeLocal":"17:00"},"geometry":{"type":"Polygon","coordinates":[[[127.4905,37.5892],[127.4905,37.58914],[127.49057,37.58909],[127.49059,37.589],[127.49071,37.58891],[127.4908,37.58891],[127.4908,37.58896],[127.49073,37.589],[127.4907,37.58911],[127.49066,37.58911],[127.49066,37.58914],[127.49057,37.5892],[127.4905,37.5892]]]}},{"type":"Feature","properties":{"valleyId":"eobi","layer":"shadow","date":"2026-08-01","timeLocal":"17:00"},"geometry":{"type":"Polygon","coordinates":[[[127.49208,37.58853],[127.49205,37.58846],[127.49208,37.58842],[127.49215,37.58842],[127.49217,37.58853],[127.49208,37.58853]]]}},{"type":"Feature","properties":{"valleyId":"eobi","layer":"shadow","date":"2026-08-01","timeLocal":"17:00"},"geometry":{"type":"Polygon","coordinates":[[[127.49105,37.58763],[127.49105,37.58758],[127.49112,37.58758],[127.49112,37.58764],[127.49105,37.58763]]]}},{"type":"Feature","properties":{"valleyId":"eobi","layer":"shadow","date":"2026-08-01","timeLocal":"17:00"},"geometry":{"type":"Polygon","coordinates":[[[127.49381,37.58662],[127.4938,37.58635],[127.49389,37.58634],[127.49388,37.58662],[127.49381,37.58662]]]}},{"type":"Feature","properties":{"valleyId":"eobi","layer":"shadow","date":"2026-08-01","timeLocal":"17:00"},"geometry":{"type":"Polygon","coordinates":[[[127.49366,37.58617],[127.49364,37.5861],[127.49376,37.58608],[127.49378,37.58617],[127.49366,37.58617]]]}}]}
