{"type":"FeatureCollection","metadata":{"description":"개방지(CHM ≤ 2 m)에 드리운 나무·지형 그림자, 2026-08-01 16:00 KST. canopy 위에 겹쳐 그린다","source":"위성 기반 추정 — Copernicus GLO-30 지형(30 m) + Meta/WRI 수관 높이(1 m CHM, 2018~2019 촬영). 그늘 = 수관(CHM > 2 m) ∪ 나무·지형 그림자 ∪ 원거리 지형 마스크. 현장과 다를 수 있음.","datasetVersion":"2026-09-24.0","collectedAt":"2026-09-24","coordinateOrder":"[longitude, latitude]","crs":"EPSG:4326","representativeDate":"2026-08-01","hours":["10:00","11:00","12:00","13:00","14:00","15:00","16:00","17:00","18:00"],"chmAcquisition":["2018-06","2019-03"],"assets":{"glo30":{"dataset":"Copernicus DEM GLO-30 (COG, s3://copernicus-dem-30m)","tiles":["Copernicus_DSM_COG_10_N37_00_E126_00_DEM","Copernicus_DSM_COG_10_N37_00_E127_00_DEM"]},"chm":{"dataset":"Meta/WRI Global Canopy Height Map v1 (alsgedi_global_v6_float, 1 m, CC-BY 4.0)","quadkeys":["132110320"],"acquisition":["2018-06","2019-03"]}},"method":{"gridResM":2,"canopyThresholdM":2,"bufferHalfM":25,"corridorHalfM":200,"simplifyTolM":2,"minAreaM2":25,"coordDecimals":5},"generator":"scripts/shade 0.1.0","builtAt":"2026-09-23T15:32:06Z","layer":"shadow","timeLocal":"16:00"},"features":[{"type":"Feature","properties":{"valleyId":"gwanaksan","layer":"shadow","date":"2026-08-01","timeLocal":"16:00"},"geometry":{"type":"Polygon","coordinates":[[[126.95212,37.48676],[126.95213,37.48669],[126.95219,37.48669],[126.95219,37.48676],[126.95212,37.48676]]]}},{"type":"Feature","properties":{"valleyId":"gwanaksan","layer":"shadow","date":"2026-08-01","timeLocal":"16:00"},"geometry":{"type":"Polygon","coordinates":[[[126.93788,37.48078],[126.93788,37.48073],[126.93795,37.48069],[126.93795,37.48064],[126.938,37.4806],[126.938,37.48046],[126.93807,37.4804],[126.93808,37.48024],[126.93817,37.48023],[126.93814,37.48033],[126.93819,37.48035],[126.93821,37.48044],[126.93814,37.48046],[126.93814,37.48053],[126.93818,37.48055],[126.93818,37.48062],[126.93813,37.48064],[126.93813,37.48069],[126.93808,37.48073],[126.93788,37.48078]]]}},{"type":"Feature","properties":{"valleyId":"gwanaksan","layer":"shadow","date":"2026-08-01","timeLocal":"16:00"},"geometry":{"type":"Polygon","coordinates":[[[126.93609,37.48014],[126.93609,37.48003],[126.93616,37.48003],[126.93616,37.48014],[126.93609,37.48014]]]}},{"type":"Feature","properties":{"valleyId":"gwanaksan","layer":"shadow","date":"2026-08-01","timeLocal":"16:00"},"geometry":{"type":"Polygon","coordinates":[[[126.93814,37.48019],[126.9382,37.47996],[126.93826,37.47996],[126.93824,37.48017],[126.93814,37.48019]]]}},{"type":"Feature","properties":{"valleyId":"gwanaksan","layer":"shadow","date":"2026-08-01","timeLocal":"16:00"},"geometry":{"type":"Polygon","coordinates":[[[126.93793,37.4799],[126.93788,37.47977],[126.93789,37.47961],[126.93794,37.4795],[126.93801,37.4795],[126.93799,37.4799],[126.93793,37.4799]]]}},{"type":"Feature","properties":{"valleyId":"gwanaksan","layer":"shadow","date":"2026-08-01","timeLocal":"16:00"},"geometry":{"type":"Polygon","coordinates":[[[126.93748,37.4796],[126.93748,37.47955],[126.93753,37.47955],[126.93751,37.47939],[126.9376,37.47937],[126.9376,37.47955],[126.93755,37.47955],[126.93755,37.4796],[126.93748,37.4796]]]}},{"type":"Feature","properties":{"valleyId":"gwanaksan","layer":"shadow","date":"2026-08-01","timeLocal":"16:00"},"geometry":{"type":"Polygon","coordinates":[[[126.93801,37.47947],[126.93804,37.47921],[126.9381,37.47922],[126.93812,37.47941],[126.93807,37.47947],[126.93801,37.47947]]]}},{"type":"Feature","properties":{"valleyId":"gwanaksan","layer":"shadow","date":"2026-08-01","timeLocal":"16:00"},"geometry":{"type":"Polygon","coordinates":[[[126.93904,37.47876],[126.93905,37.47869],[126.93911,37.47869],[126.93911,37.47876],[126.93904,37.47876]]]}},{"type":"Feature","properties":{"valleyId":"gwanaksan","layer":"shadow","date":"2026-08-01","timeLocal":"16:00"},"geometry":{"type":"Polygon","coordinates":[[[126.94569,37.47881],[126.94569,37.47873],[126.94576,37.47874],[126.94578,37.47881],[126.94569,37.47881]]]}},{"type":"Feature","properties":{"valleyId":"gwanaksan","layer":"shadow","date":"2026-08-01","timeLocal":"16:00"},"geometry":{"type":"Polygon","coordinates":[[[126.94472,37.4787],[126.94472,37.47865],[126.94479,37.47865],[126.94479,37.4787],[126.94472,37.4787]]]}},{"type":"Feature","properties":{"valleyId":"gwanaksan","layer":"shadow","date":"2026-08-01","timeLocal":"16:00"},"geometry":{"type":"Polygon","coordinates":[[[126.93916,37.47869],[126.93916,37.47853],[126.93923,37.47853],[126.9393,37.47857],[126.93932,37.47868],[126.93916,37.47869]]]}},{"type":"Feature","properties":{"valleyId":"gwanaksan","layer":"shadow","date":"2026-08-01","timeLocal":"16:00"},"geometry":{"type":"Polygon","coordinates":[[[126.95204,37.47839],[126.95204,37.47825],[126.95211,37.47825],[126.95215,37.47838],[126.95204,37.47839]]]}},{"type":"Feature","properties":{"valleyId":"gwanaksan","layer":"shadow","date":"2026-08-01","timeLocal":"16:00"},"geometry":{"type":"Polygon","coordinates":[[[126.95943,37.47667],[126.95944,37.47656],[126.95953,37.47654],[126.95952,37.47667],[126.95943,37.47667]]]}},{"type":"Feature","properties":{"valleyId":"gwanaksan","layer":"shadow","date":"2026-08-01","timeLocal":"16:00"},"geometry":{"type":"Polygon","coordinates":[[[126.9393,37.47606],[126.9393,37.47601],[126.93937,37.47601],[126.93937,37.47607],[126.9393,37.47606]]]}},{"type":"Feature","properties":{"valleyId":"gwanaksan","layer":"shadow","date":"2026-08-01","timeLocal":"16:00"},"geometry":{"type":"Polygon","coordinates":[[[126.94056,37.4754],[126.94056,37.47535],[126.94065,37.47535],[126.94065,37.4754],[126.94056,37.4754]]]}},{"type":"Feature","properties":{"valleyId":"gwanaksan","layer":"shadow","date":"2026-08-01","timeLocal":"16:00"},"geometry":{"type":"Polygon","coordinates":[[[126.952,37.47542],[126.95201,37.47535],[126.95207,37.47535],[126.95207,37.47542],[126.952,37.47542]]]}},{"type":"Feature","properties":{"valleyId":"gwanaksan","layer":"shadow","date":"2026-08-01","timeLocal":"16:00"},"geometry":{"type":"Polygon","coordinates":[[[126.95194,37.47531],[126.95194,37.4752],[126.95201,37.4752],[126.95201,37.47531],[126.95194,37.47531]]]}},{"type":"Feature","properties":{"valleyId":"gwanaksan","layer":"shadow","date":"2026-08-01","timeLocal":"16:00"},"geometry":{"type":"Polygon","coordinates":[[[126.93942,37.47486],[126.93942,37.4748],[126.93949,37.47481],[126.93949,37.47486],[126.93942,37.47486]]]}},{"type":"Feature","properties":{"valleyId":"gwanaksan","layer":"shadow","date":"2026-08-01","timeLocal":"16:00"},"geometry":{"type":"Polygon","coordinates":[[[126.95195,37.47499],[126.95195,37.47493],[126.95202,37.47493],[126.95202,37.47499],[126.95195,37.47499]]]}},{"type":"Feature","properties":{"valleyId":"gwanaksan","layer":"shadow","date":"2026-08-01","timeLocal":"16:00"},"geometry":{"type":"Polygon","coordinates":[[[126.93071,37.47411],[126.93071,37.47404],[126.93078,37.47404],[126.93078,37.47411],[126.93071,37.47411]]]}},{"type":"Feature","properties":{"valleyId":"gwanaksan","layer":"shadow","date":"2026-08-01","timeLocal":"16:00"},"geometry":{"type":"Polygon","coordinates":[[[126.93214,37.47403],[126.93214,37.47394],[126.93221,37.47394],[126.93223,37.47403],[126.93214,37.47403]]]}},{"type":"Feature","properties":{"valleyId":"gwanaksan","layer":"shadow","date":"2026-08-01","timeLocal":"16:00"},"geometry":{"type":"Polygon","coordinates":[[[126.93093,37.47348],[126.93094,37.47343],[126.931,37.47343],[126.931,37.47349],[126.93093,37.47348]]]}},{"type":"Feature","properties":{"valleyId":"gwanaksan","layer":"shadow","date":"2026-08-01","timeLocal":"16:00"},"geometry":{"type":"Polygon","coordinates":[[[126.95162,37.47385],[126.95162,37.47379],[126.95169,37.47379],[126.95168,37.47385],[126.95162,37.47385]]]}},{"type":"Feature","properties":{"valleyId":"gwanaksan","layer":"shadow","date":"2026-08-01","timeLocal":"16:00"},"geometry":{"type":"Polygon","coordinates":[[[126.95288,37.47383],[126.95286,37.47372],[126.95293,37.47372],[126.95295,37.47383],[126.95288,37.47383]]]}},{"type":"Feature","properties":{"valleyId":"gwanaksan","layer":"shadow","date":"2026-08-01","timeLocal":"16:00"},"geometry":{"type":"Polygon","coordinates":[[[126.95292,37.47342],[126.95292,37.47336],[126.95301,37.47336],[126.95301,37.47342],[126.95292,37.47342]]]}},{"type":"Feature","properties":{"valleyId":"gwanaksan","layer":"shadow","date":"2026-08-01","timeLocal":"16:00"},"geometry":{"type":"Polygon","coordinates":[[[126.9529,37.47324],[126.9529,37.47318],[126.95297,37.47318],[126.95297,37.47324],[126.9529,37.47324]]]}},{"type":"Feature","properties":{"valleyId":"gwanaksan","layer":"shadow","date":"2026-08-01","timeLocal":"16:00"},"geometry":{"type":"Polygon","coordinates":[[[126.93213,37.47278],[126.93213,37.47271],[126.93222,37.4727],[126.93222,37.47279],[126.93213,37.47278]]]}},{"type":"Feature","properties":{"valleyId":"gwanaksan","layer":"shadow","date":"2026-08-01","timeLocal":"16:00"},"geometry":{"type":"Polygon","coordinates":[[[126.93187,37.4724],[126.93187,37.47226],[126.93194,37.47226],[126.93194,37.4724],[126.93187,37.4724]]]}},{"type":"Feature","properties":{"valleyId":"gwanaksan","layer":"shadow","date":"2026-08-01","timeLocal":"16:00"},"geometry":{"type":"Polygon","coordinates":[[[126.9323,37.47235],[126.9323,37.47225],[126.93237,37.47225],[126.93237,37.47236],[126.9323,37.47235]]]}},{"type":"Feature","properties":{"valleyId":"gwanaksan","layer":"shadow","date":"2026-08-01","timeLocal":"16:00"},"geometry":{"type":"Polygon","coordinates":[[[126.93183,37.47222],[126.93183,37.47209],[126.9319,37.4721],[126.9319,37.47222],[126.93183,37.47222]]]}},{"type":"Feature","properties":{"valleyId":"gwanaksan","layer":"shadow","date":"2026-08-01","timeLocal":"16:00"},"geometry":{"type":"Polygon","coordinates":[[[126.93213,37.47188],[126.93213,37.47181],[126.9322,37.47181],[126.9322,37.47188],[126.93213,37.47188]]]}},{"type":"Feature","properties":{"valleyId":"gwanaksan","layer":"shadow","date":"2026-08-01","timeLocal":"16:00"},"geometry":{"type":"Polygon","coordinates":[[[126.95188,37.47089],[126.95188,37.47077],[126.95195,37.47077],[126.95195,37.47089],[126.95188,37.47089]]]}},{"type":"Feature","properties":{"valleyId":"gwanaksan","layer":"shadow","date":"2026-08-01","timeLocal":"16:00"},"geometry":{"type":"Polygon","coordinates":[[[126.94221,37.47064],[126.94221,37.47055],[126.9423,37.47055],[126.9423,37.47064],[126.94221,37.47064]]]}},{"type":"Feature","properties":{"valleyId":"gwanaksan","layer":"shadow","date":"2026-08-01","timeLocal":"16:00"},"geometry":{"type":"Polygon","coordinates":[[[126.94563,37.46956],[126.94563,37.46949],[126.9457,37.46949],[126.9457,37.46956],[126.94563,37.46956]]]}},{"type":"Feature","properties":{"valleyId":"gwanaksan","layer":"shadow","date":"2026-08-01","timeLocal":"16:00"},"geometry":{"type":"Polygon","coordinates":[[[126.92887,37.46793],[126.92887,37.46788],[126.92894,37.46788],[126.92894,37.46793],[126.92887,37.46793]]]}},{"type":"Feature","properties":{"valleyId":"gwanaksan","layer":"shadow","date":"2026-08-01","timeLocal":"16:00"},"geometry":{"type":"Polygon","coordinates":[[[126.94067,37.468],[126.94068,37.46792],[126.94074,37.46792],[126.94076,37.468],[126.94067,37.468]]]}},{"type":"Feature","properties":{"valleyId":"gwanaksan","layer":"shadow","date":"2026-08-01","timeLocal":"16:00"},"geometry":{"type":"Polygon","coordinates":[[[126.94594,37.46807],[126.94594,37.46801],[126.94601,37.46802],[126.94601,37.46807],[126.94594,37.46807]]]}},{"type":"Feature","properties":{"valleyId":"gwanaksan","layer":"shadow","date":"2026-08-01","timeLocal":"16:00"},"geometry":{"type":"Polygon","coordinates":[[[126.9437,37.46799],[126.9437,37.46794],[126.94377,37.46794],[126.94377,37.468],[126.9437,37.46799]]]}},{"type":"Feature","properties":{"valleyId":"gwanaksan","layer":"shadow","date":"2026-08-01","timeLocal":"16:00"},"geometry":{"type":"Polygon","coordinates":[[[126.94553,37.46804],[126.94554,37.46797],[126.94558,37.46794],[126.94565,37.46794],[126.94565,37.46803],[126.94553,37.46804]]]}},{"type":"Feature","properties":{"valleyId":"gwanaksan","layer":"shadow","date":"2026-08-01","timeLocal":"16:00"},"geometry":{"type":"Polygon","coordinates":[[[126.94065,37.46789],[126.94066,37.4678],[126.94072,37.4678],[126.94072,37.46789],[126.94065,37.46789]]]}},{"type":"Feature","properties":{"valleyId":"gwanaksan","layer":"shadow","date":"2026-08-01","timeLocal":"16:00"},"geometry":{"type":"Polygon","coordinates":[[[126.94585,37.46796],[126.94583,37.46785],[126.9459,37.46785],[126.94592,37.46796],[126.94585,37.46796]]]}},{"type":"Feature","properties":{"valleyId":"gwanaksan","layer":"shadow","date":"2026-08-01","timeLocal":"16:00"},"geometry":{"type":"Polygon","coordinates":[[[126.95939,37.46816],[126.9594,37.46807],[126.95946,37.46807],[126.95946,37.46816],[126.95939,37.46816]]]}},{"type":"Feature","properties":{"valleyId":"gwanaksan","layer":"shadow","date":"2026-08-01","timeLocal":"16:00"},"geometry":{"type":"Polygon","coordinates":[[[126.94588,37.46778],[126.94588,37.46771],[126.94604,37.46771],[126.94604,37.46776],[126.94588,37.46778]]]}},{"type":"Feature","properties":{"valleyId":"gwanaksan","layer":"shadow","date":"2026-08-01","timeLocal":"16:00"},"geometry":{"type":"Polygon","coordinates":[[[126.9417,37.46758],[126.9417,37.46753],[126.94179,37.46753],[126.94179,37.46758],[126.9417,37.46758]]]}},{"type":"Feature","properties":{"valleyId":"gwanaksan","layer":"shadow","date":"2026-08-01","timeLocal":"16:00"},"geometry":{"type":"Polygon","coordinates":[[[126.94606,37.46767],[126.94607,37.46757],[126.94618,37.46757],[126.94618,37.46768],[126.94606,37.46767]]]}},{"type":"Feature","properties":{"valleyId":"gwanaksan","layer":"shadow","date":"2026-08-01","timeLocal":"16:00"},"geometry":{"type":"Polygon","coordinates":[[[126.94593,37.46756],[126.94593,37.46749],[126.946,37.46749],[126.946,37.46757],[126.94593,37.46756]]]}},{"type":"Feature","properties":{"valleyId":"gwanaksan","layer":"shadow","date":"2026-08-01","timeLocal":"16:00"},"geometry":{"type":"Polygon","coordinates":[[[126.94797,37.46755],[126.94797,37.46746],[126.94804,37.46746],[126.94803,37.46755],[126.94797,37.46755]]]}},{"type":"Feature","properties":{"valleyId":"gwanaksan","layer":"shadow","date":"2026-08-01","timeLocal":"16:00"},"geometry":{"type":"Polygon","coordinates":[[[126.94602,37.46753],[126.94602,37.46748],[126.94607,37.46748],[126.94607,37.46733],[126.94614,37.46733],[126.94614,37.46751],[126.94602,37.46753]]]}},{"type":"Feature","properties":{"valleyId":"gwanaksan","layer":"shadow","date":"2026-08-01","timeLocal":"16:00"},"geometry":{"type":"Polygon","coordinates":[[[126.94831,37.46733],[126.94829,37.46719],[126.94838,37.46719],[126.94845,37.46725],[126.94845,37.46734],[126.94831,37.46733]]]}},{"type":"Feature","properties":{"valleyId":"gwanaksan","layer":"shadow","date":"2026-08-01","timeLocal":"16:00"},"geometry":{"type":"Polygon","coordinates":[[[126.94626,37.46725],[126.94628,37.46712],[126.94637,37.4671],[126.94637,37.46721],[126.94632,37.46725],[126.94626,37.46725]]]}},{"type":"Feature","properties":{"valleyId":"gwanaksan","layer":"shadow","date":"2026-08-01","timeLocal":"16:00"},"geometry":{"type":"Polygon","coordinates":[[[126.94703,37.46719],[126.94705,37.46704],[126.94714,37.46703],[126.94716,37.46713],[126.94709,37.46719],[126.94703,37.46719]]]}},{"type":"Feature","properties":{"valleyId":"gwanaksan","layer":"shadow","date":"2026-08-01","timeLocal":"16:00"},"geometry":{"type":"Polygon","coordinates":[[[126.94651,37.46707],[126.94651,37.46702],[126.94658,37.46702],[126.94658,37.46707],[126.94651,37.46707]]]}},{"type":"Feature","properties":{"valleyId":"gwanaksan","layer":"shadow","date":"2026-08-01","timeLocal":"16:00"},"geometry":{"type":"Polygon","coordinates":[[[126.95937,37.4674],[126.9594,37.46722],[126.95946,37.46722],[126.95946,37.46738],[126.95937,37.4674]]]}},{"type":"Feature","properties":{"valleyId":"gwanaksan","layer":"shadow","date":"2026-08-01","timeLocal":"16:00"},"geometry":{"type":"Polygon","coordinates":[[[126.94678,37.46698],[126.94679,37.46693],[126.94688,37.46693],[126.94687,37.46699],[126.94678,37.46698]]]}},{"type":"Feature","properties":{"valleyId":"gwanaksan","layer":"shadow","date":"2026-08-01","timeLocal":"16:00"},"geometry":{"type":"Polygon","coordinates":[[[126.95748,37.46706],[126.95748,37.46701],[126.95755,37.46699],[126.95755,37.46692],[126.95762,37.46692],[126.95764,37.46701],[126.95757,37.46701],[126.95757,37.46706],[126.95748,37.46706]]]}},{"type":"Feature","properties":{"valleyId":"gwanaksan","layer":"shadow","date":"2026-08-01","timeLocal":"16:00"},"geometry":{"type":"Polygon","coordinates":[[[126.93165,37.4665],[126.93165,37.46643],[126.93174,37.46643],[126.93174,37.46649],[126.93165,37.4665]]]}},{"type":"Feature","properties":{"valleyId":"gwanaksan","layer":"shadow","date":"2026-08-01","timeLocal":"16:00"},"geometry":{"type":"Polygon","coordinates":[[[126.95371,37.46691],[126.95371,37.4668],[126.95378,37.4668],[126.9538,37.46691],[126.95371,37.46691]]]}},{"type":"Feature","properties":{"valleyId":"gwanaksan","layer":"shadow","date":"2026-08-01","timeLocal":"16:00"},"geometry":{"type":"Polygon","coordinates":[[[126.9589,37.467],[126.95888,37.46689],[126.95895,37.46689],[126.95897,37.467],[126.9589,37.467]]]}},{"type":"Feature","properties":{"valleyId":"gwanaksan","layer":"shadow","date":"2026-08-01","timeLocal":"16:00"},"geometry":{"type":"Polygon","coordinates":[[[126.94747,37.46665],[126.9475,37.46653],[126.94757,37.46653],[126.94754,37.46665],[126.94747,37.46665]]]}},{"type":"Feature","properties":{"valleyId":"gwanaksan","layer":"shadow","date":"2026-08-01","timeLocal":"16:00"},"geometry":{"type":"Polygon","coordinates":[[[126.95703,37.46678],[126.95704,37.46669],[126.95713,37.46668],[126.9571,37.46678],[126.95703,37.46678]]]}},{"type":"Feature","properties":{"valleyId":"gwanaksan","layer":"shadow","date":"2026-08-01","timeLocal":"16:00"},"geometry":{"type":"Polygon","coordinates":[[[126.93402,37.4664],[126.93407,37.46628],[126.93419,37.46626],[126.93418,37.46639],[126.93402,37.4664]]]}},{"type":"Feature","properties":{"valleyId":"gwanaksan","layer":"shadow","date":"2026-08-01","timeLocal":"16:00"},"geometry":{"type":"Polygon","coordinates":[[[126.95903,37.46662],[126.95903,37.46655],[126.9591,37.46655],[126.9591,37.46662],[126.95903,37.46662]]]}},{"type":"Feature","properties":{"valleyId":"gwanaksan","layer":"shadow","date":"2026-08-01","timeLocal":"16:00"},"geometry":{"type":"Polygon","coordinates":[[[126.94695,37.46682],[126.94693,37.46645],[126.94698,37.46627],[126.94708,37.46625],[126.94707,37.46632],[126.94714,37.46632],[126.94715,37.46618],[126.94721,37.46618],[126.94721,37.46613],[126.94728,37.46613],[126.94728,37.46618],[126.94724,37.46618],[126.94716,37.46645],[126.94702,37.46657],[126.94701,37.46683],[126.94695,37.46682]]]}},{"type":"Feature","properties":{"valleyId":"gwanaksan","layer":"shadow","date":"2026-08-01","timeLocal":"16:00"},"geometry":{"type":"Polygon","coordinates":[[[126.95169,37.46624],[126.95169,37.46615],[126.95176,37.46615],[126.95178,37.46622],[126.95169,37.46624]]]}},{"type":"Feature","properties":{"valleyId":"gwanaksan","layer":"shadow","date":"2026-08-01","timeLocal":"16:00"},"geometry":{"type":"Polygon","coordinates":[[[126.93377,37.46571],[126.93377,37.46564],[126.93386,37.46562],[126.93384,37.46571],[126.93377,37.46571]]]}},{"type":"Feature","properties":{"valleyId":"gwanaksan","layer":"shadow","date":"2026-08-01","timeLocal":"16:00"},"geometry":{"type":"Polygon","coordinates":[[[126.9373,37.4655],[126.93731,37.46543],[126.93737,37.46543],[126.93737,37.4655],[126.9373,37.4655]]]}},{"type":"Feature","properties":{"valleyId":"gwanaksan","layer":"shadow","date":"2026-08-01","timeLocal":"16:00"},"geometry":{"type":"Polygon","coordinates":[[[126.93416,37.46539],[126.93417,37.46534],[126.93423,37.46534],[126.93423,37.4654],[126.93416,37.46539]]]}},{"type":"Feature","properties":{"valleyId":"gwanaksan","layer":"shadow","date":"2026-08-01","timeLocal":"16:00"},"geometry":{"type":"Polygon","coordinates":[[[126.9571,37.46594],[126.95706,37.46581],[126.95704,37.46561],[126.95711,37.46561],[126.95718,37.46569],[126.95717,37.46594],[126.9571,37.46594]]]}},{"type":"Feature","properties":{"valleyId":"gwanaksan","layer":"shadow","date":"2026-08-01","timeLocal":"16:00"},"geometry":{"type":"Polygon","coordinates":[[[126.95505,37.46561],[126.95505,37.46556],[126.95512,37.46556],[126.95512,37.46561],[126.95505,37.46561]]]}},{"type":"Feature","properties":{"valleyId":"gwanaksan","layer":"shadow","date":"2026-08-01","timeLocal":"16:00"},"geometry":{"type":"Polygon","coordinates":[[[126.94803,37.46529],[126.94803,37.46524],[126.9481,37.46524],[126.9481,37.46529],[126.94803,37.46529]]]}},{"type":"Feature","properties":{"valleyId":"gwanaksan","layer":"shadow","date":"2026-08-01","timeLocal":"16:00"},"geometry":{"type":"Polygon","coordinates":[[[126.95508,37.46542],[126.95508,37.46536],[126.95515,37.46536],[126.95515,37.46542],[126.95508,37.46542]]]}},{"type":"Feature","properties":{"valleyId":"gwanaksan","layer":"shadow","date":"2026-08-01","timeLocal":"16:00"},"geometry":{"type":"Polygon","coordinates":[[[126.94805,37.4652],[126.94806,37.46513],[126.94812,37.46513],[126.94812,37.4652],[126.94805,37.4652]]]}},{"type":"Feature","properties":{"valleyId":"gwanaksan","layer":"shadow","date":"2026-08-01","timeLocal":"16:00"},"geometry":{"type":"Polygon","coordinates":[[[126.95677,37.46552],[126.95673,37.46544],[126.95674,37.46525],[126.95678,37.46523],[126.95676,37.46503],[126.95683,37.46503],[126.95683,37.46512],[126.95687,37.46512],[126.95689,37.46521],[126.95683,37.46528],[126.95684,37.46552],[126.95677,37.46552]]]}},{"type":"Feature","properties":{"valleyId":"gwanaksan","layer":"shadow","date":"2026-08-01","timeLocal":"16:00"},"geometry":{"type":"Polygon","coordinates":[[[126.94808,37.46497],[126.94806,37.46483],[126.94813,37.46483],[126.94815,37.46497],[126.94808,37.46497]]]}},{"type":"Feature","properties":{"valleyId":"gwanaksan","layer":"shadow","date":"2026-08-01","timeLocal":"16:00"},"geometry":{"type":"Polygon","coordinates":[[[126.93805,37.46463],[126.93805,37.46458],[126.93812,37.46458],[126.93812,37.46463],[126.93805,37.46463]]]}},{"type":"Feature","properties":{"valleyId":"gwanaksan","layer":"shadow","date":"2026-08-01","timeLocal":"16:00"},"geometry":{"type":"Polygon","coordinates":[[[126.92947,37.46436],[126.92947,37.4643],[126.92954,37.4643],[126.92953,37.46436],[126.92947,37.46436]]]}},{"type":"Feature","properties":{"valleyId":"gwanaksan","layer":"shadow","date":"2026-08-01","timeLocal":"16:00"},"geometry":{"type":"Polygon","coordinates":[[[126.9516,37.46453],[126.9516,37.46445],[126.95167,37.46446],[126.95167,37.46453],[126.9516,37.46453]]]}},{"type":"Feature","properties":{"valleyId":"gwanaksan","layer":"shadow","date":"2026-08-01","timeLocal":"16:00"},"geometry":{"type":"Polygon","coordinates":[[[126.95368,37.46451],[126.95368,37.46445],[126.95375,37.46446],[126.95375,37.46451],[126.95368,37.46451]]]}},{"type":"Feature","properties":{"valleyId":"gwanaksan","layer":"shadow","date":"2026-08-01","timeLocal":"16:00"},"geometry":{"type":"Polygon","coordinates":[[[126.93987,37.46421],[126.93987,37.46414],[126.93994,37.46414],[126.93994,37.46422],[126.93987,37.46421]]]}},{"type":"Feature","properties":{"valleyId":"gwanaksan","layer":"shadow","date":"2026-08-01","timeLocal":"16:00"},"geometry":{"type":"Polygon","coordinates":[[[126.94796,37.46443],[126.94801,37.46423],[126.94808,37.46423],[126.94808,37.46439],[126.94803,37.46443],[126.94796,37.46443]]]}},{"type":"Feature","properties":{"valleyId":"gwanaksan","layer":"shadow","date":"2026-08-01","timeLocal":"16:00"},"geometry":{"type":"Polygon","coordinates":[[[126.95775,37.46438],[126.95776,37.46433],[126.95782,37.46433],[126.95782,37.46438],[126.95775,37.46438]]]}},{"type":"Feature","properties":{"valleyId":"gwanaksan","layer":"shadow","date":"2026-08-01","timeLocal":"16:00"},"geometry":{"type":"Polygon","coordinates":[[[126.93992,37.46412],[126.93997,37.464],[126.94006,37.46398],[126.94006,37.46406],[126.94001,37.46407],[126.94001,37.46411],[126.93992,37.46412]]]}},{"type":"Feature","properties":{"valleyId":"gwanaksan","layer":"shadow","date":"2026-08-01","timeLocal":"16:00"},"geometry":{"type":"Polygon","coordinates":[[[126.94799,37.46421],[126.948,37.46401],[126.94806,37.46401],[126.94806,37.46421],[126.94799,37.46421]]]}},{"type":"Feature","properties":{"valleyId":"gwanaksan","layer":"shadow","date":"2026-08-01","timeLocal":"16:00"},"geometry":{"type":"Polygon","coordinates":[[[126.94777,37.46412],[126.94777,37.46396],[126.94784,37.46396],[126.94783,37.46412],[126.94777,37.46412]]]}},{"type":"Feature","properties":{"valleyId":"gwanaksan","layer":"shadow","date":"2026-08-01","timeLocal":"16:00"},"geometry":{"type":"Polygon","coordinates":[[[126.9578,37.46426],[126.95781,37.46409],[126.95788,37.46409],[126.95787,37.46426],[126.9578,37.46426]]]}},{"type":"Feature","properties":{"valleyId":"gwanaksan","layer":"shadow","date":"2026-08-01","timeLocal":"16:00"},"geometry":{"type":"Polygon","coordinates":[[[126.95891,37.4642],[126.95891,37.46417],[126.95885,37.46413],[126.95885,37.46407],[126.95892,37.46408],[126.95898,37.46413],[126.95898,37.4642],[126.95891,37.4642]]]}},{"type":"Feature","properties":{"valleyId":"gwanaksan","layer":"shadow","date":"2026-08-01","timeLocal":"16:00"},"geometry":{"type":"Polygon","coordinates":[[[126.95062,37.46397],[126.95062,37.46391],[126.95069,37.46392],[126.95069,37.46397],[126.95062,37.46397]]]}},{"type":"Feature","properties":{"valleyId":"gwanaksan","layer":"shadow","date":"2026-08-01","timeLocal":"16:00"},"geometry":{"type":"Polygon","coordinates":[[[126.95939,37.46423],[126.95941,37.46408],[126.95946,37.46407],[126.95946,37.46403],[126.95953,37.46403],[126.95952,37.46414],[126.95948,37.46414],[126.95948,37.46421],[126.95939,37.46423]]]}},{"type":"Feature","properties":{"valleyId":"gwanaksan","layer":"shadow","date":"2026-08-01","timeLocal":"16:00"},"geometry":{"type":"Polygon","coordinates":[[[126.95458,37.46402],[126.9546,37.46395],[126.95469,37.46395],[126.95469,37.46402],[126.95458,37.46402]]]}},{"type":"Feature","properties":{"valleyId":"gwanaksan","layer":"shadow","date":"2026-08-01","timeLocal":"16:00"},"geometry":{"type":"Polygon","coordinates":[[[126.94804,37.46387],[126.94805,37.4638],[126.94811,37.4638],[126.94811,37.46387],[126.94804,37.46387]]]}},{"type":"Feature","properties":{"valleyId":"gwanaksan","layer":"shadow","date":"2026-08-01","timeLocal":"16:00"},"geometry":{"type":"Polygon","coordinates":[[[126.95056,37.46379],[126.95056,37.46373],[126.95063,37.46373],[126.95062,37.46379],[126.95056,37.46379]]]}},{"type":"Feature","properties":{"valleyId":"gwanaksan","layer":"shadow","date":"2026-08-01","timeLocal":"16:00"},"geometry":{"type":"Polygon","coordinates":[[[126.9481,37.46367],[126.9481,37.46362],[126.94816,37.46362],[126.94816,37.46367],[126.9481,37.46367]]]}},{"type":"Feature","properties":{"valleyId":"gwanaksan","layer":"shadow","date":"2026-08-01","timeLocal":"16:00"},"geometry":{"type":"Polygon","coordinates":[[[126.94814,37.4636],[126.94814,37.46355],[126.94821,37.46355],[126.94821,37.4636],[126.94814,37.4636]]]}},{"type":"Feature","properties":{"valleyId":"gwanaksan","layer":"shadow","date":"2026-08-01","timeLocal":"16:00"},"geometry":{"type":"Polygon","coordinates":[[[126.94785,37.46369],[126.94785,37.46352],[126.94792,37.46352],[126.94791,37.46369],[126.94785,37.46369]]]}},{"type":"Feature","properties":{"valleyId":"gwanaksan","layer":"shadow","date":"2026-08-01","timeLocal":"16:00"},"geometry":{"type":"Polygon","coordinates":[[[126.9577,37.46375],[126.95771,37.46362],[126.95777,37.46362],[126.95777,37.46375],[126.9577,37.46375]]]}},{"type":"Feature","properties":{"valleyId":"gwanaksan","layer":"shadow","date":"2026-08-01","timeLocal":"16:00"},"geometry":{"type":"Polygon","coordinates":[[[126.94819,37.46353],[126.94819,37.46344],[126.94826,37.46344],[126.94828,37.46353],[126.94819,37.46353]]]}},{"type":"Feature","properties":{"valleyId":"gwanaksan","layer":"shadow","date":"2026-08-01","timeLocal":"16:00"},"geometry":{"type":"Polygon","coordinates":[[[126.95755,37.46353],[126.95755,37.46346],[126.95762,37.46346],[126.95762,37.46353],[126.95755,37.46353]]]}},{"type":"Feature","properties":{"valleyId":"gwanaksan","layer":"shadow","date":"2026-08-01","timeLocal":"16:00"},"geometry":{"type":"Polygon","coordinates":[[[126.95749,37.46342],[126.95749,37.46335],[126.95756,37.46335],[126.95755,37.46342],[126.95749,37.46342]]]}},{"type":"Feature","properties":{"valleyId":"gwanaksan","layer":"shadow","date":"2026-08-01","timeLocal":"16:00"},"geometry":{"type":"Polygon","coordinates":[[[126.94608,37.4631],[126.94608,37.46304],[126.94615,37.46304],[126.94614,37.4631],[126.94608,37.4631]]]}},{"type":"Feature","properties":{"valleyId":"gwanaksan","layer":"shadow","date":"2026-08-01","timeLocal":"16:00"},"geometry":{"type":"Polygon","coordinates":[[[126.95753,37.46331],[126.95756,37.46319],[126.95763,37.46319],[126.95765,37.46332],[126.95753,37.46331]]]}},{"type":"Feature","properties":{"valleyId":"gwanaksan","layer":"shadow","date":"2026-08-01","timeLocal":"16:00"},"geometry":{"type":"Polygon","coordinates":[[[126.92946,37.4623],[126.92946,37.46225],[126.92952,37.46225],[126.92952,37.4623],[126.92946,37.4623]]]}},{"type":"Feature","properties":{"valleyId":"gwanaksan","layer":"shadow","date":"2026-08-01","timeLocal":"16:00"},"geometry":{"type":"Polygon","coordinates":[[[126.9298,37.46225],[126.9298,37.46216],[126.92987,37.46216],[126.92986,37.46225],[126.9298,37.46225]]]}},{"type":"Feature","properties":{"valleyId":"gwanaksan","layer":"shadow","date":"2026-08-01","timeLocal":"16:00"},"geometry":{"type":"Polygon","coordinates":[[[126.92955,37.46225],[126.92957,37.46216],[126.92966,37.46214],[126.92968,37.46222],[126.92964,37.46221],[126.92964,37.46225],[126.92955,37.46225]]]}},{"type":"Feature","properties":{"valleyId":"gwanaksan","layer":"shadow","date":"2026-08-01","timeLocal":"16:00"},"geometry":{"type":"Polygon","coordinates":[[[126.94853,37.46251],[126.94854,37.46244],[126.9486,37.46244],[126.9486,37.46251],[126.94853,37.46251]]]}},{"type":"Feature","properties":{"valleyId":"gwanaksan","layer":"shadow","date":"2026-08-01","timeLocal":"16:00"},"geometry":{"type":"Polygon","coordinates":[[[126.95233,37.46263],[126.95233,37.46248],[126.95242,37.46249],[126.95242,37.46252],[126.95247,37.46252],[126.95247,37.46261],[126.95233,37.46263]]]}},{"type":"Feature","properties":{"valleyId":"gwanaksan","layer":"shadow","date":"2026-08-01","timeLocal":"16:00"},"geometry":{"type":"Polygon","coordinates":[[[126.93002,37.46217],[126.93003,37.46208],[126.93012,37.46208],[126.93014,37.46215],[126.93002,37.46217]]]}},{"type":"Feature","properties":{"valleyId":"gwanaksan","layer":"shadow","date":"2026-08-01","timeLocal":"16:00"},"geometry":{"type":"Polygon","coordinates":[[[126.94774,37.46244],[126.94775,37.46239],[126.94781,37.46239],[126.94781,37.46244],[126.94774,37.46244]]]}},{"type":"Feature","properties":{"valleyId":"gwanaksan","layer":"shadow","date":"2026-08-01","timeLocal":"16:00"},"geometry":{"type":"Polygon","coordinates":[[[126.93213,37.46213],[126.93213,37.46208],[126.9322,37.46208],[126.9322,37.46213],[126.93213,37.46213]]]}},{"type":"Feature","properties":{"valleyId":"gwanaksan","layer":"shadow","date":"2026-08-01","timeLocal":"16:00"},"geometry":{"type":"Polygon","coordinates":[[[126.92971,37.46202],[126.92971,37.46196],[126.9298,37.46195],[126.9298,37.462],[126.92971,37.46202]]]}},{"type":"Feature","properties":{"valleyId":"gwanaksan","layer":"shadow","date":"2026-08-01","timeLocal":"16:00"},"geometry":{"type":"Polygon","coordinates":[[[126.91801,37.46165],[126.91801,37.4616],[126.91808,37.4616],[126.91808,37.46165],[126.91801,37.46165]]]}},{"type":"Feature","properties":{"valleyId":"gwanaksan","layer":"shadow","date":"2026-08-01","timeLocal":"16:00"},"geometry":{"type":"Polygon","coordinates":[[[126.91923,37.46165],[126.91923,37.4616],[126.91932,37.46158],[126.91932,37.46164],[126.91923,37.46165]]]}},{"type":"Feature","properties":{"valleyId":"gwanaksan","layer":"shadow","date":"2026-08-01","timeLocal":"16:00"},"geometry":{"type":"Polygon","coordinates":[[[126.95677,37.4622],[126.95677,37.46215],[126.95684,37.46215],[126.95684,37.4622],[126.95677,37.4622]]]}},{"type":"Feature","properties":{"valleyId":"gwanaksan","layer":"shadow","date":"2026-08-01","timeLocal":"16:00"},"geometry":{"type":"Polygon","coordinates":[[[126.95124,37.4621],[126.95124,37.46203],[126.95131,37.46203],[126.9513,37.46211],[126.95124,37.4621]]]}},{"type":"Feature","properties":{"valleyId":"gwanaksan","layer":"shadow","date":"2026-08-01","timeLocal":"16:00"},"geometry":{"type":"Polygon","coordinates":[[[126.92977,37.46155],[126.92977,37.46144],[126.92984,37.46144],[126.92986,37.46152],[126.92984,37.46155],[126.92977,37.46155]]]}},{"type":"Feature","properties":{"valleyId":"gwanaksan","layer":"shadow","date":"2026-08-01","timeLocal":"16:00"},"geometry":{"type":"Polygon","coordinates":[[[126.93809,37.46173],[126.93805,37.46155],[126.93809,37.4615],[126.93816,37.4615],[126.93815,37.46173],[126.93809,37.46173]]]}},{"type":"Feature","properties":{"valleyId":"gwanaksan","layer":"shadow","date":"2026-08-01","timeLocal":"16:00"},"geometry":{"type":"Polygon","coordinates":[[[126.91793,37.46113],[126.91794,37.46104],[126.918,37.46104],[126.918,37.46113],[126.91793,37.46113]]]}},{"type":"Feature","properties":{"valleyId":"gwanaksan","layer":"shadow","date":"2026-08-01","timeLocal":"16:00"},"geometry":{"type":"Polygon","coordinates":[[[126.91789,37.461],[126.91789,37.46094],[126.91796,37.46095],[126.91796,37.461],[126.91789,37.461]]]}},{"type":"Feature","properties":{"valleyId":"gwanaksan","layer":"shadow","date":"2026-08-01","timeLocal":"16:00"},"geometry":{"type":"Polygon","coordinates":[[[126.94888,37.46149],[126.94888,37.46134],[126.94895,37.46134],[126.94895,37.46149],[126.94888,37.46149]]]}},{"type":"Feature","properties":{"valleyId":"gwanaksan","layer":"shadow","date":"2026-08-01","timeLocal":"16:00"},"geometry":{"type":"Polygon","coordinates":[[[126.94777,37.46149],[126.94778,37.46131],[126.94784,37.46131],[126.94786,37.46143],[126.94784,37.46149],[126.94777,37.46149]]]}},{"type":"Feature","properties":{"valleyId":"gwanaksan","layer":"shadow","date":"2026-08-01","timeLocal":"16:00"},"geometry":{"type":"Polygon","coordinates":[[[126.92816,37.461],[126.92816,37.46095],[126.92823,37.46095],[126.92823,37.461],[126.92816,37.461]]]}},{"type":"Feature","properties":{"valleyId":"gwanaksan","layer":"shadow","date":"2026-08-01","timeLocal":"16:00"},"geometry":{"type":"Polygon","coordinates":[[[126.93901,37.46117],[126.93899,37.4611],[126.93908,37.4611],[126.93907,37.46117],[126.93901,37.46117]]]}},{"type":"Feature","properties":{"valleyId":"gwanaksan","layer":"shadow","date":"2026-08-01","timeLocal":"16:00"},"geometry":{"type":"Polygon","coordinates":[[[126.93908,37.4611],[126.93908,37.46105],[126.93915,37.46105],[126.93914,37.4611],[126.93908,37.4611]]]}},{"type":"Feature","properties":{"valleyId":"gwanaksan","layer":"shadow","date":"2026-08-01","timeLocal":"16:00"},"geometry":{"type":"Polygon","coordinates":[[[126.94782,37.46116],[126.94783,37.46111],[126.94789,37.46111],[126.94789,37.46116],[126.94782,37.46116]]]}},{"type":"Feature","properties":{"valleyId":"gwanaksan","layer":"shadow","date":"2026-08-01","timeLocal":"16:00"},"geometry":{"type":"Polygon","coordinates":[[[126.95716,37.46132],[126.95716,37.46127],[126.95723,37.46127],[126.95723,37.46133],[126.95716,37.46132]]]}},{"type":"Feature","properties":{"valleyId":"gwanaksan","layer":"shadow","date":"2026-08-01","timeLocal":"16:00"},"geometry":{"type":"Polygon","coordinates":[[[126.94617,37.46117],[126.94618,37.4611],[126.94624,37.46108],[126.94625,37.46104],[126.94631,37.46105],[126.94629,37.46115],[126.94617,37.46117]]]}},{"type":"Feature","properties":{"valleyId":"gwanaksan","layer":"shadow","date":"2026-08-01","timeLocal":"16:00"},"geometry":{"type":"Polygon","coordinates":[[[126.94616,37.46101],[126.94616,37.4609],[126.94623,37.4609],[126.94622,37.46101],[126.94616,37.46101]]]}},{"type":"Feature","properties":{"valleyId":"gwanaksan","layer":"shadow","date":"2026-08-01","timeLocal":"16:00"},"geometry":{"type":"Polygon","coordinates":[[[126.91793,37.46031],[126.91794,37.46024],[126.918,37.46024],[126.918,37.46032],[126.91793,37.46031]]]}},{"type":"Feature","properties":{"valleyId":"gwanaksan","layer":"shadow","date":"2026-08-01","timeLocal":"16:00"},"geometry":{"type":"Polygon","coordinates":[[[126.9573,37.46124],[126.95733,37.46091],[126.9574,37.46091],[126.95739,37.46122],[126.9573,37.46124]]]}},{"type":"Feature","properties":{"valleyId":"gwanaksan","layer":"shadow","date":"2026-08-01","timeLocal":"16:00"},"geometry":{"type":"Polygon","coordinates":[[[126.92756,37.46036],[126.92757,37.4603],[126.92761,37.4603],[126.92766,37.46025],[126.92779,37.46027],[126.92779,37.46034],[126.92756,37.46036]]]}},{"type":"Feature","properties":{"valleyId":"gwanaksan","layer":"shadow","date":"2026-08-01","timeLocal":"16:00"},"geometry":{"type":"Polygon","coordinates":[[[126.95188,37.46075],[126.95189,37.46067],[126.95195,37.46068],[126.95195,37.46075],[126.95188,37.46075]]]}},{"type":"Feature","properties":{"valleyId":"gwanaksan","layer":"shadow","date":"2026-08-01","timeLocal":"16:00"},"geometry":{"type":"Polygon","coordinates":[[[126.91787,37.46001],[126.91788,37.45994],[126.91794,37.45994],[126.91794,37.46001],[126.91787,37.46001]]]}},{"type":"Feature","properties":{"valleyId":"gwanaksan","layer":"shadow","date":"2026-08-01","timeLocal":"16:00"},"geometry":{"type":"Polygon","coordinates":[[[126.95965,37.46041],[126.95965,37.46034],[126.95972,37.46034],[126.95972,37.46041],[126.95965,37.46041]]]}},{"type":"Feature","properties":{"valleyId":"gwanaksan","layer":"shadow","date":"2026-08-01","timeLocal":"16:00"},"geometry":{"type":"Polygon","coordinates":[[[126.93836,37.4599],[126.93836,37.45984],[126.93843,37.45985],[126.93843,37.4599],[126.93836,37.4599]]]}},{"type":"Feature","properties":{"valleyId":"gwanaksan","layer":"shadow","date":"2026-08-01","timeLocal":"16:00"},"geometry":{"type":"Polygon","coordinates":[[[126.92799,37.45957],[126.92799,37.45952],[126.92806,37.45952],[126.92806,37.45957],[126.92799,37.45957]]]}},{"type":"Feature","properties":{"valleyId":"gwanaksan","layer":"shadow","date":"2026-08-01","timeLocal":"16:00"},"geometry":{"type":"Polygon","coordinates":[[[126.94908,37.45981],[126.94906,37.45965],[126.94913,37.45965],[126.94917,37.4598],[126.94908,37.45981]]]}},{"type":"Feature","properties":{"valleyId":"gwanaksan","layer":"shadow","date":"2026-08-01","timeLocal":"16:00"},"geometry":{"type":"Polygon","coordinates":[[[126.92964,37.45957],[126.92965,37.45939],[126.9297,37.45928],[126.92977,37.45928],[126.92976,37.45937],[126.92972,37.45939],[126.92971,37.45957],[126.92964,37.45957]]]}},{"type":"Feature","properties":{"valleyId":"gwanaksan","layer":"shadow","date":"2026-08-01","timeLocal":"16:00"},"geometry":{"type":"Polygon","coordinates":[[[126.93862,37.45954],[126.93858,37.45951],[126.9386,37.45936],[126.93865,37.45929],[126.93874,37.45929],[126.93874,37.45935],[126.93869,37.45936],[126.93869,37.45954],[126.93862,37.45954]]]}},{"type":"Feature","properties":{"valleyId":"gwanaksan","layer":"shadow","date":"2026-08-01","timeLocal":"16:00"},"geometry":{"type":"Polygon","coordinates":[[[126.94904,37.45956],[126.94898,37.45952],[126.94898,37.45943],[126.94905,37.45944],[126.94905,37.45947],[126.94911,37.45951],[126.94911,37.45956],[126.94904,37.45956]]]}},{"type":"Feature","properties":{"valleyId":"gwanaksan","layer":"shadow","date":"2026-08-01","timeLocal":"16:00"},"geometry":{"type":"Polygon","coordinates":[[[126.9361,37.45916],[126.9361,37.45907],[126.93617,37.45907],[126.93619,37.45916],[126.9361,37.45916]]]}},{"type":"Feature","properties":{"valleyId":"gwanaksan","layer":"shadow","date":"2026-08-01","timeLocal":"16:00"},"geometry":{"type":"Polygon","coordinates":[[[126.94714,37.4591],[126.94714,37.45901],[126.94721,37.45901],[126.9472,37.4591],[126.94714,37.4591]]]}},{"type":"Feature","properties":{"valleyId":"gwanaksan","layer":"shadow","date":"2026-08-01","timeLocal":"16:00"},"geometry":{"type":"Polygon","coordinates":[[[126.95464,37.45923],[126.95471,37.45905],[126.95478,37.45905],[126.95478,37.45914],[126.95473,37.45916],[126.95471,37.45923],[126.95464,37.45923]]]}},{"type":"Feature","properties":{"valleyId":"gwanaksan","layer":"shadow","date":"2026-08-01","timeLocal":"16:00"},"geometry":{"type":"Polygon","coordinates":[[[126.94587,37.45893],[126.94585,37.45882],[126.94594,37.45882],[126.94594,37.45893],[126.94587,37.45893]]]}},{"type":"Feature","properties":{"valleyId":"gwanaksan","layer":"shadow","date":"2026-08-01","timeLocal":"16:00"},"geometry":{"type":"Polygon","coordinates":[[[126.95481,37.45869],[126.95481,37.45863],[126.95488,37.45863],[126.95488,37.45869],[126.95481,37.45869]]]}},{"type":"Feature","properties":{"valleyId":"gwanaksan","layer":"shadow","date":"2026-08-01","timeLocal":"16:00"},"geometry":{"type":"Polygon","coordinates":[[[126.95479,37.4586],[126.95479,37.45853],[126.95486,37.45853],[126.95486,37.4586],[126.95479,37.4586]]]}},{"type":"Feature","properties":{"valleyId":"gwanaksan","layer":"shadow","date":"2026-08-01","timeLocal":"16:00"},"geometry":{"type":"Polygon","coordinates":[[[126.95475,37.45838],[126.95475,37.45831],[126.95482,37.45831],[126.95482,37.45838],[126.95475,37.45838]]]}},{"type":"Feature","properties":{"valleyId":"gwanaksan","layer":"shadow","date":"2026-08-01","timeLocal":"16:00"},"geometry":{"type":"Polygon","coordinates":[[[126.9549,37.45804],[126.95492,37.45786],[126.95495,37.45783],[126.95504,37.45783],[126.95508,37.45788],[126.95508,37.45795],[126.95512,37.45797],[126.95512,37.45803],[126.9549,37.45804]]]}},{"type":"Feature","properties":{"valleyId":"gwanaksan","layer":"shadow","date":"2026-08-01","timeLocal":"16:00"},"geometry":{"type":"Polygon","coordinates":[[[126.95456,37.4578],[126.95457,37.45766],[126.95464,37.45766],[126.95466,37.45778],[126.95456,37.4578]]]}},{"type":"Feature","properties":{"valleyId":"gwanaksan","layer":"shadow","date":"2026-08-01","timeLocal":"16:00"},"geometry":{"type":"Polygon","coordinates":[[[126.95511,37.4577],[126.95511,37.45759],[126.95518,37.45759],[126.95518,37.4577],[126.95511,37.4577]]]}},{"type":"Feature","properties":{"valleyId":"gwanaksan","layer":"shadow","date":"2026-08-01","timeLocal":"16:00"},"geometry":{"type":"Polygon","coordinates":[[[126.94743,37.4573],[126.94743,37.45724],[126.9475,37.45725],[126.9475,37.4573],[126.94743,37.4573]]]}},{"type":"Feature","properties":{"valleyId":"gwanaksan","layer":"shadow","date":"2026-08-01","timeLocal":"16:00"},"geometry":{"type":"Polygon","coordinates":[[[126.95551,37.45726],[126.95553,37.45715],[126.9556,37.45715],[126.95557,37.45726],[126.95551,37.45726]]]}},{"type":"Feature","properties":{"valleyId":"gwanaksan","layer":"shadow","date":"2026-08-01","timeLocal":"16:00"},"geometry":{"type":"Polygon","coordinates":[[[126.94916,37.45697],[126.94916,37.4569],[126.94923,37.4569],[126.94923,37.45697],[126.94916,37.45697]]]}},{"type":"Feature","properties":{"valleyId":"gwanaksan","layer":"shadow","date":"2026-08-01","timeLocal":"16:00"},"geometry":{"type":"Polygon","coordinates":[[[126.94799,37.45691],[126.94801,37.45679],[126.94808,37.45679],[126.94808,37.45691],[126.94799,37.45691]]]}},{"type":"Feature","properties":{"valleyId":"gwanaksan","layer":"shadow","date":"2026-08-01","timeLocal":"16:00"},"geometry":{"type":"Polygon","coordinates":[[[126.94808,37.45673],[126.94808,37.45664],[126.94815,37.45664],[126.94815,37.45673],[126.94808,37.45673]]]}},{"type":"Feature","properties":{"valleyId":"gwanaksan","layer":"shadow","date":"2026-08-01","timeLocal":"16:00"},"geometry":{"type":"Polygon","coordinates":[[[126.95042,37.45654],[126.95042,37.45648],[126.95051,37.45649],[126.95051,37.45654],[126.95042,37.45654]]]}},{"type":"Feature","properties":{"valleyId":"gwanaksan","layer":"shadow","date":"2026-08-01","timeLocal":"16:00"},"geometry":{"type":"Polygon","coordinates":[[[126.94895,37.45648],[126.94897,37.45632],[126.94907,37.45632],[126.94904,37.45646],[126.94895,37.45648]]]}},{"type":"Feature","properties":{"valleyId":"gwanaksan","layer":"shadow","date":"2026-08-01","timeLocal":"16:00"},"geometry":{"type":"Polygon","coordinates":[[[126.94619,37.45565],[126.94619,37.45558],[126.94626,37.45558],[126.94626,37.45566],[126.94619,37.45565]]]}},{"type":"Feature","properties":{"valleyId":"gwanaksan","layer":"shadow","date":"2026-08-01","timeLocal":"16:00"},"geometry":{"type":"Polygon","coordinates":[[[126.95013,37.45551],[126.95013,37.45545],[126.9502,37.45545],[126.9502,37.45551],[126.95013,37.45551]]]}},{"type":"Feature","properties":{"valleyId":"gwanaksan","layer":"shadow","date":"2026-08-01","timeLocal":"16:00"},"geometry":{"type":"Polygon","coordinates":[[[126.95047,37.45553],[126.95049,37.45542],[126.95058,37.45542],[126.9506,37.4555],[126.95056,37.45553],[126.95047,37.45553]]]}},{"type":"Feature","properties":{"valleyId":"gwanaksan","layer":"shadow","date":"2026-08-01","timeLocal":"16:00"},"geometry":{"type":"Polygon","coordinates":[[[126.94963,37.45548],[126.94966,37.45534],[126.94973,37.45534],[126.94974,37.45546],[126.94963,37.45548]]]}},{"type":"Feature","properties":{"valleyId":"gwanaksan","layer":"shadow","date":"2026-08-01","timeLocal":"16:00"},"geometry":{"type":"Polygon","coordinates":[[[126.94936,37.45461],[126.94936,37.4545],[126.94943,37.4545],[126.94945,37.45459],[126.94936,37.45461]]]}},{"type":"Feature","properties":{"valleyId":"gwanaksan","layer":"shadow","date":"2026-08-01","timeLocal":"16:00"},"geometry":{"type":"Polygon","coordinates":[[[126.95015,37.45376],[126.95015,37.45369],[126.95022,37.45369],[126.95022,37.45376],[126.95015,37.45376]]]}},{"type":"Feature","properties":{"valleyId":"gwanaksan","layer":"shadow","date":"2026-08-01","timeLocal":"16:00"},"geometry":{"type":"Polygon","coordinates":[[[126.94928,37.4541],[126.94929,37.45398],[126.94923,37.45378],[126.94925,37.45358],[126.94932,37.45358],[126.94932,37.45378],[126.94936,37.45382],[126.94935,37.45411],[126.94928,37.4541]]]}},{"type":"Feature","properties":{"valleyId":"gwanaksan","layer":"shadow","date":"2026-08-01","timeLocal":"16:00"},"geometry":{"type":"Polygon","coordinates":[[[126.94923,37.45356],[126.94923,37.45349],[126.9493,37.45349],[126.9493,37.45356],[126.94923,37.45356]]]}},{"type":"Feature","properties":{"valleyId":"gwanaksan","layer":"shadow","date":"2026-08-01","timeLocal":"16:00"},"geometry":{"type":"Polygon","coordinates":[[[126.9488,37.45346],[126.94881,37.45341],[126.94887,37.45341],[126.94887,37.45347],[126.9488,37.45346]]]}},{"type":"Feature","properties":{"valleyId":"gwanaksan","layer":"shadow","date":"2026-08-01","timeLocal":"16:00"},"geometry":{"type":"Polygon","coordinates":[[[126.95187,37.45364],[126.95188,37.45359],[126.95192,37.45355],[126.95193,37.45341],[126.95199,37.45341],[126.95196,37.45363],[126.95187,37.45364]]]}},{"type":"Feature","properties":{"valleyId":"gwanaksan","layer":"shadow","date":"2026-08-01","timeLocal":"16:00"},"geometry":{"type":"Polygon","coordinates":[[[126.9493,37.4534],[126.94931,37.45333],[126.94937,37.45333],[126.94937,37.4534],[126.9493,37.4534]]]}},{"type":"Feature","properties":{"valleyId":"gwanaksan","layer":"shadow","date":"2026-08-01","timeLocal":"16:00"},"geometry":{"type":"Polygon","coordinates":[[[126.92573,37.45295],[126.92574,37.4529],[126.9258,37.4529],[126.9258,37.45295],[126.92573,37.45295]]]}},{"type":"Feature","properties":{"valleyId":"gwanaksan","layer":"shadow","date":"2026-08-01","timeLocal":"16:00"},"geometry":{"type":"Polygon","coordinates":[[[126.94845,37.45333],[126.94845,37.45328],[126.94852,37.45328],[126.94851,37.45333],[126.94845,37.45333]]]}},{"type":"Feature","properties":{"valleyId":"gwanaksan","layer":"shadow","date":"2026-08-01","timeLocal":"16:00"},"geometry":{"type":"Polygon","coordinates":[[[126.94935,37.45329],[126.94935,37.4532],[126.94942,37.45321],[126.94942,37.4533],[126.94935,37.45329]]]}},{"type":"Feature","properties":{"valleyId":"gwanaksan","layer":"shadow","date":"2026-08-01","timeLocal":"16:00"},"geometry":{"type":"Polygon","coordinates":[[[126.9259,37.45285],[126.92592,37.45276],[126.92601,37.45276],[126.92601,37.45281],[126.92596,37.45285],[126.9259,37.45285]]]}},{"type":"Feature","properties":{"valleyId":"gwanaksan","layer":"shadow","date":"2026-08-01","timeLocal":"16:00"},"geometry":{"type":"Polygon","coordinates":[[[126.94795,37.45311],[126.94796,37.45305],[126.94802,37.45305],[126.94802,37.45311],[126.94795,37.45311]]]}},{"type":"Feature","properties":{"valleyId":"gwanaksan","layer":"shadow","date":"2026-08-01","timeLocal":"16:00"},"geometry":{"type":"Polygon","coordinates":[[[126.94836,37.45306],[126.94836,37.45301],[126.94845,37.45301],[126.94845,37.45306],[126.94836,37.45306]]]}},{"type":"Feature","properties":{"valleyId":"gwanaksan","layer":"shadow","date":"2026-08-01","timeLocal":"16:00"},"geometry":{"type":"Polygon","coordinates":[[[126.9261,37.45278],[126.92611,37.45262],[126.92613,37.45256],[126.9262,37.45257],[126.92619,37.45276],[126.9261,37.45278]]]}},{"type":"Feature","properties":{"valleyId":"gwanaksan","layer":"shadow","date":"2026-08-01","timeLocal":"16:00"},"geometry":{"type":"Polygon","coordinates":[[[126.95197,37.45338],[126.95198,37.45302],[126.95205,37.45293],[126.95214,37.45293],[126.95214,37.45298],[126.9521,37.45298],[126.95207,37.45302],[126.95209,37.45316],[126.95204,37.4532],[126.95204,37.45338],[126.95197,37.45338]]]}},{"type":"Feature","properties":{"valleyId":"gwanaksan","layer":"shadow","date":"2026-08-01","timeLocal":"16:00"},"geometry":{"type":"Polygon","coordinates":[[[126.92609,37.45253],[126.92609,37.45247],[126.92615,37.45247],[126.92615,37.45253],[126.92609,37.45253]]]}},{"type":"Feature","properties":{"valleyId":"gwanaksan","layer":"shadow","date":"2026-08-01","timeLocal":"16:00"},"geometry":{"type":"Polygon","coordinates":[[[126.9528,37.4529],[126.95278,37.45283],[126.95285,37.45283],[126.95287,37.4529],[126.9528,37.4529]]]}},{"type":"Feature","properties":{"valleyId":"gwanaksan","layer":"shadow","date":"2026-08-01","timeLocal":"16:00"},"geometry":{"type":"Polygon","coordinates":[[[126.94799,37.4528],[126.94799,37.45275],[126.94803,37.45275],[126.94803,37.45268],[126.9481,37.45268],[126.9481,37.45277],[126.94805,37.45277],[126.94805,37.4528],[126.94799,37.4528]]]}},{"type":"Feature","properties":{"valleyId":"gwanaksan","layer":"shadow","date":"2026-08-01","timeLocal":"16:00"},"geometry":{"type":"Polygon","coordinates":[[[126.94832,37.45286],[126.94831,37.45263],[126.94833,37.45257],[126.94844,37.45258],[126.94846,37.45267],[126.9484,37.45266],[126.94837,37.45272],[126.94839,37.45286],[126.94832,37.45286]]]}},{"type":"Feature","properties":{"valleyId":"gwanaksan","layer":"shadow","date":"2026-08-01","timeLocal":"16:00"},"geometry":{"type":"Polygon","coordinates":[[[126.95197,37.45269],[126.95193,37.45258],[126.95193,37.45244],[126.95195,37.4524],[126.95202,37.4524],[126.95202,37.45258],[126.95206,37.45262],[126.95206,37.45269],[126.95197,37.45269]]]}},{"type":"Feature","properties":{"valleyId":"gwanaksan","layer":"shadow","date":"2026-08-01","timeLocal":"16:00"},"geometry":{"type":"Polygon","coordinates":[[[126.95288,37.45245],[126.95288,37.45238],[126.95295,37.45238],[126.95295,37.45246],[126.95288,37.45245]]]}},{"type":"Feature","properties":{"valleyId":"gwanaksan","layer":"shadow","date":"2026-08-01","timeLocal":"16:00"},"geometry":{"type":"Polygon","coordinates":[[[126.94793,37.45233],[126.94793,37.45226],[126.948,37.45226],[126.948,37.45233],[126.94793,37.45233]]]}},{"type":"Feature","properties":{"valleyId":"gwanaksan","layer":"shadow","date":"2026-08-01","timeLocal":"16:00"},"geometry":{"type":"Polygon","coordinates":[[[126.948,37.45224],[126.948,37.45219],[126.94807,37.45219],[126.94807,37.45224],[126.948,37.45224]]]}},{"type":"Feature","properties":{"valleyId":"gwanaksan","layer":"shadow","date":"2026-08-01","timeLocal":"16:00"},"geometry":{"type":"Polygon","coordinates":[[[126.95204,37.45239],[126.95207,37.45222],[126.95216,37.45221],[126.95213,37.45237],[126.95204,37.45239]]]}},{"type":"Feature","properties":{"valleyId":"gwanaksan","layer":"shadow","date":"2026-08-01","timeLocal":"16:00"},"geometry":{"type":"Polygon","coordinates":[[[126.94914,37.45196],[126.94912,37.45181],[126.94919,37.45181],[126.94921,37.45196],[126.94914,37.45196]]]}},{"type":"Feature","properties":{"valleyId":"gwanaksan","layer":"shadow","date":"2026-08-01","timeLocal":"16:00"},"geometry":{"type":"Polygon","coordinates":[[[126.9481,37.45176],[126.94811,37.45169],[126.94817,37.45169],[126.94817,37.45176],[126.9481,37.45176]]]}},{"type":"Feature","properties":{"valleyId":"gwanaksan","layer":"shadow","date":"2026-08-01","timeLocal":"16:00"},"geometry":{"type":"Polygon","coordinates":[[[126.9491,37.45167],[126.9491,37.4516],[126.94919,37.4516],[126.94919,37.45165],[126.9491,37.45167]]]}},{"type":"Feature","properties":{"valleyId":"gwanaksan","layer":"shadow","date":"2026-08-01","timeLocal":"16:00"},"geometry":{"type":"Polygon","coordinates":[[[126.94924,37.45142],[126.94925,37.45135],[126.94931,37.45135],[126.94931,37.45142],[126.94924,37.45142]]]}},{"type":"Feature","properties":{"valleyId":"gwanaksan","layer":"shadow","date":"2026-08-01","timeLocal":"16:00"},"geometry":{"type":"Polygon","coordinates":[[[126.95117,37.45134],[126.95117,37.45129],[126.95124,37.45129],[126.95124,37.45134],[126.95117,37.45134]]]}},{"type":"Feature","properties":{"valleyId":"gwanaksan","layer":"shadow","date":"2026-08-01","timeLocal":"16:00"},"geometry":{"type":"Polygon","coordinates":[[[126.94925,37.4512],[126.94925,37.45113],[126.94932,37.45113],[126.94932,37.4512],[126.94925,37.4512]]]}},{"type":"Feature","properties":{"valleyId":"gwanaksan","layer":"shadow","date":"2026-08-01","timeLocal":"16:00"},"geometry":{"type":"Polygon","coordinates":[[[126.94921,37.45106],[126.94923,37.45095],[126.94932,37.45095],[126.9493,37.45104],[126.94921,37.45106]]]}},{"type":"Feature","properties":{"valleyId":"gwanaksan","layer":"shadow","date":"2026-08-01","timeLocal":"16:00"},"geometry":{"type":"Polygon","coordinates":[[[126.95156,37.45101],[126.95156,37.45095],[126.95163,37.45095],[126.95163,37.45101],[126.95156,37.45101]]]}},{"type":"Feature","properties":{"valleyId":"gwanaksan","layer":"shadow","date":"2026-08-01","timeLocal":"16:00"},"geometry":{"type":"Polygon","coordinates":[[[126.95217,37.45096],[126.95215,37.45084],[126.95222,37.45084],[126.95224,37.45096],[126.95217,37.45096]]]}},{"type":"Feature","properties":{"valleyId":"gwanaksan","layer":"shadow","date":"2026-08-01","timeLocal":"16:00"},"geometry":{"type":"Polygon","coordinates":[[[126.94924,37.45082],[126.94924,37.45077],[126.94931,37.45077],[126.94931,37.45082],[126.94924,37.45082]]]}},{"type":"Feature","properties":{"valleyId":"gwanaksan","layer":"shadow","date":"2026-08-01","timeLocal":"16:00"},"geometry":{"type":"Polygon","coordinates":[[[126.94915,37.45068],[126.94915,37.4506],[126.94922,37.45061],[126.94922,37.45068],[126.94915,37.45068]]]}},{"type":"Feature","properties":{"valleyId":"gwanaksan","layer":"shadow","date":"2026-08-01","timeLocal":"16:00"},"geometry":{"type":"Polygon","coordinates":[[[126.95195,37.45071],[126.95198,37.45058],[126.95205,37.45058],[126.95207,37.45066],[126.95202,37.45067],[126.95202,37.45071],[126.95195,37.45071]]]}},{"type":"Feature","properties":{"valleyId":"gwanaksan","layer":"shadow","date":"2026-08-01","timeLocal":"16:00"},"geometry":{"type":"Polygon","coordinates":[[[126.95347,37.44992],[126.9535,37.44972],[126.95354,37.44971],[126.95354,37.44965],[126.95363,37.44966],[126.95363,37.44971],[126.95359,37.44974],[126.95358,37.44985],[126.95354,37.44987],[126.95354,37.44992],[126.95347,37.44992]]]}},{"type":"Feature","properties":{"valleyId":"gwanaksan","layer":"shadow","date":"2026-08-01","timeLocal":"16:00"},"geometry":{"type":"Polygon","coordinates":[[[126.94733,37.44958],[126.94733,37.44951],[126.9474,37.44951],[126.9474,37.44958],[126.94733,37.44958]]]}},{"type":"Feature","properties":{"valleyId":"gwanaksan","layer":"shadow","date":"2026-08-01","timeLocal":"16:00"},"geometry":{"type":"Polygon","coordinates":[[[126.94697,37.44869],[126.94697,37.44864],[126.94704,37.44864],[126.94704,37.44869],[126.94697,37.44869]]]}},{"type":"Feature","properties":{"valleyId":"gwanaksan","layer":"shadow","date":"2026-08-01","timeLocal":"16:00"},"geometry":{"type":"Polygon","coordinates":[[[126.94923,37.44859],[126.94919,37.4485],[126.94919,37.44844],[126.94926,37.44844],[126.9493,37.44852],[126.9493,37.44859],[126.94923,37.44859]]]}},{"type":"Feature","properties":{"valleyId":"gwanaksan","layer":"shadow","date":"2026-08-01","timeLocal":"16:00"},"geometry":{"type":"Polygon","coordinates":[[[126.94917,37.44842],[126.94915,37.44832],[126.9491,37.4483],[126.94911,37.44817],[126.9492,37.44817],[126.94922,37.44821],[126.94924,37.44843],[126.94917,37.44842]]]}},{"type":"Feature","properties":{"valleyId":"gwanaksan","layer":"shadow","date":"2026-08-01","timeLocal":"16:00"},"geometry":{"type":"Polygon","coordinates":[[[126.95184,37.44834],[126.95182,37.44816],[126.95189,37.44816],[126.95191,37.44835],[126.95184,37.44834]]]}},{"type":"Feature","properties":{"valleyId":"gwanaksan","layer":"shadow","date":"2026-08-01","timeLocal":"16:00"},"geometry":{"type":"Polygon","coordinates":[[[126.94904,37.44812],[126.94904,37.44806],[126.94911,37.44806],[126.94911,37.44812],[126.94904,37.44812]]]}},{"type":"Feature","properties":{"valleyId":"gwanaksan","layer":"shadow","date":"2026-08-01","timeLocal":"16:00"},"geometry":{"type":"Polygon","coordinates":[[[126.95176,37.448],[126.95176,37.44795],[126.95183,37.44795],[126.95182,37.448],[126.95176,37.448]]]}},{"type":"Feature","properties":{"valleyId":"gwanaksan","layer":"shadow","date":"2026-08-01","timeLocal":"16:00"},"geometry":{"type":"Polygon","coordinates":[[[126.94835,37.44697],[126.94835,37.44691],[126.94842,37.44692],[126.94842,37.44697],[126.94835,37.44697]]]}},{"type":"Feature","properties":{"valleyId":"gwanaksan","layer":"shadow","date":"2026-08-01","timeLocal":"16:00"},"geometry":{"type":"Polygon","coordinates":[[[126.94704,37.44615],[126.94704,37.4461],[126.94711,37.4461],[126.9471,37.44615],[126.94704,37.44615]]]}},{"type":"Feature","properties":{"valleyId":"gwanaksan","layer":"shadow","date":"2026-08-01","timeLocal":"16:00"},"geometry":{"type":"Polygon","coordinates":[[[126.94893,37.44642],[126.94889,37.44629],[126.94889,37.44609],[126.94892,37.44606],[126.94898,37.44606],[126.94898,37.4461],[126.94903,37.44611],[126.94902,37.4464],[126.94893,37.44642]]]}},{"type":"Feature","properties":{"valleyId":"gwanaksan","layer":"shadow","date":"2026-08-01","timeLocal":"16:00"},"geometry":{"type":"Polygon","coordinates":[[[126.94718,37.44597],[126.94723,37.44587],[126.94729,37.44587],[126.94727,37.44596],[126.94718,37.44597]]]}},{"type":"Feature","properties":{"valleyId":"gwanaksan","layer":"shadow","date":"2026-08-01","timeLocal":"16:00"},"geometry":{"type":"Polygon","coordinates":[[[126.94899,37.44601],[126.94899,37.44595],[126.94908,37.44588],[126.94915,37.44588],[126.94912,37.44597],[126.94908,37.44601],[126.94899,37.44601]]]}},{"type":"Feature","properties":{"valleyId":"gwanaksan","layer":"shadow","date":"2026-08-01","timeLocal":"16:00"},"geometry":{"type":"Polygon","coordinates":[[[126.96692,37.44313],[126.96683,37.44309],[126.96684,37.443],[126.9669,37.443],[126.96699,37.44305],[126.96699,37.44313],[126.96692,37.44313]]]}},{"type":"Feature","properties":{"valleyId":"gwanaksan","layer":"shadow","date":"2026-08-01","timeLocal":"16:00"},"geometry":{"type":"Polygon","coordinates":[[[126.96677,37.44294],[126.96677,37.44287],[126.96691,37.44285],[126.96688,37.44294],[126.96677,37.44294]]]}},{"type":"Feature","properties":{"valleyId":"gwanaksan","layer":"shadow","date":"2026-08-01","timeLocal":"16:00"},"geometry":{"type":"Polygon","coordinates":[[[126.96697,37.44287],[126.96698,37.44282],[126.96704,37.44282],[126.96704,37.44288],[126.96697,37.44287]]]}},{"type":"Feature","properties":{"valleyId":"gwanaksan","layer":"shadow","date":"2026-08-01","timeLocal":"16:00"},"geometry":{"type":"Polygon","coordinates":[[[126.96709,37.4428],[126.96709,37.44273],[126.9672,37.44273],[126.9672,37.44279],[126.96709,37.4428]]]}},{"type":"Feature","properties":{"valleyId":"gwanaksan","layer":"shadow","date":"2026-08-01","timeLocal":"16:00"},"geometry":{"type":"Polygon","coordinates":[[[126.96712,37.44262],[126.96712,37.44257],[126.96719,37.44257],[126.96718,37.44263],[126.96712,37.44262]]]}},{"type":"Feature","properties":{"valleyId":"gwanaksan","layer":"shadow","date":"2026-08-01","timeLocal":"16:00"},"geometry":{"type":"Polygon","coordinates":[[[126.96698,37.44262],[126.96694,37.4426],[126.96694,37.44255],[126.96705,37.44255],[126.96705,37.44262],[126.96698,37.44262]]]}},{"type":"Feature","properties":{"valleyId":"gwanaksan","layer":"shadow","date":"2026-08-01","timeLocal":"16:00"},"geometry":{"type":"Polygon","coordinates":[[[126.96704,37.44215],[126.96704,37.4421],[126.96711,37.4421],[126.96711,37.44216],[126.96704,37.44215]]]}},{"type":"Feature","properties":{"valleyId":"gwanaksan","layer":"shadow","date":"2026-08-01","timeLocal":"16:00"},"geometry":{"type":"Polygon","coordinates":[[[126.96774,37.44218],[126.96772,37.44208],[126.96781,37.44208],[126.96781,37.44219],[126.96774,37.44218]]]}},{"type":"Feature","properties":{"valleyId":"gwanaksan","layer":"shadow","date":"2026-08-01","timeLocal":"16:00"},"geometry":{"type":"Polygon","coordinates":[[[126.96498,37.44206],[126.96497,37.44194],[126.96506,37.44194],[126.9651,37.44198],[126.9651,37.44203],[126.96505,37.44207],[126.96498,37.44206]]]}},{"type":"Feature","properties":{"valleyId":"gwanaksan","layer":"shadow","date":"2026-08-01","timeLocal":"16:00"},"geometry":{"type":"Polygon","coordinates":[[[126.96731,37.44203],[126.96732,37.44198],[126.96738,37.44198],[126.96738,37.44203],[126.96731,37.44203]]]}},{"type":"Feature","properties":{"valleyId":"gwanaksan","layer":"shadow","date":"2026-08-01","timeLocal":"16:00"},"geometry":{"type":"Polygon","coordinates":[[[126.96548,37.44126],[126.96548,37.44121],[126.96562,37.44116],[126.96562,37.4411],[126.96571,37.44107],[126.96571,37.44101],[126.96578,37.44101],[126.9658,37.44111],[126.96571,37.44112],[126.96571,37.44116],[126.96564,37.44116],[126.96559,37.44126],[126.96548,37.44126]]]}},{"type":"Feature","properties":{"valleyId":"gwanaksan","layer":"shadow","date":"2026-08-01","timeLocal":"16:00"},"geometry":{"type":"Polygon","coordinates":[[[126.96477,37.44098],[126.96477,37.44089],[126.96484,37.44089],[126.96483,37.44098],[126.96477,37.44098]]]}},{"type":"Feature","properties":{"valleyId":"gwanaksan","layer":"shadow","date":"2026-08-01","timeLocal":"16:00"},"geometry":{"type":"Polygon","coordinates":[[[126.96499,37.44098],[126.96499,37.44091],[126.96517,37.44091],[126.96515,37.44099],[126.96499,37.44098]]]}},{"type":"Feature","properties":{"valleyId":"gwanaksan","layer":"shadow","date":"2026-08-01","timeLocal":"16:00"},"geometry":{"type":"Polygon","coordinates":[[[126.96489,37.44053],[126.96489,37.44042],[126.96496,37.44042],[126.96496,37.44053],[126.96489,37.44053]]]}}]}
