{"type":"FeatureCollection","metadata":{"description":"개방지(CHM ≤ 2 m)에 드리운 나무·지형 그림자, 2026-08-01 10:00 KST. canopy 위에 겹쳐 그린다","source":"위성 기반 추정 — Copernicus GLO-30 지형(30 m) + Meta/WRI 수관 높이(1 m CHM, 2018~2019 촬영). 그늘 = 수관(CHM > 2 m) ∪ 나무·지형 그림자 ∪ 원거리 지형 마스크. 현장과 다를 수 있음.","datasetVersion":"2026-09-24.0","collectedAt":"2026-09-24","coordinateOrder":"[longitude, latitude]","crs":"EPSG:4326","representativeDate":"2026-08-01","hours":["10:00","11:00","12:00","13:00","14:00","15:00","16:00","17:00","18:00"],"chmAcquisition":["2018-06","2019-03"],"assets":{"glo30":{"dataset":"Copernicus DEM GLO-30 (COG, s3://copernicus-dem-30m)","tiles":["Copernicus_DSM_COG_10_N37_00_E126_00_DEM","Copernicus_DSM_COG_10_N37_00_E127_00_DEM"]},"chm":{"dataset":"Meta/WRI Global Canopy Height Map v1 (alsgedi_global_v6_float, 1 m, CC-BY 4.0)","quadkeys":["132110320"],"acquisition":["2018-06","2019-03"]}},"method":{"gridResM":2,"canopyThresholdM":2,"bufferHalfM":25,"corridorHalfM":200,"simplifyTolM":2,"minAreaM2":25,"coordDecimals":5},"generator":"scripts/shade 0.1.0","builtAt":"2026-09-23T15:32:06Z","layer":"shadow","timeLocal":"10:00"},"features":[{"type":"Feature","properties":{"valleyId":"gwanaksan","layer":"shadow","date":"2026-08-01","timeLocal":"10:00"},"geometry":{"type":"Polygon","coordinates":[[[126.93521,37.48003],[126.93521,37.47998],[126.93528,37.47998],[126.93528,37.48003],[126.93521,37.48003]]]}},{"type":"Feature","properties":{"valleyId":"gwanaksan","layer":"shadow","date":"2026-08-01","timeLocal":"10:00"},"geometry":{"type":"Polygon","coordinates":[[[126.93519,37.47994],[126.93519,37.47983],[126.93526,37.47983],[126.93526,37.47994],[126.93519,37.47994]]]}},{"type":"Feature","properties":{"valleyId":"gwanaksan","layer":"shadow","date":"2026-08-01","timeLocal":"10:00"},"geometry":{"type":"Polygon","coordinates":[[[126.93598,37.4784],[126.93598,37.47835],[126.93605,37.47835],[126.93605,37.4784],[126.93598,37.4784]]]}},{"type":"Feature","properties":{"valleyId":"gwanaksan","layer":"shadow","date":"2026-08-01","timeLocal":"10:00"},"geometry":{"type":"Polygon","coordinates":[[[126.95185,37.47837],[126.95186,37.47828],[126.95193,37.47828],[126.95192,37.47837],[126.95185,37.47837]]]}},{"type":"Feature","properties":{"valleyId":"gwanaksan","layer":"shadow","date":"2026-08-01","timeLocal":"10:00"},"geometry":{"type":"Polygon","coordinates":[[[126.94031,37.47541],[126.94031,37.47536],[126.9404,37.47536],[126.9404,37.47542],[126.94031,37.47541]]]}},{"type":"Feature","properties":{"valleyId":"gwanaksan","layer":"shadow","date":"2026-08-01","timeLocal":"10:00"},"geometry":{"type":"Polygon","coordinates":[[[126.94341,37.47541],[126.94339,37.47536],[126.94325,37.47532],[126.94323,37.47525],[126.94314,37.47521],[126.94315,37.47516],[126.94319,37.47516],[126.94319,37.47512],[126.94326,37.47512],[126.94326,37.47518],[126.94333,37.4752],[126.94348,37.47536],[126.94348,37.47542],[126.94341,37.47541]]]}},{"type":"Feature","properties":{"valleyId":"gwanaksan","layer":"shadow","date":"2026-08-01","timeLocal":"10:00"},"geometry":{"type":"Polygon","coordinates":[[[126.93647,37.47127],[126.93647,37.47122],[126.93654,37.47122],[126.93654,37.47128],[126.93647,37.47127]]]}},{"type":"Feature","properties":{"valleyId":"gwanaksan","layer":"shadow","date":"2026-08-01","timeLocal":"10:00"},"geometry":{"type":"Polygon","coordinates":[[[126.942,37.47063],[126.942,37.47056],[126.94207,37.47056],[126.94207,37.47063],[126.942,37.47063]]]}},{"type":"Feature","properties":{"valleyId":"gwanaksan","layer":"shadow","date":"2026-08-01","timeLocal":"10:00"},"geometry":{"type":"Polygon","coordinates":[[[126.9584,37.46976],[126.9584,37.46967],[126.95847,37.46967],[126.95847,37.46976],[126.9584,37.46976]]]}},{"type":"Feature","properties":{"valleyId":"gwanaksan","layer":"shadow","date":"2026-08-01","timeLocal":"10:00"},"geometry":{"type":"Polygon","coordinates":[[[126.95914,37.46815],[126.95915,37.4681],[126.95921,37.4681],[126.95921,37.46815],[126.95914,37.46815]]]}},{"type":"Feature","properties":{"valleyId":"gwanaksan","layer":"shadow","date":"2026-08-01","timeLocal":"10:00"},"geometry":{"type":"Polygon","coordinates":[[[126.94047,37.46801],[126.94045,37.46776],[126.94052,37.46776],[126.94054,37.46801],[126.94047,37.46801]]]}},{"type":"Feature","properties":{"valleyId":"gwanaksan","layer":"shadow","date":"2026-08-01","timeLocal":"10:00"},"geometry":{"type":"Polygon","coordinates":[[[126.94776,37.46754],[126.94777,37.46749],[126.94783,37.46749],[126.94783,37.46754],[126.94776,37.46754]]]}},{"type":"Feature","properties":{"valleyId":"gwanaksan","layer":"shadow","date":"2026-08-01","timeLocal":"10:00"},"geometry":{"type":"Polygon","coordinates":[[[126.94809,37.46735],[126.948,37.46731],[126.948,37.46724],[126.94804,37.4672],[126.94811,37.46721],[126.94811,37.46726],[126.94818,37.4673],[126.94818,37.46735],[126.94809,37.46735]]]}},{"type":"Feature","properties":{"valleyId":"gwanaksan","layer":"shadow","date":"2026-08-01","timeLocal":"10:00"},"geometry":{"type":"Polygon","coordinates":[[[126.95804,37.46713],[126.95804,37.46703],[126.95811,37.46704],[126.95811,37.46713],[126.95804,37.46713]]]}},{"type":"Feature","properties":{"valleyId":"gwanaksan","layer":"shadow","date":"2026-08-01","timeLocal":"10:00"},"geometry":{"type":"Polygon","coordinates":[[[126.9535,37.46692],[126.95348,37.46679],[126.95355,37.4668],[126.95357,37.46692],[126.9535,37.46692]]]}},{"type":"Feature","properties":{"valleyId":"gwanaksan","layer":"shadow","date":"2026-08-01","timeLocal":"10:00"},"geometry":{"type":"Polygon","coordinates":[[[126.95802,37.46693],[126.95798,37.46684],[126.95798,37.46676],[126.95805,37.46676],[126.95809,37.46687],[126.95809,37.46693],[126.95802,37.46693]]]}},{"type":"Feature","properties":{"valleyId":"gwanaksan","layer":"shadow","date":"2026-08-01","timeLocal":"10:00"},"geometry":{"type":"Polygon","coordinates":[[[126.95593,37.46566],[126.95589,37.46565],[126.95589,37.46556],[126.95596,37.46556],[126.956,37.46561],[126.956,37.46567],[126.95593,37.46566]]]}},{"type":"Feature","properties":{"valleyId":"gwanaksan","layer":"shadow","date":"2026-08-01","timeLocal":"10:00"},"geometry":{"type":"Polygon","coordinates":[[[126.95481,37.46545],[126.95481,37.46536],[126.95488,37.46536],[126.95492,37.46539],[126.95492,37.46545],[126.95481,37.46545]]]}},{"type":"Feature","properties":{"valleyId":"gwanaksan","layer":"shadow","date":"2026-08-01","timeLocal":"10:00"},"geometry":{"type":"Polygon","coordinates":[[[126.95578,37.46546],[126.95576,37.46536],[126.95583,37.46536],[126.95585,37.46546],[126.95578,37.46546]]]}},{"type":"Feature","properties":{"valleyId":"gwanaksan","layer":"shadow","date":"2026-08-01","timeLocal":"10:00"},"geometry":{"type":"Polygon","coordinates":[[[126.95132,37.46477],[126.95132,37.4647],[126.95139,37.4647],[126.95139,37.46477],[126.95132,37.46477]]]}},{"type":"Feature","properties":{"valleyId":"gwanaksan","layer":"shadow","date":"2026-08-01","timeLocal":"10:00"},"geometry":{"type":"Polygon","coordinates":[[[126.94831,37.46404],[126.94831,37.46398],[126.94838,37.46398],[126.94838,37.46404],[126.94831,37.46404]]]}},{"type":"Feature","properties":{"valleyId":"gwanaksan","layer":"shadow","date":"2026-08-01","timeLocal":"10:00"},"geometry":{"type":"Polygon","coordinates":[[[126.95172,37.46413],[126.9517,37.46404],[126.95179,37.46402],[126.95179,37.46413],[126.95172,37.46413]]]}},{"type":"Feature","properties":{"valleyId":"gwanaksan","layer":"shadow","date":"2026-08-01","timeLocal":"10:00"},"geometry":{"type":"Polygon","coordinates":[[[126.95855,37.46416],[126.95855,37.46409],[126.95864,37.46407],[126.95864,37.46416],[126.95855,37.46416]]]}},{"type":"Feature","properties":{"valleyId":"gwanaksan","layer":"shadow","date":"2026-08-01","timeLocal":"10:00"},"geometry":{"type":"Polygon","coordinates":[[[126.95044,37.46398],[126.95042,37.46391],[126.95049,37.46391],[126.95051,37.46398],[126.95044,37.46398]]]}},{"type":"Feature","properties":{"valleyId":"gwanaksan","layer":"shadow","date":"2026-08-01","timeLocal":"10:00"},"geometry":{"type":"Polygon","coordinates":[[[126.95435,37.46403],[126.95435,37.46398],[126.95442,37.46398],[126.95442,37.46403],[126.95435,37.46403]]]}},{"type":"Feature","properties":{"valleyId":"gwanaksan","layer":"shadow","date":"2026-08-01","timeLocal":"10:00"},"geometry":{"type":"Polygon","coordinates":[[[126.95916,37.46421],[126.95917,37.46403],[126.95926,37.46403],[126.95925,37.46419],[126.95916,37.46421]]]}},{"type":"Feature","properties":{"valleyId":"gwanaksan","layer":"shadow","date":"2026-08-01","timeLocal":"10:00"},"geometry":{"type":"Polygon","coordinates":[[[126.93197,37.46215],[126.93197,37.46208],[126.93204,37.46208],[126.93204,37.46215],[126.93197,37.46215]]]}},{"type":"Feature","properties":{"valleyId":"gwanaksan","layer":"shadow","date":"2026-08-01","timeLocal":"10:00"},"geometry":{"type":"Polygon","coordinates":[[[126.95344,37.46252],[126.95342,37.46241],[126.95349,37.46241],[126.95351,37.46252],[126.95344,37.46252]]]}},{"type":"Feature","properties":{"valleyId":"gwanaksan","layer":"shadow","date":"2026-08-01","timeLocal":"10:00"},"geometry":{"type":"Polygon","coordinates":[[[126.9546,37.4624],[126.95458,37.46229],[126.95465,37.46229],[126.95467,37.4624],[126.9546,37.4624]]]}},{"type":"Feature","properties":{"valleyId":"gwanaksan","layer":"shadow","date":"2026-08-01","timeLocal":"10:00"},"geometry":{"type":"Polygon","coordinates":[[[126.95451,37.46229],[126.95451,37.46222],[126.95458,37.46222],[126.95458,37.46229],[126.95451,37.46229]]]}},{"type":"Feature","properties":{"valleyId":"gwanaksan","layer":"shadow","date":"2026-08-01","timeLocal":"10:00"},"geometry":{"type":"Polygon","coordinates":[[[126.95453,37.4622],[126.95452,37.46189],[126.95459,37.46189],[126.95463,37.46218],[126.95453,37.4622]]]}},{"type":"Feature","properties":{"valleyId":"gwanaksan","layer":"shadow","date":"2026-08-01","timeLocal":"10:00"},"geometry":{"type":"Polygon","coordinates":[[[126.94899,37.46145],[126.949,37.46136],[126.94906,37.46136],[126.94906,37.46145],[126.94899,37.46145]]]}},{"type":"Feature","properties":{"valleyId":"gwanaksan","layer":"shadow","date":"2026-08-01","timeLocal":"10:00"},"geometry":{"type":"Polygon","coordinates":[[[126.95347,37.46149],[126.95347,37.46144],[126.95354,37.46144],[126.95354,37.4615],[126.95347,37.46149]]]}},{"type":"Feature","properties":{"valleyId":"gwanaksan","layer":"shadow","date":"2026-08-01","timeLocal":"10:00"},"geometry":{"type":"Polygon","coordinates":[[[126.95892,37.46126],[126.95893,37.46119],[126.95899,37.46119],[126.95899,37.46127],[126.95892,37.46126]]]}},{"type":"Feature","properties":{"valleyId":"gwanaksan","layer":"shadow","date":"2026-08-01","timeLocal":"10:00"},"geometry":{"type":"Polygon","coordinates":[[[126.92734,37.46035],[126.92732,37.46028],[126.92736,37.46028],[126.92736,37.46025],[126.92743,37.46025],[126.92743,37.46036],[126.92734,37.46035]]]}},{"type":"Feature","properties":{"valleyId":"gwanaksan","layer":"shadow","date":"2026-08-01","timeLocal":"10:00"},"geometry":{"type":"Polygon","coordinates":[[[126.95582,37.46053],[126.95581,37.46036],[126.95587,37.46036],[126.95589,37.46053],[126.95582,37.46053]]]}},{"type":"Feature","properties":{"valleyId":"gwanaksan","layer":"shadow","date":"2026-08-01","timeLocal":"10:00"},"geometry":{"type":"Polygon","coordinates":[[[126.93541,37.45965],[126.93541,37.45956],[126.93548,37.45956],[126.93548,37.45965],[126.93541,37.45965]]]}},{"type":"Feature","properties":{"valleyId":"gwanaksan","layer":"shadow","date":"2026-08-01","timeLocal":"10:00"},"geometry":{"type":"Polygon","coordinates":[[[126.93471,37.45937],[126.93472,37.45929],[126.93478,37.45929],[126.93478,37.45937],[126.93471,37.45937]]]}},{"type":"Feature","properties":{"valleyId":"gwanaksan","layer":"shadow","date":"2026-08-01","timeLocal":"10:00"},"geometry":{"type":"Polygon","coordinates":[[[126.94871,37.45957],[126.94873,37.45947],[126.9488,37.45947],[126.94882,37.45958],[126.94871,37.45957]]]}},{"type":"Feature","properties":{"valleyId":"gwanaksan","layer":"shadow","date":"2026-08-01","timeLocal":"10:00"},"geometry":{"type":"Polygon","coordinates":[[[126.95721,37.45961],[126.95719,37.45947],[126.95725,37.45947],[126.95727,37.45961],[126.95721,37.45961]]]}},{"type":"Feature","properties":{"valleyId":"gwanaksan","layer":"shadow","date":"2026-08-01","timeLocal":"10:00"},"geometry":{"type":"Polygon","coordinates":[[[126.95715,37.45931],[126.95715,37.45925],[126.95722,37.45925],[126.95721,37.45931],[126.95715,37.45931]]]}},{"type":"Feature","properties":{"valleyId":"gwanaksan","layer":"shadow","date":"2026-08-01","timeLocal":"10:00"},"geometry":{"type":"Polygon","coordinates":[[[126.95704,37.45914],[126.95702,37.45905],[126.95697,37.45905],[126.95697,37.459],[126.95704,37.459],[126.95704,37.45905],[126.95709,37.45905],[126.95711,37.45909],[126.95711,37.45914],[126.95704,37.45914]]]}},{"type":"Feature","properties":{"valleyId":"gwanaksan","layer":"shadow","date":"2026-08-01","timeLocal":"10:00"},"geometry":{"type":"Polygon","coordinates":[[[126.95344,37.45847],[126.95344,37.45836],[126.95335,37.45834],[126.95335,37.45827],[126.95344,37.45827],[126.95353,37.45836],[126.95353,37.45847],[126.95344,37.45847]]]}},{"type":"Feature","properties":{"valleyId":"gwanaksan","layer":"shadow","date":"2026-08-01","timeLocal":"10:00"},"geometry":{"type":"Polygon","coordinates":[[[126.95143,37.45829],[126.95143,37.45821],[126.9515,37.45822],[126.9515,37.45829],[126.95143,37.45829]]]}},{"type":"Feature","properties":{"valleyId":"gwanaksan","layer":"shadow","date":"2026-08-01","timeLocal":"10:00"},"geometry":{"type":"Polygon","coordinates":[[[126.95293,37.45793],[126.95291,37.45784],[126.95298,37.45785],[126.953,37.45794],[126.95293,37.45793]]]}},{"type":"Feature","properties":{"valleyId":"gwanaksan","layer":"shadow","date":"2026-08-01","timeLocal":"10:00"},"geometry":{"type":"Polygon","coordinates":[[[126.95023,37.45655],[126.95024,37.4565],[126.95033,37.4565],[126.95032,37.45656],[126.95023,37.45655]]]}},{"type":"Feature","properties":{"valleyId":"gwanaksan","layer":"shadow","date":"2026-08-01","timeLocal":"10:00"},"geometry":{"type":"Polygon","coordinates":[[[126.95279,37.45649],[126.95279,37.45638],[126.95286,37.45638],[126.95286,37.45649],[126.95279,37.45649]]]}},{"type":"Feature","properties":{"valleyId":"gwanaksan","layer":"shadow","date":"2026-08-01","timeLocal":"10:00"},"geometry":{"type":"Polygon","coordinates":[[[126.94877,37.45646],[126.94875,37.45631],[126.94884,37.45631],[126.94884,37.45646],[126.94877,37.45646]]]}},{"type":"Feature","properties":{"valleyId":"gwanaksan","layer":"shadow","date":"2026-08-01","timeLocal":"10:00"},"geometry":{"type":"Polygon","coordinates":[[[126.95579,37.45613],[126.95579,37.45606],[126.95574,37.45602],[126.95575,37.45587],[126.95582,37.45588],[126.95581,37.45597],[126.95586,37.45604],[126.95585,37.45613],[126.95579,37.45613]]]}},{"type":"Feature","properties":{"valleyId":"gwanaksan","layer":"shadow","date":"2026-08-01","timeLocal":"10:00"},"geometry":{"type":"Polygon","coordinates":[[[126.95022,37.45551],[126.95022,37.45544],[126.95029,37.45544],[126.95029,37.45551],[126.95022,37.45551]]]}},{"type":"Feature","properties":{"valleyId":"gwanaksan","layer":"shadow","date":"2026-08-01","timeLocal":"10:00"},"geometry":{"type":"Polygon","coordinates":[[[126.94938,37.45548],[126.94938,37.45542],[126.94945,37.45542],[126.94945,37.45548],[126.94938,37.45548]]]}},{"type":"Feature","properties":{"valleyId":"gwanaksan","layer":"shadow","date":"2026-08-01","timeLocal":"10:00"},"geometry":{"type":"Polygon","coordinates":[[[126.92624,37.45258],[126.92624,37.45253],[126.92631,37.45253],[126.92631,37.45259],[126.92624,37.45258]]]}},{"type":"Feature","properties":{"valleyId":"gwanaksan","layer":"shadow","date":"2026-08-01","timeLocal":"10:00"},"geometry":{"type":"Polygon","coordinates":[[[126.92618,37.45253],[126.92616,37.45246],[126.92622,37.45246],[126.92624,37.45253],[126.92618,37.45253]]]}},{"type":"Feature","properties":{"valleyId":"gwanaksan","layer":"shadow","date":"2026-08-01","timeLocal":"10:00"},"geometry":{"type":"Polygon","coordinates":[[[126.95289,37.4529],[126.95289,37.45281],[126.95287,37.45276],[126.95283,37.45276],[126.95281,37.45261],[126.9529,37.45263],[126.95289,37.45271],[126.95296,37.45278],[126.95296,37.45291],[126.95289,37.4529]]]}},{"type":"Feature","properties":{"valleyId":"gwanaksan","layer":"shadow","date":"2026-08-01","timeLocal":"10:00"},"geometry":{"type":"Polygon","coordinates":[[[126.95276,37.4526],[126.95274,37.45251],[126.95281,37.45251],[126.95283,37.4526],[126.95276,37.4526]]]}},{"type":"Feature","properties":{"valleyId":"gwanaksan","layer":"shadow","date":"2026-08-01","timeLocal":"10:00"},"geometry":{"type":"Polygon","coordinates":[[[126.95201,37.45269],[126.95193,37.45258],[126.95195,37.45247],[126.95202,37.45248],[126.95202,37.45255],[126.95208,37.45264],[126.95208,37.45269],[126.95201,37.45269]]]}},{"type":"Feature","properties":{"valleyId":"gwanaksan","layer":"shadow","date":"2026-08-01","timeLocal":"10:00"},"geometry":{"type":"Polygon","coordinates":[[[126.95304,37.45249],[126.95304,37.45244],[126.95311,37.45244],[126.9531,37.45249],[126.95304,37.45249]]]}},{"type":"Feature","properties":{"valleyId":"gwanaksan","layer":"shadow","date":"2026-08-01","timeLocal":"10:00"},"geometry":{"type":"Polygon","coordinates":[[[126.9527,37.45249],[126.95265,37.45245],[126.95265,37.45238],[126.95272,37.45238],[126.95272,37.45242],[126.95277,37.45243],[126.95276,37.45249],[126.9527,37.45249]]]}},{"type":"Feature","properties":{"valleyId":"gwanaksan","layer":"shadow","date":"2026-08-01","timeLocal":"10:00"},"geometry":{"type":"Polygon","coordinates":[[[126.95297,37.45238],[126.95297,37.45233],[126.95293,37.45229],[126.95293,37.45222],[126.953,37.45222],[126.953,37.45228],[126.95306,37.45233],[126.95306,37.45239],[126.95297,37.45238]]]}},{"type":"Feature","properties":{"valleyId":"gwanaksan","layer":"shadow","date":"2026-08-01","timeLocal":"10:00"},"geometry":{"type":"Polygon","coordinates":[[[126.92498,37.45166],[126.92498,37.45157],[126.92505,37.45157],[126.92505,37.45166],[126.92498,37.45166]]]}},{"type":"Feature","properties":{"valleyId":"gwanaksan","layer":"shadow","date":"2026-08-01","timeLocal":"10:00"},"geometry":{"type":"Polygon","coordinates":[[[126.92664,37.45131],[126.92657,37.45129],[126.92657,37.45126],[126.9265,37.45125],[126.92651,37.4512],[126.9266,37.4512],[126.9266,37.45124],[126.92673,37.45126],[126.92673,37.45131],[126.92664,37.45131]]]}},{"type":"Feature","properties":{"valleyId":"gwanaksan","layer":"shadow","date":"2026-08-01","timeLocal":"10:00"},"geometry":{"type":"Polygon","coordinates":[[[126.92717,37.45166],[126.92718,37.45154],[126.92704,37.45153],[126.92704,37.4515],[126.92697,37.4515],[126.92697,37.45143],[126.92704,37.45143],[126.92704,37.45135],[126.92698,37.45135],[126.92698,37.45119],[126.92707,37.45119],[126.92707,37.45128],[126.92714,37.45128],[126.92713,37.45141],[126.9272,37.45141],[126.9272,37.45154],[126.92727,37.45154],[126.92726,37.45166],[126.92717,37.45166]]]}},{"type":"Feature","properties":{"valleyId":"gwanaksan","layer":"shadow","date":"2026-08-01","timeLocal":"10:00"},"geometry":{"type":"Polygon","coordinates":[[[126.95197,37.45098],[126.95197,37.45094],[126.95193,37.45092],[126.95193,37.45083],[126.952,37.45083],[126.95199,37.45089],[126.95204,37.45093],[126.95204,37.45098],[126.95197,37.45098]]]}},{"type":"Feature","properties":{"valleyId":"gwanaksan","layer":"shadow","date":"2026-08-01","timeLocal":"10:00"},"geometry":{"type":"Polygon","coordinates":[[[126.95299,37.45085],[126.95299,37.4508],[126.95306,37.4508],[126.95306,37.45085],[126.95299,37.45085]]]}},{"type":"Feature","properties":{"valleyId":"gwanaksan","layer":"shadow","date":"2026-08-01","timeLocal":"10:00"},"geometry":{"type":"Polygon","coordinates":[[[126.95055,37.45077],[126.95055,37.45072],[126.95062,37.45072],[126.95062,37.45077],[126.95055,37.45077]]]}},{"type":"Feature","properties":{"valleyId":"gwanaksan","layer":"shadow","date":"2026-08-01","timeLocal":"10:00"},"geometry":{"type":"Polygon","coordinates":[[[126.95292,37.45076],[126.95288,37.45072],[126.95288,37.45067],[126.95295,37.45067],[126.95299,37.45071],[126.95299,37.45076],[126.95292,37.45076]]]}},{"type":"Feature","properties":{"valleyId":"gwanaksan","layer":"shadow","date":"2026-08-01","timeLocal":"10:00"},"geometry":{"type":"Polygon","coordinates":[[[126.92484,37.45016],[126.92484,37.45011],[126.92493,37.45011],[126.92493,37.45016],[126.92484,37.45016]]]}},{"type":"Feature","properties":{"valleyId":"gwanaksan","layer":"shadow","date":"2026-08-01","timeLocal":"10:00"},"geometry":{"type":"Polygon","coordinates":[[[126.94984,37.4504],[126.94984,37.45031],[126.94991,37.45031],[126.94993,37.4504],[126.94984,37.4504]]]}},{"type":"Feature","properties":{"valleyId":"gwanaksan","layer":"shadow","date":"2026-08-01","timeLocal":"10:00"},"geometry":{"type":"Polygon","coordinates":[[[126.95351,37.44987],[126.95349,37.44976],[126.95361,37.44974],[126.95361,37.44985],[126.95351,37.44987]]]}},{"type":"Feature","properties":{"valleyId":"gwanaksan","layer":"shadow","date":"2026-08-01","timeLocal":"10:00"},"geometry":{"type":"Polygon","coordinates":[[[126.95365,37.44969],[126.95366,37.44962],[126.95372,37.44962],[126.95372,37.44969],[126.95365,37.44969]]]}},{"type":"Feature","properties":{"valleyId":"gwanaksan","layer":"shadow","date":"2026-08-01","timeLocal":"10:00"},"geometry":{"type":"Polygon","coordinates":[[[126.95411,37.44959],[126.95409,37.44952],[126.95416,37.44952],[126.95418,37.44959],[126.95411,37.44959]]]}},{"type":"Feature","properties":{"valleyId":"gwanaksan","layer":"shadow","date":"2026-08-01","timeLocal":"10:00"},"geometry":{"type":"Polygon","coordinates":[[[126.94745,37.44939],[126.94745,37.44933],[126.94752,37.44933],[126.94751,37.44939],[126.94745,37.44939]]]}},{"type":"Feature","properties":{"valleyId":"gwanaksan","layer":"shadow","date":"2026-08-01","timeLocal":"10:00"},"geometry":{"type":"Polygon","coordinates":[[[126.95382,37.44933],[126.95378,37.4493],[126.95378,37.44923],[126.95389,37.44923],[126.95389,37.44934],[126.95382,37.44933]]]}},{"type":"Feature","properties":{"valleyId":"gwanaksan","layer":"shadow","date":"2026-08-01","timeLocal":"10:00"},"geometry":{"type":"Polygon","coordinates":[[[126.95292,37.44916],[126.95293,37.44905],[126.95302,37.44905],[126.95301,37.44916],[126.95292,37.44916]]]}},{"type":"Feature","properties":{"valleyId":"gwanaksan","layer":"shadow","date":"2026-08-01","timeLocal":"10:00"},"geometry":{"type":"Polygon","coordinates":[[[126.95144,37.44796],[126.95144,37.44785],[126.95151,37.44785],[126.95151,37.44796],[126.95144,37.44796]]]}},{"type":"Feature","properties":{"valleyId":"gwanaksan","layer":"shadow","date":"2026-08-01","timeLocal":"10:00"},"geometry":{"type":"Polygon","coordinates":[[[126.95092,37.44786],[126.95093,37.44781],[126.95099,37.44781],[126.95099,37.44786],[126.95092,37.44786]]]}},{"type":"Feature","properties":{"valleyId":"gwanaksan","layer":"shadow","date":"2026-08-01","timeLocal":"10:00"},"geometry":{"type":"Polygon","coordinates":[[[126.95378,37.44744],[126.95379,37.44737],[126.95385,37.44737],[126.95385,37.44744],[126.95378,37.44744]]]}},{"type":"Feature","properties":{"valleyId":"gwanaksan","layer":"shadow","date":"2026-08-01","timeLocal":"10:00"},"geometry":{"type":"Polygon","coordinates":[[[126.94705,37.44657],[126.94705,37.44651],[126.94712,37.44651],[126.94712,37.44657],[126.94705,37.44657]]]}},{"type":"Feature","properties":{"valleyId":"gwanaksan","layer":"shadow","date":"2026-08-01","timeLocal":"10:00"},"geometry":{"type":"Polygon","coordinates":[[[126.94898,37.44619],[126.94891,37.44615],[126.94892,37.44606],[126.94898,37.44606],[126.94898,37.4461],[126.94905,37.44613],[126.94905,37.44619],[126.94898,37.44619]]]}}]}
