{"type":"FeatureCollection","metadata":{"description":"개방지(CHM ≤ 2 m)에 드리운 나무·지형 그림자, 2026-08-01 16:00 KST. canopy 위에 겹쳐 그린다","source":"위성 기반 추정 — Copernicus GLO-30 지형(30 m) + Meta/WRI 수관 높이(1 m CHM, 2016 촬영). 그늘 = 수관(CHM > 2 m) ∪ 나무·지형 그림자 ∪ 원거리 지형 마스크. 현장과 다를 수 있음.","datasetVersion":"2026-09-06.0","collectedAt":"2026-09-06","coordinateOrder":"[longitude, latitude]","crs":"EPSG:4326","representativeDate":"2026-08-01","hours":["10:00","11:00","12:00","13:00","14:00","15:00","16:00","17:00","18:00"],"chmAcquisition":["2016-12"],"assets":{"glo30":{"dataset":"Copernicus DEM GLO-30 (COG, s3://copernicus-dem-30m)","tiles":["Copernicus_DSM_COG_10_N38_00_E127_00_DEM"]},"chm":{"dataset":"Meta/WRI Global Canopy Height Map v1 (alsgedi_global_v6_float, 1 m, CC-BY 4.0)","quadkeys":["132110303"],"acquisition":["2016-12"]}},"method":{"gridResM":2,"canopyThresholdM":2,"bufferHalfM":25,"corridorHalfM":200,"simplifyTolM":2,"minAreaM2":25,"coordDecimals":5},"generator":"scripts/shade 0.1.0","builtAt":"2026-09-06T06:12:08Z","layer":"shadow","timeLocal":"16:00"},"features":[{"type":"Feature","properties":{"valleyId":"gwangdeok","layer":"shadow","date":"2026-08-01","timeLocal":"16:00"},"geometry":{"type":"Polygon","coordinates":[[[127.44801,38.0942],[127.44806,38.09409],[127.44813,38.09409],[127.44813,38.0942],[127.44801,38.0942]]]}},{"type":"Feature","properties":{"valleyId":"gwangdeok","layer":"shadow","date":"2026-08-01","timeLocal":"16:00"},"geometry":{"type":"Polygon","coordinates":[[[127.4462,38.09365],[127.4462,38.0936],[127.44624,38.0936],[127.44622,38.09347],[127.44629,38.09347],[127.44631,38.0936],[127.44627,38.0936],[127.44627,38.09365],[127.4462,38.09365]]]}},{"type":"Feature","properties":{"valleyId":"gwangdeok","layer":"shadow","date":"2026-08-01","timeLocal":"16:00"},"geometry":{"type":"Polygon","coordinates":[[[127.4462,38.09345],[127.4462,38.09338],[127.44627,38.09338],[127.44627,38.09346],[127.4462,38.09345]]]}},{"type":"Feature","properties":{"valleyId":"gwangdeok","layer":"shadow","date":"2026-08-01","timeLocal":"16:00"},"geometry":{"type":"Polygon","coordinates":[[[127.4478,38.09346],[127.4478,38.0934],[127.44789,38.0934],[127.44789,38.09346],[127.4478,38.09346]]]}},{"type":"Feature","properties":{"valleyId":"gwangdeok","layer":"shadow","date":"2026-08-01","timeLocal":"16:00"},"geometry":{"type":"Polygon","coordinates":[[[127.44783,38.09312],[127.44783,38.09299],[127.4479,38.09299],[127.4479,38.09312],[127.44783,38.09312]]]}},{"type":"Feature","properties":{"valleyId":"gwangdeok","layer":"shadow","date":"2026-08-01","timeLocal":"16:00"},"geometry":{"type":"Polygon","coordinates":[[[127.44846,38.09247],[127.44846,38.09242],[127.44855,38.09242],[127.44855,38.09248],[127.44846,38.09247]]]}},{"type":"Feature","properties":{"valleyId":"gwangdeok","layer":"shadow","date":"2026-08-01","timeLocal":"16:00"},"geometry":{"type":"Polygon","coordinates":[[[127.44851,38.09228],[127.44851,38.09222],[127.44856,38.09219],[127.44862,38.09219],[127.44865,38.09215],[127.44863,38.09201],[127.44872,38.09201],[127.44869,38.09221],[127.44862,38.09221],[127.44858,38.09228],[127.44851,38.09228]]]}},{"type":"Feature","properties":{"valleyId":"gwangdeok","layer":"shadow","date":"2026-08-01","timeLocal":"16:00"},"geometry":{"type":"Polygon","coordinates":[[[127.44727,38.09163],[127.44727,38.09156],[127.44734,38.09156],[127.44734,38.09163],[127.44727,38.09163]]]}},{"type":"Feature","properties":{"valleyId":"gwangdeok","layer":"shadow","date":"2026-08-01","timeLocal":"16:00"},"geometry":{"type":"Polygon","coordinates":[[[127.44891,38.0916],[127.44891,38.09151],[127.449,38.09151],[127.44898,38.0916],[127.44891,38.0916]]]}},{"type":"Feature","properties":{"valleyId":"gwangdeok","layer":"shadow","date":"2026-08-01","timeLocal":"16:00"},"geometry":{"type":"Polygon","coordinates":[[[127.4491,38.09147],[127.4491,38.09135],[127.44917,38.09135],[127.44916,38.09147],[127.4491,38.09147]]]}},{"type":"Feature","properties":{"valleyId":"gwangdeok","layer":"shadow","date":"2026-08-01","timeLocal":"16:00"},"geometry":{"type":"Polygon","coordinates":[[[127.44794,38.09131],[127.44794,38.09126],[127.448,38.09126],[127.448,38.09132],[127.44794,38.09131]]]}},{"type":"Feature","properties":{"valleyId":"gwangdeok","layer":"shadow","date":"2026-08-01","timeLocal":"16:00"},"geometry":{"type":"Polygon","coordinates":[[[127.44737,38.09123],[127.44737,38.09118],[127.44746,38.09116],[127.44746,38.09124],[127.44737,38.09123]]]}},{"type":"Feature","properties":{"valleyId":"gwangdeok","layer":"shadow","date":"2026-08-01","timeLocal":"16:00"},"geometry":{"type":"Polygon","coordinates":[[[127.44767,38.09104],[127.44767,38.09099],[127.44774,38.09099],[127.44774,38.09104],[127.44767,38.09104]]]}},{"type":"Feature","properties":{"valleyId":"gwangdeok","layer":"shadow","date":"2026-08-01","timeLocal":"16:00"},"geometry":{"type":"Polygon","coordinates":[[[127.44767,38.09091],[127.44765,38.09081],[127.44772,38.09081],[127.44776,38.09092],[127.44767,38.09091]]]}},{"type":"Feature","properties":{"valleyId":"gwangdeok","layer":"shadow","date":"2026-08-01","timeLocal":"16:00"},"geometry":{"type":"Polygon","coordinates":[[[127.44756,38.09079],[127.44761,38.09057],[127.44779,38.09059],[127.44779,38.09065],[127.4477,38.09064],[127.44765,38.09068],[127.44763,38.09079],[127.44756,38.09079]]]}},{"type":"Feature","properties":{"valleyId":"gwangdeok","layer":"shadow","date":"2026-08-01","timeLocal":"16:00"},"geometry":{"type":"Polygon","coordinates":[[[127.4524,38.09072],[127.4524,38.09062],[127.45247,38.09062],[127.45246,38.09073],[127.4524,38.09072]]]}},{"type":"Feature","properties":{"valleyId":"gwangdeok","layer":"shadow","date":"2026-08-01","timeLocal":"16:00"},"geometry":{"type":"Polygon","coordinates":[[[127.4477,38.09054],[127.4477,38.09046],[127.44782,38.09045],[127.44779,38.09054],[127.4477,38.09054]]]}},{"type":"Feature","properties":{"valleyId":"gwangdeok","layer":"shadow","date":"2026-08-01","timeLocal":"16:00"},"geometry":{"type":"Polygon","coordinates":[[[127.44853,38.09022],[127.44853,38.09015],[127.44862,38.09013],[127.44862,38.09021],[127.44853,38.09022]]]}},{"type":"Feature","properties":{"valleyId":"gwangdeok","layer":"shadow","date":"2026-08-01","timeLocal":"16:00"},"geometry":{"type":"Polygon","coordinates":[[[127.45109,38.09002],[127.45111,38.08991],[127.45118,38.08992],[127.45118,38.09001],[127.45109,38.09002]]]}},{"type":"Feature","properties":{"valleyId":"gwangdeok","layer":"shadow","date":"2026-08-01","timeLocal":"16:00"},"geometry":{"type":"Polygon","coordinates":[[[127.45126,38.08929],[127.45122,38.08923],[127.45122,38.08918],[127.45129,38.08918],[127.45129,38.08921],[127.45133,38.08923],[127.45133,38.08929],[127.45126,38.08929]]]}},{"type":"Feature","properties":{"valleyId":"gwangdeok","layer":"shadow","date":"2026-08-01","timeLocal":"16:00"},"geometry":{"type":"Polygon","coordinates":[[[127.45492,38.08867],[127.45493,38.08861],[127.45499,38.08861],[127.45499,38.08867],[127.45492,38.08867]]]}}]}
