{"type":"FeatureCollection","metadata":{"description":"개방지(CHM ≤ 2 m)에 드리운 나무·지형 그림자, 2026-08-01 17:00 KST. canopy 위에 겹쳐 그린다","source":"위성 기반 추정 — Copernicus GLO-30 지형(30 m) + Meta/WRI 수관 높이(1 m CHM, 2016 촬영). 그늘 = 수관(CHM > 2 m) ∪ 나무·지형 그림자 ∪ 원거리 지형 마스크. 현장과 다를 수 있음.","datasetVersion":"2026-09-06.0","collectedAt":"2026-09-06","coordinateOrder":"[longitude, latitude]","crs":"EPSG:4326","representativeDate":"2026-08-01","hours":["10:00","11:00","12:00","13:00","14:00","15:00","16:00","17:00","18:00"],"chmAcquisition":["2016-12"],"assets":{"glo30":{"dataset":"Copernicus DEM GLO-30 (COG, s3://copernicus-dem-30m)","tiles":["Copernicus_DSM_COG_10_N38_00_E127_00_DEM"]},"chm":{"dataset":"Meta/WRI Global Canopy Height Map v1 (alsgedi_global_v6_float, 1 m, CC-BY 4.0)","quadkeys":["132110303"],"acquisition":["2016-12"]}},"method":{"gridResM":2,"canopyThresholdM":2,"bufferHalfM":25,"corridorHalfM":200,"simplifyTolM":2,"minAreaM2":25,"coordDecimals":5},"generator":"scripts/shade 0.1.0","builtAt":"2026-09-06T06:12:08Z","layer":"shadow","timeLocal":"17:00"},"features":[{"type":"Feature","properties":{"valleyId":"gwangdeok","layer":"shadow","date":"2026-08-01","timeLocal":"17:00"},"geometry":{"type":"Polygon","coordinates":[[[127.44861,38.09594],[127.44864,38.09585],[127.44877,38.09585],[127.44877,38.0959],[127.44873,38.09594],[127.44861,38.09594]]]}},{"type":"Feature","properties":{"valleyId":"gwangdeok","layer":"shadow","date":"2026-08-01","timeLocal":"17:00"},"geometry":{"type":"Polygon","coordinates":[[[127.44649,38.09595],[127.44638,38.09587],[127.44634,38.09571],[127.44636,38.09557],[127.44643,38.09557],[127.44643,38.09567],[127.44656,38.0958],[127.44656,38.09595],[127.44649,38.09595]]]}},{"type":"Feature","properties":{"valleyId":"gwangdeok","layer":"shadow","date":"2026-08-01","timeLocal":"17:00"},"geometry":{"type":"Polygon","coordinates":[[[127.44682,38.09534],[127.44683,38.09528],[127.44689,38.09528],[127.44689,38.09534],[127.44682,38.09534]]]}},{"type":"Feature","properties":{"valleyId":"gwangdeok","layer":"shadow","date":"2026-08-01","timeLocal":"17:00"},"geometry":{"type":"Polygon","coordinates":[[[127.44667,38.0951],[127.44667,38.09505],[127.44674,38.09505],[127.44674,38.0951],[127.44667,38.0951]]]}},{"type":"Feature","properties":{"valleyId":"gwangdeok","layer":"shadow","date":"2026-08-01","timeLocal":"17:00"},"geometry":{"type":"Polygon","coordinates":[[[127.44683,38.09503],[127.44683,38.0949],[127.44692,38.09491],[127.44695,38.095],[127.4469,38.09503],[127.44683,38.09503]]]}},{"type":"Feature","properties":{"valleyId":"gwangdeok","layer":"shadow","date":"2026-08-01","timeLocal":"17:00"},"geometry":{"type":"Polygon","coordinates":[[[127.44602,38.09554],[127.446,38.09545],[127.44607,38.09545],[127.44605,38.09534],[127.44623,38.09526],[127.44623,38.09519],[127.44607,38.09518],[127.44608,38.09513],[127.44601,38.09511],[127.44601,38.09504],[127.44592,38.09498],[127.44576,38.09496],[127.44569,38.09491],[127.44569,38.09485],[127.4459,38.09486],[127.44592,38.09489],[127.44604,38.09489],[127.44603,38.09495],[127.44651,38.09495],[127.44651,38.09512],[127.44667,38.09512],[127.44667,38.09517],[127.44658,38.09523],[127.44657,38.09528],[127.44653,38.09528],[127.44652,38.09553],[127.44643,38.09553],[127.44641,38.09535],[127.44632,38.09535],[127.44632,38.09555],[127.44623,38.09555],[127.44623,38.09549],[127.44616,38.09549],[127.44616,38.09554],[127.44602,38.09554]]]}},{"type":"Feature","properties":{"valleyId":"gwangdeok","layer":"shadow","date":"2026-08-01","timeLocal":"17:00"},"geometry":{"type":"Polygon","coordinates":[[[127.4477,38.0949],[127.4477,38.09483],[127.44777,38.09483],[127.44777,38.0949],[127.4477,38.0949]]]}},{"type":"Feature","properties":{"valleyId":"gwangdeok","layer":"shadow","date":"2026-08-01","timeLocal":"17:00"},"geometry":{"type":"Polygon","coordinates":[[[127.44672,38.09489],[127.44661,38.09487],[127.44665,38.09474],[127.44661,38.09447],[127.44668,38.09447],[127.44668,38.09452],[127.44677,38.09453],[127.44682,38.09462],[127.44695,38.09464],[127.44697,38.09478],[127.44693,38.09478],[127.44693,38.09483],[127.44672,38.09489]]]}},{"type":"Feature","properties":{"valleyId":"gwangdeok","layer":"shadow","date":"2026-08-01","timeLocal":"17:00"},"geometry":{"type":"Polygon","coordinates":[[[127.44743,38.09462],[127.44743,38.09457],[127.44748,38.09457],[127.44748,38.09453],[127.44753,38.09452],[127.44753,38.09441],[127.4476,38.09441],[127.44762,38.09454],[127.44755,38.09457],[127.44752,38.09463],[127.44743,38.09462]]]}},{"type":"Feature","properties":{"valleyId":"gwangdeok","layer":"shadow","date":"2026-08-01","timeLocal":"17:00"},"geometry":{"type":"Polygon","coordinates":[[[127.44652,38.09445],[127.4465,38.09438],[127.44657,38.09438],[127.44659,38.09445],[127.44652,38.09445]]]}},{"type":"Feature","properties":{"valleyId":"gwangdeok","layer":"shadow","date":"2026-08-01","timeLocal":"17:00"},"geometry":{"type":"Polygon","coordinates":[[[127.44776,38.09441],[127.44776,38.09429],[127.44783,38.09429],[127.44785,38.09422],[127.44792,38.09422],[127.44792,38.09438],[127.44785,38.09441],[127.44776,38.09441]]]}},{"type":"Feature","properties":{"valleyId":"gwangdeok","layer":"shadow","date":"2026-08-01","timeLocal":"17:00"},"geometry":{"type":"Polygon","coordinates":[[[127.44625,38.09436],[127.44618,38.09432],[127.44616,38.09417],[127.44623,38.09418],[127.44623,38.09423],[127.44628,38.09423],[127.44628,38.09427],[127.44637,38.0943],[127.44637,38.09436],[127.44625,38.09436]]]}},{"type":"Feature","properties":{"valleyId":"gwangdeok","layer":"shadow","date":"2026-08-01","timeLocal":"17:00"},"geometry":{"type":"Polygon","coordinates":[[[127.44721,38.09428],[127.44721,38.09419],[127.44728,38.09419],[127.44733,38.09423],[127.44733,38.09428],[127.44721,38.09428]]]}},{"type":"Feature","properties":{"valleyId":"gwangdeok","layer":"shadow","date":"2026-08-01","timeLocal":"17:00"},"geometry":{"type":"Polygon","coordinates":[[[127.44799,38.09425],[127.44808,38.09404],[127.44827,38.09402],[127.44824,38.09417],[127.44813,38.09416],[127.44806,38.09425],[127.44799,38.09425]]]}},{"type":"Feature","properties":{"valleyId":"gwangdeok","layer":"shadow","date":"2026-08-01","timeLocal":"17:00"},"geometry":{"type":"Polygon","coordinates":[[[127.44703,38.0941],[127.44697,38.09399],[127.44699,38.09383],[127.44708,38.09383],[127.4471,38.0941],[127.44703,38.0941]]]}},{"type":"Feature","properties":{"valleyId":"gwangdeok","layer":"shadow","date":"2026-08-01","timeLocal":"17:00"},"geometry":{"type":"Polygon","coordinates":[[[127.44745,38.09369],[127.44743,38.09352],[127.44755,38.09353],[127.44752,38.09369],[127.44745,38.09369]]]}},{"type":"Feature","properties":{"valleyId":"gwangdeok","layer":"shadow","date":"2026-08-01","timeLocal":"17:00"},"geometry":{"type":"Polygon","coordinates":[[[127.44679,38.09377],[127.44677,38.09373],[127.44661,38.09368],[127.44627,38.09371],[127.4462,38.09363],[127.44613,38.09362],[127.44613,38.09358],[127.44604,38.09356],[127.44604,38.09351],[127.44622,38.09353],[127.44623,38.09345],[127.44613,38.09345],[127.44614,38.0934],[127.44618,38.09336],[127.44641,38.09338],[127.4465,38.09335],[127.4465,38.09328],[127.44662,38.09328],[127.44666,38.09341],[127.44673,38.09341],[127.44675,38.09344],[127.44672,38.09361],[127.44688,38.09361],[127.44688,38.09377],[127.44679,38.09377]],[[127.44654,38.0936],[127.44661,38.0936],[127.44661,38.09353],[127.44666,38.09351],[127.44664,38.09341],[127.44648,38.0934],[127.44645,38.09344],[127.44641,38.09344],[127.44641,38.09351],[127.44654,38.09355],[127.44654,38.0936]]]}},{"type":"Feature","properties":{"valleyId":"gwangdeok","layer":"shadow","date":"2026-08-01","timeLocal":"17:00"},"geometry":{"type":"Polygon","coordinates":[[[127.44728,38.09327],[127.44728,38.09318],[127.44735,38.09318],[127.44735,38.09327],[127.44728,38.09327]]]}},{"type":"Feature","properties":{"valleyId":"gwangdeok","layer":"shadow","date":"2026-08-01","timeLocal":"17:00"},"geometry":{"type":"Polygon","coordinates":[[[127.44833,38.09406],[127.44834,38.09399],[127.44845,38.09393],[127.44845,38.09388],[127.4485,38.09385],[127.44848,38.09359],[127.44843,38.09357],[127.44841,38.09345],[127.44842,38.09338],[127.44851,38.09332],[127.44851,38.0932],[127.44844,38.09316],[127.44844,38.09311],[127.44865,38.09305],[127.44867,38.09309],[127.44881,38.09311],[127.44878,38.09322],[127.44872,38.09327],[127.44867,38.09327],[127.4486,38.09341],[127.44859,38.09381],[127.44863,38.09383],[127.44863,38.09394],[127.44852,38.09397],[127.44842,38.09406],[127.44833,38.09406]]]}},{"type":"Feature","properties":{"valleyId":"gwangdeok","layer":"shadow","date":"2026-08-01","timeLocal":"17:00"},"geometry":{"type":"Polygon","coordinates":[[[127.44892,38.09311],[127.44893,38.09302],[127.44899,38.09302],[127.44902,38.09309],[127.44892,38.09311]]]}},{"type":"Feature","properties":{"valleyId":"gwangdeok","layer":"shadow","date":"2026-08-01","timeLocal":"17:00"},"geometry":{"type":"Polygon","coordinates":[[[127.4484,38.093],[127.4484,38.09294],[127.44847,38.09294],[127.44847,38.093],[127.4484,38.093]]]}},{"type":"Feature","properties":{"valleyId":"gwangdeok","layer":"shadow","date":"2026-08-01","timeLocal":"17:00"},"geometry":{"type":"Polygon","coordinates":[[[127.44701,38.09305],[127.44701,38.093],[127.4471,38.09296],[127.4471,38.09287],[127.44731,38.09289],[127.44731,38.09296],[127.44726,38.09296],[127.44722,38.09302],[127.44701,38.09305]]]}},{"type":"Feature","properties":{"valleyId":"gwangdeok","layer":"shadow","date":"2026-08-01","timeLocal":"17:00"},"geometry":{"type":"Polygon","coordinates":[[[127.44888,38.093],[127.44888,38.09282],[127.44895,38.09282],[127.44895,38.093],[127.44888,38.093]]]}},{"type":"Feature","properties":{"valleyId":"gwangdeok","layer":"shadow","date":"2026-08-01","timeLocal":"17:00"},"geometry":{"type":"Polygon","coordinates":[[[127.44882,38.09282],[127.44882,38.09271],[127.44889,38.09271],[127.44888,38.09282],[127.44882,38.09282]]]}},{"type":"Feature","properties":{"valleyId":"gwangdeok","layer":"shadow","date":"2026-08-01","timeLocal":"17:00"},"geometry":{"type":"Polygon","coordinates":[[[127.44797,38.094],[127.44795,38.09396],[127.44786,38.09396],[127.44781,38.09393],[127.44781,38.09385],[127.44777,38.09384],[127.44777,38.09362],[127.44768,38.09362],[127.44768,38.09355],[127.44777,38.09353],[127.44778,38.09344],[127.44744,38.09338],[127.44742,38.09315],[127.44735,38.09315],[127.44735,38.09309],[127.44742,38.09309],[127.44742,38.09288],[127.44756,38.09284],[127.44756,38.09277],[127.44768,38.09277],[127.44768,38.09281],[127.44774,38.09281],[127.44775,38.09265],[127.44804,38.09263],[127.44804,38.09269],[127.44797,38.09272],[127.44797,38.09277],[127.44802,38.09278],[127.44809,38.09285],[127.44808,38.09326],[127.44814,38.09337],[127.4483,38.09341],[127.4483,38.09346],[127.44823,38.0935],[127.44789,38.09351],[127.44791,38.0936],[127.44825,38.09361],[127.44825,38.09368],[127.44807,38.09366],[127.44806,38.094],[127.44797,38.094]]]}},{"type":"Feature","properties":{"valleyId":"gwangdeok","layer":"shadow","date":"2026-08-01","timeLocal":"17:00"},"geometry":{"type":"Polygon","coordinates":[[[127.44763,38.09266],[127.44761,38.09255],[127.44768,38.09255],[127.4477,38.09266],[127.44763,38.09266]]]}},{"type":"Feature","properties":{"valleyId":"gwangdeok","layer":"shadow","date":"2026-08-01","timeLocal":"17:00"},"geometry":{"type":"Polygon","coordinates":[[[127.44679,38.09269],[127.4468,38.09233],[127.44675,38.09231],[127.44675,38.09224],[127.44691,38.09226],[127.44691,38.09231],[127.44709,38.09233],[127.44718,38.09239],[127.44716,38.09248],[127.44702,38.09247],[127.447,38.09251],[127.44688,38.09254],[127.44686,38.09269],[127.44679,38.09269]]]}},{"type":"Feature","properties":{"valleyId":"gwangdeok","layer":"shadow","date":"2026-08-01","timeLocal":"17:00"},"geometry":{"type":"Polygon","coordinates":[[[127.45286,38.09131],[127.45284,38.09116],[127.45287,38.09113],[127.45293,38.09113],[127.45293,38.09131],[127.45286,38.09131]]]}},{"type":"Feature","properties":{"valleyId":"gwangdeok","layer":"shadow","date":"2026-08-01","timeLocal":"17:00"},"geometry":{"type":"Polygon","coordinates":[[[127.45469,38.0911],[127.45469,38.09095],[127.45474,38.09083],[127.45488,38.09079],[127.45488,38.09088],[127.45478,38.09099],[127.45478,38.0911],[127.45469,38.0911]]]}},{"type":"Feature","properties":{"valleyId":"gwangdeok","layer":"shadow","date":"2026-08-01","timeLocal":"17:00"},"geometry":{"type":"Polygon","coordinates":[[[127.44959,38.09069],[127.44959,38.09062],[127.44968,38.09062],[127.44968,38.09067],[127.44959,38.09069]]]}},{"type":"Feature","properties":{"valleyId":"gwangdeok","layer":"shadow","date":"2026-08-01","timeLocal":"17:00"},"geometry":{"type":"Polygon","coordinates":[[[127.4549,38.09078],[127.45493,38.09067],[127.455,38.09067],[127.45499,38.09076],[127.4549,38.09078]]]}},{"type":"Feature","properties":{"valleyId":"gwangdeok","layer":"shadow","date":"2026-08-01","timeLocal":"17:00"},"geometry":{"type":"Polygon","coordinates":[[[127.45002,38.09068],[127.45003,38.09057],[127.45009,38.09057],[127.45009,38.09068],[127.45002,38.09068]]]}},{"type":"Feature","properties":{"valleyId":"gwangdeok","layer":"shadow","date":"2026-08-01","timeLocal":"17:00"},"geometry":{"type":"Polygon","coordinates":[[[127.45239,38.09083],[127.4524,38.09062],[127.45254,38.09053],[127.45254,38.09049],[127.45261,38.09049],[127.45258,38.09071],[127.45251,38.09073],[127.45251,38.0908],[127.45246,38.09083],[127.45239,38.09083]]]}},{"type":"Feature","properties":{"valleyId":"gwangdeok","layer":"shadow","date":"2026-08-01","timeLocal":"17:00"},"geometry":{"type":"Polygon","coordinates":[[[127.45012,38.0905],[127.45012,38.09042],[127.45019,38.09042],[127.45019,38.0905],[127.45012,38.0905]]]}},{"type":"Feature","properties":{"valleyId":"gwangdeok","layer":"shadow","date":"2026-08-01","timeLocal":"17:00"},"geometry":{"type":"Polygon","coordinates":[[[127.45044,38.0905],[127.45044,38.09043],[127.45051,38.09043],[127.45051,38.0905],[127.45044,38.0905]]]}},{"type":"Feature","properties":{"valleyId":"gwangdeok","layer":"shadow","date":"2026-08-01","timeLocal":"17:00"},"geometry":{"type":"Polygon","coordinates":[[[127.4487,38.09268],[127.44866,38.0926],[127.44862,38.0926],[127.44859,38.09257],[127.44855,38.09257],[127.4485,38.09249],[127.44846,38.09249],[127.44846,38.09242],[127.44841,38.0924],[127.44841,38.09237],[127.44835,38.09237],[127.44835,38.09228],[127.44819,38.09225],[127.44819,38.09218],[127.44815,38.09218],[127.44812,38.09209],[127.4479,38.09209],[127.44781,38.09205],[127.44779,38.09173],[127.44761,38.09172],[127.44761,38.09169],[127.44747,38.09165],[127.44747,38.09161],[127.44738,38.09161],[127.44738,38.09167],[127.44724,38.09168],[127.44722,38.09159],[127.44727,38.09159],[127.44729,38.09156],[127.4473,38.09134],[127.44718,38.09134],[127.44718,38.09139],[127.44707,38.09139],[127.447,38.09134],[127.44695,38.09134],[127.44696,38.09127],[127.447,38.09123],[127.44703,38.09114],[127.44723,38.09118],[127.44728,38.09122],[127.44737,38.09122],[127.44741,38.09113],[127.44758,38.09109],[127.44758,38.09106],[127.44769,38.09099],[127.44765,38.09082],[127.4476,38.09079],[127.44742,38.09075],[127.44742,38.09066],[127.44749,38.09061],[127.44759,38.09061],[127.4477,38.09052],[127.4477,38.09046],[127.44786,38.09039],[127.44786,38.09034],[127.44798,38.09034],[127.44797,38.09052],[127.44802,38.09056],[127.44818,38.09058],[127.44834,38.09065],[127.44866,38.09066],[127.44865,38.09075],[127.44875,38.09077],[127.44881,38.09088],[127.44895,38.0909],[127.44897,38.09093],[127.44929,38.09094],[127.44933,38.09099],[127.44945,38.09099],[127.44945,38.09096],[127.44949,38.09096],[127.44952,38.0909],[127.44956,38.0909],[127.44956,38.09085],[127.4495,38.09081],[127.44929,38.09081],[127.44929,38.09077],[127.4492,38.09077],[127.4492,38.09074],[127.44907,38.09073],[127.44902,38.0907],[127.44902,38.09061],[127.44914,38.09061],[127.44929,38.09074],[127.44963,38.09078],[127.44963,38.09083],[127.44968,38.09085],[127.44968,38.0909],[127.44958,38.09096],[127.44958,38.09099],[127.44952,38.09099],[127.44952,38.09103],[127.44945,38.09105],[127.44945,38.0911],[127.44935,38.09117],[127.44939,38.09133],[127.44937,38.0915],[127.44941,38.0916],[127.44932,38.09168],[127.44931,38.09202],[127.44911,38.09201],[127.44904,38.09207],[127.44899,38.09207],[127.44896,38.09228],[127.4488,38.09228],[127.4488,38.09232],[127.44864,38.09237],[127.44866,38.09248],[127.44875,38.0925],[127.44882,38.09261],[127.44882,38.09268],[127.4487,38.09268]],[[127.44884,38.09152],[127.4491,38.09147],[127.44908,38.09133],[127.44923,38.09133],[127.44924,38.09126],[127.44912,38.09124],[127.44892,38.09127],[127.44892,38.09136],[127.44878,38.0914],[127.44875,38.09143],[127.44875,38.09149],[127.44884,38.09152]],[[127.44752,38.09144],[127.44764,38.09144],[127.44766,38.09133],[127.44741,38.09134],[127.44741,38.0914],[127.44748,38.0914],[127.44752,38.09144]],[[127.44835,38.09105],[127.44842,38.09105],[127.44842,38.091],[127.44835,38.091],[127.44835,38.09105]]]}},{"type":"Feature","properties":{"valleyId":"gwangdeok","layer":"shadow","date":"2026-08-01","timeLocal":"17:00"},"geometry":{"type":"Polygon","coordinates":[[[127.44985,38.09049],[127.44983,38.09037],[127.44992,38.09037],[127.44991,38.09049],[127.44985,38.09049]]]}},{"type":"Feature","properties":{"valleyId":"gwangdeok","layer":"shadow","date":"2026-08-01","timeLocal":"17:00"},"geometry":{"type":"Polygon","coordinates":[[[127.45254,38.09037],[127.45247,38.09026],[127.45241,38.09022],[127.45241,38.09015],[127.45248,38.09015],[127.45254,38.0902],[127.45261,38.09031],[127.45261,38.09037],[127.45254,38.09037]]]}},{"type":"Feature","properties":{"valleyId":"gwangdeok","layer":"shadow","date":"2026-08-01","timeLocal":"17:00"},"geometry":{"type":"Polygon","coordinates":[[[127.44971,38.09036],[127.44967,38.09026],[127.44967,38.09009],[127.44976,38.09009],[127.44976,38.09018],[127.44981,38.09024],[127.4498,38.09037],[127.44971,38.09036]]]}},{"type":"Feature","properties":{"valleyId":"gwangdeok","layer":"shadow","date":"2026-08-01","timeLocal":"17:00"},"geometry":{"type":"Polygon","coordinates":[[[127.44949,38.09011],[127.44949,38.09006],[127.44956,38.09006],[127.44956,38.09011],[127.44949,38.09011]]]}},{"type":"Feature","properties":{"valleyId":"gwangdeok","layer":"shadow","date":"2026-08-01","timeLocal":"17:00"},"geometry":{"type":"Polygon","coordinates":[[[127.45079,38.09029],[127.45074,38.09014],[127.45083,38.09011],[127.45084,38.09005],[127.4509,38.09006],[127.45088,38.09029],[127.45079,38.09029]]]}},{"type":"Feature","properties":{"valleyId":"gwangdeok","layer":"shadow","date":"2026-08-01","timeLocal":"17:00"},"geometry":{"type":"Polygon","coordinates":[[[127.44895,38.09055],[127.44896,38.09041],[127.44866,38.09039],[127.44867,38.09022],[127.44853,38.09022],[127.44853,38.09015],[127.44862,38.0901],[127.4486,38.08988],[127.4487,38.0899],[127.44871,38.09004],[127.44887,38.09007],[127.44892,38.09012],[127.44933,38.09011],[127.44935,38.09022],[127.44944,38.09025],[127.44946,38.09038],[127.44953,38.09038],[127.44955,38.09047],[127.44959,38.09049],[127.44959,38.09056],[127.44952,38.09056],[127.44946,38.09051],[127.4493,38.0905],[127.4493,38.09047],[127.44914,38.09048],[127.44914,38.09056],[127.44895,38.09055]]]}},{"type":"Feature","properties":{"valleyId":"gwangdeok","layer":"shadow","date":"2026-08-01","timeLocal":"17:00"},"geometry":{"type":"Polygon","coordinates":[[[127.44915,38.09003],[127.44904,38.09],[127.44904,38.08994],[127.44913,38.08992],[127.44913,38.08985],[127.4492,38.08985],[127.44924,38.08996],[127.44929,38.08996],[127.44929,38.09003],[127.44915,38.09003]]]}},{"type":"Feature","properties":{"valleyId":"gwangdeok","layer":"shadow","date":"2026-08-01","timeLocal":"17:00"},"geometry":{"type":"Polygon","coordinates":[[[127.44931,38.08991],[127.44931,38.08985],[127.44938,38.08986],[127.44938,38.08991],[127.44931,38.08991]]]}},{"type":"Feature","properties":{"valleyId":"gwangdeok","layer":"shadow","date":"2026-08-01","timeLocal":"17:00"},"geometry":{"type":"Polygon","coordinates":[[[127.45478,38.09023],[127.45478,38.08987],[127.45485,38.08987],[127.45485,38.09023],[127.45478,38.09023]]]}},{"type":"Feature","properties":{"valleyId":"gwangdeok","layer":"shadow","date":"2026-08-01","timeLocal":"17:00"},"geometry":{"type":"Polygon","coordinates":[[[127.44918,38.08983],[127.44918,38.08976],[127.44925,38.08976],[127.44924,38.08984],[127.44918,38.08983]]]}},{"type":"Feature","properties":{"valleyId":"gwangdeok","layer":"shadow","date":"2026-08-01","timeLocal":"17:00"},"geometry":{"type":"Polygon","coordinates":[[[127.44881,38.08978],[127.44877,38.08974],[127.44877,38.08967],[127.44888,38.08967],[127.44888,38.08978],[127.44881,38.08978]]]}},{"type":"Feature","properties":{"valleyId":"gwangdeok","layer":"shadow","date":"2026-08-01","timeLocal":"17:00"},"geometry":{"type":"Polygon","coordinates":[[[127.44895,38.08971],[127.44895,38.08963],[127.44904,38.08962],[127.44902,38.08971],[127.44895,38.08971]]]}},{"type":"Feature","properties":{"valleyId":"gwangdeok","layer":"shadow","date":"2026-08-01","timeLocal":"17:00"},"geometry":{"type":"Polygon","coordinates":[[[127.45109,38.09008],[127.45109,38.08981],[127.45102,38.08981],[127.45102,38.08986],[127.45095,38.08986],[127.45091,38.08979],[127.45082,38.08973],[127.45082,38.08969],[127.45073,38.08966],[127.45062,38.08966],[127.45064,38.08957],[127.45078,38.08955],[127.45078,38.08962],[127.45084,38.08962],[127.45087,38.08966],[127.451,38.08966],[127.451,38.0897],[127.45107,38.0897],[127.45112,38.08973],[127.45111,38.08979],[127.45121,38.08983],[127.4512,38.08988],[127.45129,38.0899],[127.45129,38.08999],[127.4512,38.09006],[127.45109,38.09008]]]}},{"type":"Feature","properties":{"valleyId":"gwangdeok","layer":"shadow","date":"2026-08-01","timeLocal":"17:00"},"geometry":{"type":"Polygon","coordinates":[[[127.44898,38.08936],[127.44898,38.08926],[127.44905,38.08926],[127.44905,38.08936],[127.44898,38.08936]]]}},{"type":"Feature","properties":{"valleyId":"gwangdeok","layer":"shadow","date":"2026-08-01","timeLocal":"17:00"},"geometry":{"type":"Polygon","coordinates":[[[127.44907,38.08924],[127.44908,38.08917],[127.44914,38.08917],[127.44914,38.08924],[127.44907,38.08924]]]}},{"type":"Feature","properties":{"valleyId":"gwangdeok","layer":"shadow","date":"2026-08-01","timeLocal":"17:00"},"geometry":{"type":"Polygon","coordinates":[[[127.45065,38.08924],[127.45065,38.08919],[127.45072,38.08919],[127.45072,38.08924],[127.45065,38.08924]]]}},{"type":"Feature","properties":{"valleyId":"gwangdeok","layer":"shadow","date":"2026-08-01","timeLocal":"17:00"},"geometry":{"type":"Polygon","coordinates":[[[127.45132,38.08981],[127.45132,38.08966],[127.45141,38.08963],[127.45144,38.08943],[127.45124,38.08927],[127.4512,38.08919],[127.4512,38.08903],[127.45127,38.08903],[127.45127,38.08907],[127.45131,38.08909],[127.45131,38.08916],[127.45156,38.08922],[127.4516,38.08931],[127.45165,38.08931],[127.45165,38.0894],[127.45158,38.08942],[127.4516,38.08956],[127.45153,38.08958],[127.45151,38.08965],[127.45144,38.08965],[127.45146,38.08979],[127.45132,38.08981]]]}},{"type":"Feature","properties":{"valleyId":"gwangdeok","layer":"shadow","date":"2026-08-01","timeLocal":"17:00"},"geometry":{"type":"Polygon","coordinates":[[[127.45464,38.08911],[127.45464,38.08906],[127.45471,38.08906],[127.45471,38.08911],[127.45464,38.08911]]]}},{"type":"Feature","properties":{"valleyId":"gwangdeok","layer":"shadow","date":"2026-08-01","timeLocal":"17:00"},"geometry":{"type":"Polygon","coordinates":[[[127.45458,38.08895],[127.45449,38.08893],[127.45449,38.08888],[127.45453,38.08888],[127.45453,38.08882],[127.45467,38.08883],[127.45467,38.08893],[127.45458,38.08895]]]}},{"type":"Feature","properties":{"valleyId":"gwangdeok","layer":"shadow","date":"2026-08-01","timeLocal":"17:00"},"geometry":{"type":"Polygon","coordinates":[[[127.45453,38.08877],[127.45454,38.0887],[127.4546,38.0887],[127.4546,38.08877],[127.45453,38.08877]]]}},{"type":"Feature","properties":{"valleyId":"gwangdeok","layer":"shadow","date":"2026-08-01","timeLocal":"17:00"},"geometry":{"type":"Polygon","coordinates":[[[127.45588,38.08866],[127.45588,38.08859],[127.456,38.08859],[127.456,38.08866],[127.45588,38.08866]]]}},{"type":"Feature","properties":{"valleyId":"gwangdeok","layer":"shadow","date":"2026-08-01","timeLocal":"17:00"},"geometry":{"type":"Polygon","coordinates":[[[127.45579,38.08855],[127.45579,38.08848],[127.45586,38.08848],[127.45586,38.08855],[127.45579,38.08855]]]}},{"type":"Feature","properties":{"valleyId":"gwangdeok","layer":"shadow","date":"2026-08-01","timeLocal":"17:00"},"geometry":{"type":"Polygon","coordinates":[[[127.45492,38.08876],[127.45493,38.08859],[127.45486,38.08859],[127.45486,38.08856],[127.45481,38.08854],[127.45479,38.08839],[127.45488,38.0884],[127.45493,38.08845],[127.45493,38.08854],[127.45506,38.08861],[127.45506,38.08872],[127.45492,38.08876]]]}},{"type":"Feature","properties":{"valleyId":"gwangdeok","layer":"shadow","date":"2026-08-01","timeLocal":"17:00"},"geometry":{"type":"Polygon","coordinates":[[[127.4544,38.08843],[127.45441,38.08832],[127.45448,38.08832],[127.4545,38.08843],[127.4544,38.08843]]]}},{"type":"Feature","properties":{"valleyId":"gwangdeok","layer":"shadow","date":"2026-08-01","timeLocal":"17:00"},"geometry":{"type":"Polygon","coordinates":[[[127.45185,38.08834],[127.45183,38.08818],[127.45192,38.08816],[127.45194,38.0883],[127.45192,38.08834],[127.45185,38.08834]]]}},{"type":"Feature","properties":{"valleyId":"gwangdeok","layer":"shadow","date":"2026-08-01","timeLocal":"17:00"},"geometry":{"type":"Polygon","coordinates":[[[127.45425,38.08823],[127.45425,38.08817],[127.4543,38.08817],[127.4543,38.08806],[127.45437,38.08806],[127.45441,38.08817],[127.45432,38.08817],[127.45432,38.08823],[127.45425,38.08823]]]}},{"type":"Feature","properties":{"valleyId":"gwangdeok","layer":"shadow","date":"2026-08-01","timeLocal":"17:00"},"geometry":{"type":"Polygon","coordinates":[[[127.45466,38.08832],[127.45466,38.08827],[127.45475,38.08821],[127.45473,38.08809],[127.45478,38.08809],[127.45482,38.08802],[127.45492,38.08802],[127.45482,38.08825],[127.45475,38.08829],[127.45475,38.08832],[127.45466,38.08832]]]}},{"type":"Feature","properties":{"valleyId":"gwangdeok","layer":"shadow","date":"2026-08-01","timeLocal":"17:00"},"geometry":{"type":"Polygon","coordinates":[[[127.45425,38.08805],[127.4543,38.08781],[127.45433,38.08778],[127.4544,38.08778],[127.45437,38.08796],[127.45441,38.08796],[127.45441,38.08801],[127.45432,38.08801],[127.45432,38.08805],[127.45425,38.08805]]]}}]}
