{"type":"FeatureCollection","metadata":{"description":"수관 아래(CHM > 2 m) — 시각 무관. 구간 회랑 ±200 m 절단","source":"위성 기반 추정 — Copernicus GLO-30 지형(30 m) + Meta/WRI 수관 높이(1 m CHM, 2015~2016 촬영). 그늘 = 수관(CHM > 2 m) ∪ 나무·지형 그림자 ∪ 원거리 지형 마스크. 현장과 다를 수 있음.","datasetVersion":"2026-09-06.0","collectedAt":"2026-09-06","coordinateOrder":"[longitude, latitude]","crs":"EPSG:4326","representativeDate":"2026-08-01","hours":["10:00","11:00","12:00","13:00","14:00","15:00","16:00","17:00","18:00"],"chmAcquisition":["2015-07","2016-06"],"assets":{"glo30":{"dataset":"Copernicus DEM GLO-30 (COG, s3://copernicus-dem-30m)","tiles":["Copernicus_DSM_COG_10_N37_00_E127_00_DEM"]},"chm":{"dataset":"Meta/WRI Global Canopy Height Map v1 (alsgedi_global_v6_float, 1 m, CC-BY 4.0)","quadkeys":["132110303"],"acquisition":["2015-07","2016-06"]}},"method":{"gridResM":2,"canopyThresholdM":2,"bufferHalfM":25,"corridorHalfM":200,"simplifyTolM":2,"minAreaM2":25,"coordDecimals":5},"generator":"scripts/shade 0.1.0","builtAt":"2026-09-06T05:56:06Z","layer":"canopy"},"features":[{"type":"Feature","properties":{"valleyId":"yongchu-gapyeong","layer":"canopy","date":"2026-08-01"},"geometry":{"type":"Polygon","coordinates":[[[127.46605,37.86243],[127.46596,37.86241],[127.46596,37.86235],[127.46619,37.86236],[127.46619,37.86243],[127.46605,37.86243]]]}},{"type":"Feature","properties":{"valleyId":"yongchu-gapyeong","layer":"canopy","date":"2026-08-01"},"geometry":{"type":"Polygon","coordinates":[[[127.4653,37.86218],[127.46524,37.86207],[127.46526,37.86198],[127.46535,37.86199],[127.46535,37.86202],[127.4654,37.86202],[127.46551,37.86213],[127.46551,37.86219],[127.4653,37.86218]]]}},{"type":"Feature","properties":{"valleyId":"yongchu-gapyeong","layer":"canopy","date":"2026-08-01"},"geometry":{"type":"Polygon","coordinates":[[[127.46499,37.862],[127.46486,37.86189],[127.46486,37.86184],[127.46497,37.86184],[127.46515,37.86193],[127.46513,37.862],[127.46499,37.862]]]}},{"type":"Feature","properties":{"valleyId":"yongchu-gapyeong","layer":"canopy","date":"2026-08-01"},"geometry":{"type":"Polygon","coordinates":[[[127.47189,37.86137],[127.47185,37.86135],[127.47185,37.8613],[127.47198,37.86132],[127.47198,37.86137],[127.47189,37.86137]]]}},{"type":"Feature","properties":{"valleyId":"yongchu-gapyeong","layer":"canopy","date":"2026-08-01"},"geometry":{"type":"Polygon","coordinates":[[[127.47178,37.86119],[127.47178,37.86113],[127.47187,37.86112],[127.47187,37.86117],[127.47178,37.86119]]]}},{"type":"Feature","properties":{"valleyId":"yongchu-gapyeong","layer":"canopy","date":"2026-08-01"},"geometry":{"type":"Polygon","coordinates":[[[127.48152,37.86079],[127.48152,37.86072],[127.48159,37.86072],[127.48161,37.86079],[127.48152,37.86079]]]}},{"type":"Feature","properties":{"valleyId":"yongchu-gapyeong","layer":"canopy","date":"2026-08-01"},"geometry":{"type":"Polygon","coordinates":[[[127.48182,37.86072],[127.48182,37.86067],[127.48189,37.86067],[127.48189,37.86072],[127.48182,37.86072]]]}},{"type":"Feature","properties":{"valleyId":"yongchu-gapyeong","layer":"canopy","date":"2026-08-01"},"geometry":{"type":"Polygon","coordinates":[[[127.47302,37.86045],[127.47303,37.86036],[127.47325,37.86038],[127.47325,37.86045],[127.47302,37.86045]]]}},{"type":"Feature","properties":{"valleyId":"yongchu-gapyeong","layer":"canopy","date":"2026-08-01"},"geometry":{"type":"Polygon","coordinates":[[[127.47259,37.8604],[127.47253,37.86035],[127.47253,37.86029],[127.4728,37.86035],[127.4728,37.86041],[127.47259,37.8604]]]}},{"type":"Feature","properties":{"valleyId":"yongchu-gapyeong","layer":"canopy","date":"2026-08-01"},"geometry":{"type":"Polygon","coordinates":[[[127.4735,37.8604],[127.4735,37.86033],[127.47355,37.86029],[127.47364,37.86029],[127.47364,37.86038],[127.4735,37.8604]]]}},{"type":"Feature","properties":{"valleyId":"yongchu-gapyeong","layer":"canopy","date":"2026-08-01"},"geometry":{"type":"Polygon","coordinates":[[[127.47391,37.86028],[127.47371,37.86026],[127.47371,37.86022],[127.47351,37.86022],[127.47351,37.86011],[127.47346,37.86009],[127.47346,37.86004],[127.4736,37.86002],[127.47362,37.86013],[127.47378,37.86015],[127.47383,37.86019],[127.47401,37.86019],[127.47401,37.86013],[127.47396,37.86013],[127.47399,37.85999],[127.4741,37.85997],[127.47415,37.86001],[127.4741,37.86012],[127.47417,37.86012],[127.47417,37.86003],[127.47422,37.86003],[127.47431,37.85994],[127.47438,37.85994],[127.47437,37.86012],[127.47433,37.86016],[127.47428,37.86016],[127.47419,37.86023],[127.47407,37.86022],[127.47401,37.86028],[127.47391,37.86028]]]}},{"type":"Feature","properties":{"valleyId":"yongchu-gapyeong","layer":"canopy","date":"2026-08-01"},"geometry":{"type":"Polygon","coordinates":[[[127.47851,37.86007],[127.47849,37.85999],[127.47863,37.86001],[127.47862,37.86007],[127.47851,37.86007]]]}},{"type":"Feature","properties":{"valleyId":"yongchu-gapyeong","layer":"canopy","date":"2026-08-01"},"geometry":{"type":"Polygon","coordinates":[[[127.4736,37.86002],[127.4736,37.85993],[127.47369,37.85991],[127.47372,37.86002],[127.4736,37.86002]]]}},{"type":"Feature","properties":{"valleyId":"yongchu-gapyeong","layer":"canopy","date":"2026-08-01"},"geometry":{"type":"Polygon","coordinates":[[[127.47917,37.86006],[127.47917,37.86],[127.47922,37.85997],[127.47929,37.85997],[127.47928,37.86004],[127.47917,37.86006]]]}},{"type":"Feature","properties":{"valleyId":"yongchu-gapyeong","layer":"canopy","date":"2026-08-01"},"geometry":{"type":"Polygon","coordinates":[[[127.47949,37.86004],[127.47949,37.85999],[127.4794,37.85997],[127.4794,37.85992],[127.47956,37.85992],[127.47956,37.86004],[127.47949,37.86004]]]}},{"type":"Feature","properties":{"valleyId":"yongchu-gapyeong","layer":"canopy","date":"2026-08-01"},"geometry":{"type":"Polygon","coordinates":[[[127.46667,37.86222],[127.46646,37.8622],[127.46631,37.86212],[127.46596,37.86212],[127.46585,37.8621],[127.46578,37.86205],[127.46558,37.86202],[127.46551,37.86197],[127.46547,37.86197],[127.4654,37.86186],[127.46527,37.86182],[127.46515,37.86169],[127.465,37.86166],[127.46495,37.86162],[127.46486,37.86162],[127.46482,37.86158],[127.46457,37.86158],[127.46446,37.86143],[127.46428,37.86102],[127.46422,37.86058],[127.46429,37.86058],[127.46429,37.86055],[127.46434,37.86055],[127.46443,37.86046],[127.4645,37.86046],[127.4645,37.86037],[127.46461,37.86034],[127.46462,37.86025],[127.46466,37.86019],[127.46478,37.86019],[127.46478,37.86027],[127.46464,37.86044],[127.46463,37.86052],[127.46475,37.86057],[127.46486,37.86057],[127.46497,37.86067],[127.46522,37.86065],[127.46543,37.86051],[127.46564,37.86044],[127.46562,37.86033],[127.46553,37.86029],[127.46553,37.86026],[127.46532,37.86013],[127.46485,37.86014],[127.46485,37.86005],[127.46496,37.86005],[127.46499,37.85998],[127.46519,37.85996],[127.46528,37.85993],[127.46533,37.85979],[127.46556,37.85981],[127.46565,37.85988],[127.46576,37.85988],[127.46579,37.8597],[127.46588,37.8597],[127.46599,37.8598],[127.46601,37.8599],[127.4661,37.85998],[127.46615,37.85998],[127.46626,37.86011],[127.46625,37.8605],[127.4662,37.86052],[127.4662,37.86059],[127.46611,37.86068],[127.46606,37.8609],[127.46606,37.86095],[127.46612,37.861],[127.46612,37.86109],[127.46619,37.86115],[127.46623,37.86126],[127.46644,37.86124],[127.46653,37.86137],[127.46668,37.86143],[127.46673,37.86148],[127.46682,37.86152],[127.46684,37.86157],[127.46693,37.86161],[127.46695,37.8617],[127.467,37.8617],[127.46706,37.86177],[127.46711,37.86192],[127.4671,37.86208],[127.46701,37.86217],[127.46683,37.86222],[127.46667,37.86222]]]}},{"type":"Feature","properties":{"valleyId":"yongchu-gapyeong","layer":"canopy","date":"2026-08-01"},"geometry":{"type":"Polygon","coordinates":[[[127.46492,37.85978],[127.46488,37.85973],[127.46488,37.85965],[127.46504,37.85962],[127.46504,37.85976],[127.46492,37.85978]]]}},{"type":"Feature","properties":{"valleyId":"yongchu-gapyeong","layer":"canopy","date":"2026-08-01"},"geometry":{"type":"Polygon","coordinates":[[[127.47819,37.85997],[127.4782,37.85988],[127.47806,37.85986],[127.47806,37.85979],[127.4782,37.85979],[127.47836,37.85988],[127.47835,37.85996],[127.47819,37.85997]]]}},{"type":"Feature","properties":{"valleyId":"yongchu-gapyeong","layer":"canopy","date":"2026-08-01"},"geometry":{"type":"Polygon","coordinates":[[[127.4707,37.85969],[127.4707,37.8596],[127.47086,37.85961],[127.47083,37.85968],[127.4707,37.85969]]]}},{"type":"Feature","properties":{"valleyId":"yongchu-gapyeong","layer":"canopy","date":"2026-08-01"},"geometry":{"type":"Polygon","coordinates":[[[127.47418,37.85974],[127.47411,37.85968],[127.47413,37.85961],[127.4742,37.85961],[127.47427,37.85967],[127.47427,37.85974],[127.47418,37.85974]]]}},{"type":"Feature","properties":{"valleyId":"yongchu-gapyeong","layer":"canopy","date":"2026-08-01"},"geometry":{"type":"Polygon","coordinates":[[[127.47101,37.85984],[127.47101,37.85979],[127.47097,37.85977],[127.47097,37.85968],[127.47088,37.85964],[127.47088,37.85959],[127.47093,37.85955],[127.47111,37.85959],[127.47111,37.85966],[127.47106,37.85968],[127.47108,37.85984],[127.47101,37.85984]]]}},{"type":"Feature","properties":{"valleyId":"yongchu-gapyeong","layer":"canopy","date":"2026-08-01"},"geometry":{"type":"Polygon","coordinates":[[[127.47797,37.85975],[127.47788,37.85964],[127.47782,37.85964],[127.47784,37.8595],[127.47791,37.8595],[127.47793,37.85957],[127.47802,37.85959],[127.47807,37.85965],[127.47806,37.85975],[127.47797,37.85975]]]}},{"type":"Feature","properties":{"valleyId":"yongchu-gapyeong","layer":"canopy","date":"2026-08-01"},"geometry":{"type":"Polygon","coordinates":[[[127.46816,37.85943],[127.46818,37.85934],[127.4683,37.85936],[127.46827,37.85943],[127.46816,37.85943]]]}},{"type":"Feature","properties":{"valleyId":"yongchu-gapyeong","layer":"canopy","date":"2026-08-01"},"geometry":{"type":"Polygon","coordinates":[[[127.47372,37.8599],[127.47372,37.85973],[127.47379,37.8597],[127.47386,37.85952],[127.4738,37.85928],[127.47387,37.85928],[127.47393,37.85934],[127.47393,37.85938],[127.47405,37.85945],[127.47404,37.85959],[127.474,37.85963],[127.47399,37.8597],[127.47393,37.85975],[127.47392,37.85983],[127.47385,37.85986],[127.47385,37.8599],[127.47372,37.8599]]]}},{"type":"Feature","properties":{"valleyId":"yongchu-gapyeong","layer":"canopy","date":"2026-08-01"},"geometry":{"type":"Polygon","coordinates":[[[127.48109,37.85936],[127.4811,37.85931],[127.48116,37.85931],[127.48116,37.85936],[127.48109,37.85936]]]}},{"type":"Feature","properties":{"valleyId":"yongchu-gapyeong","layer":"canopy","date":"2026-08-01"},"geometry":{"type":"Polygon","coordinates":[[[127.46403,37.86015],[127.46392,37.86004],[127.46372,37.85964],[127.46362,37.85906],[127.46384,37.8591],[127.46387,37.85915],[127.464,37.85923],[127.46404,37.85934],[127.46432,37.85939],[127.46441,37.85943],[127.46441,37.85947],[127.4645,37.85952],[127.46449,37.85961],[127.46442,37.85965],[127.46442,37.85976],[127.46438,37.85977],[127.46438,37.85983],[127.46431,37.85988],[127.46417,37.85992],[127.46412,37.86001],[127.46412,37.86013],[127.46403,37.86015]]]}},{"type":"Feature","properties":{"valleyId":"yongchu-gapyeong","layer":"canopy","date":"2026-08-01"},"geometry":{"type":"Polygon","coordinates":[[[127.47741,37.85929],[127.47739,37.8592],[127.47728,37.85917],[127.47724,37.85909],[127.47724,37.859],[127.47735,37.85901],[127.47748,37.85913],[127.47753,37.85913],[127.47762,37.85921],[127.47762,37.85928],[127.47741,37.85929]]]}},{"type":"Feature","properties":{"valleyId":"yongchu-gapyeong","layer":"canopy","date":"2026-08-01"},"geometry":{"type":"Polygon","coordinates":[[[127.46748,37.86227],[127.46749,37.86187],[127.46738,37.86162],[127.46725,37.86156],[127.46723,37.86152],[127.467,37.86148],[127.46689,37.86141],[127.46689,37.86137],[127.46682,37.86132],[127.46673,37.8613],[127.46667,37.86096],[127.46658,37.86087],[127.46654,37.86072],[127.46654,37.86058],[127.46663,37.86052],[127.46664,37.86045],[127.46659,37.86043],[127.46659,37.86031],[127.46664,37.86027],[127.46667,37.86007],[127.4666,37.86],[127.46651,37.86],[127.46646,37.85996],[127.46642,37.8598],[127.46645,37.85964],[127.46638,37.85953],[127.46638,37.85946],[127.4663,37.85931],[127.46623,37.85928],[127.46623,37.85924],[127.46607,37.85915],[127.46607,37.85908],[127.46596,37.85906],[127.46596,37.85897],[127.46601,37.85893],[127.46608,37.85893],[127.4661,37.85897],[127.46658,37.85896],[127.4666,37.85899],[127.46671,37.85903],[127.46687,37.85903],[127.46687,37.85885],[127.46717,37.85887],[127.46721,37.85898],[127.46689,37.85903],[127.46691,37.85918],[127.46705,37.85923],[127.46716,37.85923],[127.46721,37.85922],[127.46721,37.85913],[127.46728,37.85913],[127.46739,37.8592],[127.4675,37.8592],[127.4675,37.85926],[127.46759,37.85933],[127.46786,37.8594],[127.46788,37.85944],[127.468,37.85946],[127.46806,37.85952],[127.46843,37.85959],[127.46849,37.85965],[127.46943,37.85966],[127.46988,37.85963],[127.47004,37.85963],[127.47008,37.85967],[127.47018,37.85967],[127.4702,37.85962],[127.47047,37.85958],[127.47054,37.85962],[127.47054,37.85975],[127.47063,37.85984],[127.47065,37.86],[127.47099,37.86009],[127.47105,37.86015],[127.47119,37.86015],[127.47123,37.86021],[127.4716,37.86025],[127.47157,37.86035],[127.47145,37.8605],[127.47118,37.86053],[127.471,37.86065],[127.47081,37.86072],[127.47068,37.86072],[127.47061,37.86077],[127.47058,37.86088],[127.47051,37.86092],[127.47051,37.86095],[127.47047,37.86099],[127.4704,37.86099],[127.4704,37.86113],[127.47019,37.86117],[127.4701,37.86124],[127.47003,37.86124],[127.47003,37.86133],[127.46987,37.86131],[127.46985,37.86136],[127.46964,37.86137],[127.46862,37.86134],[127.4685,37.86156],[127.46845,37.86158],[127.46843,37.86165],[127.46827,37.86179],[127.46827,37.86183],[127.46776,37.86218],[127.46767,37.8622],[127.46755,37.86227],[127.46748,37.86227]],[[127.4672,37.86077],[127.46727,37.86077],[127.46729,37.86057],[127.46716,37.86051],[127.46707,37.86051],[127.46702,37.86057],[127.46702,37.86064],[127.46709,37.86071],[127.46713,37.86071],[127.4672,37.86077]],[[127.47036,37.86043],[127.47043,37.86043],[127.47043,37.86038],[127.47037,37.86037],[127.47036,37.86043]],[[127.47026,37.86003],[127.47049,37.86003],[127.47053,37.85996],[127.47054,37.85987],[127.47045,37.8598],[127.47031,37.8598],[127.47026,37.85983],[127.4702,37.85983],[127.47015,37.85987],[127.47001,37.85987],[127.46997,37.8599],[127.46997,37.85996],[127.47024,37.85996],[127.47026,37.86003]]]}},{"type":"Feature","properties":{"valleyId":"yongchu-gapyeong","layer":"canopy","date":"2026-08-01"},"geometry":{"type":"Polygon","coordinates":[[[127.47672,37.85865],[127.4767,37.85858],[127.47679,37.85858],[127.47679,37.85866],[127.47672,37.85865]]]}},{"type":"Feature","properties":{"valleyId":"yongchu-gapyeong","layer":"canopy","date":"2026-08-01"},"geometry":{"type":"Polygon","coordinates":[[[127.46599,37.85882],[127.46597,37.85853],[127.46604,37.85852],[127.46604,37.85846],[127.46611,37.85841],[127.46622,37.85841],[127.46622,37.85848],[127.46613,37.85852],[127.46613,37.85861],[127.46617,37.85863],[127.46617,37.85868],[127.46608,37.8588],[127.46599,37.85882]]]}},{"type":"Feature","properties":{"valleyId":"yongchu-gapyeong","layer":"canopy","date":"2026-08-01"},"geometry":{"type":"Polygon","coordinates":[[[127.46686,37.85856],[127.46681,37.85853],[127.4667,37.85851],[127.46668,37.85845],[127.46654,37.85847],[127.46645,37.85852],[127.46636,37.85852],[127.46629,37.85848],[127.46627,37.85832],[127.46688,37.85833],[127.46695,37.85856],[127.46686,37.85856]]]}},{"type":"Feature","properties":{"valleyId":"yongchu-gapyeong","layer":"canopy","date":"2026-08-01"},"geometry":{"type":"Polygon","coordinates":[[[127.47643,37.85847],[127.47641,37.85843],[127.47636,37.85843],[127.47636,37.85836],[127.47645,37.85836],[127.47652,37.85842],[127.47652,37.85847],[127.47643,37.85847]]]}},{"type":"Feature","properties":{"valleyId":"yongchu-gapyeong","layer":"canopy","date":"2026-08-01"},"geometry":{"type":"Polygon","coordinates":[[[127.46539,37.85926],[127.46539,37.85912],[127.46528,37.85908],[127.46526,37.85896],[127.46519,37.8589],[127.4651,37.8589],[127.46501,37.85895],[127.46494,37.85895],[127.46495,37.85863],[127.46492,37.85859],[127.4647,37.85852],[127.46461,37.85837],[127.46454,37.85837],[127.46445,37.85842],[127.46438,37.85842],[127.46429,37.85835],[127.46395,37.85834],[127.46377,37.8584],[127.46363,37.85838],[127.46373,37.85807],[127.4638,37.85807],[127.4638,37.85813],[127.46393,37.8582],[127.46411,37.85822],[127.46429,37.85822],[127.46432,37.85817],[127.46443,37.85817],[127.46445,37.85821],[127.46452,37.85821],[127.46457,37.85814],[127.46466,37.85814],[127.4647,37.85819],[127.4648,37.85819],[127.46486,37.8583],[127.46509,37.85834],[127.46522,37.85851],[127.46536,37.85854],[127.4654,37.85883],[127.46551,37.85898],[127.46551,37.85903],[127.46557,37.85907],[127.46552,37.85925],[127.46539,37.85926]]]}},{"type":"Feature","properties":{"valleyId":"yongchu-gapyeong","layer":"canopy","date":"2026-08-01"},"geometry":{"type":"Polygon","coordinates":[[[127.48214,37.85836],[127.48214,37.85831],[127.48221,37.85831],[127.48221,37.85837],[127.48214,37.85836]]]}},{"type":"Feature","properties":{"valleyId":"yongchu-gapyeong","layer":"canopy","date":"2026-08-01"},"geometry":{"type":"Polygon","coordinates":[[[127.4825,37.85842],[127.48246,37.8584],[127.48246,37.85831],[127.48259,37.85828],[127.48264,37.85842],[127.4825,37.85842]]]}},{"type":"Feature","properties":{"valleyId":"yongchu-gapyeong","layer":"canopy","date":"2026-08-01"},"geometry":{"type":"Polygon","coordinates":[[[127.48247,37.85783],[127.48245,37.85772],[127.48252,37.85772],[127.48254,37.85783],[127.48247,37.85783]]]}},{"type":"Feature","properties":{"valleyId":"yongchu-gapyeong","layer":"canopy","date":"2026-08-01"},"geometry":{"type":"Polygon","coordinates":[[[127.48217,37.85779],[127.48217,37.85773],[127.48213,37.85773],[127.48206,37.85764],[127.48204,37.8575],[127.48213,37.8575],[127.48213,37.85755],[127.48218,37.85759],[127.4822,37.85773],[127.48224,37.85773],[127.48224,37.85779],[127.48217,37.85779]]]}},{"type":"Feature","properties":{"valleyId":"yongchu-gapyeong","layer":"canopy","date":"2026-08-01"},"geometry":{"type":"Polygon","coordinates":[[[127.48126,37.85587],[127.48126,37.85579],[127.48133,37.85579],[127.48133,37.85587],[127.48126,37.85587]]]}},{"type":"Feature","properties":{"valleyId":"yongchu-gapyeong","layer":"canopy","date":"2026-08-01"},"geometry":{"type":"Polygon","coordinates":[[[127.48103,37.8559],[127.48096,37.85581],[127.48096,37.85574],[127.48108,37.85574],[127.48117,37.85583],[127.48114,37.8559],[127.48103,37.8559]]]}},{"type":"Feature","properties":{"valleyId":"yongchu-gapyeong","layer":"canopy","date":"2026-08-01"},"geometry":{"type":"Polygon","coordinates":[[[127.48115,37.85552],[127.48115,37.85541],[127.4812,37.85541],[127.4812,37.85532],[127.48132,37.85525],[127.48132,37.85513],[127.48143,37.85511],[127.48143,37.855],[127.48164,37.85504],[127.48166,37.85511],[127.48159,37.85513],[127.48159,37.8552],[127.48152,37.85527],[127.48154,37.85551],[127.4814,37.85551],[127.48129,37.85542],[127.48122,37.85541],[127.48122,37.85552],[127.48115,37.85552]]]}},{"type":"Feature","properties":{"valleyId":"yongchu-gapyeong","layer":"canopy","date":"2026-08-01"},"geometry":{"type":"Polygon","coordinates":[[[127.48191,37.85402],[127.48191,37.85395],[127.48196,37.85393],[127.48196,37.85389],[127.48203,37.85389],[127.482,37.854],[127.48191,37.85402]]]}},{"type":"Feature","properties":{"valleyId":"yongchu-gapyeong","layer":"canopy","date":"2026-08-01"},"geometry":{"type":"Polygon","coordinates":[[[127.48131,37.85201],[127.48129,37.85192],[127.48136,37.85192],[127.48138,37.85201],[127.48131,37.85201]]]}},{"type":"Feature","properties":{"valleyId":"yongchu-gapyeong","layer":"canopy","date":"2026-08-01"},"geometry":{"type":"Polygon","coordinates":[[[127.48366,37.85195],[127.48361,37.85191],[127.48361,37.85184],[127.48373,37.85186],[127.48372,37.85195],[127.48366,37.85195]]]}},{"type":"Feature","properties":{"valleyId":"yongchu-gapyeong","layer":"canopy","date":"2026-08-01"},"geometry":{"type":"Polygon","coordinates":[[[127.48132,37.85185],[127.48123,37.85177],[127.48123,37.85172],[127.48132,37.85172],[127.48139,37.85178],[127.48139,37.85185],[127.48132,37.85185]]]}},{"type":"Feature","properties":{"valleyId":"yongchu-gapyeong","layer":"canopy","date":"2026-08-01"},"geometry":{"type":"Polygon","coordinates":[[[127.47355,37.86238],[127.47267,37.86232],[127.47212,37.86222],[127.47208,37.86218],[127.47201,37.86218],[127.47176,37.86209],[127.47174,37.86205],[127.47156,37.86199],[127.47154,37.86196],[127.4714,37.86192],[127.47138,37.86188],[127.47082,37.86164],[127.4707,37.86157],[127.47071,37.8615],[127.47082,37.8615],[127.47084,37.86144],[127.47103,37.86145],[127.47112,37.86134],[127.47119,37.86134],[127.47123,37.8614],[127.47123,37.86149],[127.47118,37.8615],[127.4712,37.86167],[127.47138,37.8617],[127.47147,37.86183],[127.47172,37.86182],[127.47175,37.86171],[127.47182,37.86171],[127.47186,37.8616],[127.472,37.86151],[127.472,37.86146],[127.47216,37.86143],[127.47216,37.86135],[127.4721,37.86128],[127.4721,37.86114],[127.47199,37.8611],[127.47204,37.86061],[127.47193,37.86059],[127.47196,37.86045],[127.47202,37.86043],[127.47214,37.86031],[127.47234,37.86035],[127.47237,37.8604],[127.47246,37.86044],[127.4725,37.86049],[127.47259,37.86049],[127.4727,37.86055],[127.47289,37.86055],[127.47295,37.86059],[127.47327,37.86059],[127.47334,37.86056],[127.4737,37.8606],[127.47384,37.86053],[127.47396,37.86051],[127.47402,37.86044],[127.47414,37.86042],[127.47427,37.86048],[127.47425,37.86068],[127.47436,37.8607],[127.47436,37.86055],[127.47441,37.86055],[127.47441,37.8605],[127.47446,37.86046],[127.47452,37.86046],[127.47453,37.86039],[127.47448,37.86039],[127.47448,37.86034],[127.47457,37.86034],[127.47462,37.86029],[127.47466,37.86029],[127.47469,37.86009],[127.47478,37.86002],[127.47478,37.85998],[127.47483,37.85998],[127.47481,37.85987],[127.47463,37.85971],[127.47461,37.8596],[127.47448,37.85949],[127.47448,37.85913],[127.47455,37.85906],[127.47462,37.85904],[127.47479,37.85879],[127.47486,37.85876],[127.47488,37.85868],[127.47497,37.85865],[127.47504,37.85847],[127.47525,37.85831],[127.47525,37.85822],[127.47507,37.8582],[127.47493,37.85836],[127.47466,37.85839],[127.47463,37.85854],[127.47454,37.85854],[127.47445,37.85861],[127.47445,37.85872],[127.4744,37.85877],[127.4744,37.859],[127.47437,37.85904],[127.47428,37.85904],[127.47429,37.85855],[127.47436,37.85848],[127.47436,37.85843],[127.47443,37.85837],[127.47455,37.85836],[127.47455,37.85828],[127.47462,37.85823],[127.47467,37.85803],[127.4748,37.85798],[127.47483,37.85791],[127.47519,37.85788],[127.47519,37.85791],[127.47535,37.85792],[127.47537,37.85801],[127.47553,37.85799],[127.47562,37.85806],[127.47576,37.85808],[127.47598,37.85818],[127.47607,37.85825],[127.47607,37.85839],[127.4762,37.85845],[127.47627,37.85852],[127.47636,37.85854],[127.47643,37.85865],[127.47649,37.85867],[127.47658,37.85876],[127.47663,37.85876],[127.47667,37.85889],[127.47674,37.85896],[127.47685,37.859],[127.47694,37.85909],[127.4771,37.85911],[127.47714,37.85915],[127.47714,37.8592],[127.47723,37.85926],[127.47723,37.85929],[127.47732,37.85937],[127.47741,37.85938],[127.47741,37.85942],[127.47755,37.85949],[127.47757,37.8596],[127.4777,37.85962],[127.47774,37.85975],[127.47786,37.85982],[127.4779,37.85991],[127.47804,37.85993],[127.47808,37.86001],[127.47824,37.86004],[127.47824,37.86008],[127.47828,37.8601],[127.47844,37.86012],[127.47849,37.86019],[127.4786,37.86019],[127.47867,37.86023],[127.47928,37.86017],[127.47933,37.86029],[127.4795,37.8604],[127.4795,37.86048],[127.47961,37.86066],[127.4797,37.86064],[127.47973,37.8605],[127.47996,37.8605],[127.4801,37.86028],[127.4801,37.86019],[127.48003,37.86016],[127.47971,37.86017],[127.47965,37.8601],[127.47967,37.85999],[127.47981,37.85997],[127.47983,37.85994],[127.47992,37.85992],[127.47995,37.85987],[127.48006,37.85987],[127.48015,37.85978],[127.48024,37.85978],[127.48027,37.85982],[127.48045,37.85982],[127.48047,37.85973],[127.48041,37.85971],[127.48041,37.85966],[127.4805,37.85966],[127.4805,37.85971],[127.48068,37.85977],[127.4807,37.85982],[127.48079,37.85988],[127.48086,37.85988],[127.4809,37.85995],[127.48106,37.85997],[127.48115,37.85994],[127.48118,37.85987],[127.48134,37.85983],[127.48136,37.85976],[127.48145,37.85974],[127.48145,37.8596],[127.48157,37.85958],[127.48161,37.85953],[127.4818,37.85955],[127.48182,37.85951],[127.48196,37.85952],[127.48196,37.85946],[127.48191,37.85942],[127.48192,37.85924],[127.48198,37.85923],[127.48203,37.85917],[127.48212,37.85918],[127.48217,37.85909],[127.48226,37.85905],[127.48226,37.85898],[127.48238,37.85887],[127.48238,37.85873],[127.48243,37.85867],[127.48245,37.85855],[127.48264,37.85851],[127.48266,37.85841],[127.48282,37.85839],[127.48282,37.85832],[127.48273,37.8583],[127.48273,37.85823],[127.48257,37.85824],[127.48257,37.85817],[127.48262,37.85815],[127.48262,37.85808],[127.48269,37.85803],[127.48287,37.85803],[127.48287,37.85794],[127.48292,37.85792],[127.48292,37.85778],[127.48288,37.85769],[127.48288,37.85756],[127.48272,37.85747],[127.48264,37.85733],[127.4823,37.85705],[127.4823,37.85701],[127.48217,37.85687],[127.48213,37.85669],[127.48204,37.85665],[127.48183,37.85663],[127.48177,37.85652],[127.48168,37.85645],[127.48163,37.85645],[127.48161,37.85639],[127.48154,37.85639],[127.48152,37.85646],[127.4814,37.85646],[127.48132,37.85633],[127.48132,37.85623],[127.48121,37.85617],[127.48121,37.85612],[127.48127,37.85612],[127.48141,37.85616],[127.48143,37.85619],[127.4815,37.85619],[127.48148,37.85607],[127.48153,37.85603],[127.48159,37.85603],[127.48169,37.85596],[127.48169,37.85591],[127.48164,37.85591],[127.48158,37.85585],[127.48158,37.85578],[127.48178,37.85578],[127.48183,37.85546],[127.48197,37.85535],[127.482,37.85526],[127.48204,37.85526],[127.48214,37.85519],[127.48236,37.85525],[127.48236,37.85519],[127.48229,37.85516],[127.48225,37.85509],[127.48218,37.85507],[127.48212,37.85494],[127.48205,37.85492],[127.48198,37.85485],[127.48194,37.85485],[127.48194,37.85468],[127.48203,37.85469],[127.48203,37.85463],[127.48199,37.85463],[127.48194,37.85458],[127.48187,37.85458],[127.48185,37.85465],[127.48174,37.85466],[127.48158,37.85477],[127.48148,37.85477],[127.48144,37.85473],[127.48144,37.85468],[127.48151,37.85462],[127.48149,37.85452],[127.48154,37.85452],[127.48158,37.85445],[127.48188,37.85441],[127.4819,37.85434],[127.48202,37.85429],[127.48204,37.85422],[127.48211,37.85422],[127.48215,37.85427],[127.48215,37.85443],[127.48204,37.85451],[127.48203,37.85458],[127.48212,37.8546],[127.48217,37.85456],[127.4822,37.85442],[127.48227,37.85435],[127.48227,37.85422],[127.48234,37.85417],[127.48234,37.85406],[127.48243,37.85399],[127.48243,37.85392],[127.48248,37.8539],[127.4825,37.85379],[127.48255,37.85376],[127.48255,37.85365],[127.4826,37.85363],[127.48256,37.85332],[127.48251,37.85332],[127.48249,37.85327],[127.48236,37.85318],[127.48236,37.85314],[127.48227,37.85308],[127.48225,37.85301],[127.48198,37.85279],[127.48198,37.85274],[127.48194,37.8527],[127.48192,37.85252],[127.48196,37.85249],[127.48197,37.85223],[127.48202,37.85214],[127.48215,37.85209],[127.48216,37.85175],[127.48223,37.8517],[127.48219,37.85155],[127.48232,37.85152],[127.48239,37.85152],[127.48244,37.85155],[127.48244,37.85161],[127.48248,37.85165],[127.48245,37.85179],[127.4825,37.85181],[127.4825,37.85184],[127.48264,37.85185],[127.48268,37.85192],[127.48279,37.85197],[127.48295,37.85198],[127.48299,37.85212],[127.48338,37.85213],[127.48352,37.85209],[127.48352,37.85206],[127.48359,37.85202],[127.48381,37.85202],[127.48427,37.85295],[127.48448,37.85385],[127.48447,37.85425],[127.4844,37.85454],[127.48419,37.85493],[127.48414,37.85495],[127.48409,37.85505],[127.48402,37.85509],[127.48395,37.8552],[127.48363,37.85545],[127.48354,37.85548],[127.48351,37.85561],[127.48365,37.85566],[127.48378,37.85577],[127.48383,37.85577],[127.48414,37.85603],[127.48414,37.85606],[127.48427,37.85617],[127.48434,37.8563],[127.48452,37.85648],[127.48494,37.85716],[127.48502,37.85741],[127.48506,37.85772],[127.48503,37.85804],[127.48488,37.85865],[127.48479,37.85887],[127.48472,37.85894],[127.48472,37.85899],[127.48467,37.85901],[127.4846,37.85915],[127.48453,37.85919],[127.48448,37.85928],[127.48402,37.85965],[127.48398,37.85965],[127.48321,37.86022],[127.48317,37.86022],[127.48303,37.86032],[127.48269,37.86046],[127.48259,37.86053],[127.4825,37.86055],[127.48241,37.86062],[127.48232,37.86064],[127.48223,37.86071],[127.48209,37.86074],[127.48207,37.86078],[127.482,37.86078],[127.48205,37.86063],[127.48198,37.86058],[127.48175,37.86056],[127.48164,37.86057],[127.48161,37.86061],[127.4815,37.86061],[127.48141,37.86073],[127.48143,37.86086],[127.48122,37.86089],[127.48123,37.86064],[127.48118,37.8606],[127.48118,37.86051],[127.48128,37.86048],[127.48146,37.86048],[127.48146,37.86036],[127.48132,37.86034],[127.4813,37.86037],[127.48119,37.86037],[127.48114,37.86033],[127.48115,37.86017],[127.48108,37.86012],[127.48092,37.86013],[127.48092,37.86026],[127.48087,37.86029],[127.48078,37.86029],[127.48067,37.8602],[127.48069,37.86008],[127.48063,37.86008],[127.48058,37.86022],[127.48057,37.8604],[127.48064,37.86051],[127.48068,37.86051],[127.48071,37.86054],[127.48077,37.86078],[127.48086,37.86084],[127.4812,37.86086],[127.4812,37.861],[127.48126,37.86104],[127.48126,37.86109],[127.48069,37.86134],[127.48062,37.86134],[127.48062,37.8613],[127.48056,37.86125],[127.48051,37.86125],[127.48042,37.86114],[127.48029,37.86113],[127.48019,37.86121],[127.48019,37.86128],[127.48026,37.8614],[127.48025,37.86151],[127.48016,37.86155],[127.47948,37.86168],[127.47891,37.86169],[127.47882,37.86166],[127.47846,37.86163],[127.4783,37.86158],[127.47803,37.86154],[127.47776,37.86146],[127.47762,37.86139],[127.47755,37.86139],[127.47748,37.86133],[127.47733,37.86128],[127.4773,37.86124],[127.47726,37.86124],[127.47724,37.8612],[127.47719,37.8612],[127.47717,37.86117],[127.47712,37.86117],[127.4771,37.86113],[127.47706,37.86113],[127.47704,37.86109],[127.47699,37.86109],[127.47697,37.86106],[127.47692,37.86105],[127.4769,37.86102],[127.47685,37.86102],[127.47683,37.86098],[127.47679,37.86098],[127.47677,37.86094],[127.47672,37.86094],[127.4767,37.86091],[127.47665,37.86091],[127.47661,37.86085],[127.47654,37.86085],[127.47638,37.86112],[127.47631,37.86115],[127.47631,37.86119],[127.47617,37.8613],[127.47617,37.86133],[127.47568,37.86169],[127.47564,37.86169],[127.47552,37.86179],[127.47547,37.86179],[127.47536,37.8619],[127.47531,37.8619],[127.47517,37.86201],[127.47467,37.86222],[127.47435,37.86228],[127.4743,37.86232],[127.47396,37.86237],[127.47355,37.86238]],[[127.47345,37.86184],[127.47352,37.86184],[127.4735,37.86164],[127.47343,37.86164],[127.47341,37.86169],[127.47341,37.8618],[127.47345,37.86184]],[[127.47316,37.86178],[127.47332,37.86178],[127.47334,37.86171],[127.47318,37.86169],[127.47316,37.86178]],[[127.47252,37.86174],[127.4727,37.86174],[127.47282,37.8616],[127.4728,37.86152],[127.47268,37.86152],[127.47264,37.86149],[127.47264,37.86136],[127.4728,37.86136],[127.47282,37.86133],[127.47303,37.86127],[127.47308,37.86124],[127.4731,37.86115],[127.47322,37.86111],[127.47322,37.86099],[127.47315,37.8609],[127.47299,37.8609],[127.47299,37.86093],[127.47292,37.86095],[127.4729,37.861],[127.47278,37.86107],[127.47278,37.86113],[127.47271,37.8612],[127.47246,37.86121],[127.4725,37.86154],[127.47241,37.86157],[127.47241,37.86164],[127.47252,37.86174]],[[127.47878,37.8616],[127.47891,37.86159],[127.47894,37.8615],[127.47873,37.86149],[127.47873,37.86156],[127.47878,37.8616]],[[127.4753,37.8615],[127.47548,37.8615],[127.47548,37.86138],[127.47537,37.86136],[127.47537,37.86139],[127.4753,37.86141],[127.4753,37.8615]],[[127.47492,37.86112],[127.47501,37.86112],[127.47504,37.86092],[127.47511,37.86092],[127.47513,37.86105],[127.47524,37.86105],[127.47524,37.861],[127.4752,37.861],[127.4752,37.86078],[127.47504,37.86074],[127.47502,37.86069],[127.47491,37.86069],[127.47486,37.86079],[127.47474,37.86088],[127.47476,37.86101],[127.47483,37.86108],[127.47492,37.86112]],[[127.47781,37.86098],[127.47795,37.86098],[127.47802,37.86092],[127.47806,37.86084],[127.47807,37.86073],[127.47802,37.86064],[127.47793,37.86056],[127.47789,37.86056],[127.47782,37.86049],[127.47775,37.86049],[127.47764,37.86052],[127.47761,37.86078],[127.47781,37.86098]],[[127.47945,37.86082],[127.47954,37.8608],[127.47957,37.86071],[127.47948,37.86071],[127.47945,37.86082]],[[127.47894,37.86043],[127.47912,37.86042],[127.47914,37.86038],[127.47919,37.86038],[127.47921,37.86026],[127.4791,37.86024],[127.47905,37.86027],[127.47882,37.86029],[127.47876,37.86032],[127.47875,37.86039],[127.47887,37.86039],[127.47894,37.86043]],[[127.48296,37.86018],[127.48306,37.86016],[127.48306,37.86011],[127.48299,37.86005],[127.48299,37.86002],[127.48288,37.85998],[127.48284,37.85985],[127.48265,37.85983],[127.48261,37.85997],[127.48267,37.86003],[127.48274,37.86003],[127.48274,37.86007],[127.48283,37.86014],[127.48296,37.86018]],[[127.48206,37.86008],[127.48213,37.86008],[127.48217,37.86002],[127.48224,37.86002],[127.48229,37.85999],[127.48229,37.85992],[127.48224,37.85992],[127.48222,37.85984],[127.48218,37.85984],[127.48215,37.85981],[127.48202,37.85982],[127.48201,37.86002],[127.48206,37.86008]],[[127.47667,37.85999],[127.47681,37.85997],[127.47681,37.8599],[127.47688,37.85986],[127.47686,37.85977],[127.47674,37.85977],[127.4767,37.85986],[127.47665,37.85986],[127.47663,37.85995],[127.47667,37.85995],[127.47667,37.85999]],[[127.48266,37.85974],[127.48272,37.85974],[127.48273,37.8596],[127.48264,37.85956],[127.48262,37.85945],[127.48246,37.85947],[127.48243,37.85954],[127.4825,37.85958],[127.48254,37.85967],[127.48263,37.85969],[127.48266,37.85974]],[[127.47571,37.85906],[127.47578,37.85906],[127.47578,37.859],[127.47571,37.859],[127.47571,37.85906]],[[127.4756,37.85893],[127.47581,37.85893],[127.47585,37.8589],[127.47597,37.85888],[127.47595,37.85879],[127.47583,37.8587],[127.47586,37.85852],[127.47582,37.8585],[127.4757,37.8585],[127.47572,37.85871],[127.4756,37.85884],[127.4756,37.85893]],[[127.48206,37.85658],[127.48215,37.85658],[127.48227,37.85651],[127.4822,37.85635],[127.48213,37.85635],[127.48213,37.8564],[127.48204,37.8564],[127.48204,37.85634],[127.48211,37.85633],[127.48209,37.85607],[127.48223,37.856],[127.48223,37.85593],[127.48219,37.8559],[127.48217,37.85581],[127.4821,37.8558],[127.48208,37.85588],[127.48196,37.85589],[127.48196,37.85598],[127.48187,37.856],[127.48187,37.85604],[127.4818,37.85609],[127.48168,37.85612],[127.4817,37.85621],[127.48186,37.85629],[127.48188,37.8564],[127.48193,37.85641],[127.48195,37.85649],[127.48204,37.85652],[127.48206,37.85658]],[[127.48223,37.85624],[127.4823,37.85624],[127.4823,37.85619],[127.48223,37.85618],[127.48223,37.85624]],[[127.48263,37.85446],[127.48272,37.85446],[127.48276,37.85442],[127.48277,37.85437],[127.48263,37.85435],[127.48263,37.85446]],[[127.48292,37.85443],[127.48301,37.85443],[127.48302,37.85432],[127.48309,37.85427],[127.48304,37.85416],[127.48282,37.85416],[127.48281,37.85423],[127.48286,37.85426],[127.48286,37.85432],[127.4829,37.85434],[127.48292,37.85443]]]}},{"type":"Feature","properties":{"valleyId":"yongchu-gapyeong","layer":"canopy","date":"2026-08-01"},"geometry":{"type":"Polygon","coordinates":[[[127.48327,37.85185],[127.48323,37.85184],[127.48323,37.8518],[127.48311,37.85178],[127.48312,37.85169],[127.48318,37.85167],[127.48321,37.8516],[127.48328,37.8516],[127.48324,37.85137],[127.48328,37.85133],[127.48335,37.85133],[127.48339,37.8514],[127.48346,37.85144],[127.48348,37.85155],[127.48339,37.8516],[127.48339,37.85182],[127.48334,37.85185],[127.48327,37.85185]]]}},{"type":"Feature","properties":{"valleyId":"yongchu-gapyeong","layer":"canopy","date":"2026-08-01"},"geometry":{"type":"Polygon","coordinates":[[[127.48171,37.85255],[127.48165,37.85218],[127.48177,37.85212],[127.48177,37.85207],[127.4817,37.85201],[127.48165,37.85201],[127.48166,37.85194],[127.48175,37.85189],[127.48175,37.85183],[127.48184,37.8518],[127.48187,37.85157],[127.48191,37.85155],[127.48196,37.85133],[127.48203,37.8513],[127.48208,37.85115],[127.48217,37.85106],[127.48227,37.85107],[127.48226,37.85114],[127.48217,37.85123],[127.48212,37.85159],[127.48203,37.8516],[127.48205,37.85177],[127.48191,37.85194],[127.48193,37.85211],[127.48186,37.8522],[127.48187,37.85238],[127.4818,37.85254],[127.48171,37.85255]]]}},{"type":"Feature","properties":{"valleyId":"yongchu-gapyeong","layer":"canopy","date":"2026-08-01"},"geometry":{"type":"Polygon","coordinates":[[[127.48231,37.85089],[127.48227,37.85085],[127.48227,37.85078],[127.48232,37.85072],[127.48239,37.85072],[127.48241,37.85087],[127.48231,37.85089]]]}},{"type":"Feature","properties":{"valleyId":"yongchu-gapyeong","layer":"canopy","date":"2026-08-01"},"geometry":{"type":"Polygon","coordinates":[[[127.48298,37.85039],[127.48298,37.85034],[127.48308,37.85034],[127.48307,37.85039],[127.48298,37.85039]]]}},{"type":"Feature","properties":{"valleyId":"yongchu-gapyeong","layer":"canopy","date":"2026-08-01"},"geometry":{"type":"Polygon","coordinates":[[[127.48249,37.8502],[127.48244,37.85009],[127.48258,37.85008],[127.48258,37.8502],[127.48249,37.8502]]]}},{"type":"Feature","properties":{"valleyId":"yongchu-gapyeong","layer":"canopy","date":"2026-08-01"},"geometry":{"type":"Polygon","coordinates":[[[127.48267,37.85004],[127.4827,37.84994],[127.48283,37.8499],[127.48281,37.85003],[127.48267,37.85004]]]}},{"type":"Feature","properties":{"valleyId":"yongchu-gapyeong","layer":"canopy","date":"2026-08-01"},"geometry":{"type":"Polygon","coordinates":[[[127.48268,37.8497],[127.48268,37.84963],[127.48277,37.84961],[127.48277,37.84968],[127.48268,37.8497]]]}},{"type":"Feature","properties":{"valleyId":"yongchu-gapyeong","layer":"canopy","date":"2026-08-01"},"geometry":{"type":"Polygon","coordinates":[[[127.48386,37.84979],[127.48354,37.84977],[127.48354,37.84969],[127.48363,37.84968],[127.48368,37.84962],[127.48377,37.84963],[127.48382,37.84959],[127.48382,37.84954],[127.484,37.84954],[127.48405,37.84957],[127.48402,37.84968],[127.48395,37.8497],[127.48393,37.84979],[127.48386,37.84979]]]}},{"type":"Feature","properties":{"valleyId":"yongchu-gapyeong","layer":"canopy","date":"2026-08-01"},"geometry":{"type":"Polygon","coordinates":[[[127.48327,37.8496],[127.48327,37.84955],[127.48332,37.84951],[127.48339,37.84951],[127.48339,37.84957],[127.48334,37.8496],[127.48327,37.8496]]]}},{"type":"Feature","properties":{"valleyId":"yongchu-gapyeong","layer":"canopy","date":"2026-08-01"},"geometry":{"type":"Polygon","coordinates":[[[127.48207,37.84955],[127.48202,37.84951],[127.48203,37.84946],[127.48214,37.84946],[127.48218,37.8495],[127.48218,37.84955],[127.48207,37.84955]]]}},{"type":"Feature","properties":{"valleyId":"yongchu-gapyeong","layer":"canopy","date":"2026-08-01"},"geometry":{"type":"Polygon","coordinates":[[[127.48189,37.84942],[127.48184,37.8494],[127.48185,37.84935],[127.48196,37.84935],[127.48198,37.84942],[127.48189,37.84942]]]}},{"type":"Feature","properties":{"valleyId":"yongchu-gapyeong","layer":"canopy","date":"2026-08-01"},"geometry":{"type":"Polygon","coordinates":[[[127.48216,37.84937],[127.48216,37.84932],[127.48223,37.84932],[127.48223,37.84937],[127.48216,37.84937]]]}},{"type":"Feature","properties":{"valleyId":"yongchu-gapyeong","layer":"canopy","date":"2026-08-01"},"geometry":{"type":"Polygon","coordinates":[[[127.4733,37.86016],[127.47303,37.86005],[127.47269,37.86001],[127.4726,37.85994],[127.47244,37.85995],[127.47238,37.85984],[127.47231,37.85984],[127.47224,37.85979],[127.4722,37.85979],[127.47213,37.85968],[127.47199,37.85966],[127.472,37.8596],[127.47193,37.85955],[127.47157,37.85949],[127.4715,37.85942],[127.47143,37.8594],[127.47114,37.85938],[127.47105,37.85932],[127.47089,37.8593],[127.47076,37.85914],[127.47066,37.85913],[127.47062,37.85921],[127.47046,37.8592],[127.47041,37.85928],[127.47034,37.85927],[127.47034,37.85937],[127.47014,37.85936],[127.47009,37.8594],[127.46964,37.85939],[127.4695,37.85935],[127.46946,37.8593],[127.46912,37.85924],[127.46907,37.85928],[127.46907,37.85937],[127.4688,37.85934],[127.4685,37.8594],[127.46843,37.85932],[127.46825,37.85927],[127.46814,37.85914],[127.46796,37.8591],[127.46796,37.85905],[127.46792,37.85903],[127.46792,37.8589],[127.46781,37.85888],[127.46778,37.85879],[127.46765,37.85872],[127.46763,37.85861],[127.46745,37.8585],[127.46738,37.85839],[127.46725,37.85833],[127.46709,37.85821],[127.46698,37.85802],[127.46698,37.85797],[127.46676,37.85789],[127.46674,37.8578],[127.46667,37.8577],[127.46658,37.85764],[127.46658,37.85755],[127.46654,37.85755],[127.46654,37.85751],[127.46645,37.85751],[127.46645,37.85755],[127.46638,37.8576],[127.46633,37.8576],[127.46631,37.85764],[127.46622,37.85764],[127.46615,37.85771],[127.46603,37.85772],[127.46601,37.85778],[127.46581,37.85776],[127.46582,37.85797],[127.46566,37.8581],[127.46546,37.85808],[127.4655,37.8582],[127.46543,37.85824],[127.46541,37.85829],[127.4652,37.85827],[127.46498,37.8582],[127.46498,37.85812],[127.46509,37.85804],[127.4651,37.85798],[127.46526,37.85791],[127.46531,37.85775],[127.4654,37.85773],[127.46538,37.85762],[127.46529,37.85759],[127.46526,37.85753],[127.46511,37.85751],[127.46506,37.85758],[127.4649,37.8576],[127.46492,37.85771],[127.46485,37.85776],[127.46467,37.8578],[127.46467,37.85785],[127.46457,37.85796],[127.46437,37.85799],[127.46428,37.85802],[127.46423,37.85808],[127.46416,37.85808],[127.46407,37.85799],[127.4638,37.858],[127.4638,37.85793],[127.46427,37.8573],[127.46452,37.85709],[127.46452,37.85705],[127.46485,37.85682],[127.46549,37.85654],[127.46565,37.85653],[127.46565,37.85656],[127.46572,37.8566],[127.46573,37.8568],[127.46582,37.8568],[127.46585,37.85687],[127.46594,37.85689],[127.4661,37.85679],[127.4661,37.85671],[127.46619,37.85668],[127.46619,37.85661],[127.4661,37.85652],[127.46611,37.85641],[127.46642,37.85638],[127.46711,37.8564],[127.46742,37.85646],[127.46792,37.85663],[127.46794,37.85667],[127.46812,37.85674],[127.46817,37.8568],[127.46821,37.8568],[127.4683,37.85689],[127.46835,37.85689],[127.46846,37.85698],[127.46846,37.85702],[127.46859,37.85711],[127.46859,37.85714],[127.4687,37.85723],[127.46872,37.85731],[127.46877,37.85733],[127.46877,37.85736],[127.46881,37.85738],[127.46881,37.85742],[127.46886,37.85744],[127.46886,37.85747],[127.4689,37.85749],[127.4689,37.85753],[127.46895,37.85754],[127.46895,37.85758],[127.46899,37.8576],[127.4691,37.85776],[127.46953,37.85777],[127.4704,37.85771],[127.47117,37.85772],[127.47224,37.85793],[127.47226,37.85784],[127.4724,37.85766],[127.4724,37.85761],[127.47261,37.85732],[127.47261,37.85727],[127.47278,37.85702],[127.47282,37.857],[127.47285,37.85693],[127.47301,37.85679],[127.47301,37.85675],[127.47333,37.85648],[127.47338,37.85648],[127.47361,37.85633],[127.47411,37.85613],[127.47441,37.85607],[127.47493,37.856],[127.47575,37.85603],[127.47693,37.85637],[127.47729,37.85654],[127.47733,37.85659],[127.47745,37.85663],[127.47753,37.85672],[127.47803,37.85691],[127.47823,37.85705],[127.47828,37.85705],[127.47924,37.85784],[127.47933,37.85784],[127.47935,37.85781],[127.47963,37.85772],[127.47963,37.85766],[127.47947,37.85754],[127.47947,37.8575],[127.47938,37.85743],[127.47936,37.85736],[127.47927,37.85728],[127.47925,37.85721],[127.47921,37.85719],[127.47919,37.85712],[127.47914,37.8571],[127.4791,37.85699],[127.47903,37.85694],[127.47881,37.85639],[127.47871,37.85594],[127.47875,37.85511],[127.47889,37.8547],[127.47906,37.85449],[127.47906,37.85432],[127.47916,37.854],[127.47944,37.85355],[127.47953,37.8535],[127.47967,37.85348],[127.47967,37.85345],[127.47979,37.8534],[127.47977,37.85321],[127.4797,37.85321],[127.4797,37.85327],[127.47954,37.8533],[127.47949,37.85318],[127.47936,37.85298],[127.47926,37.85258],[127.47927,37.85214],[127.47939,37.85175],[127.47946,37.85168],[127.47946,37.85162],[127.47957,37.85145],[127.47962,37.85143],[127.47971,37.85129],[127.47981,37.85123],[127.47981,37.8512],[127.48006,37.851],[127.48011,37.851],[127.4802,37.85091],[127.48025,37.85091],[127.48027,37.85088],[127.48059,37.85074],[127.48098,37.85063],[127.4813,37.8506],[127.4813,37.85055],[127.48123,37.85053],[127.48119,37.85046],[127.48103,37.85035],[127.48103,37.85031],[127.48096,37.85027],[127.4809,37.85015],[127.48085,37.85013],[127.48072,37.84991],[127.48059,37.84948],[127.48084,37.8495],[127.48093,37.84948],[127.48096,37.84944],[127.48121,37.84943],[127.48121,37.84938],[127.4811,37.84936],[127.4811,37.8493],[127.48119,37.8493],[127.48126,37.84927],[127.48139,37.84927],[127.48155,37.84933],[127.48155,37.8494],[127.48141,37.8494],[127.48141,37.84945],[127.48184,37.84949],[127.48196,37.84955],[127.48198,37.84964],[127.48211,37.84982],[127.48211,37.84987],[127.48218,37.84991],[127.48219,37.85013],[127.48226,37.85016],[127.48228,37.85029],[127.48221,37.85036],[127.48221,37.85047],[127.48205,37.85043],[127.48203,37.8505],[127.48191,37.85056],[127.48189,37.85068],[127.48168,37.85068],[127.48168,37.85075],[127.48163,37.85077],[127.48161,37.85084],[127.4814,37.85093],[127.48133,37.85104],[127.48127,37.85103],[127.48117,37.85112],[127.48113,37.85112],[127.4811,37.85123],[127.48097,37.85127],[127.48092,37.85139],[127.48085,37.85144],[127.4808,37.85144],[127.4808,37.85155],[127.48091,37.85164],[127.48093,37.85175],[127.481,37.85181],[127.48107,37.85181],[127.48111,37.85184],[127.48111,37.8519],[127.48118,37.85194],[127.48118,37.85199],[127.48113,37.85199],[127.48113,37.85202],[127.48102,37.85204],[127.48102,37.85211],[127.48106,37.85215],[127.48124,37.85215],[127.48127,37.85212],[127.48136,37.85212],[127.48138,37.85215],[127.48138,37.85223],[127.48117,37.85222],[127.48117,37.8523],[127.48135,37.85232],[127.48144,37.85237],[127.48146,37.85277],[127.48152,37.85282],[127.48157,37.85282],[127.48159,37.853],[127.48168,37.85308],[127.48168,37.85313],[127.48177,37.85322],[127.48176,37.85333],[127.48183,37.8534],[127.48185,37.85353],[127.48196,37.85364],[127.48196,37.85375],[127.48176,37.85374],[127.48173,37.85378],[127.48159,37.85383],[127.48148,37.85383],[127.48139,37.85388],[127.48139,37.85392],[127.48132,37.85396],[127.48132,37.85403],[127.48136,37.85403],[127.48136,37.85419],[127.48127,37.85428],[127.48122,37.85428],[127.4811,37.85453],[127.48092,37.85455],[127.48081,37.8546],[127.4808,37.85471],[127.48069,37.85483],[127.48069,37.85492],[127.48066,37.85496],[127.48059,37.85496],[127.48059,37.85514],[127.48074,37.85546],[127.48074,37.85575],[127.48067,37.8558],[127.48067,37.85586],[127.48075,37.85599],[127.48075,37.85613],[127.48064,37.85618],[127.48064,37.85624],[127.48075,37.85633],[127.48104,37.85635],[127.48111,37.85642],[127.4812,37.85646],[127.4812,37.8565],[127.48131,37.85653],[127.48133,37.85661],[127.48151,37.8567],[127.48146,37.8569],[127.48153,37.85693],[127.48155,37.85702],[127.48164,37.85706],[127.48161,37.85747],[127.48168,37.85755],[127.48168,37.8576],[127.48163,37.85764],[127.48149,37.85765],[127.48147,37.85769],[127.48129,37.85776],[127.48101,37.85777],[127.48098,37.85811],[127.48103,37.85815],[127.48105,37.85824],[127.48112,37.85828],[127.48123,37.85828],[127.4813,37.85821],[127.48148,37.85821],[127.4815,37.8583],[127.48157,37.85836],[127.48166,37.85838],[127.48168,37.85845],[127.48177,37.85852],[127.48188,37.85854],[127.48188,37.8586],[127.48177,37.85868],[127.48161,37.85868],[127.48158,37.85874],[127.48152,37.85877],[127.48149,37.85884],[127.48129,37.85893],[127.48119,37.85902],[127.48096,37.85907],[127.48076,37.85919],[127.48055,37.85923],[127.48048,37.8593],[127.48037,37.8593],[127.48032,37.85933],[127.48014,37.85933],[127.48003,37.8594],[127.47993,37.8594],[127.47982,37.85951],[127.47966,37.85949],[127.47952,37.85952],[127.4795,37.85956],[127.47925,37.85957],[127.47924,37.8598],[127.47917,37.85986],[127.47892,37.85985],[127.4787,37.85978],[127.47868,37.85962],[127.47852,37.8596],[127.47836,37.85949],[127.4782,37.85949],[127.47816,37.85943],[127.47812,37.85943],[127.47812,37.85939],[127.47794,37.85928],[127.47792,37.85919],[127.47785,37.85914],[127.47771,37.8591],[127.4776,37.85894],[127.47745,37.85883],[127.47742,37.85875],[127.47724,37.85868],[127.47715,37.85861],[127.47713,37.8585],[127.477,37.85848],[127.47693,37.85841],[127.47684,37.85837],[127.47684,37.85833],[127.47673,37.85831],[127.47673,37.85826],[127.47664,37.85822],[127.47664,37.85819],[127.47659,37.85818],[127.47653,37.85811],[127.47641,37.85811],[127.47621,37.85805],[127.47621,37.85802],[127.4761,37.85796],[127.47608,37.85789],[127.47583,37.85789],[127.47576,37.85783],[127.47565,37.85781],[127.47549,37.85772],[127.47538,37.85772],[127.47533,37.85768],[127.47483,37.85767],[127.47463,37.85773],[127.47462,37.85787],[127.47458,37.85791],[127.47433,37.8579],[127.47437,37.8581],[127.47416,37.85815],[127.47416,37.85821],[127.47421,37.85823],[127.47421,37.85832],[127.47411,37.85837],[127.47411,37.85846],[127.47406,37.85849],[127.47406,37.85855],[127.47402,37.85857],[127.47402,37.85866],[127.47395,37.85869],[127.47388,37.8588],[127.47389,37.85907],[127.47373,37.85917],[127.47368,37.85941],[127.4735,37.85942],[127.47336,37.85964],[127.47331,37.85996],[127.47337,37.86005],[127.47339,37.86016],[127.4733,37.86016]],[[127.46851,37.85896],[127.46864,37.85896],[127.46869,37.85891],[127.46869,37.85886],[127.46863,37.8588],[127.46863,37.85877],[127.46849,37.85876],[127.46842,37.85884],[127.46842,37.85889],[127.46851,37.85896]],[[127.47075,37.85822],[127.47084,37.8582],[127.47084,37.85811],[127.47078,37.85804],[127.47071,37.85804],[127.47068,37.85816],[127.47075,37.85822]],[[127.46703,37.85792],[127.46717,37.85792],[127.46719,37.85765],[127.46742,37.85765],[127.46745,37.85756],[127.46754,37.85753],[127.46752,37.85744],[127.46734,37.8574],[127.46733,37.85751],[127.46711,37.85752],[127.46703,37.85768],[127.46703,37.85792]],[[127.4643,37.85781],[127.46439,37.85781],[127.46444,37.85777],[127.46444,37.85772],[127.46435,37.85772],[127.4643,37.85775],[127.4643,37.85781]],[[127.46465,37.85758],[127.46474,37.85758],[127.46472,37.85749],[127.46461,37.85749],[127.4646,37.85756],[127.46465,37.85758]],[[127.4679,37.85757],[127.46797,37.85757],[127.46797,37.85746],[127.46786,37.85746],[127.46786,37.85755],[127.4679,37.85757]],[[127.46568,37.85745],[127.46574,37.85745],[127.46572,37.85734],[127.46565,37.85734],[127.46568,37.85745]],[[127.46575,37.85709],[127.46582,37.85709],[127.46589,37.85704],[127.46589,37.85698],[127.46578,37.85691],[127.46573,37.8568],[127.46546,37.85676],[127.46546,37.85687],[127.46553,37.85689],[127.46552,37.85705],[127.46562,37.85705],[127.46562,37.85698],[127.46571,37.85696],[127.46571,37.857],[127.46575,37.857],[127.46575,37.85709]],[[127.48069,37.85379],[127.48082,37.85377],[127.48083,37.85359],[127.48065,37.85357],[127.48062,37.85371],[127.48069,37.85379]],[[127.48126,37.85365],[127.48139,37.85365],[127.48142,37.8536],[127.48156,37.85353],[127.48154,37.8534],[127.48129,37.8534],[127.4811,37.85343],[127.48106,37.85347],[127.48106,37.85354],[127.4811,37.85354],[127.48126,37.85365]],[[127.48095,37.85319],[127.48131,37.85316],[127.48131,37.85311],[127.48113,37.85305],[127.48095,37.85307],[127.48088,37.8531],[127.48088,37.85316],[127.48093,37.85316],[127.48095,37.85319]],[[127.47948,37.8526],[127.4796,37.8526],[127.47964,37.85256],[127.47964,37.85249],[127.47956,37.85242],[127.47956,37.85227],[127.47935,37.85227],[127.47933,37.85242],[127.47942,37.85242],[127.47944,37.85256],[127.47948,37.8526]],[[127.48126,37.85017],[127.48137,37.85017],[127.48142,37.85014],[127.48142,37.85006],[127.48133,37.85001],[127.48131,37.84988],[127.48115,37.84988],[127.48113,37.84992],[127.48104,37.84993],[127.48104,37.85],[127.4811,37.85004],[127.48115,37.85013],[127.48122,37.85013],[127.48126,37.85017]]]}},{"type":"Feature","properties":{"valleyId":"yongchu-gapyeong","layer":"canopy","date":"2026-08-01"},"geometry":{"type":"Polygon","coordinates":[[[127.48475,37.84937],[127.48476,37.84931],[127.48482,37.84931],[127.48482,37.84937],[127.48475,37.84937]]]}},{"type":"Feature","properties":{"valleyId":"yongchu-gapyeong","layer":"canopy","date":"2026-08-01"},"geometry":{"type":"Polygon","coordinates":[[[127.48385,37.84936],[127.48387,37.84928],[127.48403,37.84929],[127.48401,37.84936],[127.48385,37.84936]]]}},{"type":"Feature","properties":{"valleyId":"yongchu-gapyeong","layer":"canopy","date":"2026-08-01"},"geometry":{"type":"Polygon","coordinates":[[[127.48076,37.8493],[127.48067,37.84922],[127.48067,37.84915],[127.48076,37.84915],[127.48085,37.84925],[127.48085,37.8493],[127.48076,37.8493]]]}},{"type":"Feature","properties":{"valleyId":"yongchu-gapyeong","layer":"canopy","date":"2026-08-01"},"geometry":{"type":"Polygon","coordinates":[[[127.48485,37.84931],[127.48485,37.84926],[127.48499,37.84923],[127.48501,37.84919],[127.48528,37.84919],[127.48533,37.84923],[127.48532,37.84928],[127.48528,37.8493],[127.48505,37.84928],[127.48503,37.84932],[127.48485,37.84931]]]}},{"type":"Feature","properties":{"valleyId":"yongchu-gapyeong","layer":"canopy","date":"2026-08-01"},"geometry":{"type":"Polygon","coordinates":[[[127.4844,37.84915],[127.48444,37.849],[127.48469,37.84902],[127.48467,37.84911],[127.4846,37.84911],[127.48455,37.84915],[127.4844,37.84915]]]}},{"type":"Feature","properties":{"valleyId":"yongchu-gapyeong","layer":"canopy","date":"2026-08-01"},"geometry":{"type":"Polygon","coordinates":[[[127.4859,37.84908],[127.4859,37.849],[127.48599,37.849],[127.48599,37.84906],[127.4859,37.84908]]]}},{"type":"Feature","properties":{"valleyId":"yongchu-gapyeong","layer":"canopy","date":"2026-08-01"},"geometry":{"type":"Polygon","coordinates":[[[127.48708,37.84898],[127.48708,37.84891],[127.48717,37.84891],[127.48717,37.84898],[127.48708,37.84898]]]}},{"type":"Feature","properties":{"valleyId":"yongchu-gapyeong","layer":"canopy","date":"2026-08-01"},"geometry":{"type":"Polygon","coordinates":[[[127.48706,37.84871],[127.48707,37.84866],[127.48713,37.84866],[127.48713,37.84871],[127.48706,37.84871]]]}},{"type":"Feature","properties":{"valleyId":"yongchu-gapyeong","layer":"canopy","date":"2026-08-01"},"geometry":{"type":"Polygon","coordinates":[[[127.48686,37.8499],[127.48679,37.84983],[127.48675,37.84983],[127.48675,37.84975],[127.48688,37.84974],[127.48689,37.84932],[127.48694,37.84923],[127.48703,37.84922],[127.48703,37.84911],[127.48713,37.84906],[127.48713,37.849],[127.48724,37.849],[127.48731,37.84906],[127.4874,37.84906],[127.48735,37.8492],[127.48742,37.8492],[127.48748,37.84926],[127.48748,37.84929],[127.48755,37.8493],[127.48755,37.84926],[127.48767,37.84924],[127.48767,37.84917],[127.48762,37.84917],[127.48763,37.84903],[127.48767,37.84903],[127.4877,37.84888],[127.48783,37.84888],[127.48793,37.84881],[127.48793,37.84874],[127.488,37.84871],[127.488,37.8486],[127.48804,37.84856],[127.48827,37.84855],[127.48832,37.84849],[127.48841,37.8485],[127.48845,37.84855],[127.48859,37.84855],[127.48861,37.84852],[127.4887,37.84852],[127.4887,37.84863],[127.48863,37.84879],[127.48856,37.84879],[127.48852,37.84884],[127.4884,37.84884],[127.4884,37.84889],[127.48829,37.84891],[127.48829,37.84894],[127.48813,37.84907],[127.48812,37.84918],[127.48817,37.84918],[127.48824,37.84923],[127.48823,37.8493],[127.48803,37.84948],[127.48798,37.84948],[127.48789,37.84957],[127.48784,37.84957],[127.48773,37.84966],[127.48738,37.8498],[127.48731,37.8498],[127.48713,37.84987],[127.48686,37.8499]]]}},{"type":"Feature","properties":{"valleyId":"yongchu-gapyeong","layer":"canopy","date":"2026-08-01"},"geometry":{"type":"Polygon","coordinates":[[[127.48067,37.84901],[127.4806,37.84895],[127.48065,37.84874],[127.48075,37.84852],[127.48091,37.84831],[127.48132,37.84835],[127.4815,37.8485],[127.48189,37.84852],[127.48191,37.84856],[127.48207,37.84854],[127.48211,37.84859],[127.48222,37.8486],[127.48236,37.84871],[127.48236,37.84885],[127.48231,37.84885],[127.48229,37.8489],[127.48224,37.8489],[127.48224,37.84903],[127.48213,37.84903],[127.48204,37.84895],[127.48181,37.84897],[127.48179,37.84884],[127.48136,37.84884],[127.48133,37.84893],[127.48099,37.84894],[127.48085,37.84901],[127.48067,37.84901]]]}},{"type":"Feature","properties":{"valleyId":"yongchu-gapyeong","layer":"canopy","date":"2026-08-01"},"geometry":{"type":"Polygon","coordinates":[[[127.48737,37.84803],[127.48738,37.84791],[127.48749,37.84791],[127.48746,37.84803],[127.48737,37.84803]]]}},{"type":"Feature","properties":{"valleyId":"yongchu-gapyeong","layer":"canopy","date":"2026-08-01"},"geometry":{"type":"Polygon","coordinates":[[[127.48741,37.84636],[127.48741,37.84619],[127.48734,37.8461],[127.48735,37.84605],[127.48742,37.84596],[127.48748,37.84596],[127.48748,37.84636],[127.48741,37.84636]]]}},{"type":"Feature","properties":{"valleyId":"yongchu-gapyeong","layer":"canopy","date":"2026-08-01"},"geometry":{"type":"Polygon","coordinates":[[[127.4818,37.84818],[127.4816,37.84812],[127.48142,37.84812],[127.48128,37.84806],[127.48124,37.84802],[127.48124,37.84797],[127.48142,37.84783],[127.48154,37.84783],[127.48169,37.84796],[127.48181,37.84798],[127.48181,37.84791],[127.48176,37.84783],[127.48165,37.84776],[127.48165,37.84771],[127.482,37.84757],[127.48259,37.84745],[127.48316,37.84745],[127.48366,37.84755],[127.48364,37.84706],[127.48377,37.84663],[127.48405,37.8462],[127.48449,37.84583],[127.48453,37.84583],[127.48458,37.84578],[127.48462,37.84578],[127.48479,37.84567],[127.48531,37.8455],[127.48565,37.84545],[127.48609,37.84546],[127.48608,37.84553],[127.48604,37.84556],[127.48592,37.84558],[127.48579,37.84565],[127.48574,37.84576],[127.48567,37.84581],[127.48569,37.84599],[127.48557,37.84601],[127.48557,37.84606],[127.48573,37.84608],[127.48571,37.84596],[127.48594,37.84596],[127.48598,37.84599],[127.48598,37.84616],[127.48593,37.84625],[127.48577,37.84623],[127.48577,37.84628],[127.48568,37.84628],[127.48557,37.84635],[127.48559,37.84649],[127.48549,37.84662],[127.48549,37.84687],[127.48542,37.84692],[127.48544,37.8472],[127.48534,37.84723],[127.48532,37.8475],[127.48513,37.8475],[127.485,37.8476],[127.48488,37.84762],[127.48477,37.84775],[127.48449,37.8478],[127.4844,37.84785],[127.4844,37.84794],[127.48431,37.84799],[127.48358,37.848],[127.48342,37.84802],[127.4834,37.84805],[127.4833,37.84807],[127.4831,37.84807],[127.48301,37.84803],[127.48246,37.84799],[127.48237,37.84793],[127.4821,37.84793],[127.48208,37.84802],[127.48203,37.84803],[127.48203,37.84811],[127.48196,37.84812],[127.48194,37.84818],[127.4818,37.84818]],[[127.48482,37.84602],[127.48489,37.84602],[127.48494,37.84598],[127.48494,37.84593],[127.48478,37.84594],[127.48478,37.846],[127.48482,37.84602]]]}}]}
