{"type":"FeatureCollection","metadata":{"description":"개방지(CHM ≤ 2 m)에 드리운 나무·지형 그림자, 2026-08-01 15:00 KST. canopy 위에 겹쳐 그린다","source":"위성 기반 추정 — Copernicus GLO-30 지형(30 m) + Meta/WRI 수관 높이(1 m CHM, 2015~2016 촬영). 그늘 = 수관(CHM > 2 m) ∪ 나무·지형 그림자 ∪ 원거리 지형 마스크. 현장과 다를 수 있음.","datasetVersion":"2026-09-06.0","collectedAt":"2026-09-06","coordinateOrder":"[longitude, latitude]","crs":"EPSG:4326","representativeDate":"2026-08-01","hours":["10:00","11:00","12:00","13:00","14:00","15:00","16:00","17:00","18:00"],"chmAcquisition":["2015-07","2016-06"],"assets":{"glo30":{"dataset":"Copernicus DEM GLO-30 (COG, s3://copernicus-dem-30m)","tiles":["Copernicus_DSM_COG_10_N37_00_E127_00_DEM"]},"chm":{"dataset":"Meta/WRI Global Canopy Height Map v1 (alsgedi_global_v6_float, 1 m, CC-BY 4.0)","quadkeys":["132110303"],"acquisition":["2015-07","2016-06"]}},"method":{"gridResM":2,"canopyThresholdM":2,"bufferHalfM":25,"corridorHalfM":200,"simplifyTolM":2,"minAreaM2":25,"coordDecimals":5},"generator":"scripts/shade 0.1.0","builtAt":"2026-09-06T05:56:06Z","layer":"shadow","timeLocal":"15:00"},"features":[{"type":"Feature","properties":{"valleyId":"yongchu-gapyeong","layer":"shadow","date":"2026-08-01","timeLocal":"15:00"},"geometry":{"type":"Polygon","coordinates":[[[127.47437,37.86012],[127.47437,37.86003],[127.47444,37.86003],[127.47444,37.86012],[127.47437,37.86012]]]}},{"type":"Feature","properties":{"valleyId":"yongchu-gapyeong","layer":"shadow","date":"2026-08-01","timeLocal":"15:00"},"geometry":{"type":"Polygon","coordinates":[[[127.47404,37.85958],[127.47404,37.85947],[127.47411,37.85947],[127.47411,37.85958],[127.47404,37.85958]]]}},{"type":"Feature","properties":{"valleyId":"yongchu-gapyeong","layer":"shadow","date":"2026-08-01","timeLocal":"15:00"},"geometry":{"type":"Polygon","coordinates":[[[127.4744,37.859],[127.4744,37.85886],[127.47447,37.85886],[127.47446,37.859],[127.4744,37.859]]]}},{"type":"Feature","properties":{"valleyId":"yongchu-gapyeong","layer":"shadow","date":"2026-08-01","timeLocal":"15:00"},"geometry":{"type":"Polygon","coordinates":[[[127.47442,37.85877],[127.47445,37.85861],[127.47447,37.85857],[127.47454,37.85857],[127.47454,37.8587],[127.47449,37.85877],[127.47442,37.85877]]]}},{"type":"Feature","properties":{"valleyId":"yongchu-gapyeong","layer":"shadow","date":"2026-08-01","timeLocal":"15:00"},"geometry":{"type":"Polygon","coordinates":[[[127.47437,37.85812],[127.47437,37.85807],[127.47444,37.85807],[127.47444,37.85812],[127.47437,37.85812]]]}},{"type":"Feature","properties":{"valleyId":"yongchu-gapyeong","layer":"shadow","date":"2026-08-01","timeLocal":"15:00"},"geometry":{"type":"Polygon","coordinates":[[[127.47433,37.85797],[127.47433,37.8579],[127.4744,37.8579],[127.47439,37.85798],[127.47433,37.85797]]]}},{"type":"Feature","properties":{"valleyId":"yongchu-gapyeong","layer":"shadow","date":"2026-08-01","timeLocal":"15:00"},"geometry":{"type":"Polygon","coordinates":[[[127.48092,37.85139],[127.48092,37.85134],[127.48099,37.85134],[127.48099,37.85139],[127.48092,37.85139]]]}}]}
