{"type":"FeatureCollection","metadata":{"description":"개방지(CHM ≤ 2 m)에 드리운 나무·지형 그림자, 2026-08-01 16:00 KST. canopy 위에 겹쳐 그린다","source":"위성 기반 추정 — Copernicus GLO-30 지형(30 m) + Meta/WRI 수관 높이(1 m CHM, 2015~2016 촬영). 그늘 = 수관(CHM > 2 m) ∪ 나무·지형 그림자 ∪ 원거리 지형 마스크. 현장과 다를 수 있음.","datasetVersion":"2026-09-06.0","collectedAt":"2026-09-06","coordinateOrder":"[longitude, latitude]","crs":"EPSG:4326","representativeDate":"2026-08-01","hours":["10:00","11:00","12:00","13:00","14:00","15:00","16:00","17:00","18:00"],"chmAcquisition":["2015-07","2016-06"],"assets":{"glo30":{"dataset":"Copernicus DEM GLO-30 (COG, s3://copernicus-dem-30m)","tiles":["Copernicus_DSM_COG_10_N37_00_E127_00_DEM"]},"chm":{"dataset":"Meta/WRI Global Canopy Height Map v1 (alsgedi_global_v6_float, 1 m, CC-BY 4.0)","quadkeys":["132110303"],"acquisition":["2015-07","2016-06"]}},"method":{"gridResM":2,"canopyThresholdM":2,"bufferHalfM":25,"corridorHalfM":200,"simplifyTolM":2,"minAreaM2":25,"coordDecimals":5},"generator":"scripts/shade 0.1.0","builtAt":"2026-09-06T05:56:06Z","layer":"shadow","timeLocal":"16:00"},"features":[{"type":"Feature","properties":{"valleyId":"yongchu-gapyeong","layer":"shadow","date":"2026-08-01","timeLocal":"16:00"},"geometry":{"type":"Polygon","coordinates":[[[127.47123,37.86168],[127.4712,37.86158],[127.47127,37.86158],[127.47129,37.86168],[127.47123,37.86168]]]}},{"type":"Feature","properties":{"valleyId":"yongchu-gapyeong","layer":"shadow","date":"2026-08-01","timeLocal":"16:00"},"geometry":{"type":"Polygon","coordinates":[[[127.47781,37.86098],[127.47774,37.86092],[127.47774,37.86087],[127.4777,37.86087],[127.47761,37.86078],[127.47766,37.86051],[127.47773,37.86051],[127.47775,37.86081],[127.47784,37.86087],[127.47786,37.86092],[127.4779,37.86092],[127.4779,37.86098],[127.47781,37.86098]]]}},{"type":"Feature","properties":{"valleyId":"yongchu-gapyeong","layer":"shadow","date":"2026-08-01","timeLocal":"16:00"},"geometry":{"type":"Polygon","coordinates":[[[127.47155,37.86041],[127.47157,37.8603],[127.47164,37.8603],[127.47162,37.86041],[127.47155,37.86041]]]}},{"type":"Feature","properties":{"valleyId":"yongchu-gapyeong","layer":"shadow","date":"2026-08-01","timeLocal":"16:00"},"geometry":{"type":"Polygon","coordinates":[[[127.4736,37.86009],[127.4736,37.86004],[127.47369,37.86004],[127.47369,37.86009],[127.4736,37.86009]]]}},{"type":"Feature","properties":{"valleyId":"yongchu-gapyeong","layer":"shadow","date":"2026-08-01","timeLocal":"16:00"},"geometry":{"type":"Polygon","coordinates":[[[127.46412,37.86011],[127.46412,37.86001],[127.46417,37.85992],[127.46431,37.8599],[127.46426,37.8601],[127.46412,37.86011]]]}},{"type":"Feature","properties":{"valleyId":"yongchu-gapyeong","layer":"shadow","date":"2026-08-01","timeLocal":"16:00"},"geometry":{"type":"Polygon","coordinates":[[[127.47437,37.86012],[127.47438,37.85998],[127.47444,37.85998],[127.47449,37.86009],[127.47444,37.86012],[127.47437,37.86012]]]}},{"type":"Feature","properties":{"valleyId":"yongchu-gapyeong","layer":"shadow","date":"2026-08-01","timeLocal":"16:00"},"geometry":{"type":"Polygon","coordinates":[[[127.47371,37.86004],[127.47372,37.85995],[127.47381,37.85995],[127.47381,37.86002],[127.47371,37.86004]]]}},{"type":"Feature","properties":{"valleyId":"yongchu-gapyeong","layer":"shadow","date":"2026-08-01","timeLocal":"16:00"},"geometry":{"type":"Polygon","coordinates":[[[127.46435,37.85988],[127.46438,37.85977],[127.46442,37.85976],[127.46442,37.85965],[127.46449,37.85965],[127.46451,37.85978],[127.46444,37.85981],[127.46442,37.85988],[127.46435,37.85988]]]}},{"type":"Feature","properties":{"valleyId":"yongchu-gapyeong","layer":"shadow","date":"2026-08-01","timeLocal":"16:00"},"geometry":{"type":"Polygon","coordinates":[[[127.47663,37.85995],[127.47663,37.8599],[127.47665,37.85986],[127.4767,37.85986],[127.47672,37.85979],[127.47686,37.85977],[127.47686,37.85985],[127.47679,37.85986],[127.47676,37.85995],[127.47663,37.85995]]]}},{"type":"Feature","properties":{"valleyId":"yongchu-gapyeong","layer":"shadow","date":"2026-08-01","timeLocal":"16:00"},"geometry":{"type":"Polygon","coordinates":[[[127.47757,37.8596],[127.47757,37.85953],[127.47764,37.85953],[127.47766,37.8596],[127.47757,37.8596]]]}},{"type":"Feature","properties":{"valleyId":"yongchu-gapyeong","layer":"shadow","date":"2026-08-01","timeLocal":"16:00"},"geometry":{"type":"Polygon","coordinates":[[[127.47345,37.85955],[127.47345,37.85948],[127.4735,37.85946],[127.4735,37.85942],[127.47368,37.85941],[127.47368,37.85946],[127.47364,37.8595],[127.47359,37.8595],[127.47352,37.85955],[127.47345,37.85955]]]}},{"type":"Feature","properties":{"valleyId":"yongchu-gapyeong","layer":"shadow","date":"2026-08-01","timeLocal":"16:00"},"geometry":{"type":"Polygon","coordinates":[[[127.47388,37.8599],[127.47393,37.85975],[127.47399,37.8597],[127.474,37.85963],[127.47404,37.85959],[127.47405,37.85945],[127.47393,37.85938],[127.47393,37.8593],[127.474,37.8593],[127.47405,37.85936],[127.47416,37.85938],[127.47416,37.85943],[127.47425,37.85947],[127.47425,37.85958],[127.47422,37.85961],[127.47413,37.85961],[127.47409,37.85965],[127.47404,37.85981],[127.47395,37.8599],[127.47388,37.8599]]]}},{"type":"Feature","properties":{"valleyId":"yongchu-gapyeong","layer":"shadow","date":"2026-08-01","timeLocal":"16:00"},"geometry":{"type":"Polygon","coordinates":[[[127.46551,37.85903],[127.46551,37.85898],[127.46558,37.85898],[127.46557,37.85903],[127.46551,37.85903]]]}},{"type":"Feature","properties":{"valleyId":"yongchu-gapyeong","layer":"shadow","date":"2026-08-01","timeLocal":"16:00"},"geometry":{"type":"Polygon","coordinates":[[[127.46538,37.85876],[127.46536,37.85858],[127.46542,37.85858],[127.46544,37.85876],[127.46538,37.85876]]]}},{"type":"Feature","properties":{"valleyId":"yongchu-gapyeong","layer":"shadow","date":"2026-08-01","timeLocal":"16:00"},"geometry":{"type":"Polygon","coordinates":[[[127.48151,37.85882],[127.48152,37.85877],[127.48158,37.85875],[127.48159,37.8587],[127.48168,37.85868],[127.48168,37.85874],[127.48161,37.85875],[127.48161,37.85883],[127.48151,37.85882]]]}},{"type":"Feature","properties":{"valleyId":"yongchu-gapyeong","layer":"shadow","date":"2026-08-01","timeLocal":"16:00"},"geometry":{"type":"Polygon","coordinates":[[[127.47439,37.85904],[127.4744,37.85877],[127.47445,37.85872],[127.47445,37.85861],[127.4745,37.85855],[127.47461,37.85854],[127.47463,37.85861],[127.47458,37.85874],[127.47454,37.85875],[127.47456,37.85893],[127.47449,37.85904],[127.47439,37.85904]]]}},{"type":"Feature","properties":{"valleyId":"yongchu-gapyeong","layer":"shadow","date":"2026-08-01","timeLocal":"16:00"},"geometry":{"type":"Polygon","coordinates":[[[127.47607,37.85834],[127.47607,37.85825],[127.47614,37.85825],[127.47614,37.85834],[127.47607,37.85834]]]}},{"type":"Feature","properties":{"valleyId":"yongchu-gapyeong","layer":"shadow","date":"2026-08-01","timeLocal":"16:00"},"geometry":{"type":"Polygon","coordinates":[[[127.47368,37.85941],[127.47373,37.85917],[127.47389,37.85907],[127.4739,37.85874],[127.47402,37.85866],[127.47402,37.85857],[127.47406,37.85855],[127.47406,37.85849],[127.47411,37.85846],[127.47411,37.85837],[127.47421,37.85832],[127.47421,37.85823],[127.47416,37.85821],[127.47416,37.85815],[127.47435,37.85812],[127.47434,37.85817],[127.4743,37.85821],[127.47434,37.85835],[127.47425,37.85837],[127.47425,37.85853],[127.4742,37.85853],[127.47418,37.85857],[127.47418,37.85866],[127.47411,37.85871],[127.4741,37.85886],[127.47406,37.85891],[127.47405,37.859],[127.4741,37.859],[127.4741,37.85916],[127.47391,37.8592],[127.47391,37.85929],[127.4738,37.85928],[127.4738,37.85941],[127.47368,37.85941]]]}},{"type":"Feature","properties":{"valleyId":"yongchu-gapyeong","layer":"shadow","date":"2026-08-01","timeLocal":"16:00"},"geometry":{"type":"Polygon","coordinates":[[[127.46467,37.85785],[127.46467,37.8578],[127.46474,37.8578],[127.46473,37.85785],[127.46467,37.85785]]]}},{"type":"Feature","properties":{"valleyId":"yongchu-gapyeong","layer":"shadow","date":"2026-08-01","timeLocal":"16:00"},"geometry":{"type":"Polygon","coordinates":[[[127.47437,37.85814],[127.47437,37.85801],[127.47433,37.85797],[127.47433,37.8579],[127.4746,37.85791],[127.47455,37.8581],[127.47448,37.85814],[127.47437,37.85814]]]}},{"type":"Feature","properties":{"valleyId":"yongchu-gapyeong","layer":"shadow","date":"2026-08-01","timeLocal":"16:00"},"geometry":{"type":"Polygon","coordinates":[[[127.4643,37.85781],[127.4643,37.85775],[127.4644,37.85774],[127.46439,37.85779],[127.4643,37.85781]]]}},{"type":"Feature","properties":{"valleyId":"yongchu-gapyeong","layer":"shadow","date":"2026-08-01","timeLocal":"16:00"},"geometry":{"type":"Polygon","coordinates":[[[127.48112,37.85828],[127.48105,37.85824],[127.48103,37.85815],[127.48098,37.85811],[127.48101,37.85777],[127.48113,37.85777],[127.4811,37.85795],[127.48115,37.85795],[127.48114,37.8581],[127.48119,37.85812],[127.48119,37.85817],[127.48125,37.85821],[127.48123,37.85828],[127.48112,37.85828]]]}},{"type":"Feature","properties":{"valleyId":"yongchu-gapyeong","layer":"shadow","date":"2026-08-01","timeLocal":"16:00"},"geometry":{"type":"Polygon","coordinates":[[[127.4822,37.8577],[127.48218,37.85757],[127.48225,37.85757],[127.48227,37.8577],[127.4822,37.8577]]]}},{"type":"Feature","properties":{"valleyId":"yongchu-gapyeong","layer":"shadow","date":"2026-08-01","timeLocal":"16:00"},"geometry":{"type":"Polygon","coordinates":[[[127.48168,37.8576],[127.48168,37.85755],[127.48161,37.85747],[127.48164,37.85719],[127.48173,37.85721],[127.4817,37.85749],[127.48175,37.85753],[127.48174,37.8576],[127.48168,37.8576]]]}},{"type":"Feature","properties":{"valleyId":"yongchu-gapyeong","layer":"shadow","date":"2026-08-01","timeLocal":"16:00"},"geometry":{"type":"Polygon","coordinates":[[[127.4655,37.85689],[127.46546,37.85687],[127.46546,37.85676],[127.46553,37.85676],[127.46553,37.85683],[127.46557,37.85683],[127.46557,37.85689],[127.4655,37.85689]]]}},{"type":"Feature","properties":{"valleyId":"yongchu-gapyeong","layer":"shadow","date":"2026-08-01","timeLocal":"16:00"},"geometry":{"type":"Polygon","coordinates":[[[127.48155,37.85702],[127.48155,37.85697],[127.48162,37.85697],[127.48162,37.85702],[127.48155,37.85702]]]}},{"type":"Feature","properties":{"valleyId":"yongchu-gapyeong","layer":"shadow","date":"2026-08-01","timeLocal":"16:00"},"geometry":{"type":"Polygon","coordinates":[[[127.48146,37.8569],[127.48147,37.85681],[127.48151,37.85673],[127.48158,37.85673],[127.48153,37.8569],[127.48146,37.8569]]]}},{"type":"Feature","properties":{"valleyId":"yongchu-gapyeong","layer":"shadow","date":"2026-08-01","timeLocal":"16:00"},"geometry":{"type":"Polygon","coordinates":[[[127.4807,37.85629],[127.4807,37.85624],[127.48077,37.85624],[127.48077,37.85629],[127.4807,37.85629]]]}},{"type":"Feature","properties":{"valleyId":"yongchu-gapyeong","layer":"shadow","date":"2026-08-01","timeLocal":"16:00"},"geometry":{"type":"Polygon","coordinates":[[[127.48196,37.85596],[127.48196,37.85591],[127.48203,37.85591],[127.48203,37.85597],[127.48196,37.85596]]]}},{"type":"Feature","properties":{"valleyId":"yongchu-gapyeong","layer":"shadow","date":"2026-08-01","timeLocal":"16:00"},"geometry":{"type":"Polygon","coordinates":[[[127.48073,37.85618],[127.48075,37.85599],[127.48067,37.85586],[127.48069,37.85579],[127.48076,37.85579],[127.48076,37.85586],[127.48085,37.85597],[127.48087,37.85606],[127.48087,37.85613],[127.4808,37.85615],[127.4808,37.85618],[127.48073,37.85618]]]}},{"type":"Feature","properties":{"valleyId":"yongchu-gapyeong","layer":"shadow","date":"2026-08-01","timeLocal":"16:00"},"geometry":{"type":"Polygon","coordinates":[[[127.48154,37.85551],[127.48154,37.85538],[127.48161,37.85538],[127.48165,37.85542],[127.48165,37.85547],[127.48161,37.85551],[127.48154,37.85551]]]}},{"type":"Feature","properties":{"valleyId":"yongchu-gapyeong","layer":"shadow","date":"2026-08-01","timeLocal":"16:00"},"geometry":{"type":"Polygon","coordinates":[[[127.48072,37.8557],[127.48074,37.85546],[127.48066,37.85524],[127.48061,37.85521],[127.48059,37.85496],[127.48066,37.85496],[127.48066,37.85503],[127.48071,37.85505],[127.48072,37.85526],[127.48081,37.85537],[127.48078,37.8557],[127.48072,37.8557]]]}},{"type":"Feature","properties":{"valleyId":"yongchu-gapyeong","layer":"shadow","date":"2026-08-01","timeLocal":"16:00"},"geometry":{"type":"Polygon","coordinates":[[[127.48069,37.85494],[127.48069,37.85483],[127.4808,37.85471],[127.48081,37.8546],[127.48092,37.85458],[127.48092,37.85467],[127.48085,37.85474],[127.48085,37.85485],[127.4808,37.85485],[127.4808,37.8549],[127.48075,37.85494],[127.48069,37.85494]]]}},{"type":"Feature","properties":{"valleyId":"yongchu-gapyeong","layer":"shadow","date":"2026-08-01","timeLocal":"16:00"},"geometry":{"type":"Polygon","coordinates":[[[127.48113,37.85451],[127.48113,37.85444],[127.4812,37.85444],[127.48119,37.85451],[127.48113,37.85451]]]}},{"type":"Feature","properties":{"valleyId":"yongchu-gapyeong","layer":"shadow","date":"2026-08-01","timeLocal":"16:00"},"geometry":{"type":"Polygon","coordinates":[[[127.48122,37.85433],[127.48122,37.85428],[127.48129,37.85428],[127.48129,37.85433],[127.48122,37.85433]]]}},{"type":"Feature","properties":{"valleyId":"yongchu-gapyeong","layer":"shadow","date":"2026-08-01","timeLocal":"16:00"},"geometry":{"type":"Polygon","coordinates":[[[127.48202,37.85396],[127.48203,37.85389],[127.48209,37.85389],[127.48209,37.85397],[127.48202,37.85396]]]}},{"type":"Feature","properties":{"valleyId":"yongchu-gapyeong","layer":"shadow","date":"2026-08-01","timeLocal":"16:00"},"geometry":{"type":"Polygon","coordinates":[[[127.48148,37.85389],[127.48148,37.85383],[127.48157,37.85383],[127.48157,37.85389],[127.48148,37.85389]]]}},{"type":"Feature","properties":{"valleyId":"yongchu-gapyeong","layer":"shadow","date":"2026-08-01","timeLocal":"16:00"},"geometry":{"type":"Polygon","coordinates":[[[127.48196,37.85373],[127.48196,37.85368],[127.48203,37.85368],[127.48203,37.85373],[127.48196,37.85373]]]}},{"type":"Feature","properties":{"valleyId":"yongchu-gapyeong","layer":"shadow","date":"2026-08-01","timeLocal":"16:00"},"geometry":{"type":"Polygon","coordinates":[[[127.48062,37.85371],[127.48065,37.85357],[127.48076,37.85357],[127.48076,37.8537],[127.48062,37.85371]]]}},{"type":"Feature","properties":{"valleyId":"yongchu-gapyeong","layer":"shadow","date":"2026-08-01","timeLocal":"16:00"},"geometry":{"type":"Polygon","coordinates":[[[127.48112,37.85357],[127.4811,37.85354],[127.48106,37.85354],[127.48106,37.85347],[127.4811,37.85343],[127.48124,37.85341],[127.48119,37.85358],[127.48112,37.85357]]]}},{"type":"Feature","properties":{"valleyId":"yongchu-gapyeong","layer":"shadow","date":"2026-08-01","timeLocal":"16:00"},"geometry":{"type":"Polygon","coordinates":[[[127.47956,37.8535],[127.47961,37.85328],[127.4797,37.85327],[127.4797,37.85321],[127.47977,37.85321],[127.47979,37.8534],[127.47972,37.85341],[127.47967,37.85348],[127.47956,37.8535]]]}},{"type":"Feature","properties":{"valleyId":"yongchu-gapyeong","layer":"shadow","date":"2026-08-01","timeLocal":"16:00"},"geometry":{"type":"Polygon","coordinates":[[[127.48176,37.85333],[127.48177,37.85322],[127.48183,37.85322],[127.48183,37.85333],[127.48176,37.85333]]]}},{"type":"Feature","properties":{"valleyId":"yongchu-gapyeong","layer":"shadow","date":"2026-08-01","timeLocal":"16:00"},"geometry":{"type":"Polygon","coordinates":[[[127.48161,37.85304],[127.48157,37.85295],[127.48157,37.85286],[127.48164,37.85286],[127.48168,37.85295],[127.48168,37.85304],[127.48161,37.85304]]]}},{"type":"Feature","properties":{"valleyId":"yongchu-gapyeong","layer":"shadow","date":"2026-08-01","timeLocal":"16:00"},"geometry":{"type":"Polygon","coordinates":[[[127.47948,37.8526],[127.47942,37.85253],[127.47942,37.85244],[127.47953,37.85244],[127.47955,37.85253],[127.4796,37.85253],[127.4796,37.8526],[127.47948,37.8526]]]}},{"type":"Feature","properties":{"valleyId":"yongchu-gapyeong","layer":"shadow","date":"2026-08-01","timeLocal":"16:00"},"geometry":{"type":"Polygon","coordinates":[[[127.48183,37.85248],[127.48185,37.85238],[127.48194,37.85238],[127.48192,37.85247],[127.48183,37.85248]]]}},{"type":"Feature","properties":{"valleyId":"yongchu-gapyeong","layer":"shadow","date":"2026-08-01","timeLocal":"16:00"},"geometry":{"type":"Polygon","coordinates":[[[127.48152,37.85282],[127.48146,37.85277],[127.48144,37.85237],[127.48151,37.85237],[127.48156,37.85241],[127.48155,37.85262],[127.48159,37.85282],[127.48152,37.85282]]]}},{"type":"Feature","properties":{"valleyId":"yongchu-gapyeong","layer":"shadow","date":"2026-08-01","timeLocal":"16:00"},"geometry":{"type":"Polygon","coordinates":[[[127.47933,37.85236],[127.47933,37.85229],[127.47944,37.85227],[127.47947,37.85236],[127.47933,37.85236]]]}},{"type":"Feature","properties":{"valleyId":"yongchu-gapyeong","layer":"shadow","date":"2026-08-01","timeLocal":"16:00"},"geometry":{"type":"Polygon","coordinates":[[[127.48138,37.85223],[127.48138,37.85214],[127.48145,37.85214],[127.48147,37.85223],[127.48138,37.85223]]]}},{"type":"Feature","properties":{"valleyId":"yongchu-gapyeong","layer":"shadow","date":"2026-08-01","timeLocal":"16:00"},"geometry":{"type":"Polygon","coordinates":[[[127.48138,37.85203],[127.48138,37.85194],[127.48145,37.85194],[127.48147,37.85203],[127.48138,37.85203]]]}},{"type":"Feature","properties":{"valleyId":"yongchu-gapyeong","layer":"shadow","date":"2026-08-01","timeLocal":"16:00"},"geometry":{"type":"Polygon","coordinates":[[[127.48111,37.8519],[127.48111,37.85184],[127.48118,37.85184],[127.48118,37.8519],[127.48111,37.8519]]]}},{"type":"Feature","properties":{"valleyId":"yongchu-gapyeong","layer":"shadow","date":"2026-08-01","timeLocal":"16:00"},"geometry":{"type":"Polygon","coordinates":[[[127.48138,37.85187],[127.48139,37.85176],[127.48146,37.85176],[127.48148,37.85187],[127.48138,37.85187]]]}},{"type":"Feature","properties":{"valleyId":"yongchu-gapyeong","layer":"shadow","date":"2026-08-01","timeLocal":"16:00"},"geometry":{"type":"Polygon","coordinates":[[[127.48339,37.85178],[127.48339,37.85168],[127.48346,37.85168],[127.48346,37.85178],[127.48339,37.85178]]]}},{"type":"Feature","properties":{"valleyId":"yongchu-gapyeong","layer":"shadow","date":"2026-08-01","timeLocal":"16:00"},"geometry":{"type":"Polygon","coordinates":[[[127.48205,37.85173],[127.48203,37.8516],[127.48209,37.8516],[127.48212,37.85173],[127.48205,37.85173]]]}},{"type":"Feature","properties":{"valleyId":"yongchu-gapyeong","layer":"shadow","date":"2026-08-01","timeLocal":"16:00"},"geometry":{"type":"Polygon","coordinates":[[[127.48214,37.85144],[127.48214,37.85139],[127.48221,37.85139],[127.48221,37.85144],[127.48214,37.85144]]]}},{"type":"Feature","properties":{"valleyId":"yongchu-gapyeong","layer":"shadow","date":"2026-08-01","timeLocal":"16:00"},"geometry":{"type":"Polygon","coordinates":[[[127.481,37.85181],[127.48093,37.85175],[127.48091,37.85164],[127.4808,37.85155],[127.4808,37.85144],[127.48085,37.85144],[127.48092,37.85139],[127.48097,37.85127],[127.4811,37.85123],[127.48113,37.85112],[127.48117,37.85112],[127.48127,37.85103],[127.48138,37.85102],[127.4814,37.85093],[127.48147,37.85093],[127.4815,37.85088],[127.48156,37.85088],[127.48156,37.85093],[127.48149,37.85095],[127.48149,37.85098],[127.4814,37.85102],[127.4814,37.85107],[127.48126,37.85114],[127.48124,37.8513],[127.48117,37.85132],[127.48117,37.85138],[127.4811,37.85141],[127.48112,37.85154],[127.4811,37.85157],[127.48105,37.85157],[127.48105,37.85164],[127.48112,37.85172],[127.48111,37.85181],[127.481,37.85181]]]}},{"type":"Feature","properties":{"valleyId":"yongchu-gapyeong","layer":"shadow","date":"2026-08-01","timeLocal":"16:00"},"geometry":{"type":"Polygon","coordinates":[[[127.48241,37.85087],[127.48241,37.85078],[127.48252,37.8508],[127.4825,37.85087],[127.48241,37.85087]]]}},{"type":"Feature","properties":{"valleyId":"yongchu-gapyeong","layer":"shadow","date":"2026-08-01","timeLocal":"16:00"},"geometry":{"type":"Polygon","coordinates":[[[127.48163,37.85082],[127.48163,37.85077],[127.48168,37.85077],[127.48168,37.85068],[127.48177,37.85068],[127.48179,37.85075],[127.4817,37.85077],[127.4817,37.85082],[127.48163,37.85082]]]}},{"type":"Feature","properties":{"valleyId":"yongchu-gapyeong","layer":"shadow","date":"2026-08-01","timeLocal":"16:00"},"geometry":{"type":"Polygon","coordinates":[[[127.48189,37.8507],[127.48189,37.85057],[127.48198,37.85056],[127.48198,37.85068],[127.48189,37.8507]]]}},{"type":"Feature","properties":{"valleyId":"yongchu-gapyeong","layer":"shadow","date":"2026-08-01","timeLocal":"16:00"},"geometry":{"type":"Polygon","coordinates":[[[127.482,37.85056],[127.48205,37.85045],[127.48219,37.85047],[127.48219,37.85052],[127.482,37.85056]]]}},{"type":"Feature","properties":{"valleyId":"yongchu-gapyeong","layer":"shadow","date":"2026-08-01","timeLocal":"16:00"},"geometry":{"type":"Polygon","coordinates":[[[127.48221,37.85047],[127.48224,37.85031],[127.48233,37.85029],[127.48233,37.85036],[127.48228,37.85036],[127.4823,37.85047],[127.48221,37.85047]]]}},{"type":"Feature","properties":{"valleyId":"yongchu-gapyeong","layer":"shadow","date":"2026-08-01","timeLocal":"16:00"},"geometry":{"type":"Polygon","coordinates":[[[127.48281,37.85005],[127.48281,37.84999],[127.48288,37.84999],[127.48288,37.85005],[127.48281,37.85005]]]}},{"type":"Feature","properties":{"valleyId":"yongchu-gapyeong","layer":"shadow","date":"2026-08-01","timeLocal":"16:00"},"geometry":{"type":"Polygon","coordinates":[[[127.48211,37.84987],[127.48211,37.84982],[127.48218,37.84982],[127.48218,37.84988],[127.48211,37.84987]]]}},{"type":"Feature","properties":{"valleyId":"yongchu-gapyeong","layer":"shadow","date":"2026-08-01","timeLocal":"16:00"},"geometry":{"type":"Polygon","coordinates":[[[127.48198,37.84964],[127.48198,37.84958],[127.48205,37.84958],[127.48204,37.84964],[127.48198,37.84964]]]}},{"type":"Feature","properties":{"valleyId":"yongchu-gapyeong","layer":"shadow","date":"2026-08-01","timeLocal":"16:00"},"geometry":{"type":"Polygon","coordinates":[[[127.48236,37.84889],[127.48236,37.84874],[127.48243,37.84874],[127.48245,37.84887],[127.48236,37.84889]]]}},{"type":"Feature","properties":{"valleyId":"yongchu-gapyeong","layer":"shadow","date":"2026-08-01","timeLocal":"16:00"},"geometry":{"type":"Polygon","coordinates":[[[127.48749,37.84801],[127.48749,37.84794],[127.48756,37.84794],[127.48756,37.84802],[127.48749,37.84801]]]}},{"type":"Feature","properties":{"valleyId":"yongchu-gapyeong","layer":"shadow","date":"2026-08-01","timeLocal":"16:00"},"geometry":{"type":"Polygon","coordinates":[[[127.48156,37.84787],[127.48151,37.84783],[127.48151,37.84778],[127.48163,37.8478],[127.48163,37.84787],[127.48156,37.84787]]]}},{"type":"Feature","properties":{"valleyId":"yongchu-gapyeong","layer":"shadow","date":"2026-08-01","timeLocal":"16:00"},"geometry":{"type":"Polygon","coordinates":[[[127.48486,37.84771],[127.48486,37.84764],[127.48497,37.84762],[127.48497,37.84769],[127.48486,37.84771]]]}},{"type":"Feature","properties":{"valleyId":"yongchu-gapyeong","layer":"shadow","date":"2026-08-01","timeLocal":"16:00"},"geometry":{"type":"Polygon","coordinates":[[[127.48534,37.84743],[127.48534,37.84723],[127.48544,37.84721],[127.48541,37.84743],[127.48534,37.84743]]]}},{"type":"Feature","properties":{"valleyId":"yongchu-gapyeong","layer":"shadow","date":"2026-08-01","timeLocal":"16:00"},"geometry":{"type":"Polygon","coordinates":[[[127.48542,37.84709],[127.48542,37.84692],[127.48549,37.84687],[127.48549,37.84662],[127.48556,37.84662],[127.48556,37.84669],[127.48561,37.84669],[127.4856,37.84687],[127.48556,37.84689],[127.48553,37.84703],[127.48548,37.84705],[127.48548,37.84709],[127.48542,37.84709]]]}},{"type":"Feature","properties":{"valleyId":"yongchu-gapyeong","layer":"shadow","date":"2026-08-01","timeLocal":"16:00"},"geometry":{"type":"Polygon","coordinates":[[[127.48559,37.84651],[127.48557,37.84635],[127.48561,37.84631],[127.48568,37.84632],[127.48565,37.84651],[127.48559,37.84651]]]}},{"type":"Feature","properties":{"valleyId":"yongchu-gapyeong","layer":"shadow","date":"2026-08-01","timeLocal":"16:00"},"geometry":{"type":"Polygon","coordinates":[[[127.48478,37.846],[127.48478,37.84594],[127.48485,37.84594],[127.48485,37.846],[127.48478,37.846]]]}},{"type":"Feature","properties":{"valleyId":"yongchu-gapyeong","layer":"shadow","date":"2026-08-01","timeLocal":"16:00"},"geometry":{"type":"Polygon","coordinates":[[[127.48608,37.84555],[127.48611,37.84546],[127.48618,37.84546],[127.48617,37.84553],[127.48608,37.84555]]]}}]}
