{"type":"FeatureCollection","metadata":{"description":"개방지(CHM ≤ 2 m)에 드리운 나무·지형 그림자, 2026-08-01 17:00 KST. canopy 위에 겹쳐 그린다","source":"위성 기반 추정 — Copernicus GLO-30 지형(30 m) + Meta/WRI 수관 높이(1 m CHM, 2015~2016 촬영). 그늘 = 수관(CHM > 2 m) ∪ 나무·지형 그림자 ∪ 원거리 지형 마스크. 현장과 다를 수 있음.","datasetVersion":"2026-09-06.0","collectedAt":"2026-09-06","coordinateOrder":"[longitude, latitude]","crs":"EPSG:4326","representativeDate":"2026-08-01","hours":["10:00","11:00","12:00","13:00","14:00","15:00","16:00","17:00","18:00"],"chmAcquisition":["2015-07","2016-06"],"assets":{"glo30":{"dataset":"Copernicus DEM GLO-30 (COG, s3://copernicus-dem-30m)","tiles":["Copernicus_DSM_COG_10_N37_00_E127_00_DEM"]},"chm":{"dataset":"Meta/WRI Global Canopy Height Map v1 (alsgedi_global_v6_float, 1 m, CC-BY 4.0)","quadkeys":["132110303"],"acquisition":["2015-07","2016-06"]}},"method":{"gridResM":2,"canopyThresholdM":2,"bufferHalfM":25,"corridorHalfM":200,"simplifyTolM":2,"minAreaM2":25,"coordDecimals":5},"generator":"scripts/shade 0.1.0","builtAt":"2026-09-06T05:56:06Z","layer":"shadow","timeLocal":"17:00"},"features":[{"type":"Feature","properties":{"valleyId":"yongchu-gapyeong","layer":"shadow","date":"2026-08-01","timeLocal":"17:00"},"geometry":{"type":"Polygon","coordinates":[[[127.46619,37.86241],[127.46619,37.86236],[127.46626,37.86236],[127.46625,37.86241],[127.46619,37.86241]]]}},{"type":"Feature","properties":{"valleyId":"yongchu-gapyeong","layer":"shadow","date":"2026-08-01","timeLocal":"17:00"},"geometry":{"type":"Polygon","coordinates":[[[127.47123,37.86168],[127.47118,37.8615],[127.47123,37.86149],[127.47123,37.86138],[127.4713,37.86138],[127.47132,37.86149],[127.47127,37.8615],[127.47127,37.86156],[127.47134,37.86158],[127.47136,37.86167],[127.47123,37.86168]]]}},{"type":"Feature","properties":{"valleyId":"yongchu-gapyeong","layer":"shadow","date":"2026-08-01","timeLocal":"17:00"},"geometry":{"type":"Polygon","coordinates":[[[127.47878,37.8616],[127.47873,37.86156],[127.47873,37.86149],[127.47891,37.86148],[127.47891,37.86159],[127.47878,37.8616]]]}},{"type":"Feature","properties":{"valleyId":"yongchu-gapyeong","layer":"shadow","date":"2026-08-01","timeLocal":"17:00"},"geometry":{"type":"Polygon","coordinates":[[[127.46662,37.86141],[127.46648,37.86133],[127.46644,37.86121],[127.46651,37.86121],[127.46664,37.86128],[127.46668,37.86141],[127.46662,37.86141]]]}},{"type":"Feature","properties":{"valleyId":"yongchu-gapyeong","layer":"shadow","date":"2026-08-01","timeLocal":"17:00"},"geometry":{"type":"Polygon","coordinates":[[[127.47248,37.86136],[127.47246,37.86121],[127.47255,37.86121],[127.47257,37.86132],[127.47255,37.86136],[127.47248,37.86136]]]}},{"type":"Feature","properties":{"valleyId":"yongchu-gapyeong","layer":"shadow","date":"2026-08-01","timeLocal":"17:00"},"geometry":{"type":"Polygon","coordinates":[[[127.48026,37.86148],[127.48019,37.86121],[127.48022,37.86117],[127.48033,37.86115],[127.48031,37.86128],[127.48037,37.86146],[127.48026,37.86148]]]}},{"type":"Feature","properties":{"valleyId":"yongchu-gapyeong","layer":"shadow","date":"2026-08-01","timeLocal":"17:00"},"geometry":{"type":"Polygon","coordinates":[[[127.47278,37.86115],[127.47278,37.86107],[127.47285,37.86102],[127.47292,37.86102],[127.4729,37.86113],[127.47278,37.86115]]]}},{"type":"Feature","properties":{"valleyId":"yongchu-gapyeong","layer":"shadow","date":"2026-08-01","timeLocal":"17:00"},"geometry":{"type":"Polygon","coordinates":[[[127.48126,37.86106],[127.48127,37.861],[127.48136,37.861],[127.48136,37.86106],[127.48126,37.86106]]]}},{"type":"Feature","properties":{"valleyId":"yongchu-gapyeong","layer":"shadow","date":"2026-08-01","timeLocal":"17:00"},"geometry":{"type":"Polygon","coordinates":[[[127.46621,37.86122],[127.46619,37.86115],[127.46612,37.86109],[127.46612,37.861],[127.46606,37.86095],[127.46611,37.86068],[127.46618,37.86068],[127.46621,37.86106],[127.4663,37.86106],[127.4663,37.86121],[127.46621,37.86122]]]}},{"type":"Feature","properties":{"valleyId":"yongchu-gapyeong","layer":"shadow","date":"2026-08-01","timeLocal":"17:00"},"geometry":{"type":"Polygon","coordinates":[[[127.47003,37.86134],[127.47003,37.86124],[127.4701,37.86124],[127.47014,37.86118],[127.47026,37.86115],[127.4704,37.86115],[127.4704,37.86099],[127.47051,37.86097],[127.47051,37.86092],[127.47058,37.86088],[127.47061,37.86077],[127.47068,37.86072],[127.47079,37.86072],[127.47074,37.8609],[127.47067,37.86096],[127.47054,37.86099],[127.47053,37.86112],[127.47042,37.86115],[127.47044,37.86133],[127.47003,37.86134]]]}},{"type":"Feature","properties":{"valleyId":"yongchu-gapyeong","layer":"shadow","date":"2026-08-01","timeLocal":"17:00"},"geometry":{"type":"Polygon","coordinates":[[[127.46493,37.86065],[127.46493,37.86059],[127.465,37.86059],[127.46499,37.86065],[127.46493,37.86065]]]}},{"type":"Feature","properties":{"valleyId":"yongchu-gapyeong","layer":"shadow","date":"2026-08-01","timeLocal":"17:00"},"geometry":{"type":"Polygon","coordinates":[[[127.48081,37.86082],[127.48077,37.86078],[127.48077,37.86071],[127.48084,37.86071],[127.48084,37.86074],[127.48088,37.86076],[127.48088,37.86082],[127.48081,37.86082]]]}},{"type":"Feature","properties":{"valleyId":"yongchu-gapyeong","layer":"shadow","date":"2026-08-01","timeLocal":"17:00"},"geometry":{"type":"Polygon","coordinates":[[[127.47109,37.86064],[127.47109,37.86058],[127.47114,37.86055],[127.47136,37.86051],[127.47136,37.86057],[127.47132,37.86057],[127.47129,37.8606],[127.47109,37.86064]]]}},{"type":"Feature","properties":{"valleyId":"yongchu-gapyeong","layer":"shadow","date":"2026-08-01","timeLocal":"17:00"},"geometry":{"type":"Polygon","coordinates":[[[127.46468,37.86055],[127.46463,37.86052],[127.46464,37.86044],[127.46468,37.86039],[127.46475,37.86039],[127.46475,37.86055],[127.46468,37.86055]]]}},{"type":"Feature","properties":{"valleyId":"yongchu-gapyeong","layer":"shadow","date":"2026-08-01","timeLocal":"17:00"},"geometry":{"type":"Polygon","coordinates":[[[127.48073,37.86067],[127.48073,37.8606],[127.4808,37.8606],[127.48079,37.86067],[127.48073,37.86067]]]}},{"type":"Feature","properties":{"valleyId":"yongchu-gapyeong","layer":"shadow","date":"2026-08-01","timeLocal":"17:00"},"geometry":{"type":"Polygon","coordinates":[[[127.47781,37.86098],[127.47761,37.86078],[127.47764,37.86051],[127.47782,37.86049],[127.47802,37.86064],[127.47807,37.86073],[127.47806,37.86084],[127.47802,37.86092],[127.47795,37.86098],[127.47781,37.86098]]]}},{"type":"Feature","properties":{"valleyId":"yongchu-gapyeong","layer":"shadow","date":"2026-08-01","timeLocal":"17:00"},"geometry":{"type":"Polygon","coordinates":[[[127.47957,37.86062],[127.47955,37.86051],[127.47962,37.86051],[127.47964,37.86062],[127.47957,37.86062]]]}},{"type":"Feature","properties":{"valleyId":"yongchu-gapyeong","layer":"shadow","date":"2026-08-01","timeLocal":"17:00"},"geometry":{"type":"Polygon","coordinates":[[[127.47036,37.86043],[127.47037,37.86037],[127.47043,37.86038],[127.47043,37.86043],[127.47036,37.86043]]]}},{"type":"Feature","properties":{"valleyId":"yongchu-gapyeong","layer":"shadow","date":"2026-08-01","timeLocal":"17:00"},"geometry":{"type":"Polygon","coordinates":[[[127.46475,37.86032],[127.46475,37.86027],[127.46482,37.86027],[127.46482,37.86032],[127.46475,37.86032]]]}},{"type":"Feature","properties":{"valleyId":"yongchu-gapyeong","layer":"shadow","date":"2026-08-01","timeLocal":"17:00"},"geometry":{"type":"Polygon","coordinates":[[[127.4725,37.86049],[127.47246,37.86044],[127.47239,37.86042],[127.47239,37.86037],[127.47246,37.86037],[127.47252,37.86042],[127.47257,37.86042],[127.47257,37.86049],[127.4725,37.86049]]]}},{"type":"Feature","properties":{"valleyId":"yongchu-gapyeong","layer":"shadow","date":"2026-08-01","timeLocal":"17:00"},"geometry":{"type":"Polygon","coordinates":[[[127.46478,37.86025],[127.46478,37.86019],[127.46485,37.86019],[127.46484,37.86025],[127.46478,37.86025]]]}},{"type":"Feature","properties":{"valleyId":"yongchu-gapyeong","layer":"shadow","date":"2026-08-01","timeLocal":"17:00"},"geometry":{"type":"Polygon","coordinates":[[[127.47364,37.86036],[127.47364,37.86029],[127.47371,37.86029],[127.47371,37.86036],[127.47364,37.86036]]]}},{"type":"Feature","properties":{"valleyId":"yongchu-gapyeong","layer":"shadow","date":"2026-08-01","timeLocal":"17:00"},"geometry":{"type":"Polygon","coordinates":[[[127.4715,37.86048],[127.4715,37.86043],[127.4716,37.8603],[127.4716,37.86023],[127.47171,37.86025],[127.47178,37.8603],[127.47178,37.86036],[127.47173,37.86036],[127.47173,37.86039],[127.47159,37.86048],[127.4715,37.86048]]]}},{"type":"Feature","properties":{"valleyId":"yongchu-gapyeong","layer":"shadow","date":"2026-08-01","timeLocal":"17:00"},"geometry":{"type":"Polygon","coordinates":[[[127.47875,37.86039],[127.47876,37.86032],[127.47887,37.8603],[127.47887,37.86038],[127.47875,37.86039]]]}},{"type":"Feature","properties":{"valleyId":"yongchu-gapyeong","layer":"shadow","date":"2026-08-01","timeLocal":"17:00"},"geometry":{"type":"Polygon","coordinates":[[[127.47849,37.86019],[127.47849,37.86012],[127.47862,37.86014],[127.47862,37.86019],[127.47849,37.86019]]]}},{"type":"Feature","properties":{"valleyId":"yongchu-gapyeong","layer":"shadow","date":"2026-08-01","timeLocal":"17:00"},"geometry":{"type":"Polygon","coordinates":[[[127.4741,37.86012],[127.4741,37.86006],[127.47417,37.86006],[127.47417,37.86012],[127.4741,37.86012]]]}},{"type":"Feature","properties":{"valleyId":"yongchu-gapyeong","layer":"shadow","date":"2026-08-01","timeLocal":"17:00"},"geometry":{"type":"Polygon","coordinates":[[[127.48058,37.86027],[127.4806,37.86009],[127.48067,37.86009],[127.48067,37.86026],[127.48058,37.86027]]]}},{"type":"Feature","properties":{"valleyId":"yongchu-gapyeong","layer":"shadow","date":"2026-08-01","timeLocal":"17:00"},"geometry":{"type":"Polygon","coordinates":[[[127.47862,37.86007],[127.47863,37.86001],[127.47869,37.86001],[127.47869,37.86007],[127.47862,37.86007]]]}},{"type":"Feature","properties":{"valleyId":"yongchu-gapyeong","layer":"shadow","date":"2026-08-01","timeLocal":"17:00"},"geometry":{"type":"Polygon","coordinates":[[[127.47437,37.86014],[127.47438,37.85994],[127.47444,37.85994],[127.47453,37.86],[127.47453,37.86009],[127.47444,37.86014],[127.47437,37.86014]]]}},{"type":"Feature","properties":{"valleyId":"yongchu-gapyeong","layer":"shadow","date":"2026-08-01","timeLocal":"17:00"},"geometry":{"type":"Polygon","coordinates":[[[127.47069,37.86002],[127.47065,37.86],[127.47065,37.85989],[127.47072,37.85989],[127.47076,37.85997],[127.47076,37.86002],[127.47069,37.86002]]]}},{"type":"Feature","properties":{"valleyId":"yongchu-gapyeong","layer":"shadow","date":"2026-08-01","timeLocal":"17:00"},"geometry":{"type":"Polygon","coordinates":[[[127.46997,37.85996],[127.46999,37.85988],[127.47013,37.8599],[127.47012,37.85996],[127.46997,37.85996]]]}},{"type":"Feature","properties":{"valleyId":"yongchu-gapyeong","layer":"shadow","date":"2026-08-01","timeLocal":"17:00"},"geometry":{"type":"Polygon","coordinates":[[[127.48206,37.86008],[127.48206,37.86002],[127.48213,37.86002],[127.48213,37.86008],[127.48206,37.86008]]]}},{"type":"Feature","properties":{"valleyId":"yongchu-gapyeong","layer":"shadow","date":"2026-08-01","timeLocal":"17:00"},"geometry":{"type":"Polygon","coordinates":[[[127.47808,37.86001],[127.47808,37.85995],[127.47804,37.85995],[127.47804,37.8599],[127.47811,37.8599],[127.4781,37.85995],[127.47815,37.85995],[127.47815,37.86001],[127.47808,37.86001]]]}},{"type":"Feature","properties":{"valleyId":"yongchu-gapyeong","layer":"shadow","date":"2026-08-01","timeLocal":"17:00"},"geometry":{"type":"Polygon","coordinates":[[[127.46501,37.85984],[127.46504,37.85971],[127.46511,37.85971],[127.4651,37.85982],[127.46501,37.85984]]]}},{"type":"Feature","properties":{"valleyId":"yongchu-gapyeong","layer":"shadow","date":"2026-08-01","timeLocal":"17:00"},"geometry":{"type":"Polygon","coordinates":[[[127.47835,37.85996],[127.47836,37.85988],[127.47842,37.85988],[127.47842,37.85996],[127.47835,37.85996]]]}},{"type":"Feature","properties":{"valleyId":"yongchu-gapyeong","layer":"shadow","date":"2026-08-01","timeLocal":"17:00"},"geometry":{"type":"Polygon","coordinates":[[[127.47337,37.86007],[127.47331,37.85996],[127.47331,37.8598],[127.47338,37.8598],[127.47338,37.85989],[127.47344,37.86],[127.47344,37.86007],[127.47337,37.86007]]]}},{"type":"Feature","properties":{"valleyId":"yongchu-gapyeong","layer":"shadow","date":"2026-08-01","timeLocal":"17:00"},"geometry":{"type":"Polygon","coordinates":[[[127.48204,37.85995],[127.48204,37.85986],[127.48211,37.85986],[127.48211,37.85995],[127.48204,37.85995]]]}},{"type":"Feature","properties":{"valleyId":"yongchu-gapyeong","layer":"shadow","date":"2026-08-01","timeLocal":"17:00"},"geometry":{"type":"Polygon","coordinates":[[[127.47667,37.85999],[127.47667,37.85995],[127.47663,37.85995],[127.47665,37.85986],[127.4767,37.85986],[127.47674,37.85977],[127.47686,37.85977],[127.47688,37.85986],[127.47681,37.8599],[127.47681,37.85997],[127.47667,37.85999]]]}},{"type":"Feature","properties":{"valleyId":"yongchu-gapyeong","layer":"shadow","date":"2026-08-01","timeLocal":"17:00"},"geometry":{"type":"Polygon","coordinates":[[[127.47054,37.85975],[127.47054,37.85969],[127.47061,37.85969],[127.47061,37.85975],[127.47054,37.85975]]]}},{"type":"Feature","properties":{"valleyId":"yongchu-gapyeong","layer":"shadow","date":"2026-08-01","timeLocal":"17:00"},"geometry":{"type":"Polygon","coordinates":[[[127.46506,37.85969],[127.46504,37.8596],[127.46511,37.8596],[127.46513,37.85969],[127.46506,37.85969]]]}},{"type":"Feature","properties":{"valleyId":"yongchu-gapyeong","layer":"shadow","date":"2026-08-01","timeLocal":"17:00"},"geometry":{"type":"Polygon","coordinates":[[[127.47924,37.85979],[127.47925,37.8597],[127.47931,37.8597],[127.47934,37.85979],[127.47924,37.85979]]]}},{"type":"Feature","properties":{"valleyId":"yongchu-gapyeong","layer":"shadow","date":"2026-08-01","timeLocal":"17:00"},"geometry":{"type":"Polygon","coordinates":[[[127.47111,37.85965],[127.47111,37.85959],[127.47118,37.85959],[127.47118,37.85965],[127.47111,37.85965]]]}},{"type":"Feature","properties":{"valleyId":"yongchu-gapyeong","layer":"shadow","date":"2026-08-01","timeLocal":"17:00"},"geometry":{"type":"Polygon","coordinates":[[[127.47815,37.85979],[127.47815,37.85974],[127.47806,37.85974],[127.47807,37.85963],[127.47813,37.85963],[127.47815,37.85972],[127.47822,37.85972],[127.47822,37.85979],[127.47815,37.85979]]]}},{"type":"Feature","properties":{"valleyId":"yongchu-gapyeong","layer":"shadow","date":"2026-08-01","timeLocal":"17:00"},"geometry":{"type":"Polygon","coordinates":[[[127.47793,37.85957],[127.47793,37.85952],[127.478,37.85952],[127.478,37.85957],[127.47793,37.85957]]]}},{"type":"Feature","properties":{"valleyId":"yongchu-gapyeong","layer":"shadow","date":"2026-08-01","timeLocal":"17:00"},"geometry":{"type":"Polygon","coordinates":[[[127.46759,37.85933],[127.4675,37.85926],[127.4675,37.85918],[127.46759,37.85919],[127.46764,37.85922],[127.46764,37.85928],[127.46768,37.85928],[127.46768,37.85933],[127.46759,37.85933]]]}},{"type":"Feature","properties":{"valleyId":"yongchu-gapyeong","layer":"shadow","date":"2026-08-01","timeLocal":"17:00"},"geometry":{"type":"Polygon","coordinates":[[[127.47043,37.85928],[127.47044,37.85922],[127.4705,37.85922],[127.4705,37.85928],[127.47043,37.85928]]]}},{"type":"Feature","properties":{"valleyId":"yongchu-gapyeong","layer":"shadow","date":"2026-08-01","timeLocal":"17:00"},"geometry":{"type":"Polygon","coordinates":[[[127.47986,37.85951],[127.47987,37.85945],[127.47993,37.8594],[127.48003,37.8594],[127.48014,37.85933],[127.4803,37.85933],[127.4803,37.85939],[127.48021,37.85938],[127.48018,37.85942],[127.48012,37.85942],[127.48005,37.85947],[127.47986,37.85951]]]}},{"type":"Feature","properties":{"valleyId":"yongchu-gapyeong","layer":"shadow","date":"2026-08-01","timeLocal":"17:00"},"geometry":{"type":"Polygon","coordinates":[[[127.4642,37.86058],[127.46416,37.86035],[127.46405,37.86022],[127.46405,37.86015],[127.46412,37.86013],[127.46412,37.86001],[127.46417,37.85992],[127.46431,37.85988],[127.46438,37.85983],[127.46438,37.85977],[127.46442,37.85976],[127.46442,37.85965],[127.46449,37.85961],[127.4645,37.85952],[127.46441,37.85947],[127.46441,37.85943],[127.46404,37.85934],[127.46396,37.85917],[127.46387,37.85915],[127.46387,37.8591],[127.46394,37.8591],[127.46396,37.85916],[127.46403,37.85916],[127.46407,37.85921],[127.46421,37.85925],[127.46423,37.8593],[127.46441,37.85936],[127.46443,37.85941],[127.46459,37.85943],[127.46461,37.85947],[127.46466,37.85947],[127.46472,37.85953],[127.4647,37.85967],[127.46472,37.85971],[127.46476,37.85971],[127.46476,37.85998],[127.46467,37.85998],[127.46462,37.86008],[127.46451,37.86008],[127.4645,37.86017],[127.46444,37.86019],[127.46441,37.8605],[127.46432,37.86051],[127.46429,37.86058],[127.4642,37.86058]]]}},{"type":"Feature","properties":{"valleyId":"yongchu-gapyeong","layer":"shadow","date":"2026-08-01","timeLocal":"17:00"},"geometry":{"type":"Polygon","coordinates":[[[127.48053,37.8593],[127.48055,37.85923],[127.48076,37.85919],[127.48076,37.85925],[127.48071,37.85925],[127.48069,37.85928],[127.48053,37.8593]]]}},{"type":"Feature","properties":{"valleyId":"yongchu-gapyeong","layer":"shadow","date":"2026-08-01","timeLocal":"17:00"},"geometry":{"type":"Polygon","coordinates":[[[127.46705,37.85905],[127.46705,37.859],[127.46712,37.859],[127.46712,37.85905],[127.46705,37.85905]]]}},{"type":"Feature","properties":{"valleyId":"yongchu-gapyeong","layer":"shadow","date":"2026-08-01","timeLocal":"17:00"},"geometry":{"type":"Polygon","coordinates":[[[127.47762,37.85928],[127.47762,37.85921],[127.47753,37.85913],[127.47748,37.85913],[127.47749,37.85908],[127.47758,37.85908],[127.47769,37.85917],[127.47771,37.85928],[127.47762,37.85928]]]}},{"type":"Feature","properties":{"valleyId":"yongchu-gapyeong","layer":"shadow","date":"2026-08-01","timeLocal":"17:00"},"geometry":{"type":"Polygon","coordinates":[[[127.46721,37.85898],[127.46721,37.85891],[127.46728,37.85891],[127.4673,37.85898],[127.46721,37.85898]]]}},{"type":"Feature","properties":{"valleyId":"yongchu-gapyeong","layer":"shadow","date":"2026-08-01","timeLocal":"17:00"},"geometry":{"type":"Polygon","coordinates":[[[127.47571,37.85906],[127.47571,37.859],[127.47578,37.859],[127.47578,37.85906],[127.47571,37.85906]]]}},{"type":"Feature","properties":{"valleyId":"yongchu-gapyeong","layer":"shadow","date":"2026-08-01","timeLocal":"17:00"},"geometry":{"type":"Polygon","coordinates":[[[127.48083,37.85919],[127.48083,37.85914],[127.48087,37.85914],[127.48096,37.85907],[127.48119,37.85902],[127.48119,37.85907],[127.48115,37.85911],[127.48108,37.85911],[127.48096,37.85918],[127.48083,37.85919]]]}},{"type":"Feature","properties":{"valleyId":"yongchu-gapyeong","layer":"shadow","date":"2026-08-01","timeLocal":"17:00"},"geometry":{"type":"Polygon","coordinates":[[[127.4756,37.85893],[127.47563,37.8588],[127.47567,37.85879],[127.4757,37.85871],[127.47577,37.85871],[127.47574,37.85891],[127.4756,37.85893]]]}},{"type":"Feature","properties":{"valleyId":"yongchu-gapyeong","layer":"shadow","date":"2026-08-01","timeLocal":"17:00"},"geometry":{"type":"Polygon","coordinates":[[[127.4779,37.85991],[127.47786,37.85982],[127.47774,37.85975],[127.4777,37.85962],[127.47757,37.8596],[127.47755,37.85949],[127.47746,37.85946],[127.47741,37.85938],[127.47732,37.85937],[127.47723,37.85929],[127.47723,37.85926],[127.47714,37.8592],[127.47714,37.85915],[127.4771,37.85911],[127.47694,37.85909],[127.47685,37.859],[127.47669,37.85892],[127.47663,37.85876],[127.47658,37.85876],[127.47658,37.85871],[127.47665,37.85871],[127.47665,37.85874],[127.47676,37.85876],[127.47681,37.85882],[127.47685,37.85882],[127.4769,37.85889],[127.47699,37.85895],[127.47699,37.85898],[127.47715,37.85904],[127.47714,37.85907],[127.47719,37.85908],[127.47719,37.85911],[127.47723,37.85911],[127.47728,37.85918],[127.47737,37.8592],[127.47737,37.85926],[127.47741,37.85929],[127.47773,37.85933],[127.47773,37.85937],[127.47784,37.85941],[127.47784,37.85946],[127.4778,37.85948],[127.47781,37.8597],[127.47802,37.85986],[127.47801,37.85992],[127.4779,37.85991]]]}},{"type":"Feature","properties":{"valleyId":"yongchu-gapyeong","layer":"shadow","date":"2026-08-01","timeLocal":"17:00"},"geometry":{"type":"Polygon","coordinates":[[[127.46613,37.85861],[127.46613,37.85855],[127.4662,37.85855],[127.4662,37.85861],[127.46613,37.85861]]]}},{"type":"Feature","properties":{"valleyId":"yongchu-gapyeong","layer":"shadow","date":"2026-08-01","timeLocal":"17:00"},"geometry":{"type":"Polygon","coordinates":[[[127.46552,37.85927],[127.46553,37.85916],[127.46557,37.85914],[127.46557,37.85907],[127.46551,37.85903],[127.46551,37.85898],[127.4654,37.85883],[127.46535,37.85869],[127.46536,37.85853],[127.46545,37.85853],[127.46563,37.85864],[127.4656,37.85882],[127.46565,37.85882],[127.46567,37.85885],[127.46567,37.85894],[127.46576,37.85898],[127.46575,37.85909],[127.46566,37.85914],[127.46566,37.85925],[127.46552,37.85927]]]}},{"type":"Feature","properties":{"valleyId":"yongchu-gapyeong","layer":"shadow","date":"2026-08-01","timeLocal":"17:00"},"geometry":{"type":"Polygon","coordinates":[[[127.46408,37.85853],[127.46409,37.85847],[127.46415,37.85847],[127.46415,37.85853],[127.46408,37.85853]]]}},{"type":"Feature","properties":{"valleyId":"yongchu-gapyeong","layer":"shadow","date":"2026-08-01","timeLocal":"17:00"},"geometry":{"type":"Polygon","coordinates":[[[127.47679,37.85867],[127.47679,37.85858],[127.47688,37.85858],[127.4769,37.85866],[127.47679,37.85867]]]}},{"type":"Feature","properties":{"valleyId":"yongchu-gapyeong","layer":"shadow","date":"2026-08-01","timeLocal":"17:00"},"geometry":{"type":"Polygon","coordinates":[[[127.4642,37.85847],[127.4642,37.85842],[127.46427,37.85842],[127.46427,37.85847],[127.4642,37.85847]]]}},{"type":"Feature","properties":{"valleyId":"yongchu-gapyeong","layer":"shadow","date":"2026-08-01","timeLocal":"17:00"},"geometry":{"type":"Polygon","coordinates":[[[127.47572,37.8587],[127.4757,37.8585],[127.47582,37.8585],[127.47581,37.85866],[127.47579,37.8587],[127.47572,37.8587]]]}},{"type":"Feature","properties":{"valleyId":"yongchu-gapyeong","layer":"shadow","date":"2026-08-01","timeLocal":"17:00"},"geometry":{"type":"Polygon","coordinates":[[[127.46522,37.85851],[127.46515,37.85845],[127.46513,37.85836],[127.4652,37.85836],[127.46527,37.85842],[127.46529,37.85851],[127.46522,37.85851]]]}},{"type":"Feature","properties":{"valleyId":"yongchu-gapyeong","layer":"shadow","date":"2026-08-01","timeLocal":"17:00"},"geometry":{"type":"Polygon","coordinates":[[[127.46488,37.85832],[127.46482,37.85821],[127.46475,37.85821],[127.46475,37.85816],[127.46482,37.85816],[127.46482,37.85819],[127.46489,37.85819],[127.46495,37.85825],[127.46495,37.85832],[127.46488,37.85832]]]}},{"type":"Feature","properties":{"valleyId":"yongchu-gapyeong","layer":"shadow","date":"2026-08-01","timeLocal":"17:00"},"geometry":{"type":"Polygon","coordinates":[[[127.46543,37.85829],[127.46543,37.85824],[127.4655,37.8582],[127.46546,37.85808],[127.46557,37.85808],[127.46559,37.8582],[127.4655,37.85829],[127.46543,37.85829]]]}},{"type":"Feature","properties":{"valleyId":"yongchu-gapyeong","layer":"shadow","date":"2026-08-01","timeLocal":"17:00"},"geometry":{"type":"Polygon","coordinates":[[[127.46425,37.8581],[127.46425,37.85804],[127.46432,37.85804],[127.46432,37.8581],[127.46425,37.8581]]]}},{"type":"Feature","properties":{"valleyId":"yongchu-gapyeong","layer":"shadow","date":"2026-08-01","timeLocal":"17:00"},"geometry":{"type":"Polygon","coordinates":[[[127.48264,37.85841],[127.48262,37.85826],[127.48269,37.85826],[127.48269,37.8583],[127.48275,37.85834],[127.48275,37.85839],[127.48264,37.85841]]]}},{"type":"Feature","properties":{"valleyId":"yongchu-gapyeong","layer":"shadow","date":"2026-08-01","timeLocal":"17:00"},"geometry":{"type":"Polygon","coordinates":[[[127.46389,37.85818],[127.46377,37.85811],[127.46382,37.858],[127.46396,37.858],[127.46395,37.85818],[127.46389,37.85818]]]}},{"type":"Feature","properties":{"valleyId":"yongchu-gapyeong","layer":"shadow","date":"2026-08-01","timeLocal":"17:00"},"geometry":{"type":"Polygon","coordinates":[[[127.47645,37.85867],[127.47636,37.85854],[127.47627,37.85852],[127.4762,37.85845],[127.47607,37.85839],[127.47607,37.85825],[127.476,37.85821],[127.476,37.85816],[127.47628,37.85822],[127.47625,37.85838],[127.4763,37.85838],[127.47641,37.85847],[127.47652,37.85847],[127.4765,37.85836],[127.47657,37.85836],[127.47661,37.8584],[127.47661,37.85849],[127.47654,37.85849],[127.47652,37.85853],[127.47652,37.85867],[127.47645,37.85867]]]}},{"type":"Feature","properties":{"valleyId":"yongchu-gapyeong","layer":"shadow","date":"2026-08-01","timeLocal":"17:00"},"geometry":{"type":"Polygon","coordinates":[[[127.466,37.85799],[127.46601,37.85794],[127.46607,37.85794],[127.46607,37.85799],[127.466,37.85799]]]}},{"type":"Feature","properties":{"valleyId":"yongchu-gapyeong","layer":"shadow","date":"2026-08-01","timeLocal":"17:00"},"geometry":{"type":"Polygon","coordinates":[[[127.47537,37.85801],[127.47537,37.85795],[127.47544,37.85795],[127.47544,37.85801],[127.47537,37.85801]]]}},{"type":"Feature","properties":{"valleyId":"yongchu-gapyeong","layer":"shadow","date":"2026-08-01","timeLocal":"17:00"},"geometry":{"type":"Polygon","coordinates":[[[127.48233,37.8581],[127.48233,37.85802],[127.4824,37.85803],[127.48239,37.8581],[127.48233,37.8581]]]}},{"type":"Feature","properties":{"valleyId":"yongchu-gapyeong","layer":"shadow","date":"2026-08-01","timeLocal":"17:00"},"geometry":{"type":"Polygon","coordinates":[[[127.46462,37.85796],[127.46467,37.8578],[127.46485,37.85778],[127.46485,37.85783],[127.46478,37.85787],[127.46478,37.85792],[127.46462,37.85796]]]}},{"type":"Feature","properties":{"valleyId":"yongchu-gapyeong","layer":"shadow","date":"2026-08-01","timeLocal":"17:00"},"geometry":{"type":"Polygon","coordinates":[[[127.46578,37.85806],[127.46578,37.85799],[127.46582,37.85797],[127.46578,37.85777],[127.46587,37.85776],[127.46587,37.85788],[127.46598,37.8579],[127.46598,37.85796],[127.46589,37.85796],[127.46587,37.85806],[127.46578,37.85806]]]}},{"type":"Feature","properties":{"valleyId":"yongchu-gapyeong","layer":"shadow","date":"2026-08-01","timeLocal":"17:00"},"geometry":{"type":"Polygon","coordinates":[[[127.4643,37.85781],[127.4643,37.85775],[127.46435,37.85772],[127.46444,37.85772],[127.46444,37.85777],[127.46439,37.85781],[127.4643,37.85781]]]}},{"type":"Feature","properties":{"valleyId":"yongchu-gapyeong","layer":"shadow","date":"2026-08-01","timeLocal":"17:00"},"geometry":{"type":"Polygon","coordinates":[[[127.47367,37.86015],[127.4736,37.86011],[127.4736,37.86002],[127.47372,37.86002],[127.47372,37.85991],[127.47383,37.85992],[127.47385,37.85986],[127.47392,37.85983],[127.47393,37.85975],[127.47399,37.8597],[127.474,37.85963],[127.47404,37.85959],[127.47405,37.85945],[127.47393,37.85938],[127.47393,37.85934],[127.47387,37.85928],[127.4738,37.85928],[127.47386,37.8595],[127.47381,37.85964],[127.4737,37.85973],[127.4737,37.85977],[127.47352,37.85975],[127.47347,37.85971],[127.47347,37.85966],[127.47338,37.85966],[127.47338,37.8596],[127.4735,37.85942],[127.47368,37.85941],[127.47373,37.85917],[127.47389,37.85907],[127.47388,37.8588],[127.47395,37.85869],[127.47402,37.85866],[127.47402,37.85857],[127.47406,37.85855],[127.47406,37.85849],[127.47411,37.85846],[127.47411,37.85837],[127.47421,37.85832],[127.47421,37.85823],[127.47416,37.85821],[127.47416,37.85815],[127.47437,37.8581],[127.47433,37.8579],[127.47458,37.85791],[127.47462,37.85787],[127.47463,37.85773],[127.47483,37.85767],[127.47506,37.85768],[127.4751,37.85771],[127.4751,37.85789],[127.47483,37.85791],[127.4748,37.85798],[127.47467,37.85803],[127.47462,37.85823],[127.47457,37.85825],[127.47457,37.85836],[127.47443,37.85837],[127.47436,37.85843],[127.47436,37.85848],[127.47429,37.85855],[127.47426,37.859],[127.47428,37.85904],[127.47437,37.85904],[127.4744,37.85877],[127.47445,37.85872],[127.47447,37.85857],[127.47454,37.85854],[127.47463,37.85854],[127.47466,37.85839],[127.47489,37.85838],[127.47496,37.85833],[127.47502,37.85833],[127.47502,37.85849],[127.47484,37.85849],[127.47472,37.85857],[127.47472,37.85863],[127.47468,37.85866],[127.47467,37.85899],[127.47453,37.85906],[127.47446,37.85918],[127.47443,37.8594],[127.47448,37.85942],[127.4745,37.85955],[127.47434,37.85963],[127.47434,37.85969],[127.47427,37.85969],[127.4742,37.85961],[127.47413,37.85961],[127.47411,37.85968],[127.47418,37.85972],[127.47415,37.85987],[127.47399,37.8599],[127.47399,37.85995],[127.47385,37.85999],[127.47383,37.86004],[127.47374,37.86006],[127.47374,37.86015],[127.47367,37.86015]]]}},{"type":"Feature","properties":{"valleyId":"yongchu-gapyeong","layer":"shadow","date":"2026-08-01","timeLocal":"17:00"},"geometry":{"type":"Polygon","coordinates":[[[127.46487,37.85778],[127.46487,37.85773],[127.46492,37.85771],[127.46492,37.85762],[127.46499,37.85762],[127.46499,37.85758],[127.46506,37.85758],[127.46508,37.85753],[127.46515,37.85753],[127.46517,37.8576],[127.46506,37.85764],[127.46503,37.85773],[127.46499,37.85773],[127.46494,37.85778],[127.46487,37.85778]]]}},{"type":"Feature","properties":{"valleyId":"yongchu-gapyeong","layer":"shadow","date":"2026-08-01","timeLocal":"17:00"},"geometry":{"type":"Polygon","coordinates":[[[127.4646,37.85756],[127.46461,37.85751],[127.4647,37.85751],[127.4647,37.85756],[127.4646,37.85756]]]}},{"type":"Feature","properties":{"valleyId":"yongchu-gapyeong","layer":"shadow","date":"2026-08-01","timeLocal":"17:00"},"geometry":{"type":"Polygon","coordinates":[[[127.46568,37.85745],[127.46565,37.85734],[127.46575,37.85732],[127.46574,37.85745],[127.46568,37.85745]]]}},{"type":"Feature","properties":{"valleyId":"yongchu-gapyeong","layer":"shadow","date":"2026-08-01","timeLocal":"17:00"},"geometry":{"type":"Polygon","coordinates":[[[127.48224,37.85779],[127.48224,37.85773],[127.4822,37.8577],[127.48216,37.85754],[127.48229,37.85754],[127.48229,37.85757],[127.48234,37.85759],[127.48231,37.85779],[127.48224,37.85779]]]}},{"type":"Feature","properties":{"valleyId":"yongchu-gapyeong","layer":"shadow","date":"2026-08-01","timeLocal":"17:00"},"geometry":{"type":"Polygon","coordinates":[[[127.46573,37.85707],[127.46571,37.85698],[127.4658,37.85698],[127.4658,37.85707],[127.46573,37.85707]]]}},{"type":"Feature","properties":{"valleyId":"yongchu-gapyeong","layer":"shadow","date":"2026-08-01","timeLocal":"17:00"},"geometry":{"type":"Polygon","coordinates":[[[127.46552,37.85705],[127.46553,37.85689],[127.46546,37.85687],[127.46546,37.85676],[127.4656,37.85676],[127.46569,37.85684],[127.46569,37.85696],[127.46564,37.85696],[127.46564,37.85703],[127.46552,37.85705]]]}},{"type":"Feature","properties":{"valleyId":"yongchu-gapyeong","layer":"shadow","date":"2026-08-01","timeLocal":"17:00"},"geometry":{"type":"Polygon","coordinates":[[[127.46585,37.8568],[127.46585,37.85675],[127.46594,37.85675],[127.46594,37.8568],[127.46585,37.8568]]]}},{"type":"Feature","properties":{"valleyId":"yongchu-gapyeong","layer":"shadow","date":"2026-08-01","timeLocal":"17:00"},"geometry":{"type":"Polygon","coordinates":[[[127.46571,37.85675],[127.46572,37.8566],[127.46565,37.85656],[127.46565,37.85651],[127.46574,37.85648],[127.46585,37.85648],[127.46585,37.85675],[127.46571,37.85675]]]}},{"type":"Feature","properties":{"valleyId":"yongchu-gapyeong","layer":"shadow","date":"2026-08-01","timeLocal":"17:00"},"geometry":{"type":"Polygon","coordinates":[[[127.48149,37.85886],[127.48149,37.85881],[127.48158,37.85874],[127.48159,37.8587],[127.48177,37.85868],[127.48188,37.8586],[127.48188,37.85854],[127.48177,37.85852],[127.48168,37.85845],[127.48168,37.85839],[127.4815,37.8583],[127.48148,37.85821],[127.4813,37.85821],[127.48123,37.85828],[127.48112,37.85828],[127.48105,37.85824],[127.48103,37.85815],[127.48098,37.85811],[127.48101,37.85777],[127.48129,37.85776],[127.48133,37.85772],[127.4814,37.85772],[127.48149,37.85765],[127.48163,37.85764],[127.48168,37.8576],[127.48168,37.85755],[127.48161,37.85747],[127.48164,37.85706],[127.48155,37.85702],[127.48153,37.85693],[127.48146,37.8569],[127.48151,37.8567],[127.48138,37.85664],[127.48131,37.85653],[127.4812,37.8565],[127.4812,37.85642],[127.48129,37.85642],[127.48131,37.85646],[127.48149,37.85654],[127.48154,37.85657],[127.48154,37.85663],[127.48169,37.85675],[127.48173,37.85699],[127.4818,37.85704],[127.4818,37.85717],[127.48184,37.85717],[127.48189,37.85723],[127.4819,37.8576],[127.48181,37.8576],[127.48181,37.85771],[127.48183,37.85775],[127.48192,37.85777],[127.48194,37.85786],[127.48203,37.85788],[127.48208,37.858],[127.48212,37.85804],[127.48219,37.85804],[127.48221,37.85811],[127.48221,37.85831],[127.48214,37.85831],[127.48214,37.85836],[127.48221,37.85837],[127.48218,37.85858],[127.48202,37.85858],[127.48197,37.85865],[127.48184,37.85872],[127.48183,37.85885],[127.48149,37.85886]]]}},{"type":"Feature","properties":{"valleyId":"yongchu-gapyeong","layer":"shadow","date":"2026-08-01","timeLocal":"17:00"},"geometry":{"type":"Polygon","coordinates":[[[127.48154,37.85645],[127.48154,37.85639],[127.48161,37.85639],[127.48161,37.85645],[127.48154,37.85645]]]}},{"type":"Feature","properties":{"valleyId":"yongchu-gapyeong","layer":"shadow","date":"2026-08-01","timeLocal":"17:00"},"geometry":{"type":"Polygon","coordinates":[[[127.48188,37.8564],[127.48188,37.85634],[127.48195,37.85634],[127.48195,37.8564],[127.48188,37.8564]]]}},{"type":"Feature","properties":{"valleyId":"yongchu-gapyeong","layer":"shadow","date":"2026-08-01","timeLocal":"17:00"},"geometry":{"type":"Polygon","coordinates":[[[127.48175,37.85625],[127.48168,37.85618],[127.48168,37.85612],[127.48177,37.85612],[127.48182,37.8562],[127.48182,37.85625],[127.48175,37.85625]]]}},{"type":"Feature","properties":{"valleyId":"yongchu-gapyeong","layer":"shadow","date":"2026-08-01","timeLocal":"17:00"},"geometry":{"type":"Polygon","coordinates":[[[127.48196,37.85596],[127.48196,37.85589],[127.48205,37.85589],[127.48205,37.85597],[127.48196,37.85596]]]}},{"type":"Feature","properties":{"valleyId":"yongchu-gapyeong","layer":"shadow","date":"2026-08-01","timeLocal":"17:00"},"geometry":{"type":"Polygon","coordinates":[[[127.48154,37.85549],[127.48152,37.85527],[127.48159,37.85527],[127.48163,37.85535],[127.48172,37.85538],[127.48172,37.85546],[127.48165,37.85549],[127.48154,37.85549]]]}},{"type":"Feature","properties":{"valleyId":"yongchu-gapyeong","layer":"shadow","date":"2026-08-01","timeLocal":"17:00"},"geometry":{"type":"Polygon","coordinates":[[[127.48203,37.85458],[127.48204,37.85451],[127.48213,37.85449],[127.4821,37.85458],[127.48203,37.85458]]]}},{"type":"Feature","properties":{"valleyId":"yongchu-gapyeong","layer":"shadow","date":"2026-08-01","timeLocal":"17:00"},"geometry":{"type":"Polygon","coordinates":[[[127.48213,37.85449],[127.48213,37.85443],[127.4822,37.85444],[127.48219,37.85449],[127.48213,37.85449]]]}},{"type":"Feature","properties":{"valleyId":"yongchu-gapyeong","layer":"shadow","date":"2026-08-01","timeLocal":"17:00"},"geometry":{"type":"Polygon","coordinates":[[[127.48215,37.85436],[127.48215,37.85425],[127.48222,37.85426],[127.48222,37.85436],[127.48215,37.85436]]]}},{"type":"Feature","properties":{"valleyId":"yongchu-gapyeong","layer":"shadow","date":"2026-08-01","timeLocal":"17:00"},"geometry":{"type":"Polygon","coordinates":[[[127.48069,37.85379],[127.48062,37.85371],[127.48065,37.85357],[127.48083,37.85359],[127.48082,37.85377],[127.48069,37.85379]]]}},{"type":"Feature","properties":{"valleyId":"yongchu-gapyeong","layer":"shadow","date":"2026-08-01","timeLocal":"17:00"},"geometry":{"type":"Polygon","coordinates":[[[127.48126,37.85365],[127.4811,37.85354],[127.48106,37.85354],[127.48106,37.85347],[127.4811,37.85343],[127.48129,37.8534],[127.48154,37.8534],[127.48156,37.85353],[127.48149,37.85354],[127.48139,37.85365],[127.48126,37.85365]]]}},{"type":"Feature","properties":{"valleyId":"yongchu-gapyeong","layer":"shadow","date":"2026-08-01","timeLocal":"17:00"},"geometry":{"type":"Polygon","coordinates":[[[127.47956,37.8535],[127.47961,37.85328],[127.4797,37.85327],[127.4797,37.85321],[127.47977,37.85321],[127.47979,37.8534],[127.47972,37.85341],[127.47967,37.85348],[127.47956,37.8535]]]}},{"type":"Feature","properties":{"valleyId":"yongchu-gapyeong","layer":"shadow","date":"2026-08-01","timeLocal":"17:00"},"geometry":{"type":"Polygon","coordinates":[[[127.48095,37.85319],[127.48093,37.85316],[127.48088,37.85316],[127.48088,37.8531],[127.48095,37.85307],[127.48113,37.85305],[127.48131,37.85311],[127.48131,37.85316],[127.48095,37.85319]]]}},{"type":"Feature","properties":{"valleyId":"yongchu-gapyeong","layer":"shadow","date":"2026-08-01","timeLocal":"17:00"},"geometry":{"type":"Polygon","coordinates":[[[127.47948,37.8526],[127.47942,37.85253],[127.47942,37.85242],[127.47933,37.85242],[127.47935,37.85227],[127.47956,37.85227],[127.47956,37.85242],[127.47962,37.85246],[127.47964,37.85256],[127.4796,37.8526],[127.47948,37.8526]]]}},{"type":"Feature","properties":{"valleyId":"yongchu-gapyeong","layer":"shadow","date":"2026-08-01","timeLocal":"17:00"},"geometry":{"type":"Polygon","coordinates":[[[127.48297,37.8521],[127.48297,37.85205],[127.48304,37.85205],[127.48304,37.8521],[127.48297,37.8521]]]}},{"type":"Feature","properties":{"valleyId":"yongchu-gapyeong","layer":"shadow","date":"2026-08-01","timeLocal":"17:00"},"geometry":{"type":"Polygon","coordinates":[[[127.48191,37.852],[127.48191,37.85194],[127.48197,37.85195],[127.48197,37.852],[127.48191,37.852]]]}},{"type":"Feature","properties":{"valleyId":"yongchu-gapyeong","layer":"shadow","date":"2026-08-01","timeLocal":"17:00"},"geometry":{"type":"Polygon","coordinates":[[[127.48195,37.85193],[127.48195,37.85185],[127.48202,37.85186],[127.48202,37.85193],[127.48195,37.85193]]]}},{"type":"Feature","properties":{"valleyId":"yongchu-gapyeong","layer":"shadow","date":"2026-08-01","timeLocal":"17:00"},"geometry":{"type":"Polygon","coordinates":[[[127.48248,37.85181],[127.48246,37.8517],[127.48248,37.85166],[127.48255,37.85166],[127.48255,37.85181],[127.48248,37.85181]]]}},{"type":"Feature","properties":{"valleyId":"yongchu-gapyeong","layer":"shadow","date":"2026-08-01","timeLocal":"17:00"},"geometry":{"type":"Polygon","coordinates":[[[127.48339,37.85182],[127.48339,37.85162],[127.48346,37.85162],[127.48355,37.8517],[127.48355,37.85175],[127.48348,37.85182],[127.48339,37.85182]]]}},{"type":"Feature","properties":{"valleyId":"yongchu-gapyeong","layer":"shadow","date":"2026-08-01","timeLocal":"17:00"},"geometry":{"type":"Polygon","coordinates":[[[127.48202,37.85182],[127.48203,37.8516],[127.48216,37.85159],[127.48218,37.85171],[127.48209,37.85182],[127.48202,37.85182]]]}},{"type":"Feature","properties":{"valleyId":"yongchu-gapyeong","layer":"shadow","date":"2026-08-01","timeLocal":"17:00"},"geometry":{"type":"Polygon","coordinates":[[[127.48294,37.85153],[127.48294,37.85147],[127.48301,37.85147],[127.48301,37.85153],[127.48294,37.85153]]]}},{"type":"Feature","properties":{"valleyId":"yongchu-gapyeong","layer":"shadow","date":"2026-08-01","timeLocal":"17:00"},"geometry":{"type":"Polygon","coordinates":[[[127.48212,37.85157],[127.48217,37.85123],[127.48222,37.85117],[127.48229,37.85117],[127.48228,37.85123],[127.48224,37.85126],[127.48223,37.85153],[127.48219,37.85157],[127.48212,37.85157]]]}},{"type":"Feature","properties":{"valleyId":"yongchu-gapyeong","layer":"shadow","date":"2026-08-01","timeLocal":"17:00"},"geometry":{"type":"Polygon","coordinates":[[[127.48241,37.85087],[127.48241,37.85074],[127.48259,37.85078],[127.48257,37.85085],[127.48241,37.85087]]]}},{"type":"Feature","properties":{"valleyId":"yongchu-gapyeong","layer":"shadow","date":"2026-08-01","timeLocal":"17:00"},"geometry":{"type":"Polygon","coordinates":[[[127.48258,37.8502],[127.48258,37.85011],[127.48272,37.85008],[127.48272,37.85013],[127.48267,37.85013],[127.48265,37.85021],[127.48258,37.8502]]]}},{"type":"Feature","properties":{"valleyId":"yongchu-gapyeong","layer":"shadow","date":"2026-08-01","timeLocal":"17:00"},"geometry":{"type":"Polygon","coordinates":[[[127.48126,37.85017],[127.48122,37.85013],[127.48115,37.85013],[127.48113,37.85006],[127.48122,37.85006],[127.48124,37.8501],[127.48133,37.85012],[127.48133,37.85017],[127.48126,37.85017]]]}},{"type":"Feature","properties":{"valleyId":"yongchu-gapyeong","layer":"shadow","date":"2026-08-01","timeLocal":"17:00"},"geometry":{"type":"Polygon","coordinates":[[[127.48106,37.85002],[127.48104,37.84993],[127.48115,37.84992],[127.48113,37.85002],[127.48106,37.85002]]]}},{"type":"Feature","properties":{"valleyId":"yongchu-gapyeong","layer":"shadow","date":"2026-08-01","timeLocal":"17:00"},"geometry":{"type":"Polygon","coordinates":[[[127.48281,37.85005],[127.48283,37.8499],[127.4829,37.8499],[127.48292,37.85003],[127.48281,37.85005]]]}},{"type":"Feature","properties":{"valleyId":"yongchu-gapyeong","layer":"shadow","date":"2026-08-01","timeLocal":"17:00"},"geometry":{"type":"Polygon","coordinates":[[[127.48277,37.84976],[127.48277,37.84958],[127.48286,37.84958],[127.48284,37.84976],[127.48277,37.84976]]]}},{"type":"Feature","properties":{"valleyId":"yongchu-gapyeong","layer":"shadow","date":"2026-08-01","timeLocal":"17:00"},"geometry":{"type":"Polygon","coordinates":[[[127.48404,37.84966],[127.48405,37.84956],[127.48414,37.84956],[127.48416,37.84965],[127.48404,37.84966]]]}},{"type":"Feature","properties":{"valleyId":"yongchu-gapyeong","layer":"shadow","date":"2026-08-01","timeLocal":"17:00"},"geometry":{"type":"Polygon","coordinates":[[[127.48339,37.84957],[127.48339,37.84951],[127.48346,37.84951],[127.48346,37.84957],[127.48339,37.84957]]]}},{"type":"Feature","properties":{"valleyId":"yongchu-gapyeong","layer":"shadow","date":"2026-08-01","timeLocal":"17:00"},"geometry":{"type":"Polygon","coordinates":[[[127.48111,37.85642],[127.48107,37.85637],[127.48095,37.85637],[127.48093,37.85633],[127.48075,37.85633],[127.48064,37.85624],[127.48064,37.85618],[127.48075,37.85613],[127.48075,37.85599],[127.48067,37.85586],[127.48067,37.8558],[127.48074,37.85575],[127.48074,37.85546],[127.48066,37.85524],[127.48061,37.85521],[127.48059,37.85496],[127.48066,37.85496],[127.48069,37.85492],[127.48069,37.85483],[127.4808,37.85471],[127.48081,37.8546],[127.48097,37.85453],[127.4811,37.85453],[127.48117,37.85435],[127.48122,37.85428],[127.48131,37.85424],[127.48136,37.85414],[127.4815,37.85416],[127.4815,37.85407],[127.48136,37.85408],[127.48136,37.85403],[127.48132,37.85403],[127.48132,37.85396],[127.48139,37.85392],[127.48139,37.85388],[127.48148,37.85383],[127.48159,37.85383],[127.48173,37.85378],[127.48176,37.85374],[127.48196,37.85375],[127.48196,37.85364],[127.48185,37.85353],[127.48183,37.8534],[127.48176,37.85333],[127.48177,37.85322],[127.48168,37.85313],[127.48168,37.85308],[127.48159,37.853],[127.48157,37.85282],[127.48152,37.85282],[127.48146,37.85277],[127.48144,37.85237],[127.48135,37.85232],[127.48117,37.8523],[127.48117,37.85222],[127.48138,37.85223],[127.48138,37.85215],[127.48136,37.85212],[127.48127,37.85212],[127.48124,37.85215],[127.48106,37.85215],[127.48102,37.85211],[127.48102,37.85204],[127.48113,37.85202],[127.48113,37.85199],[127.48118,37.85199],[127.48118,37.85194],[127.48111,37.8519],[127.48111,37.85184],[127.48107,37.85181],[127.481,37.85181],[127.48093,37.85175],[127.48091,37.85164],[127.4808,37.85155],[127.4808,37.85144],[127.48085,37.85144],[127.48092,37.85139],[127.48097,37.85127],[127.4811,37.85123],[127.48113,37.85112],[127.48117,37.85112],[127.48127,37.85103],[127.48133,37.85104],[127.4814,37.85093],[127.48161,37.85084],[127.48163,37.85077],[127.48168,37.85075],[127.48168,37.85068],[127.48189,37.85068],[127.48189,37.85057],[127.48203,37.8505],[127.48205,37.85043],[127.48221,37.85047],[127.48221,37.85036],[127.48228,37.85029],[127.48228,37.85022],[127.48226,37.85016],[127.48219,37.85013],[127.48218,37.84991],[127.48211,37.84987],[127.48211,37.84982],[127.48198,37.84964],[127.48196,37.84951],[127.48202,37.84951],[127.48209,37.84957],[127.48218,37.84957],[127.48218,37.84946],[127.48225,37.84946],[127.4823,37.84948],[127.4823,37.84957],[127.4822,37.84957],[127.4822,37.84962],[127.48229,37.84964],[127.4823,37.84959],[127.48236,37.84959],[127.48236,37.84979],[127.48238,37.84984],[127.48245,37.84984],[127.48245,37.84995],[127.48251,37.85001],[127.48251,37.85008],[127.48244,37.85008],[127.48244,37.8502],[127.48249,37.85022],[127.48249,37.85026],[127.48255,37.85026],[127.48255,37.85031],[127.48242,37.85036],[127.48241,37.85049],[127.48221,37.85052],[127.48216,37.85056],[127.48216,37.85067],[127.482,37.85068],[127.48195,37.85074],[127.48191,37.85074],[127.48186,37.85086],[127.48177,37.85088],[127.48178,37.85126],[127.48176,37.85146],[127.48173,37.85153],[127.48169,37.85155],[127.48168,37.85174],[127.48173,37.8518],[127.48173,37.85187],[127.48163,37.85196],[127.48163,37.85203],[127.48168,37.85207],[127.48165,37.85227],[127.48171,37.85243],[127.48171,37.85255],[127.4818,37.85254],[127.48187,37.85238],[127.48186,37.8522],[127.48192,37.8522],[127.48196,37.85245],[127.48185,37.85254],[127.48185,37.85261],[127.48194,37.85263],[127.48196,37.85286],[127.482,37.85288],[127.48202,37.85297],[127.48207,37.85299],[127.48207,37.85305],[127.48213,37.8531],[127.48215,37.85317],[127.48229,37.85318],[127.48228,37.85345],[127.48215,37.85344],[127.48212,37.85366],[127.48216,37.854],[127.48211,37.85404],[127.48193,37.85407],[127.48193,37.85425],[127.48156,37.85425],[127.48154,37.85428],[127.4814,37.85426],[127.48133,37.85433],[127.48133,37.85448],[127.48131,37.85451],[127.48122,37.85453],[127.48119,37.85458],[127.48119,37.85466],[127.48126,37.85466],[127.48126,37.85473],[127.48123,37.85505],[127.48111,37.85505],[127.48111,37.85512],[127.48116,37.85516],[127.48113,37.85532],[127.4812,37.85532],[127.4812,37.85543],[127.48115,37.85543],[127.48115,37.85552],[127.48122,37.85552],[127.48122,37.85545],[127.48129,37.85545],[127.48131,37.85552],[127.48124,37.85552],[127.48122,37.85558],[127.48121,37.85583],[127.48114,37.85583],[127.48115,37.85579],[127.48108,37.85574],[127.48096,37.85574],[127.48096,37.85581],[127.48103,37.8559],[127.48121,37.85588],[127.4812,37.85642],[127.48111,37.85642]],[[127.48191,37.85402],[127.48198,37.85402],[127.48202,37.85396],[127.482,37.85386],[127.48194,37.85386],[127.48191,37.85402]],[[127.48131,37.85201],[127.48138,37.85201],[127.48136,37.85192],[127.48129,37.85192],[127.48131,37.85201]],[[127.48132,37.85185],[127.48139,37.85185],[127.48139,37.85178],[127.48132,37.85172],[127.48123,37.85172],[127.48123,37.85177],[127.48132,37.85185]]]}},{"type":"Feature","properties":{"valleyId":"yongchu-gapyeong","layer":"shadow","date":"2026-08-01","timeLocal":"17:00"},"geometry":{"type":"Polygon","coordinates":[[[127.48198,37.84944],[127.48198,37.84937],[127.48205,37.84937],[127.48205,37.84944],[127.48198,37.84944]]]}},{"type":"Feature","properties":{"valleyId":"yongchu-gapyeong","layer":"shadow","date":"2026-08-01","timeLocal":"17:00"},"geometry":{"type":"Polygon","coordinates":[[[127.48223,37.84937],[127.48223,37.8493],[127.4823,37.8493],[127.48232,37.84937],[127.48223,37.84937]]]}},{"type":"Feature","properties":{"valleyId":"yongchu-gapyeong","layer":"shadow","date":"2026-08-01","timeLocal":"17:00"},"geometry":{"type":"Polygon","coordinates":[[[127.48085,37.84928],[127.48085,37.84923],[127.48092,37.84923],[127.48092,37.84928],[127.48085,37.84928]]]}},{"type":"Feature","properties":{"valleyId":"yongchu-gapyeong","layer":"shadow","date":"2026-08-01","timeLocal":"17:00"},"geometry":{"type":"Polygon","coordinates":[[[127.48235,37.84923],[127.48235,37.84916],[127.48246,37.84916],[127.48246,37.84921],[127.48235,37.84923]]]}},{"type":"Feature","properties":{"valleyId":"yongchu-gapyeong","layer":"shadow","date":"2026-08-01","timeLocal":"17:00"},"geometry":{"type":"Polygon","coordinates":[[[127.48187,37.8491],[127.4819,37.84897],[127.48197,37.84897],[127.48194,37.8491],[127.48187,37.8491]]]}},{"type":"Feature","properties":{"valleyId":"yongchu-gapyeong","layer":"shadow","date":"2026-08-01","timeLocal":"17:00"},"geometry":{"type":"Polygon","coordinates":[[[127.48135,37.84891],[127.48136,37.84884],[127.48142,37.84884],[127.48142,37.84891],[127.48135,37.84891]]]}},{"type":"Feature","properties":{"valleyId":"yongchu-gapyeong","layer":"shadow","date":"2026-08-01","timeLocal":"17:00"},"geometry":{"type":"Polygon","coordinates":[[[127.48226,37.84903],[127.48224,37.8489],[127.48229,37.8489],[127.48229,37.84887],[127.48236,37.84885],[127.48236,37.84871],[127.48227,37.84865],[127.48227,37.8486],[127.48234,37.8486],[127.48238,37.84863],[127.48245,37.84863],[127.48252,37.84869],[127.48252,37.84873],[127.48256,37.84873],[127.48258,37.84885],[127.48247,37.84887],[127.48247,37.84894],[127.4824,37.84896],[127.4824,37.84901],[127.48226,37.84903]]]}},{"type":"Feature","properties":{"valleyId":"yongchu-gapyeong","layer":"shadow","date":"2026-08-01","timeLocal":"17:00"},"geometry":{"type":"Polygon","coordinates":[[[127.48148,37.84848],[127.48141,37.84844],[127.48141,37.84839],[127.4815,37.84839],[127.48155,37.84842],[127.48155,37.84848],[127.48148,37.84848]]]}},{"type":"Feature","properties":{"valleyId":"yongchu-gapyeong","layer":"shadow","date":"2026-08-01","timeLocal":"17:00"},"geometry":{"type":"Polygon","coordinates":[[[127.48098,37.84833],[127.48094,37.84831],[127.48094,37.84825],[127.48098,37.84824],[127.48098,37.8482],[127.48105,37.8482],[127.48105,37.84826],[127.48112,37.84828],[127.48112,37.84833],[127.48098,37.84833]]]}},{"type":"Feature","properties":{"valleyId":"yongchu-gapyeong","layer":"shadow","date":"2026-08-01","timeLocal":"17:00"},"geometry":{"type":"Polygon","coordinates":[[[127.48208,37.848],[127.48208,37.84795],[127.48215,37.84795],[127.48215,37.848],[127.48208,37.848]]]}},{"type":"Feature","properties":{"valleyId":"yongchu-gapyeong","layer":"shadow","date":"2026-08-01","timeLocal":"17:00"},"geometry":{"type":"Polygon","coordinates":[[[127.48749,37.84801],[127.48749,37.84791],[127.48763,37.84793],[127.48762,37.848],[127.48749,37.84801]]]}},{"type":"Feature","properties":{"valleyId":"yongchu-gapyeong","layer":"shadow","date":"2026-08-01","timeLocal":"17:00"},"geometry":{"type":"Polygon","coordinates":[[[127.48437,37.84799],[127.48438,37.84787],[127.48442,37.84783],[127.48449,37.84783],[127.48447,37.84798],[127.48437,37.84799]]]}},{"type":"Feature","properties":{"valleyId":"yongchu-gapyeong","layer":"shadow","date":"2026-08-01","timeLocal":"17:00"},"geometry":{"type":"Polygon","coordinates":[[[127.48169,37.84796],[127.4816,37.84787],[127.48151,37.84783],[127.48151,37.84778],[127.48156,37.84778],[127.48158,37.84774],[127.48165,37.84774],[127.48174,37.84783],[127.48176,37.84796],[127.48169,37.84796]]]}},{"type":"Feature","properties":{"valleyId":"yongchu-gapyeong","layer":"shadow","date":"2026-08-01","timeLocal":"17:00"},"geometry":{"type":"Polygon","coordinates":[[[127.48454,37.84783],[127.48454,37.84778],[127.48461,37.84778],[127.4846,37.84783],[127.48454,37.84783]]]}},{"type":"Feature","properties":{"valleyId":"yongchu-gapyeong","layer":"shadow","date":"2026-08-01","timeLocal":"17:00"},"geometry":{"type":"Polygon","coordinates":[[[127.48467,37.8478],[127.48467,37.84774],[127.48477,37.84775],[127.48488,37.84762],[127.485,37.8476],[127.48513,37.8475],[127.48532,37.8475],[127.48534,37.84723],[127.48544,37.8472],[127.48542,37.84692],[127.48549,37.84687],[127.48549,37.84662],[127.48559,37.84649],[127.48557,37.84635],[127.48568,37.84628],[127.48577,37.84628],[127.48577,37.84623],[127.48584,37.84623],[127.48584,37.84626],[127.48591,37.84626],[127.48588,37.84637],[127.48593,37.84644],[127.48592,37.84668],[127.48588,37.8468],[127.48583,37.84684],[127.48582,37.84727],[127.48559,37.84727],[127.48559,37.84734],[127.48522,37.84764],[127.48506,37.84768],[127.48497,37.84773],[127.4849,37.84773],[127.48486,37.84778],[127.48467,37.8478]]]}},{"type":"Feature","properties":{"valleyId":"yongchu-gapyeong","layer":"shadow","date":"2026-08-01","timeLocal":"17:00"},"geometry":{"type":"Polygon","coordinates":[[[127.48564,37.84608],[127.48557,37.84606],[127.48557,37.84601],[127.48571,37.84599],[127.48573,37.84608],[127.48564,37.84608]]]}},{"type":"Feature","properties":{"valleyId":"yongchu-gapyeong","layer":"shadow","date":"2026-08-01","timeLocal":"17:00"},"geometry":{"type":"Polygon","coordinates":[[[127.4875,37.84616],[127.48748,37.846],[127.48755,37.846],[127.48757,37.84616],[127.4875,37.84616]]]}},{"type":"Feature","properties":{"valleyId":"yongchu-gapyeong","layer":"shadow","date":"2026-08-01","timeLocal":"17:00"},"geometry":{"type":"Polygon","coordinates":[[[127.48482,37.84602],[127.48478,37.846],[127.48478,37.84594],[127.48494,37.84593],[127.48494,37.84598],[127.48489,37.84602],[127.48482,37.84602]]]}},{"type":"Feature","properties":{"valleyId":"yongchu-gapyeong","layer":"shadow","date":"2026-08-01","timeLocal":"17:00"},"geometry":{"type":"Polygon","coordinates":[[[127.48593,37.84628],[127.48598,37.84616],[127.48598,37.84599],[127.48594,37.84596],[127.48569,37.84595],[127.48567,37.84592],[127.48567,37.84581],[127.48574,37.84576],[127.48579,37.84565],[127.48588,37.8456],[127.48597,37.8456],[127.48597,37.84569],[127.48601,37.84572],[127.48601,37.84594],[127.48607,37.846],[127.48605,37.84627],[127.48593,37.84628]]]}},{"type":"Feature","properties":{"valleyId":"yongchu-gapyeong","layer":"shadow","date":"2026-08-01","timeLocal":"17:00"},"geometry":{"type":"Polygon","coordinates":[[[127.48606,37.84558],[127.48611,37.84546],[127.48631,37.84548],[127.48631,37.84553],[127.48624,37.84553],[127.48615,37.84558],[127.48606,37.84558]]]}}]}
