{"type":"FeatureCollection","metadata":{"description":"개방지(CHM ≤ 2 m)에 드리운 나무·지형 그림자, 2026-08-01 10:00 KST. canopy 위에 겹쳐 그린다","source":"위성 기반 추정 — Copernicus GLO-30 지형(30 m) + Meta/WRI 수관 높이(1 m CHM, 2015~2016 촬영). 그늘 = 수관(CHM > 2 m) ∪ 나무·지형 그림자 ∪ 원거리 지형 마스크. 현장과 다를 수 있음.","datasetVersion":"2026-09-06.0","collectedAt":"2026-09-06","coordinateOrder":"[longitude, latitude]","crs":"EPSG:4326","representativeDate":"2026-08-01","hours":["10:00","11:00","12:00","13:00","14:00","15:00","16:00","17:00","18:00"],"chmAcquisition":["2015-07","2016-06"],"assets":{"glo30":{"dataset":"Copernicus DEM GLO-30 (COG, s3://copernicus-dem-30m)","tiles":["Copernicus_DSM_COG_10_N37_00_E127_00_DEM"]},"chm":{"dataset":"Meta/WRI Global Canopy Height Map v1 (alsgedi_global_v6_float, 1 m, CC-BY 4.0)","quadkeys":["132110303"],"acquisition":["2015-07","2016-06"]}},"method":{"gridResM":2,"canopyThresholdM":2,"bufferHalfM":25,"corridorHalfM":200,"simplifyTolM":2,"minAreaM2":25,"coordDecimals":5},"generator":"scripts/shade 0.1.0","builtAt":"2026-09-06T05:56:06Z","layer":"shadow","timeLocal":"10:00"},"features":[{"type":"Feature","properties":{"valleyId":"yongchu-gapyeong","layer":"shadow","date":"2026-08-01","timeLocal":"10:00"},"geometry":{"type":"Polygon","coordinates":[[[127.46734,37.86171],[127.46732,37.86165],[127.46727,37.86165],[127.46727,37.86161],[127.4672,37.86161],[127.4672,37.86156],[127.46729,37.86156],[127.46738,37.86162],[127.46741,37.86171],[127.46734,37.86171]]]}},{"type":"Feature","properties":{"valleyId":"yongchu-gapyeong","layer":"shadow","date":"2026-08-01","timeLocal":"10:00"},"geometry":{"type":"Polygon","coordinates":[[[127.47541,37.8615],[127.47539,37.86149],[127.47537,37.86136],[127.47544,37.86136],[127.47551,37.86141],[127.4755,37.86149],[127.47541,37.8615]]]}},{"type":"Feature","properties":{"valleyId":"yongchu-gapyeong","layer":"shadow","date":"2026-08-01","timeLocal":"10:00"},"geometry":{"type":"Polygon","coordinates":[[[127.47513,37.86105],[127.47511,37.86092],[127.47506,37.86092],[127.47504,37.86076],[127.4752,37.86078],[127.4752,37.861],[127.47524,37.861],[127.47524,37.86105],[127.47513,37.86105]]]}},{"type":"Feature","properties":{"valleyId":"yongchu-gapyeong","layer":"shadow","date":"2026-08-01","timeLocal":"10:00"},"geometry":{"type":"Polygon","coordinates":[[[127.47495,37.86074],[127.47495,37.86069],[127.47502,37.86069],[127.47502,37.86074],[127.47495,37.86074]]]}},{"type":"Feature","properties":{"valleyId":"yongchu-gapyeong","layer":"shadow","date":"2026-08-01","timeLocal":"10:00"},"geometry":{"type":"Polygon","coordinates":[[[127.4672,37.86077],[127.46715,37.86075],[127.46716,37.86057],[127.46707,37.86057],[127.46707,37.86051],[127.46716,37.86051],[127.46716,37.86055],[127.46729,37.86057],[127.46727,37.86077],[127.4672,37.86077]]]}},{"type":"Feature","properties":{"valleyId":"yongchu-gapyeong","layer":"shadow","date":"2026-08-01","timeLocal":"10:00"},"geometry":{"type":"Polygon","coordinates":[[[127.48198,37.86069],[127.48198,37.86063],[127.48205,37.86063],[127.48205,37.86069],[127.48198,37.86069]]]}},{"type":"Feature","properties":{"valleyId":"yongchu-gapyeong","layer":"shadow","date":"2026-08-01","timeLocal":"10:00"},"geometry":{"type":"Polygon","coordinates":[[[127.4666,37.86016],[127.4666,37.86007],[127.46667,37.86007],[127.46666,37.86016],[127.4666,37.86016]]]}},{"type":"Feature","properties":{"valleyId":"yongchu-gapyeong","layer":"shadow","date":"2026-08-01","timeLocal":"10:00"},"geometry":{"type":"Polygon","coordinates":[[[127.47476,37.85998],[127.47474,37.85987],[127.47481,37.85987],[127.47483,37.85998],[127.47476,37.85998]]]}},{"type":"Feature","properties":{"valleyId":"yongchu-gapyeong","layer":"shadow","date":"2026-08-01","timeLocal":"10:00"},"geometry":{"type":"Polygon","coordinates":[[[127.47204,37.85973],[127.47204,37.85968],[127.47213,37.85968],[127.47213,37.85973],[127.47204,37.85973]]]}},{"type":"Feature","properties":{"valleyId":"yongchu-gapyeong","layer":"shadow","date":"2026-08-01","timeLocal":"10:00"},"geometry":{"type":"Polygon","coordinates":[[[127.46636,37.85964],[127.46631,37.85958],[127.46631,37.85951],[127.46638,37.85951],[127.46643,37.85958],[127.46643,37.85964],[127.46636,37.85964]]]}},{"type":"Feature","properties":{"valleyId":"yongchu-gapyeong","layer":"shadow","date":"2026-08-01","timeLocal":"10:00"},"geometry":{"type":"Polygon","coordinates":[[[127.48257,37.85958],[127.48255,37.85945],[127.48262,37.85945],[127.48264,37.85958],[127.48257,37.85958]]]}},{"type":"Feature","properties":{"valleyId":"yongchu-gapyeong","layer":"shadow","date":"2026-08-01","timeLocal":"10:00"},"geometry":{"type":"Polygon","coordinates":[[[127.46858,37.85893],[127.46858,37.85884],[127.46853,37.85882],[127.46853,37.85876],[127.46863,37.85877],[127.46863,37.8588],[127.46869,37.85886],[127.46867,37.85893],[127.46858,37.85893]]]}},{"type":"Feature","properties":{"valleyId":"yongchu-gapyeong","layer":"shadow","date":"2026-08-01","timeLocal":"10:00"},"geometry":{"type":"Polygon","coordinates":[[[127.467,37.85819],[127.467,37.85813],[127.46707,37.85813],[127.46707,37.85819],[127.467,37.85819]]]}},{"type":"Feature","properties":{"valleyId":"yongchu-gapyeong","layer":"shadow","date":"2026-08-01","timeLocal":"10:00"},"geometry":{"type":"Polygon","coordinates":[[[127.47075,37.85813],[127.47073,37.85805],[127.4708,37.85806],[127.47082,37.85813],[127.47075,37.85813]]]}},{"type":"Feature","properties":{"valleyId":"yongchu-gapyeong","layer":"shadow","date":"2026-08-01","timeLocal":"10:00"},"geometry":{"type":"Polygon","coordinates":[[[127.46645,37.85757],[127.46645,37.85751],[127.46654,37.85751],[127.46654,37.85757],[127.46645,37.85757]]]}},{"type":"Feature","properties":{"valleyId":"yongchu-gapyeong","layer":"shadow","date":"2026-08-01","timeLocal":"10:00"},"geometry":{"type":"Polygon","coordinates":[[[127.4679,37.85757],[127.46788,37.85746],[127.46797,37.85746],[127.46799,37.85757],[127.4679,37.85757]]]}},{"type":"Feature","properties":{"valleyId":"yongchu-gapyeong","layer":"shadow","date":"2026-08-01","timeLocal":"10:00"},"geometry":{"type":"Polygon","coordinates":[[[127.48281,37.85762],[127.48281,37.85756],[127.48288,37.85756],[127.48288,37.85762],[127.48281,37.85762]]]}},{"type":"Feature","properties":{"valleyId":"yongchu-gapyeong","layer":"shadow","date":"2026-08-01","timeLocal":"10:00"},"geometry":{"type":"Polygon","coordinates":[[[127.4827,37.85754],[127.48261,37.85741],[127.48257,37.85741],[127.48252,37.85729],[127.48259,37.85729],[127.48266,37.8574],[127.48277,37.85749],[127.48277,37.85754],[127.4827,37.85754]]]}},{"type":"Feature","properties":{"valleyId":"yongchu-gapyeong","layer":"shadow","date":"2026-08-01","timeLocal":"10:00"},"geometry":{"type":"Polygon","coordinates":[[[127.48243,37.85727],[127.48243,37.8572],[127.4825,37.8572],[127.48252,37.85727],[127.48243,37.85727]]]}},{"type":"Feature","properties":{"valleyId":"yongchu-gapyeong","layer":"shadow","date":"2026-08-01","timeLocal":"10:00"},"geometry":{"type":"Polygon","coordinates":[[[127.4827,37.85442],[127.4827,37.85437],[127.48277,37.85437],[127.48276,37.85442],[127.4827,37.85442]]]}},{"type":"Feature","properties":{"valleyId":"yongchu-gapyeong","layer":"shadow","date":"2026-08-01","timeLocal":"10:00"},"geometry":{"type":"Polygon","coordinates":[[[127.48295,37.85443],[127.48295,37.85428],[127.4829,37.85428],[127.48284,37.85423],[127.48284,37.85416],[127.48304,37.85416],[127.48309,37.85421],[127.48309,37.85427],[127.48302,37.85432],[127.48301,37.85443],[127.48295,37.85443]]]}},{"type":"Feature","properties":{"valleyId":"yongchu-gapyeong","layer":"shadow","date":"2026-08-01","timeLocal":"10:00"},"geometry":{"type":"Polygon","coordinates":[[[127.48248,37.85375],[127.48249,37.85363],[127.48244,37.85363],[127.4824,37.85357],[127.4824,37.85332],[127.48231,37.85323],[127.48231,37.85318],[127.48238,37.85318],[127.48258,37.85336],[127.4826,37.85363],[127.48255,37.85365],[127.48255,37.85376],[127.48248,37.85375]]]}},{"type":"Feature","properties":{"valleyId":"yongchu-gapyeong","layer":"shadow","date":"2026-08-01","timeLocal":"10:00"},"geometry":{"type":"Polygon","coordinates":[[[127.48198,37.85288],[127.48187,37.85272],[127.48185,37.85254],[127.48192,37.85254],[127.48194,37.8527],[127.48198,37.85274],[127.482,37.85283],[127.48205,37.85283],[127.48205,37.85288],[127.48198,37.85288]]]}},{"type":"Feature","properties":{"valleyId":"yongchu-gapyeong","layer":"shadow","date":"2026-08-01","timeLocal":"10:00"},"geometry":{"type":"Polygon","coordinates":[[[127.48162,37.85248],[127.48162,37.85236],[127.48169,37.85236],[127.48171,37.85248],[127.48162,37.85248]]]}},{"type":"Feature","properties":{"valleyId":"yongchu-gapyeong","layer":"shadow","date":"2026-08-01","timeLocal":"10:00"},"geometry":{"type":"Polygon","coordinates":[[[127.4819,37.85249],[127.4819,37.85236],[127.48197,37.85236],[127.48196,37.85249],[127.4819,37.85249]]]}},{"type":"Feature","properties":{"valleyId":"yongchu-gapyeong","layer":"shadow","date":"2026-08-01","timeLocal":"10:00"},"geometry":{"type":"Polygon","coordinates":[[[127.48177,37.8518],[127.4818,37.8516],[127.48187,37.8516],[127.48184,37.8518],[127.48177,37.8518]]]}},{"type":"Feature","properties":{"valleyId":"yongchu-gapyeong","layer":"shadow","date":"2026-08-01","timeLocal":"10:00"},"geometry":{"type":"Polygon","coordinates":[[[127.48731,37.84801],[127.48731,37.84794],[127.48738,37.84794],[127.48737,37.84801],[127.48731,37.84801]]]}}]}
