{"type":"FeatureCollection","metadata":{"description":"수관 아래(CHM > 2 m) — 시각 무관. 구간 회랑 ±200 m 절단","source":"위성 기반 추정 — Copernicus GLO-30 지형(30 m) + Meta/WRI 수관 높이(1 m CHM, 2016 촬영). 그늘 = 수관(CHM > 2 m) ∪ 나무·지형 그림자 ∪ 원거리 지형 마스크. 현장과 다를 수 있음.","datasetVersion":"2026-09-06.0","collectedAt":"2026-09-06","coordinateOrder":"[longitude, latitude]","crs":"EPSG:4326","representativeDate":"2026-08-01","hours":["10:00","11:00","12:00","13:00","14:00","15:00","16:00","17:00","18:00"],"chmAcquisition":["2016-07","2016-12"],"assets":{"glo30":{"dataset":"Copernicus DEM GLO-30 (COG, s3://copernicus-dem-30m)","tiles":["Copernicus_DSM_COG_10_N37_00_E127_00_DEM","Copernicus_DSM_COG_10_N38_00_E127_00_DEM"]},"chm":{"dataset":"Meta/WRI Global Canopy Height Map v1 (alsgedi_global_v6_float, 1 m, CC-BY 4.0)","quadkeys":["132110303"],"acquisition":["2016-07","2016-12"]}},"method":{"gridResM":2,"canopyThresholdM":2,"bufferHalfM":25,"corridorHalfM":200,"simplifyTolM":2,"minAreaM2":25,"coordDecimals":5},"generator":"scripts/shade 0.1.0","builtAt":"2026-09-06T05:56:45Z","layer":"canopy"},"features":[{"type":"Feature","properties":{"valleyId":"jomurak","layer":"canopy","date":"2026-08-01"},"geometry":{"type":"Polygon","coordinates":[[[127.47106,37.99256],[127.47104,37.99248],[127.47111,37.99249],[127.47113,37.99256],[127.47106,37.99256]]]}},{"type":"Feature","properties":{"valleyId":"jomurak","layer":"canopy","date":"2026-08-01"},"geometry":{"type":"Polygon","coordinates":[[[127.4714,37.99391],[127.47143,37.99368],[127.47159,37.99359],[127.47159,37.99352],[127.4715,37.9935],[127.4715,37.99345],[127.47155,37.99339],[127.47173,37.99343],[127.47177,37.9934],[127.47178,37.99331],[127.47166,37.99321],[127.47157,37.99321],[127.47148,37.9933],[127.47134,37.99328],[127.47135,37.99323],[127.47151,37.99316],[127.47151,37.99309],[127.47144,37.99308],[127.47142,37.99303],[127.47122,37.99287],[127.47122,37.99278],[127.47113,37.9927],[127.47113,37.99259],[127.47143,37.9926],[127.47147,37.99265],[127.47165,37.99267],[127.4717,37.99266],[127.4717,37.99258],[127.47166,37.99258],[127.47166,37.99255],[127.4715,37.99242],[127.47145,37.99242],[127.47145,37.99236],[127.4715,37.99236],[127.47148,37.99227],[127.47127,37.99227],[127.47114,37.99223],[127.47098,37.99211],[127.47091,37.9921],[127.47093,37.99225],[127.47105,37.99225],[127.47105,37.9923],[127.47098,37.9923],[127.47098,37.99238],[127.47089,37.99236],[127.47089,37.99232],[127.4708,37.99227],[127.47082,37.99212],[127.47071,37.99212],[127.47066,37.99208],[127.47066,37.99203],[127.4706,37.99201],[127.4706,37.99169],[127.47054,37.99163],[127.47052,37.9915],[127.4707,37.99152],[127.47074,37.99147],[127.4712,37.99148],[127.4712,37.99141],[127.47129,37.99139],[127.47136,37.99134],[127.47136,37.99128],[127.47146,37.99123],[127.47148,37.99116],[127.47157,37.99114],[127.47162,37.99109],[127.47169,37.99109],[127.47167,37.991],[127.47133,37.9909],[127.47135,37.99076],[127.47151,37.99076],[127.4716,37.99083],[127.4716,37.99089],[127.47169,37.99089],[127.47178,37.99084],[127.47178,37.9908],[127.47185,37.99075],[127.47206,37.9907],[127.4721,37.99077],[127.47219,37.99082],[127.47219,37.99086],[127.47226,37.9909],[127.47237,37.99108],[127.47241,37.9911],[127.47257,37.99137],[127.47257,37.99142],[127.47263,37.9915],[127.47263,37.99155],[127.47268,37.99159],[127.47283,37.99209],[127.47282,37.99251],[127.47267,37.99294],[127.47244,37.99328],[127.47221,37.99326],[127.4721,37.99313],[127.47201,37.99311],[127.47197,37.99293],[127.47185,37.99286],[127.47176,37.99285],[127.47174,37.99307],[127.47185,37.99316],[127.47185,37.99327],[127.47201,37.99327],[127.47209,37.99336],[127.47219,37.99338],[127.47223,37.99349],[127.47202,37.99365],[127.47191,37.99367],[127.4719,37.99372],[127.47186,37.99372],[127.47181,37.99377],[127.47156,37.99386],[127.47154,37.9939],[127.4714,37.99391]]]}},{"type":"Feature","properties":{"valleyId":"jomurak","layer":"canopy","date":"2026-08-01"},"geometry":{"type":"Polygon","coordinates":[[[127.45432,37.98821],[127.45432,37.98816],[127.45439,37.98816],[127.45439,37.98821],[127.45432,37.98821]]]}},{"type":"Feature","properties":{"valleyId":"jomurak","layer":"canopy","date":"2026-08-01"},"geometry":{"type":"Polygon","coordinates":[[[127.45433,37.98799],[127.45433,37.98792],[127.45442,37.98792],[127.45442,37.988],[127.45433,37.98799]]]}},{"type":"Feature","properties":{"valleyId":"jomurak","layer":"canopy","date":"2026-08-01"},"geometry":{"type":"Polygon","coordinates":[[[127.45585,37.98812],[127.45585,37.98803],[127.45592,37.98802],[127.45597,37.98789],[127.45611,37.98787],[127.45617,37.98795],[127.45615,37.98805],[127.45585,37.98812]]]}},{"type":"Feature","properties":{"valleyId":"jomurak","layer":"canopy","date":"2026-08-01"},"geometry":{"type":"Polygon","coordinates":[[[127.4541,37.98785],[127.45411,37.98774],[127.4542,37.98774],[127.4542,37.98783],[127.4541,37.98785]]]}},{"type":"Feature","properties":{"valleyId":"jomurak","layer":"canopy","date":"2026-08-01"},"geometry":{"type":"Polygon","coordinates":[[[127.45445,37.98773],[127.45445,37.98767],[127.45454,37.98767],[127.45454,37.98773],[127.45445,37.98773]]]}},{"type":"Feature","properties":{"valleyId":"jomurak","layer":"canopy","date":"2026-08-01"},"geometry":{"type":"Polygon","coordinates":[[[127.45622,37.98779],[127.45618,37.98775],[127.45618,37.98766],[127.45636,37.98764],[127.45634,37.98779],[127.45622,37.98779]]]}},{"type":"Feature","properties":{"valleyId":"jomurak","layer":"canopy","date":"2026-08-01"},"geometry":{"type":"Polygon","coordinates":[[[127.46794,37.98857],[127.46789,37.98851],[127.46775,37.98851],[127.46773,37.98848],[127.46769,37.98848],[127.46762,37.98833],[127.46753,37.98833],[127.4674,37.98822],[127.4673,37.98822],[127.46728,37.98811],[127.46733,37.98809],[127.46736,37.98798],[127.4674,37.98797],[127.46743,37.98775],[127.46752,37.98757],[127.46764,37.98754],[127.46764,37.9875],[127.46787,37.9875],[127.46796,37.98745],[127.46803,37.98745],[127.46807,37.98744],[127.46812,37.98735],[127.46819,37.98735],[127.46819,37.98738],[127.46841,37.98755],[127.46841,37.98758],[127.46864,37.98777],[127.46863,37.9878],[127.46868,37.98782],[127.46868,37.98789],[127.46781,37.98795],[127.46781,37.98812],[127.46774,37.98819],[127.46774,37.98824],[127.4678,37.98826],[127.46792,37.98839],[127.46814,37.98845],[127.46812,37.98854],[127.46807,37.98853],[127.46805,37.98857],[127.46794,37.98857]]]}},{"type":"Feature","properties":{"valleyId":"jomurak","layer":"canopy","date":"2026-08-01"},"geometry":{"type":"Polygon","coordinates":[[[127.45509,37.98757],[127.45502,37.98752],[127.45468,37.98749],[127.45466,37.98739],[127.45462,37.98735],[127.45462,37.9873],[127.45455,37.98726],[127.45455,37.9872],[127.4546,37.98717],[127.45503,37.98719],[127.45507,37.98721],[127.45507,37.98725],[127.45521,37.98729],[127.45523,37.98738],[127.4553,37.98739],[127.4553,37.98745],[127.45543,37.98745],[127.45541,37.98754],[127.45509,37.98757]]]}},{"type":"Feature","properties":{"valleyId":"jomurak","layer":"canopy","date":"2026-08-01"},"geometry":{"type":"Polygon","coordinates":[[[127.45489,37.98946],[127.45446,37.98938],[127.45378,37.98919],[127.45367,37.98912],[127.45353,37.98908],[127.45344,37.98901],[127.45335,37.98899],[127.45331,37.98894],[127.45326,37.98894],[127.4531,37.98883],[127.4529,37.98879],[127.45258,37.98864],[127.4524,37.98864],[127.4524,37.98855],[127.45234,37.98855],[127.45231,37.9886],[127.45215,37.9886],[127.45211,37.98863],[127.45188,37.98863],[127.45133,37.9885],[127.45066,37.98822],[127.45047,37.98821],[127.45004,37.98828],[127.44943,37.98827],[127.44879,37.98812],[127.44861,37.98805],[127.44852,37.98797],[127.44843,37.98795],[127.44827,37.98782],[127.44823,37.98782],[127.44783,37.98744],[127.44778,37.98733],[127.44774,37.98731],[127.44774,37.98724],[127.44779,37.98724],[127.44779,37.98721],[127.44783,37.98719],[127.44786,37.98694],[127.448,37.98696],[127.44799,37.98706],[127.44811,37.98707],[127.4482,37.98712],[127.44847,37.98714],[127.44854,37.98709],[127.44863,37.98709],[127.4487,37.98702],[127.44897,37.987],[127.44907,37.98695],[127.44907,37.9869],[127.44911,37.98686],[127.44927,37.98681],[127.44939,37.9867],[127.4495,37.98671],[127.44953,37.98674],[127.44959,37.98674],[127.44957,37.98662],[127.44967,37.9866],[127.44969,37.98656],[127.44978,37.98656],[127.44985,37.98658],[127.44985,37.98667],[127.4498,37.98669],[127.4498,37.98684],[127.44987,37.98684],[127.44991,37.98689],[127.45005,37.98687],[127.45007,37.987],[127.45016,37.987],[127.45016,37.98691],[127.45023,37.9869],[127.45073,37.98694],[127.45077,37.98699],[127.45096,37.98698],[127.45093,37.98714],[127.451,37.98714],[127.45104,37.98718],[127.45123,37.98718],[127.45127,37.98722],[127.45141,37.98722],[127.45161,37.98731],[127.45161,37.98735],[127.45165,37.98735],[127.45161,37.98753],[127.45167,37.98754],[127.45179,37.98755],[127.45179,37.98747],[127.45188,37.98742],[127.45188,37.98731],[127.45195,37.98724],[127.45202,37.98724],[127.45209,37.9873],[127.45248,37.98729],[127.45257,37.98736],[127.45275,37.98734],[127.45281,37.9874],[127.45288,37.9874],[127.45295,37.98751],[127.45322,37.98751],[127.45327,37.98753],[127.45327,37.98758],[127.45322,37.98762],[127.45317,37.98776],[127.45326,37.98775],[127.45329,37.98766],[127.45338,37.98766],[127.4534,37.9878],[127.45344,37.98784],[127.45385,37.98788],[127.45385,37.98808],[127.45398,37.9881],[127.45399,37.98804],[127.45403,37.98801],[127.4541,37.98801],[127.45412,37.98808],[127.45405,37.9881],[127.45405,37.98815],[127.4541,37.98817],[127.45416,37.9883],[127.45437,37.98832],[127.45439,37.98827],[127.45444,37.98827],[127.45444,37.98819],[127.45453,37.98816],[127.45456,37.98802],[127.45451,37.98798],[127.45451,37.98792],[127.4546,37.98791],[127.45462,37.98796],[127.45476,37.988],[127.45479,37.98784],[127.45483,37.98782],[127.45492,37.98784],[127.45492,37.98788],[127.45499,37.98793],[127.45499,37.98802],[127.45508,37.98808],[127.45519,37.98808],[127.45524,37.98801],[127.45531,37.98801],[127.45535,37.98794],[127.45542,37.98794],[127.45549,37.98799],[127.45549,37.98808],[127.45542,37.98812],[127.45542,37.98821],[127.45548,37.98826],[127.45564,37.98823],[127.45567,37.98828],[127.4558,37.9883],[127.45583,37.98823],[127.45592,37.98821],[127.45585,37.98837],[127.45569,37.98843],[127.45566,37.98846],[127.45559,37.98846],[127.45559,37.98841],[127.45555,37.98837],[127.45541,37.98833],[127.45541,37.98841],[127.45548,37.98842],[127.45548,37.9885],[127.45552,37.98853],[127.45586,37.98857],[127.45587,37.98847],[127.45589,37.98843],[127.45594,37.98843],[127.45596,37.98834],[127.45601,37.98832],[127.45601,37.98825],[127.45608,37.98825],[127.45607,37.98843],[127.45603,37.98847],[127.45602,37.98858],[127.456,37.98861],[127.45586,37.98859],[127.45586,37.98865],[127.45595,37.98865],[127.45593,37.9889],[127.45586,37.98893],[127.45581,37.98902],[127.45572,37.98904],[127.45572,37.98911],[127.45563,37.98913],[127.45562,37.98918],[127.45569,37.98924],[127.45574,37.98924],[127.45576,37.98933],[127.4558,37.98935],[127.4558,37.98942],[127.45548,37.98947],[127.45489,37.98946]],[[127.45427,37.98844],[127.45436,37.98845],[127.45437,37.98839],[127.45427,37.98839],[127.45427,37.98844]],[[127.45478,37.98836],[127.45487,37.98834],[127.45487,37.98827],[127.45475,37.98829],[127.45478,37.98836]],[[127.4497,37.9882],[127.44979,37.98821],[127.44979,37.98813],[127.44966,37.98811],[127.44966,37.98817],[127.4497,37.9882]],[[127.4519,37.98766],[127.45197,37.98766],[127.45197,37.9876],[127.45192,37.98755],[127.45186,37.98755],[127.4519,37.98766]]]}},{"type":"Feature","properties":{"valleyId":"jomurak","layer":"canopy","date":"2026-08-01"},"geometry":{"type":"Polygon","coordinates":[[[127.45799,37.98624],[127.45794,37.9862],[127.45794,37.98615],[127.4581,37.98619],[127.4581,37.98624],[127.45799,37.98624]]]}},{"type":"Feature","properties":{"valleyId":"jomurak","layer":"canopy","date":"2026-08-01"},"geometry":{"type":"Polygon","coordinates":[[[127.45069,37.98571],[127.4506,37.98567],[127.4506,37.98557],[127.45065,37.98551],[127.45081,37.9855],[127.45089,37.98559],[127.45087,37.98571],[127.45069,37.98571]]]}},{"type":"Feature","properties":{"valleyId":"jomurak","layer":"canopy","date":"2026-08-01"},"geometry":{"type":"Polygon","coordinates":[[[127.47033,37.99406],[127.47003,37.99402],[127.46965,37.99393],[127.46926,37.99376],[127.46922,37.9937],[127.46908,37.99365],[127.46897,37.99354],[127.46893,37.99354],[127.46888,37.99347],[127.46868,37.9933],[127.46868,37.99327],[127.46861,37.99323],[127.46862,37.99303],[127.46855,37.99303],[127.4685,37.99299],[127.46828,37.99299],[127.46816,37.99293],[127.46809,37.99293],[127.46791,37.99286],[127.46789,37.99282],[127.46776,37.99278],[127.46771,37.99273],[127.46758,37.99267],[127.46744,37.99255],[127.4674,37.99255],[127.4674,37.99251],[127.46724,37.9924],[127.46724,37.99236],[127.46711,37.99225],[127.46693,37.99194],[127.46659,37.9919],[127.46618,37.99179],[127.466,37.99172],[127.46591,37.99164],[127.46582,37.99162],[127.46562,37.99146],[127.46557,37.99146],[127.46546,37.99137],[127.46546,37.99133],[127.46533,37.99124],[127.46529,37.99115],[127.46522,37.99111],[127.46506,37.99084],[127.46497,37.99075],[127.46498,37.99068],[127.46518,37.99064],[127.46518,37.9905],[127.46503,37.99048],[127.46493,37.99053],[127.46487,37.99053],[127.46476,37.99024],[127.46476,37.99015],[127.46394,37.99016],[127.46358,37.9901],[127.46291,37.9902],[127.4628,37.9902],[127.46278,37.99016],[127.46271,37.99016],[127.46266,37.99021],[127.462,37.9902],[127.46148,37.99012],[127.46075,37.99008],[127.4603,37.98997],[127.45951,37.98967],[127.45946,37.98961],[127.45933,37.98956],[127.45922,37.98945],[127.45917,37.98945],[127.45915,37.98939],[127.45897,37.98926],[127.45895,37.98921],[127.45881,37.98921],[127.45822,37.98909],[127.45818,37.98905],[127.45788,37.98898],[127.4577,37.98889],[127.45763,37.98888],[127.4575,37.98881],[127.45732,37.98883],[127.4573,37.98875],[127.45723,37.9887],[127.45723,37.98865],[127.45716,37.98863],[127.45716,37.98859],[127.45712,37.98857],[127.45712,37.98848],[127.45719,37.98846],[127.45719,37.98841],[127.45714,37.98839],[127.45715,37.98823],[127.4571,37.98821],[127.45708,37.98803],[127.45704,37.98801],[127.45702,37.98794],[127.45697,37.98794],[127.4569,37.98788],[127.45693,37.98776],[127.45688,37.98772],[127.45687,37.98751],[127.45698,37.98747],[127.45703,37.9874],[127.45721,37.9874],[127.45726,37.98735],[127.45744,37.98733],[127.45753,37.98726],[127.45765,37.98724],[127.45767,37.98717],[127.45763,37.98712],[127.45744,37.98712],[127.45728,37.98715],[127.45703,37.98713],[127.45699,37.98693],[127.45706,37.98686],[127.45718,37.98682],[127.45743,37.98685],[127.4574,37.98697],[127.45747,37.98697],[127.45752,37.9869],[127.45772,37.98689],[127.45773,37.98667],[127.45782,37.98656],[127.45814,37.98658],[127.45814,37.98664],[127.45821,37.98666],[127.4582,37.98677],[127.45827,37.9868],[127.45834,37.98691],[127.4584,37.98691],[127.45843,37.9868],[127.45848,37.98679],[127.45855,37.98664],[127.45855,37.98641],[127.45871,37.98639],[127.45878,37.98645],[127.45898,37.98643],[127.45897,37.98618],[127.45901,37.98618],[127.45906,37.98613],[127.45906,37.98602],[127.45899,37.98593],[127.45898,37.98577],[127.45882,37.98564],[127.45848,37.98562],[127.45848,37.98554],[127.45855,37.98551],[127.45857,37.98544],[127.45869,37.98533],[127.45869,37.9852],[127.45901,37.98528],[127.45901,37.98533],[127.45894,37.98537],[127.45894,37.98542],[127.45889,37.98544],[127.45893,37.98559],[127.459,37.98559],[127.45907,37.98548],[127.45914,37.98546],[127.4591,37.98534],[127.45917,37.98534],[127.45919,37.98537],[127.45932,37.98541],[127.45957,37.98558],[127.46009,37.98558],[127.46096,37.98577],[127.46127,37.9859],[127.46129,37.98594],[127.46148,37.98602],[127.46152,37.98607],[127.46157,37.98607],[127.46188,37.98633],[127.46188,37.98636],[127.46199,37.98644],[127.46208,37.98656],[127.46249,37.98661],[127.46304,37.98647],[127.46372,37.98641],[127.46415,37.98643],[127.46438,37.98647],[127.46452,37.98652],[127.46545,37.98654],[127.46559,37.98656],[127.46561,37.98665],[127.46568,37.98665],[127.46568,37.98659],[127.46636,37.9866],[127.46637,37.98712],[127.46632,37.9872],[127.46607,37.98719],[127.46605,37.98703],[127.46601,37.98701],[127.46601,37.98678],[127.4659,37.98676],[127.46588,37.9867],[127.46572,37.9867],[127.46567,37.98672],[127.46567,37.98677],[127.46574,37.98681],[127.46574,37.98695],[127.46569,37.98708],[127.46557,37.9872],[127.46544,37.98722],[127.46539,37.98718],[127.46532,37.98718],[127.46526,37.98706],[127.46517,37.98702],[127.46496,37.98705],[127.46485,37.98712],[127.46484,37.98718],[127.46493,37.98727],[127.46493,37.98736],[127.46498,37.98739],[127.465,37.9875],[127.46472,37.9875],[127.46463,37.98768],[127.46456,37.98773],[127.46453,37.98782],[127.46442,37.98786],[127.46415,37.98785],[127.46394,37.9879],[127.46362,37.9879],[127.46356,37.98783],[127.46361,37.98758],[127.46356,37.98754],[127.46349,37.98754],[127.46338,37.98757],[127.46337,37.98784],[127.46328,37.98786],[127.46326,37.9879],[127.46301,37.98789],[127.46294,37.98795],[127.46294,37.98802],[127.46312,37.98804],[127.46319,37.98807],[127.46337,37.98808],[127.46337,37.98799],[127.46344,37.98799],[127.4635,37.98817],[127.46371,37.98819],[127.46384,37.9883],[127.46407,37.98839],[127.46429,37.9884],[127.46446,37.98833],[127.46448,37.98825],[127.46473,37.98822],[127.46475,37.98826],[127.46482,37.98826],[127.46487,37.98831],[127.46493,37.98831],[127.46496,37.98835],[127.46505,37.98835],[127.46509,37.98839],[127.46534,37.98839],[127.46543,37.98836],[127.46555,37.98836],[127.46575,37.98843],[127.466,37.98844],[127.46609,37.98851],[127.46609,37.9886],[127.466,37.98865],[127.46597,37.98871],[127.46584,37.98876],[127.46583,37.98885],[127.4659,37.98892],[127.46604,37.98894],[127.4664,37.98882],[127.46656,37.98882],[127.46668,37.98886],[127.46674,37.98891],[127.46674,37.98895],[127.46686,37.98901],[127.46685,37.98906],[127.4669,37.98908],[127.46697,37.98908],[127.46704,37.98903],[127.46722,37.98897],[127.46745,37.98882],[127.46766,37.98878],[127.4678,37.98869],[127.46791,37.98869],[127.46795,37.98873],[127.46811,37.98877],[127.46825,37.98877],[127.46843,37.98872],[127.46853,37.98865],[127.46848,37.9885],[127.46853,37.98849],[127.46858,37.98838],[127.46867,37.98836],[127.4688,37.98845],[127.4688,37.98856],[127.46876,37.98856],[127.46873,37.9886],[127.46871,37.98878],[127.4685,37.98883],[127.4685,37.98899],[127.46854,37.98905],[127.46863,37.98905],[127.46875,37.98898],[127.46895,37.98896],[127.46904,37.98891],[127.46904,37.98887],[127.46918,37.98884],[127.46925,37.98884],[127.46943,37.98895],[127.46968,37.98904],[127.46968,37.98911],[127.46963,37.98911],[127.46961,37.98917],[127.46947,37.98918],[127.4694,37.98926],[127.46926,37.98929],[127.46915,37.98947],[127.46908,37.9895],[127.46912,37.9897],[127.46903,37.98972],[127.46902,37.98984],[127.46923,37.98983],[127.46926,37.98969],[127.4693,37.98969],[127.46935,37.98963],[127.46942,37.98963],[127.46946,37.9896],[127.46946,37.98953],[127.46953,37.98947],[127.46969,37.98948],[127.46967,37.98935],[127.46976,37.98933],[127.46977,37.98919],[127.46981,37.98915],[127.46988,37.98915],[127.46999,37.98924],[127.47004,37.98925],[127.47013,37.98934],[127.47017,37.98934],[127.47051,37.98961],[127.47053,37.98967],[127.47078,37.98974],[127.47082,37.98987],[127.47101,37.98985],[127.47105,37.98991],[127.4711,37.98991],[127.47114,37.98996],[127.47119,37.98996],[127.47123,37.99002],[127.47137,37.99007],[127.47143,37.99015],[127.47148,37.99015],[127.47161,37.99026],[127.47161,37.99031],[127.4715,37.99042],[127.47129,37.99045],[127.47115,37.99056],[127.47104,37.99059],[127.47104,37.99063],[127.47097,37.99066],[127.47096,37.99099],[127.47085,37.99099],[127.47073,37.99102],[127.47071,37.99106],[127.47064,37.99106],[127.47057,37.99113],[127.47054,37.99127],[127.47047,37.99132],[127.46993,37.99135],[127.46993,37.99141],[127.47002,37.99146],[127.47011,37.99146],[127.47017,37.99152],[127.47024,37.99152],[127.47027,37.99148],[127.4704,37.99152],[127.47035,37.99163],[127.47031,37.99163],[127.47028,37.99166],[127.47019,37.99166],[127.47015,37.99172],[127.46999,37.99173],[127.46999,37.99179],[127.47003,37.99186],[127.47008,37.99186],[127.47017,37.99193],[127.4703,37.99195],[127.47037,37.99203],[127.47044,37.99204],[127.47043,37.99213],[127.47034,37.99215],[127.47036,37.99244],[127.47041,37.99244],[127.47043,37.99248],[127.47061,37.99244],[127.47063,37.99257],[127.47072,37.99257],[127.4709,37.99272],[127.4709,37.99297],[127.4706,37.99297],[127.47053,37.99291],[127.47053,37.99287],[127.47044,37.99289],[127.47042,37.993],[127.47037,37.99303],[127.47037,37.99329],[127.47027,37.99334],[127.47024,37.99363],[127.47043,37.99367],[127.47052,37.99352],[127.47057,37.99333],[127.47068,37.99329],[127.47069,37.99318],[127.47083,37.99308],[127.47092,37.99308],[127.47091,37.99313],[127.47096,37.99317],[127.47096,37.99331],[127.47116,37.99333],[127.47127,37.99342],[127.47129,37.9935],[127.47148,37.99346],[127.47148,37.99352],[127.47138,37.99355],[127.47138,37.99361],[127.47122,37.99362],[127.47124,37.99379],[127.47117,37.99389],[127.47113,37.99389],[127.47103,37.994],[127.47074,37.99407],[127.47033,37.99406]],[[127.46828,37.99185],[127.46839,37.99186],[127.46837,37.99157],[127.46831,37.99157],[127.46828,37.99164],[127.46821,37.99167],[127.46821,37.99178],[127.46828,37.99185]],[[127.46966,37.99126],[127.46977,37.99126],[127.46977,37.99122],[127.46986,37.99123],[127.46995,37.99117],[127.46995,37.99112],[127.46986,37.9911],[127.46977,37.99101],[127.46957,37.99093],[127.46953,37.99088],[127.46934,37.99089],[127.46934,37.99095],[127.46941,37.99102],[127.46941,37.99109],[127.4695,37.99111],[127.46952,37.99115],[127.46959,37.99115],[127.46966,37.99126]],[[127.4688,37.99098],[127.46886,37.99098],[127.46889,37.99083],[127.4688,37.99083],[127.4688,37.99098]],[[127.47029,37.99047],[127.47042,37.99048],[127.47047,37.99039],[127.47054,37.99037],[127.47054,37.99032],[127.47043,37.99031],[127.47036,37.99033],[127.47031,37.99038],[127.47022,37.99038],[127.47022,37.99046],[127.47029,37.99047]],[[127.46589,37.9904],[127.46596,37.9904],[127.46599,37.99031],[127.46585,37.99029],[127.4659,37.99009],[127.46588,37.99006],[127.46581,37.99006],[127.46581,37.99024],[127.46567,37.99027],[127.46567,37.99036],[127.46585,37.99036],[127.46589,37.9904]],[[127.46697,37.99018],[127.46706,37.99018],[127.46708,37.99009],[127.46697,37.99009],[127.46697,37.99018]],[[127.46696,37.98966],[127.46702,37.98966],[127.46712,37.9896],[127.46717,37.98937],[127.4671,37.9893],[127.46703,37.9893],[127.46698,37.98948],[127.46694,37.98949],[127.46696,37.98966]],[[127.46675,37.98953],[127.46682,37.98953],[127.46682,37.98947],[127.46671,37.98945],[127.46671,37.98951],[127.46675,37.98953]],[[127.46435,37.98915],[127.46442,37.98915],[127.46442,37.9891],[127.46437,37.98906],[127.46428,37.98906],[127.46428,37.98913],[127.46435,37.98915]],[[127.4578,37.9875],[127.45794,37.9875],[127.45794,37.98745],[127.4578,37.98745],[127.4578,37.9875]],[[127.46005,37.98751],[127.46046,37.9875],[127.46054,37.98739],[127.46054,37.98725],[127.46024,37.98722],[127.46004,37.98733],[127.45985,37.98733],[127.45985,37.98738],[127.45992,37.98744],[127.45999,37.98744],[127.46005,37.98751]],[[127.45796,37.98729],[127.45808,37.98729],[127.45808,37.98721],[127.45799,37.98721],[127.45796,37.98729]],[[127.46328,37.98676],[127.46337,37.98674],[127.46337,37.98665],[127.46331,37.98665],[127.46328,37.98676]]]}},{"type":"Feature","properties":{"valleyId":"jomurak","layer":"canopy","date":"2026-08-01"},"geometry":{"type":"Polygon","coordinates":[[[127.4539,37.98667],[127.45386,37.98662],[127.45386,37.98646],[127.45375,37.98636],[127.45368,37.98636],[127.45352,37.98624],[127.45349,37.98573],[127.45353,37.98569],[127.45354,37.98551],[127.45358,37.9855],[127.45358,37.98546],[127.45368,37.98544],[127.45368,37.98534],[127.4535,37.98526],[127.4535,37.98523],[127.45339,37.98515],[127.45339,37.9851],[127.45371,37.98512],[127.454,37.98518],[127.4542,37.98524],[127.45438,37.98533],[127.45445,37.98533],[127.45456,37.9854],[127.45493,37.98548],[127.45522,37.98561],[127.45531,37.98561],[127.4555,37.9855],[127.45582,37.98538],[127.45673,37.9852],[127.45742,37.98512],[127.45746,37.98517],[127.4576,37.98523],[127.45768,37.98564],[127.45765,37.98586],[127.45779,37.98593],[127.45779,37.98599],[127.45767,37.98613],[127.45756,37.98613],[127.45753,37.98609],[127.45744,37.98607],[127.45729,37.98596],[127.45729,37.98589],[127.45736,37.98587],[127.45736,37.98569],[127.45725,37.9856],[127.45711,37.98562],[127.45713,37.9858],[127.45708,37.98583],[127.45708,37.98601],[127.45715,37.98608],[127.45715,37.98614],[127.4571,37.98621],[127.4571,37.98634],[127.45705,37.98637],[127.45696,37.98637],[127.4568,37.98642],[127.45648,37.9864],[127.45646,37.98636],[127.45639,37.98636],[127.45634,37.98633],[127.4563,37.9862],[127.45612,37.98609],[127.45601,37.98609],[127.45598,37.98614],[127.45589,37.98619],[127.45573,37.98619],[127.4556,37.98615],[127.45557,37.98612],[127.45544,37.98612],[127.45541,37.98615],[127.45535,37.98615],[127.45528,37.9862],[127.45514,37.98624],[127.45514,37.98629],[127.45505,37.98636],[127.45461,37.98645],[127.4545,37.98645],[127.45445,37.98652],[127.45429,37.98655],[127.45424,37.98661],[127.45411,37.98666],[127.4539,37.98667]]]}},{"type":"Feature","properties":{"valleyId":"jomurak","layer":"canopy","date":"2026-08-01"},"geometry":{"type":"Polygon","coordinates":[[[127.44787,37.98629],[127.44758,37.98621],[127.44756,37.98603],[127.44775,37.98565],[127.44795,37.98569],[127.448,37.98573],[127.44809,37.98573],[127.44811,37.98564],[127.4483,37.98557],[127.44835,37.98543],[127.44831,37.98523],[127.44821,37.98523],[127.44819,37.98528],[127.44812,37.98528],[127.44812,37.98523],[127.44819,37.98521],[127.44819,37.98517],[127.44826,37.98512],[127.44831,37.98512],[127.4484,37.98503],[127.44845,37.98503],[127.44849,37.98498],[127.44865,37.98493],[127.44868,37.98489],[127.44925,37.98472],[127.45019,37.98461],[127.45051,37.98459],[127.45049,37.98517],[127.45045,37.9852],[127.45022,37.98518],[127.45018,37.98509],[127.45009,37.98505],[127.45002,37.98495],[127.44984,37.98487],[127.44975,37.98476],[127.44966,37.98476],[127.44966,37.9848],[127.44954,37.9848],[127.4495,37.98483],[127.4495,37.9849],[127.44954,37.9849],[127.44972,37.98507],[127.4497,37.98521],[127.44974,37.98523],[127.44978,37.98536],[127.44992,37.98539],[127.44992,37.98547],[127.45001,37.98549],[127.4501,37.98556],[127.45012,37.98569],[127.45016,37.98569],[127.45023,37.9858],[127.45037,37.98583],[127.45041,37.98591],[127.45041,37.98598],[127.45036,37.98603],[127.45013,37.98601],[127.44991,37.98581],[127.44984,37.98581],[127.44971,37.98573],[127.44962,37.98573],[127.44959,37.98577],[127.44945,37.98582],[127.4495,37.98598],[127.44949,37.98616],[127.44945,37.98622],[127.44938,37.98622],[127.44931,37.98627],[127.44901,37.98628],[127.4489,37.98623],[127.44881,37.98623],[127.44872,37.98617],[127.44838,37.98617],[127.44826,37.98626],[127.44812,37.98625],[127.44808,37.98629],[127.44787,37.98629]]]}},{"type":"Feature","properties":{"valleyId":"jomurak","layer":"canopy","date":"2026-08-01"},"geometry":{"type":"Polygon","coordinates":[[[127.45216,37.98694],[127.45217,37.98687],[127.45171,37.98688],[127.45167,37.98684],[127.45167,37.98679],[127.4516,37.98677],[127.45158,37.98666],[127.45133,37.98664],[127.45128,37.98658],[127.4511,37.98658],[127.45108,37.98655],[127.45087,37.98653],[127.45088,37.98645],[127.45122,37.98648],[127.45122,37.98642],[127.45117,37.9864],[127.45097,37.9864],[127.45088,37.98634],[127.45079,37.98634],[127.45072,37.9864],[127.45056,37.98643],[127.45056,37.98652],[127.45042,37.98656],[127.45042,37.98659],[127.45033,37.98659],[127.45028,37.98655],[127.45017,37.98653],[127.45017,37.98641],[127.45024,37.98639],[127.45024,37.98635],[127.45031,37.98632],[127.45031,37.98621],[127.45036,37.98618],[127.45054,37.98618],[127.45063,37.98614],[127.4507,37.98607],[127.45091,37.98609],[127.45095,37.986],[127.45116,37.98601],[127.45114,37.98577],[127.45107,37.98577],[127.45107,37.9857],[127.45098,37.98566],[127.45099,37.98559],[127.45103,37.98555],[127.45144,37.98554],[127.45144,37.98561],[127.45155,37.98561],[127.45156,37.98543],[127.45151,37.9854],[127.45154,37.98522],[127.45131,37.98523],[127.45118,37.9852],[127.45118,37.98511],[127.45104,37.98507],[127.451,37.98503],[127.451,37.98498],[127.45088,37.98498],[127.45082,37.98492],[127.45082,37.98487],[127.45073,37.98472],[127.4506,37.98465],[127.4506,37.98459],[127.45112,37.9846],[127.45189,37.98472],[127.45205,37.98492],[127.45211,37.98512],[127.45216,37.98514],[127.45213,37.98532],[127.45227,37.98528],[127.45229,37.98519],[127.45238,37.98516],[127.45239,37.98505],[127.45248,37.985],[127.4525,37.98494],[127.45257,37.98494],[127.4528,37.98504],[127.4528,37.98509],[127.45284,37.98511],[127.45284,37.98522],[127.4527,37.98547],[127.45271,37.98568],[127.4526,37.98586],[127.45259,37.98599],[127.45257,37.9861],[127.45252,37.98613],[127.4525,37.98633],[127.45263,37.98637],[127.4527,37.98642],[127.45272,37.98651],[127.45286,37.98657],[127.45288,37.9867],[127.45281,37.98675],[127.45269,37.98677],[127.4526,37.98682],[127.45235,37.98683],[127.45232,37.98689],[127.45228,37.98689],[127.45223,37.98694],[127.45216,37.98694]],[[127.45232,37.98624],[127.45243,37.98624],[127.45245,37.98611],[127.45218,37.98611],[127.45218,37.98616],[127.45223,37.98616],[127.45232,37.98624]],[[127.45125,37.98604],[127.45136,37.98604],[127.45139,37.98597],[127.45134,37.98594],[127.45127,37.98594],[127.45123,37.98597],[127.45125,37.98604]]]}}]}
