{"type":"FeatureCollection","metadata":{"description":"개방지(CHM ≤ 2 m)에 드리운 나무·지형 그림자, 2026-08-01 18:00 KST. canopy 위에 겹쳐 그린다","source":"위성 기반 추정 — Copernicus GLO-30 지형(30 m) + Meta/WRI 수관 높이(1 m CHM, 2016 촬영). 그늘 = 수관(CHM > 2 m) ∪ 나무·지형 그림자 ∪ 원거리 지형 마스크. 현장과 다를 수 있음.","datasetVersion":"2026-09-06.0","collectedAt":"2026-09-06","coordinateOrder":"[longitude, latitude]","crs":"EPSG:4326","representativeDate":"2026-08-01","hours":["10:00","11:00","12:00","13:00","14:00","15:00","16:00","17:00","18:00"],"chmAcquisition":["2016-07","2016-12"],"assets":{"glo30":{"dataset":"Copernicus DEM GLO-30 (COG, s3://copernicus-dem-30m)","tiles":["Copernicus_DSM_COG_10_N37_00_E127_00_DEM","Copernicus_DSM_COG_10_N38_00_E127_00_DEM"]},"chm":{"dataset":"Meta/WRI Global Canopy Height Map v1 (alsgedi_global_v6_float, 1 m, CC-BY 4.0)","quadkeys":["132110303"],"acquisition":["2016-07","2016-12"]}},"method":{"gridResM":2,"canopyThresholdM":2,"bufferHalfM":25,"corridorHalfM":200,"simplifyTolM":2,"minAreaM2":25,"coordDecimals":5},"generator":"scripts/shade 0.1.0","builtAt":"2026-09-06T05:56:45Z","layer":"shadow","timeLocal":"18:00"},"features":[{"type":"Feature","properties":{"valleyId":"jomurak","layer":"shadow","date":"2026-08-01","timeLocal":"18:00"},"geometry":{"type":"Polygon","coordinates":[[[127.47108,37.994],[127.4711,37.99391],[127.47117,37.99389],[127.47124,37.99379],[127.47122,37.99362],[127.47138,37.99361],[127.47138,37.99353],[127.47145,37.99354],[127.47148,37.99348],[127.47155,37.99348],[127.47159,37.99352],[127.47159,37.99359],[127.47143,37.99368],[127.4714,37.9939],[127.47135,37.99389],[127.47131,37.99397],[127.47108,37.994]]]}},{"type":"Feature","properties":{"valleyId":"jomurak","layer":"shadow","date":"2026-08-01","timeLocal":"18:00"},"geometry":{"type":"Polygon","coordinates":[[[127.47221,37.99344],[127.47219,37.99338],[127.47209,37.99336],[127.47201,37.99327],[127.47185,37.99327],[127.47185,37.99316],[127.47174,37.99307],[127.47176,37.99285],[127.4719,37.99287],[127.47199,37.993],[127.47201,37.99311],[127.4721,37.99313],[127.47221,37.99326],[127.47237,37.99328],[127.47234,37.99338],[127.47228,37.99344],[127.47221,37.99344]]]}},{"type":"Feature","properties":{"valleyId":"jomurak","layer":"shadow","date":"2026-08-01","timeLocal":"18:00"},"geometry":{"type":"Polygon","coordinates":[[[127.47033,37.99367],[127.47024,37.99363],[127.47027,37.99334],[127.47037,37.99329],[127.47037,37.99303],[127.47042,37.993],[127.47044,37.99289],[127.47053,37.99287],[127.47053,37.99291],[127.4706,37.99297],[127.47092,37.99295],[127.47088,37.99268],[127.47081,37.99266],[127.47072,37.99257],[127.47063,37.99257],[127.47061,37.99244],[127.47043,37.99248],[127.47034,37.9924],[127.47034,37.99215],[127.47041,37.99215],[127.47044,37.99203],[127.47051,37.99203],[127.47055,37.99217],[127.47064,37.99217],[127.47066,37.99221],[127.47082,37.99227],[127.47091,37.99237],[127.47107,37.99239],[127.47106,37.99256],[127.47113,37.99256],[127.47113,37.9925],[127.47125,37.99251],[127.47127,37.99254],[127.47156,37.99255],[127.47156,37.99265],[127.47147,37.99265],[127.47143,37.9926],[127.47113,37.99259],[127.47113,37.9927],[127.47115,37.99274],[127.4712,37.99274],[127.47122,37.99287],[127.47126,37.99288],[127.47126,37.99292],[127.47142,37.99303],[127.47144,37.99308],[127.47151,37.99309],[127.47151,37.99316],[127.47137,37.99321],[127.47134,37.99328],[127.47148,37.9933],[127.47157,37.99321],[127.47166,37.99321],[127.47178,37.99331],[127.47177,37.9934],[127.47173,37.99343],[127.47155,37.99339],[127.47152,37.99346],[127.47139,37.99346],[127.47139,37.9935],[127.47129,37.9935],[127.47127,37.99342],[127.47116,37.99333],[127.47096,37.99331],[127.47096,37.99317],[127.47091,37.99313],[127.47092,37.99308],[127.47083,37.99308],[127.47069,37.99318],[127.47068,37.99329],[127.47057,37.99333],[127.47052,37.99352],[127.47043,37.99367],[127.47033,37.99367]]]}},{"type":"Feature","properties":{"valleyId":"jomurak","layer":"shadow","date":"2026-08-01","timeLocal":"18:00"},"geometry":{"type":"Polygon","coordinates":[[[127.47035,37.99201],[127.4703,37.99197],[127.4703,37.99188],[127.47037,37.99188],[127.47037,37.99194],[127.47042,37.99195],[127.47041,37.99201],[127.47035,37.99201]]]}},{"type":"Feature","properties":{"valleyId":"jomurak","layer":"shadow","date":"2026-08-01","timeLocal":"18:00"},"geometry":{"type":"Polygon","coordinates":[[[127.46828,37.99185],[127.46821,37.99178],[127.46821,37.99167],[127.46828,37.99164],[127.46831,37.99157],[127.46837,37.99157],[127.46839,37.99186],[127.46828,37.99185]]]}},{"type":"Feature","properties":{"valleyId":"jomurak","layer":"shadow","date":"2026-08-01","timeLocal":"18:00"},"geometry":{"type":"Polygon","coordinates":[[[127.4688,37.99098],[127.4688,37.99089],[127.46887,37.99089],[127.46886,37.99098],[127.4688,37.99098]]]}},{"type":"Feature","properties":{"valleyId":"jomurak","layer":"shadow","date":"2026-08-01","timeLocal":"18:00"},"geometry":{"type":"Polygon","coordinates":[[[127.47096,37.99092],[127.47096,37.99086],[127.47103,37.99086],[127.47103,37.99092],[127.47096,37.99092]]]}},{"type":"Feature","properties":{"valleyId":"jomurak","layer":"shadow","date":"2026-08-01","timeLocal":"18:00"},"geometry":{"type":"Polygon","coordinates":[[[127.46495,37.99068],[127.46495,37.99064],[127.46491,37.99064],[127.46489,37.99053],[127.46503,37.99048],[127.46516,37.99048],[127.46521,37.99052],[127.4652,37.99062],[127.46514,37.99066],[127.46495,37.99068]]]}},{"type":"Feature","properties":{"valleyId":"jomurak","layer":"shadow","date":"2026-08-01","timeLocal":"18:00"},"geometry":{"type":"Polygon","coordinates":[[[127.46697,37.99018],[127.46697,37.99009],[127.46708,37.99009],[127.46708,37.99016],[127.46697,37.99018]]]}},{"type":"Feature","properties":{"valleyId":"jomurak","layer":"shadow","date":"2026-08-01","timeLocal":"18:00"},"geometry":{"type":"Polygon","coordinates":[[[127.46589,37.9904],[127.46585,37.99036],[127.46567,37.99036],[127.46567,37.99027],[127.46578,37.99024],[127.46581,37.99006],[127.46588,37.99006],[127.4659,37.99009],[127.46585,37.99029],[127.46599,37.99031],[127.46596,37.9904],[127.46589,37.9904]]]}},{"type":"Feature","properties":{"valleyId":"jomurak","layer":"shadow","date":"2026-08-01","timeLocal":"18:00"},"geometry":{"type":"Polygon","coordinates":[[[127.46696,37.98966],[127.46694,37.98949],[127.46712,37.98951],[127.46712,37.9896],[127.46702,37.98966],[127.46696,37.98966]]]}},{"type":"Feature","properties":{"valleyId":"jomurak","layer":"shadow","date":"2026-08-01","timeLocal":"18:00"},"geometry":{"type":"Polygon","coordinates":[[[127.46675,37.98953],[127.46671,37.98951],[127.46671,37.98945],[127.46682,37.98947],[127.46682,37.98953],[127.46675,37.98953]]]}},{"type":"Feature","properties":{"valleyId":"jomurak","layer":"shadow","date":"2026-08-01","timeLocal":"18:00"},"geometry":{"type":"Polygon","coordinates":[[[127.4659,37.98892],[127.46588,37.98883],[127.46599,37.98883],[127.46601,37.98892],[127.4659,37.98892]]]}},{"type":"Feature","properties":{"valleyId":"jomurak","layer":"shadow","date":"2026-08-01","timeLocal":"18:00"},"geometry":{"type":"Polygon","coordinates":[[[127.45215,37.98865],[127.45215,37.9886],[127.45231,37.9886],[127.45234,37.98855],[127.4524,37.98855],[127.45238,37.98865],[127.45215,37.98865]]]}},{"type":"Feature","properties":{"valleyId":"jomurak","layer":"shadow","date":"2026-08-01","timeLocal":"18:00"},"geometry":{"type":"Polygon","coordinates":[[[127.45571,37.98857],[127.45573,37.98841],[127.45582,37.98841],[127.45582,37.98857],[127.45571,37.98857]]]}},{"type":"Feature","properties":{"valleyId":"jomurak","layer":"shadow","date":"2026-08-01","timeLocal":"18:00"},"geometry":{"type":"Polygon","coordinates":[[[127.45427,37.98844],[127.45427,37.98839],[127.45434,37.98839],[127.45434,37.98845],[127.45427,37.98844]]]}},{"type":"Feature","properties":{"valleyId":"jomurak","layer":"shadow","date":"2026-08-01","timeLocal":"18:00"},"geometry":{"type":"Polygon","coordinates":[[[127.45552,37.98853],[127.45548,37.9885],[127.45548,37.98842],[127.45541,37.98841],[127.45541,37.98833],[127.45548,37.98833],[127.45555,37.98839],[127.45557,37.98848],[127.45566,37.98848],[127.45566,37.98853],[127.45552,37.98853]]]}},{"type":"Feature","properties":{"valleyId":"jomurak","layer":"shadow","date":"2026-08-01","timeLocal":"18:00"},"geometry":{"type":"Polygon","coordinates":[[[127.45585,37.98837],[127.45585,37.98832],[127.45592,37.98832],[127.45591,37.98838],[127.45585,37.98837]]]}},{"type":"Feature","properties":{"valleyId":"jomurak","layer":"shadow","date":"2026-08-01","timeLocal":"18:00"},"geometry":{"type":"Polygon","coordinates":[[[127.45478,37.98836],[127.45475,37.98829],[127.45485,37.98827],[127.45484,37.98836],[127.45478,37.98836]]]}},{"type":"Feature","properties":{"valleyId":"jomurak","layer":"shadow","date":"2026-08-01","timeLocal":"18:00"},"geometry":{"type":"Polygon","coordinates":[[[127.4497,37.9882],[127.44966,37.98817],[127.44966,37.98811],[127.44979,37.98813],[127.44979,37.98821],[127.4497,37.9882]]]}},{"type":"Feature","properties":{"valleyId":"jomurak","layer":"shadow","date":"2026-08-01","timeLocal":"18:00"},"geometry":{"type":"Polygon","coordinates":[[[127.45571,37.9883],[127.45567,37.98828],[127.45565,37.98819],[127.45576,37.98819],[127.45576,37.98823],[127.4558,37.98823],[127.4558,37.9883],[127.45571,37.9883]]]}},{"type":"Feature","properties":{"valleyId":"jomurak","layer":"shadow","date":"2026-08-01","timeLocal":"18:00"},"geometry":{"type":"Polygon","coordinates":[[[127.45439,37.98819],[127.45439,37.98814],[127.45448,37.98814],[127.45448,37.98819],[127.45439,37.98819]]]}},{"type":"Feature","properties":{"valleyId":"jomurak","layer":"shadow","date":"2026-08-01","timeLocal":"18:00"},"geometry":{"type":"Polygon","coordinates":[[[127.4559,37.98821],[127.4559,37.98812],[127.45594,37.98812],[127.45594,37.98809],[127.45606,37.98809],[127.45606,37.98814],[127.45596,37.98814],[127.45596,37.98821],[127.4559,37.98821]]]}},{"type":"Feature","properties":{"valleyId":"jomurak","layer":"shadow","date":"2026-08-01","timeLocal":"18:00"},"geometry":{"type":"Polygon","coordinates":[[[127.45467,37.98798],[127.45467,37.98794],[127.4546,37.98794],[127.4546,37.98789],[127.45467,37.98789],[127.45467,37.98793],[127.45479,37.98793],[127.45478,37.98798],[127.45467,37.98798]]]}},{"type":"Feature","properties":{"valleyId":"jomurak","layer":"shadow","date":"2026-08-01","timeLocal":"18:00"},"geometry":{"type":"Polygon","coordinates":[[[127.45548,37.98826],[127.45542,37.98821],[127.45542,37.98812],[127.45549,37.98808],[127.45549,37.98799],[127.45542,37.98794],[127.45533,37.98794],[127.45533,37.98786],[127.45565,37.98789],[127.45567,37.9881],[127.45562,37.98814],[127.45562,37.98823],[127.45548,37.98826]]]}},{"type":"Feature","properties":{"valleyId":"jomurak","layer":"shadow","date":"2026-08-01","timeLocal":"18:00"},"geometry":{"type":"Polygon","coordinates":[[[127.45582,37.98938],[127.45576,37.98933],[127.45574,37.98924],[127.45569,37.98924],[127.45562,37.98918],[127.45563,37.98911],[127.45572,37.98911],[127.45572,37.98904],[127.45581,37.98902],[127.45586,37.98893],[127.45593,37.9889],[127.45595,37.9887],[127.45589,37.98868],[127.45586,37.98859],[127.456,37.98861],[127.45602,37.98858],[127.45603,37.98847],[127.45607,37.98843],[127.45605,37.9882],[127.45615,37.9882],[127.45613,37.98805],[127.45617,37.98802],[127.45617,37.98795],[127.45613,37.98793],[127.45613,37.98787],[127.45634,37.98786],[127.45633,37.98815],[127.45622,37.98815],[127.45621,37.9882],[127.45623,37.98836],[127.45632,37.98836],[127.45634,37.98858],[127.45623,37.98858],[127.45623,37.98865],[127.45634,37.98865],[127.45639,37.98872],[127.45645,37.98873],[127.45647,37.98804],[127.45654,37.98804],[127.45654,37.9881],[127.4566,37.9881],[127.45661,37.98802],[127.45697,37.98803],[127.45696,37.98835],[127.45712,37.98841],[127.4571,37.98854],[127.45716,37.98859],[127.45716,37.98863],[127.45723,37.98865],[127.45732,37.98886],[127.45711,37.98899],[127.45706,37.98899],[127.45702,37.98904],[127.45697,37.98904],[127.45695,37.98907],[127.4569,37.98907],[127.45688,37.98911],[127.45656,37.98925],[127.45617,37.98935],[127.45582,37.98938]]]}},{"type":"Feature","properties":{"valleyId":"jomurak","layer":"shadow","date":"2026-08-01","timeLocal":"18:00"},"geometry":{"type":"Polygon","coordinates":[[[127.45606,37.98787],[127.45606,37.98782],[127.45613,37.98782],[127.45613,37.98787],[127.45606,37.98787]]]}},{"type":"Feature","properties":{"valleyId":"jomurak","layer":"shadow","date":"2026-08-01","timeLocal":"18:00"},"geometry":{"type":"Polygon","coordinates":[[[127.45508,37.98808],[127.45499,37.98802],[127.45499,37.98793],[127.45492,37.98788],[127.4549,37.98779],[127.45497,37.98779],[127.45501,37.98786],[127.45522,37.98786],[127.45522,37.98806],[127.45508,37.98808]],[[127.45508,37.98799],[127.45515,37.98799],[127.45515,37.98792],[127.45508,37.98791],[127.45508,37.98799]]]}},{"type":"Feature","properties":{"valleyId":"jomurak","layer":"shadow","date":"2026-08-01","timeLocal":"18:00"},"geometry":{"type":"Polygon","coordinates":[[[127.45317,37.98776],[127.45317,37.98771],[127.45326,37.98769],[127.45326,37.98775],[127.45317,37.98776]]]}},{"type":"Feature","properties":{"valleyId":"jomurak","layer":"shadow","date":"2026-08-01","timeLocal":"18:00"},"geometry":{"type":"Polygon","coordinates":[[[127.45454,37.98774],[127.45456,37.98762],[127.45463,37.98762],[127.45463,37.98766],[127.45468,37.98766],[127.45468,37.98771],[127.45463,37.98771],[127.45463,37.98775],[127.45454,37.98774]]]}},{"type":"Feature","properties":{"valleyId":"jomurak","layer":"shadow","date":"2026-08-01","timeLocal":"18:00"},"geometry":{"type":"Polygon","coordinates":[[[127.45634,37.98782],[127.45636,37.98762],[127.45652,37.98763],[127.45647,37.98781],[127.45634,37.98782]]]}},{"type":"Feature","properties":{"valleyId":"jomurak","layer":"shadow","date":"2026-08-01","timeLocal":"18:00"},"geometry":{"type":"Polygon","coordinates":[[[127.4519,37.98766],[127.4519,37.98762],[127.45185,37.9876],[127.45186,37.98755],[127.45192,37.98755],[127.45197,37.9876],[127.45197,37.98766],[127.4519,37.98766]]]}},{"type":"Feature","properties":{"valleyId":"jomurak","layer":"shadow","date":"2026-08-01","timeLocal":"18:00"},"geometry":{"type":"Polygon","coordinates":[[[127.46337,37.98775],[127.46338,37.98763],[127.46345,37.98763],[127.46344,37.98775],[127.46337,37.98775]]]}},{"type":"Feature","properties":{"valleyId":"jomurak","layer":"shadow","date":"2026-08-01","timeLocal":"18:00"},"geometry":{"type":"Polygon","coordinates":[[[127.46456,37.98782],[127.46456,37.98773],[127.4646,37.98773],[127.46465,37.98759],[127.46472,37.98759],[127.46472,37.98768],[127.46465,37.98781],[127.46456,37.98782]]]}},{"type":"Feature","properties":{"valleyId":"jomurak","layer":"shadow","date":"2026-08-01","timeLocal":"18:00"},"geometry":{"type":"Polygon","coordinates":[[[127.4578,37.9875],[127.4578,37.98745],[127.45789,37.98745],[127.45789,37.9875],[127.4578,37.9875]]]}},{"type":"Feature","properties":{"valleyId":"jomurak","layer":"shadow","date":"2026-08-01","timeLocal":"18:00"},"geometry":{"type":"Polygon","coordinates":[[[127.45257,37.98736],[127.45254,37.98729],[127.45266,37.98729],[127.45266,37.98736],[127.45257,37.98736]]]}},{"type":"Feature","properties":{"valleyId":"jomurak","layer":"shadow","date":"2026-08-01","timeLocal":"18:00"},"geometry":{"type":"Polygon","coordinates":[[[127.45428,37.98832],[127.45416,37.9883],[127.4541,37.98817],[127.45405,37.98815],[127.45405,37.9881],[127.45412,37.98808],[127.4541,37.98801],[127.45401,37.98803],[127.45401,37.98812],[127.45392,37.98812],[127.45383,37.98806],[127.45385,37.98788],[127.45344,37.98784],[127.4534,37.9878],[127.45338,37.98766],[127.45322,37.98767],[127.45327,37.98753],[127.45295,37.98751],[127.45288,37.9874],[127.45275,37.98736],[127.45275,37.98727],[127.45293,37.98729],[127.45295,37.98736],[127.453,37.9874],[127.45309,37.9874],[127.45311,37.98746],[127.45391,37.98745],[127.45391,37.98754],[127.45409,37.98758],[127.4541,37.98785],[127.4542,37.98783],[127.4542,37.98765],[127.45427,37.98765],[127.45427,37.98769],[127.45436,37.98769],[127.45443,37.98771],[127.45442,37.98774],[127.45449,37.98774],[127.45449,37.98805],[127.45442,37.98805],[127.45442,37.98792],[127.45431,37.98792],[127.45426,37.98796],[127.45426,37.98801],[127.45437,37.98801],[127.45437,37.98816],[127.45428,37.98817],[127.45428,37.98823],[127.45437,37.98823],[127.45437,37.98832],[127.45428,37.98832]]]}},{"type":"Feature","properties":{"valleyId":"jomurak","layer":"shadow","date":"2026-08-01","timeLocal":"18:00"},"geometry":{"type":"Polygon","coordinates":[[[127.45329,37.98733],[127.4533,37.98726],[127.45336,37.98726],[127.45336,37.98733],[127.45329,37.98733]]]}},{"type":"Feature","properties":{"valleyId":"jomurak","layer":"shadow","date":"2026-08-01","timeLocal":"18:00"},"geometry":{"type":"Polygon","coordinates":[[[127.45209,37.9873],[127.45207,37.98726],[127.45202,37.98726],[127.45202,37.98721],[127.45223,37.98725],[127.45222,37.9873],[127.45209,37.9873]]]}},{"type":"Feature","properties":{"valleyId":"jomurak","layer":"shadow","date":"2026-08-01","timeLocal":"18:00"},"geometry":{"type":"Polygon","coordinates":[[[127.45796,37.98729],[127.45799,37.98721],[127.45808,37.98721],[127.45808,37.98729],[127.45796,37.98729]]]}},{"type":"Feature","properties":{"valleyId":"jomurak","layer":"shadow","date":"2026-08-01","timeLocal":"18:00"},"geometry":{"type":"Polygon","coordinates":[[[127.45273,37.98707],[127.45273,37.98702],[127.4528,37.98702],[127.4528,37.98707],[127.45273,37.98707]]]}},{"type":"Feature","properties":{"valleyId":"jomurak","layer":"shadow","date":"2026-08-01","timeLocal":"18:00"},"geometry":{"type":"Polygon","coordinates":[[[127.45167,37.98754],[127.45158,37.98753],[127.45158,37.98747],[127.45165,37.98744],[127.45165,37.98735],[127.45161,37.98735],[127.45161,37.98731],[127.45145,37.98724],[127.45134,37.98723],[127.45123,37.98718],[127.45104,37.98718],[127.451,37.98714],[127.45093,37.98714],[127.45096,37.98696],[127.45112,37.98696],[127.45112,37.987],[127.45123,37.987],[127.45127,37.98714],[127.45134,37.98714],[127.45134,37.98707],[127.45143,37.98707],[127.45143,37.98715],[127.45186,37.98715],[127.45188,37.98742],[127.45179,37.98747],[127.45179,37.98755],[127.45167,37.98754]]]}},{"type":"Feature","properties":{"valleyId":"jomurak","layer":"shadow","date":"2026-08-01","timeLocal":"18:00"},"geometry":{"type":"Polygon","coordinates":[[[127.44799,37.98705],[127.448,37.98696],[127.44795,37.98696],[127.44795,37.9869],[127.44807,37.98692],[127.44806,37.98705],[127.44799,37.98705]]]}},{"type":"Feature","properties":{"valleyId":"jomurak","layer":"shadow","date":"2026-08-01","timeLocal":"18:00"},"geometry":{"type":"Polygon","coordinates":[[[127.45175,37.98701],[127.45175,37.98695],[127.45182,37.98695],[127.45182,37.98701],[127.45175,37.98701]]]}},{"type":"Feature","properties":{"valleyId":"jomurak","layer":"shadow","date":"2026-08-01","timeLocal":"18:00"},"geometry":{"type":"Polygon","coordinates":[[[127.45077,37.98699],[127.45073,37.98696],[127.45073,37.9869],[127.45084,37.9869],[127.45084,37.98699],[127.45077,37.98699]]]}},{"type":"Feature","properties":{"valleyId":"jomurak","layer":"shadow","date":"2026-08-01","timeLocal":"18:00"},"geometry":{"type":"Polygon","coordinates":[[[127.45007,37.987],[127.45005,37.98682],[127.45014,37.98682],[127.45014,37.987],[127.45007,37.987]]]}},{"type":"Feature","properties":{"valleyId":"jomurak","layer":"shadow","date":"2026-08-01","timeLocal":"18:00"},"geometry":{"type":"Polygon","coordinates":[[[127.45234,37.98703],[127.45235,37.98696],[127.45225,37.98696],[127.45226,37.9869],[127.45232,37.98689],[127.45233,37.98685],[127.45239,37.98685],[127.45244,37.98703],[127.45234,37.98703]]]}},{"type":"Feature","properties":{"valleyId":"jomurak","layer":"shadow","date":"2026-08-01","timeLocal":"18:00"},"geometry":{"type":"Polygon","coordinates":[[[127.44991,37.98689],[127.44987,37.98684],[127.4498,37.98684],[127.44985,37.98658],[127.44994,37.98658],[127.44989,37.98678],[127.44998,37.9868],[127.44998,37.98689],[127.44991,37.98689]]]}},{"type":"Feature","properties":{"valleyId":"jomurak","layer":"shadow","date":"2026-08-01","timeLocal":"18:00"},"geometry":{"type":"Polygon","coordinates":[[[127.45042,37.98661],[127.45042,37.98656],[127.45049,37.98656],[127.45049,37.98661],[127.45042,37.98661]]]}},{"type":"Feature","properties":{"valleyId":"jomurak","layer":"shadow","date":"2026-08-01","timeLocal":"18:00"},"geometry":{"type":"Polygon","coordinates":[[[127.45825,37.98666],[127.45825,37.9866],[127.45832,37.9866],[127.45832,37.98666],[127.45825,37.98666]]]}},{"type":"Feature","properties":{"valleyId":"jomurak","layer":"shadow","date":"2026-08-01","timeLocal":"18:00"},"geometry":{"type":"Polygon","coordinates":[[[127.46689,37.98735],[127.46671,37.98731],[127.46666,37.98727],[127.46644,37.98727],[127.46644,37.98731],[127.46637,37.9873],[127.46636,37.98669],[127.4664,37.98669],[127.4664,37.98662],[127.46647,37.98662],[127.46649,37.98666],[127.46661,37.98666],[127.4666,37.98707],[127.46667,37.98707],[127.46669,37.987],[127.46676,37.98699],[127.46677,37.9867],[127.46724,37.98681],[127.46723,37.98735],[127.46689,37.98735]]]}},{"type":"Feature","properties":{"valleyId":"jomurak","layer":"shadow","date":"2026-08-01","timeLocal":"18:00"},"geometry":{"type":"Polygon","coordinates":[[[127.45056,37.98654],[127.45056,37.98643],[127.45067,37.98641],[127.45065,37.98654],[127.45056,37.98654]]]}},{"type":"Feature","properties":{"valleyId":"jomurak","layer":"shadow","date":"2026-08-01","timeLocal":"18:00"},"geometry":{"type":"Polygon","coordinates":[[[127.45074,37.98643],[127.45074,37.98636],[127.45081,37.98636],[127.45081,37.98643],[127.45074,37.98643]]]}},{"type":"Feature","properties":{"valleyId":"jomurak","layer":"shadow","date":"2026-08-01","timeLocal":"18:00"},"geometry":{"type":"Polygon","coordinates":[[[127.44831,37.98629],[127.44833,37.98619],[127.44851,37.98617],[127.44851,37.98624],[127.44838,37.98624],[127.44837,37.98629],[127.44831,37.98629]]]}},{"type":"Feature","properties":{"valleyId":"jomurak","layer":"shadow","date":"2026-08-01","timeLocal":"18:00"},"geometry":{"type":"Polygon","coordinates":[[[127.45591,37.98621],[127.45592,37.98616],[127.45598,37.98616],[127.45598,37.98621],[127.45591,37.98621]]]}},{"type":"Feature","properties":{"valleyId":"jomurak","layer":"shadow","date":"2026-08-01","timeLocal":"18:00"},"geometry":{"type":"Polygon","coordinates":[[[127.45598,37.98616],[127.45598,37.98611],[127.45605,37.98611],[127.45605,37.98616],[127.45598,37.98616]]]}},{"type":"Feature","properties":{"valleyId":"jomurak","layer":"shadow","date":"2026-08-01","timeLocal":"18:00"},"geometry":{"type":"Polygon","coordinates":[[[127.44931,37.98636],[127.44931,37.98625],[127.44945,37.98624],[127.44949,37.98616],[127.4495,37.98595],[127.44959,37.98595],[127.44959,37.98588],[127.44945,37.98588],[127.44945,37.98582],[127.44955,37.9858],[127.44955,37.98577],[127.44959,37.98577],[127.44962,37.98573],[127.44968,37.98573],[127.44968,37.98599],[127.44982,37.98601],[127.44981,37.98608],[127.44968,37.98611],[127.44965,37.98627],[127.44951,37.98627],[127.44951,37.98631],[127.44938,37.98631],[127.44938,37.98636],[127.44931,37.98636]]]}},{"type":"Feature","properties":{"valleyId":"jomurak","layer":"shadow","date":"2026-08-01","timeLocal":"18:00"},"geometry":{"type":"Polygon","coordinates":[[[127.4589,37.98611],[127.45891,37.98577],[127.45898,37.98577],[127.45897,37.98593],[127.45902,37.98593],[127.45904,37.98611],[127.4589,37.98611]]]}},{"type":"Feature","properties":{"valleyId":"jomurak","layer":"shadow","date":"2026-08-01","timeLocal":"18:00"},"geometry":{"type":"Polygon","coordinates":[[[127.44789,37.98569],[127.44777,37.98566],[127.4478,37.98558],[127.44791,37.98558],[127.44795,37.98569],[127.44789,37.98569]]]}},{"type":"Feature","properties":{"valleyId":"jomurak","layer":"shadow","date":"2026-08-01","timeLocal":"18:00"},"geometry":{"type":"Polygon","coordinates":[[[127.45768,37.98573],[127.45768,37.98562],[127.45777,37.98562],[127.45779,37.9857],[127.45775,37.98573],[127.45768,37.98573]]]}},{"type":"Feature","properties":{"valleyId":"jomurak","layer":"shadow","date":"2026-08-01","timeLocal":"18:00"},"geometry":{"type":"Polygon","coordinates":[[[127.45686,37.98684],[127.45684,37.98677],[127.45677,37.98676],[127.45677,37.98682],[127.4567,37.98682],[127.4567,37.98676],[127.45663,37.98676],[127.45663,37.98682],[127.45656,37.98682],[127.45653,37.9864],[127.4568,37.98642],[127.45696,37.98637],[127.45705,37.98637],[127.4571,37.98634],[127.4571,37.98621],[127.45715,37.98614],[127.45715,37.98608],[127.45708,37.98601],[127.45708,37.98583],[127.45713,37.9858],[127.45711,37.98562],[127.45725,37.9856],[127.45736,37.98569],[127.45736,37.98587],[127.45729,37.98589],[127.45729,37.98596],[127.45756,37.98613],[127.45772,37.98611],[127.45776,37.98598],[127.45783,37.98599],[127.45783,37.98611],[127.45774,37.98611],[127.45776,37.98622],[127.45769,37.98624],[127.45769,37.98642],[127.45757,37.98641],[127.45757,37.98647],[127.45752,37.98652],[127.45748,37.98652],[127.45748,37.98658],[127.45734,37.98659],[127.45734,37.98668],[127.4572,37.98668],[127.4572,37.98681],[127.45713,37.98681],[127.45713,37.98684],[127.45686,37.98684]]]}},{"type":"Feature","properties":{"valleyId":"jomurak","layer":"shadow","date":"2026-08-01","timeLocal":"18:00"},"geometry":{"type":"Polygon","coordinates":[[[127.45142,37.98561],[127.45142,37.9855],[127.45149,37.98551],[127.45151,37.9856],[127.45142,37.98561]]]}},{"type":"Feature","properties":{"valleyId":"jomurak","layer":"shadow","date":"2026-08-01","timeLocal":"18:00"},"geometry":{"type":"Polygon","coordinates":[[[127.45893,37.98559],[127.45889,37.98551],[127.45894,37.98537],[127.45898,37.98533],[127.45908,37.98534],[127.4591,37.98539],[127.45919,37.98539],[127.45919,37.98544],[127.45907,37.98548],[127.459,37.98559],[127.45893,37.98559]]]}},{"type":"Feature","properties":{"valleyId":"jomurak","layer":"shadow","date":"2026-08-01","timeLocal":"18:00"},"geometry":{"type":"Polygon","coordinates":[[[127.45768,37.98555],[127.4576,37.98523],[127.45746,37.98517],[127.45746,37.98512],[127.45751,37.9851],[127.45771,37.9851],[127.45776,37.98517],[127.45771,37.98528],[127.45775,37.98555],[127.45768,37.98555]]]}},{"type":"Feature","properties":{"valleyId":"jomurak","layer":"shadow","date":"2026-08-01","timeLocal":"18:00"},"geometry":{"type":"Polygon","coordinates":[[[127.45036,37.98607],[127.45037,37.98583],[127.45023,37.9858],[127.45016,37.98569],[127.45012,37.98569],[127.4501,37.98556],[127.45001,37.98549],[127.44992,37.98547],[127.44992,37.98539],[127.44978,37.98536],[127.44976,37.98527],[127.4497,37.98521],[127.44972,37.98507],[127.44954,37.9849],[127.4495,37.9849],[127.4495,37.98483],[127.44954,37.9848],[127.44975,37.98476],[127.44984,37.98487],[127.45002,37.98495],[127.45009,37.98505],[127.45013,37.98506],[127.45026,37.9852],[127.45045,37.9852],[127.45047,37.98517],[127.45054,37.98517],[127.45053,37.98582],[127.45057,37.98582],[127.45057,37.98591],[127.45052,37.98591],[127.4505,37.98605],[127.45036,37.98607]]]}},{"type":"Feature","properties":{"valleyId":"jomurak","layer":"shadow","date":"2026-08-01","timeLocal":"18:00"},"geometry":{"type":"Polygon","coordinates":[[[127.45049,37.9851],[127.45048,37.98474],[127.45051,37.98461],[127.45057,37.98461],[127.45057,37.9847],[127.45062,37.98472],[127.45064,37.98479],[127.45063,37.98494],[127.45056,37.9851],[127.45049,37.9851]]]}}]}
