{"type":"FeatureCollection","metadata":{"description":"개방지(CHM ≤ 2 m)에 드리운 나무·지형 그림자, 2026-08-01 16:00 KST. canopy 위에 겹쳐 그린다","source":"위성 기반 추정 — Copernicus GLO-30 지형(30 m) + Meta/WRI 수관 높이(1 m CHM, 2016 촬영). 그늘 = 수관(CHM > 2 m) ∪ 나무·지형 그림자 ∪ 원거리 지형 마스크. 현장과 다를 수 있음.","datasetVersion":"2026-09-06.0","collectedAt":"2026-09-06","coordinateOrder":"[longitude, latitude]","crs":"EPSG:4326","representativeDate":"2026-08-01","hours":["10:00","11:00","12:00","13:00","14:00","15:00","16:00","17:00","18:00"],"chmAcquisition":["2016-07","2016-12"],"assets":{"glo30":{"dataset":"Copernicus DEM GLO-30 (COG, s3://copernicus-dem-30m)","tiles":["Copernicus_DSM_COG_10_N37_00_E127_00_DEM","Copernicus_DSM_COG_10_N38_00_E127_00_DEM"]},"chm":{"dataset":"Meta/WRI Global Canopy Height Map v1 (alsgedi_global_v6_float, 1 m, CC-BY 4.0)","quadkeys":["132110303"],"acquisition":["2016-07","2016-12"]}},"method":{"gridResM":2,"canopyThresholdM":2,"bufferHalfM":25,"corridorHalfM":200,"simplifyTolM":2,"minAreaM2":25,"coordDecimals":5},"generator":"scripts/shade 0.1.0","builtAt":"2026-09-06T05:56:45Z","layer":"shadow","timeLocal":"16:00"},"features":[{"type":"Feature","properties":{"valleyId":"jomurak","layer":"shadow","date":"2026-08-01","timeLocal":"16:00"},"geometry":{"type":"Polygon","coordinates":[[[127.47027,37.99354],[127.47027,37.99334],[127.47034,37.99334],[127.47034,37.99354],[127.47027,37.99354]]]}},{"type":"Feature","properties":{"valleyId":"jomurak","layer":"shadow","date":"2026-08-01","timeLocal":"16:00"},"geometry":{"type":"Polygon","coordinates":[[[127.46637,37.98714],[127.46637,37.98702],[127.46644,37.98702],[127.46644,37.98714],[127.46637,37.98714]]]}},{"type":"Feature","properties":{"valleyId":"jomurak","layer":"shadow","date":"2026-08-01","timeLocal":"16:00"},"geometry":{"type":"Polygon","coordinates":[[[127.45693,37.9866],[127.45693,37.98655],[127.457,37.98655],[127.457,37.98661],[127.45693,37.9866]]]}},{"type":"Feature","properties":{"valleyId":"jomurak","layer":"shadow","date":"2026-08-01","timeLocal":"16:00"},"geometry":{"type":"Polygon","coordinates":[[[127.4568,37.98646],[127.4568,37.9864],[127.45705,37.98637],[127.4571,37.98634],[127.45715,37.98608],[127.45708,37.98601],[127.45708,37.98583],[127.45717,37.98583],[127.45721,37.98625],[127.45728,37.9863],[127.45728,37.98637],[127.45723,37.98639],[127.45723,37.98643],[127.4568,37.98646]]]}},{"type":"Feature","properties":{"valleyId":"jomurak","layer":"shadow","date":"2026-08-01","timeLocal":"16:00"},"geometry":{"type":"Polygon","coordinates":[[[127.45891,37.98548],[127.45894,37.98537],[127.45903,37.98537],[127.45903,37.98544],[127.45898,37.98548],[127.45891,37.98548]]]}},{"type":"Feature","properties":{"valleyId":"jomurak","layer":"shadow","date":"2026-08-01","timeLocal":"16:00"},"geometry":{"type":"Polygon","coordinates":[[[127.44992,37.98545],[127.44992,37.98539],[127.44987,37.98539],[127.4499,37.98523],[127.45004,37.98523],[127.45003,37.98545],[127.44992,37.98545]]]}},{"type":"Feature","properties":{"valleyId":"jomurak","layer":"shadow","date":"2026-08-01","timeLocal":"16:00"},"geometry":{"type":"Polygon","coordinates":[[[127.44974,37.98527],[127.44974,37.98521],[127.44981,37.98521],[127.44981,37.98527],[127.44974,37.98527]]]}}]}
