{"type":"FeatureCollection","metadata":{"description":"개방지(CHM ≤ 2 m)에 드리운 나무·지형 그림자, 2026-08-01 17:00 KST. canopy 위에 겹쳐 그린다","source":"위성 기반 추정 — Copernicus GLO-30 지형(30 m) + Meta/WRI 수관 높이(1 m CHM, 2016 촬영). 그늘 = 수관(CHM > 2 m) ∪ 나무·지형 그림자 ∪ 원거리 지형 마스크. 현장과 다를 수 있음.","datasetVersion":"2026-09-06.0","collectedAt":"2026-09-06","coordinateOrder":"[longitude, latitude]","crs":"EPSG:4326","representativeDate":"2026-08-01","hours":["10:00","11:00","12:00","13:00","14:00","15:00","16:00","17:00","18:00"],"chmAcquisition":["2016-07","2016-12"],"assets":{"glo30":{"dataset":"Copernicus DEM GLO-30 (COG, s3://copernicus-dem-30m)","tiles":["Copernicus_DSM_COG_10_N37_00_E127_00_DEM","Copernicus_DSM_COG_10_N38_00_E127_00_DEM"]},"chm":{"dataset":"Meta/WRI Global Canopy Height Map v1 (alsgedi_global_v6_float, 1 m, CC-BY 4.0)","quadkeys":["132110303"],"acquisition":["2016-07","2016-12"]}},"method":{"gridResM":2,"canopyThresholdM":2,"bufferHalfM":25,"corridorHalfM":200,"simplifyTolM":2,"minAreaM2":25,"coordDecimals":5},"generator":"scripts/shade 0.1.0","builtAt":"2026-09-06T05:56:45Z","layer":"shadow","timeLocal":"17:00"},"features":[{"type":"Feature","properties":{"valleyId":"jomurak","layer":"shadow","date":"2026-08-01","timeLocal":"17:00"},"geometry":{"type":"Polygon","coordinates":[[[127.47108,37.994],[127.4711,37.99391],[127.47117,37.99389],[127.47124,37.99379],[127.47122,37.99362],[127.47138,37.99361],[127.47138,37.99353],[127.47145,37.99354],[127.47148,37.99348],[127.47155,37.99348],[127.47154,37.99363],[127.4715,37.99363],[127.47143,37.99368],[127.4714,37.9939],[127.47129,37.99389],[127.47119,37.99395],[127.47119,37.994],[127.47108,37.994]]]}},{"type":"Feature","properties":{"valleyId":"jomurak","layer":"shadow","date":"2026-08-01","timeLocal":"17:00"},"geometry":{"type":"Polygon","coordinates":[[[127.47129,37.9935],[127.47127,37.99342],[127.47123,37.99341],[127.47123,37.99335],[127.47155,37.99336],[127.47152,37.99346],[127.47139,37.99346],[127.47139,37.9935],[127.47129,37.9935]]]}},{"type":"Feature","properties":{"valleyId":"jomurak","layer":"shadow","date":"2026-08-01","timeLocal":"17:00"},"geometry":{"type":"Polygon","coordinates":[[[127.47033,37.99367],[127.47024,37.99363],[127.47027,37.99334],[127.47037,37.99329],[127.47037,37.99303],[127.47042,37.993],[127.47044,37.99289],[127.47053,37.99287],[127.47053,37.99291],[127.47058,37.99293],[127.47053,37.99311],[127.47052,37.99352],[127.47043,37.99367],[127.47033,37.99367]]]}},{"type":"Feature","properties":{"valleyId":"jomurak","layer":"shadow","date":"2026-08-01","timeLocal":"17:00"},"geometry":{"type":"Polygon","coordinates":[[[127.47096,37.99331],[127.47096,37.99317],[127.47091,37.99313],[127.47094,37.99297],[127.4709,37.99288],[127.4709,37.99272],[127.47099,37.99272],[127.47097,37.99288],[127.47101,37.99288],[127.47103,37.99299],[127.47108,37.99303],[127.47107,37.99315],[127.47112,37.99315],[127.47112,37.99319],[127.47116,37.99321],[127.47116,37.99326],[127.47105,37.99326],[127.47105,37.99331],[127.47096,37.99331]]]}},{"type":"Feature","properties":{"valleyId":"jomurak","layer":"shadow","date":"2026-08-01","timeLocal":"17:00"},"geometry":{"type":"Polygon","coordinates":[[[127.47061,37.99248],[127.47061,37.99243],[127.47068,37.99243],[127.47068,37.99248],[127.47061,37.99248]]]}},{"type":"Feature","properties":{"valleyId":"jomurak","layer":"shadow","date":"2026-08-01","timeLocal":"17:00"},"geometry":{"type":"Polygon","coordinates":[[[127.46821,37.99178],[127.46821,37.99167],[127.46828,37.99167],[127.46828,37.99178],[127.46821,37.99178]]]}},{"type":"Feature","properties":{"valleyId":"jomurak","layer":"shadow","date":"2026-08-01","timeLocal":"17:00"},"geometry":{"type":"Polygon","coordinates":[[[127.46498,37.99055],[127.46498,37.9905],[127.46505,37.9905],[127.46505,37.99055],[127.46498,37.99055]]]}},{"type":"Feature","properties":{"valleyId":"jomurak","layer":"shadow","date":"2026-08-01","timeLocal":"17:00"},"geometry":{"type":"Polygon","coordinates":[[[127.46697,37.99018],[127.46697,37.99009],[127.46708,37.99009],[127.46708,37.99016],[127.46697,37.99018]]]}},{"type":"Feature","properties":{"valleyId":"jomurak","layer":"shadow","date":"2026-08-01","timeLocal":"17:00"},"geometry":{"type":"Polygon","coordinates":[[[127.45644,37.98925],[127.45647,37.98896],[127.45652,37.98892],[127.45661,37.98893],[127.45661,37.98884],[127.45695,37.98884],[127.45695,37.98907],[127.4569,37.98907],[127.45688,37.98911],[127.45656,37.98925],[127.45644,37.98925]]]}},{"type":"Feature","properties":{"valleyId":"jomurak","layer":"shadow","date":"2026-08-01","timeLocal":"17:00"},"geometry":{"type":"Polygon","coordinates":[[[127.45578,37.98935],[127.45574,37.98924],[127.45569,37.98924],[127.45569,37.98918],[127.45574,37.98918],[127.45572,37.98904],[127.45583,37.98901],[127.45586,37.98893],[127.45593,37.9889],[127.45593,37.98883],[127.45602,37.98883],[127.45602,37.98888],[127.45592,37.98897],[127.45592,37.98904],[127.45585,37.98908],[127.45585,37.98935],[127.45578,37.98935]]]}},{"type":"Feature","properties":{"valleyId":"jomurak","layer":"shadow","date":"2026-08-01","timeLocal":"17:00"},"geometry":{"type":"Polygon","coordinates":[[[127.45383,37.98806],[127.45385,37.98788],[127.45392,37.98788],[127.45392,37.98806],[127.45383,37.98806]]]}},{"type":"Feature","properties":{"valleyId":"jomurak","layer":"shadow","date":"2026-08-01","timeLocal":"17:00"},"geometry":{"type":"Polygon","coordinates":[[[127.4542,37.98779],[127.4542,37.98774],[127.45427,37.98774],[127.45426,37.9878],[127.4542,37.98779]]]}},{"type":"Feature","properties":{"valleyId":"jomurak","layer":"shadow","date":"2026-08-01","timeLocal":"17:00"},"geometry":{"type":"Polygon","coordinates":[[[127.45342,37.98782],[127.4534,37.98768],[127.45347,37.98768],[127.45349,37.98782],[127.45342,37.98782]]]}},{"type":"Feature","properties":{"valleyId":"jomurak","layer":"shadow","date":"2026-08-01","timeLocal":"17:00"},"geometry":{"type":"Polygon","coordinates":[[[127.45454,37.98773],[127.45454,37.98767],[127.45461,37.98767],[127.45461,37.98773],[127.45454,37.98773]]]}},{"type":"Feature","properties":{"valleyId":"jomurak","layer":"shadow","date":"2026-08-01","timeLocal":"17:00"},"geometry":{"type":"Polygon","coordinates":[[[127.45161,37.98751],[127.45161,37.98745],[127.4517,37.98744],[127.4517,37.98751],[127.45161,37.98751]]]}},{"type":"Feature","properties":{"valleyId":"jomurak","layer":"shadow","date":"2026-08-01","timeLocal":"17:00"},"geometry":{"type":"Polygon","coordinates":[[[127.45161,37.98735],[127.45161,37.98731],[127.45154,37.98729],[127.45154,37.98722],[127.45161,37.98722],[127.45163,37.98729],[127.45168,37.98729],[127.45168,37.98735],[127.45161,37.98735]]]}},{"type":"Feature","properties":{"valleyId":"jomurak","layer":"shadow","date":"2026-08-01","timeLocal":"17:00"},"geometry":{"type":"Polygon","coordinates":[[[127.46639,37.98718],[127.4664,37.98662],[127.46647,37.98662],[127.46648,37.98718],[127.46639,37.98718]]]}},{"type":"Feature","properties":{"valleyId":"jomurak","layer":"shadow","date":"2026-08-01","timeLocal":"17:00"},"geometry":{"type":"Polygon","coordinates":[[[127.44931,37.98634],[127.44931,37.98625],[127.44945,37.98622],[127.44944,37.98629],[127.44938,37.98634],[127.44931,37.98634]]]}},{"type":"Feature","properties":{"valleyId":"jomurak","layer":"shadow","date":"2026-08-01","timeLocal":"17:00"},"geometry":{"type":"Polygon","coordinates":[[[127.44831,37.98629],[127.44831,37.9862],[127.4484,37.98619],[127.44837,37.98629],[127.44831,37.98629]]]}},{"type":"Feature","properties":{"valleyId":"jomurak","layer":"shadow","date":"2026-08-01","timeLocal":"17:00"},"geometry":{"type":"Polygon","coordinates":[[[127.44947,37.98624],[127.44949,37.98611],[127.44959,37.98611],[127.44956,37.98624],[127.44947,37.98624]]]}},{"type":"Feature","properties":{"valleyId":"jomurak","layer":"shadow","date":"2026-08-01","timeLocal":"17:00"},"geometry":{"type":"Polygon","coordinates":[[[127.45039,37.98598],[127.45039,37.98585],[127.45046,37.98585],[127.45045,37.98598],[127.45039,37.98598]]]}},{"type":"Feature","properties":{"valleyId":"jomurak","layer":"shadow","date":"2026-08-01","timeLocal":"17:00"},"geometry":{"type":"Polygon","coordinates":[[[127.44961,37.98613],[127.44961,37.98595],[127.44957,37.98588],[127.44957,37.98577],[127.44966,37.98577],[127.44966,37.98593],[127.4497,37.98602],[127.44968,37.98613],[127.44961,37.98613]]]}},{"type":"Feature","properties":{"valleyId":"jomurak","layer":"shadow","date":"2026-08-01","timeLocal":"17:00"},"geometry":{"type":"Polygon","coordinates":[[[127.457,37.98668],[127.457,37.98664],[127.45684,37.9866],[127.45684,37.98641],[127.45705,37.98637],[127.4571,37.98634],[127.45715,37.98608],[127.45708,37.98601],[127.45708,37.98583],[127.45713,37.9858],[127.45713,37.98572],[127.45722,37.98573],[127.45722,37.9858],[127.45729,37.98587],[127.45729,37.98596],[127.45735,37.986],[127.45735,37.98611],[127.45742,37.98611],[127.45742,37.98621],[127.45749,37.98622],[127.45748,37.98627],[127.45734,37.98641],[127.45734,37.98668],[127.457,37.98668]]]}},{"type":"Feature","properties":{"valleyId":"jomurak","layer":"shadow","date":"2026-08-01","timeLocal":"17:00"},"geometry":{"type":"Polygon","coordinates":[[[127.44782,37.98567],[127.4478,37.98558],[127.44787,37.98558],[127.44789,37.98567],[127.44782,37.98567]]]}},{"type":"Feature","properties":{"valleyId":"jomurak","layer":"shadow","date":"2026-08-01","timeLocal":"17:00"},"geometry":{"type":"Polygon","coordinates":[[[127.45711,37.98567],[127.45711,37.98562],[127.45718,37.98562],[127.45718,37.98567],[127.45711,37.98567]]]}},{"type":"Feature","properties":{"valleyId":"jomurak","layer":"shadow","date":"2026-08-01","timeLocal":"17:00"},"geometry":{"type":"Polygon","coordinates":[[[127.45893,37.98559],[127.45894,37.98537],[127.45898,37.98533],[127.45908,37.98534],[127.4591,37.98539],[127.45919,37.98539],[127.45919,37.98544],[127.45905,37.98544],[127.45905,37.98555],[127.459,37.98559],[127.45893,37.98559]]]}},{"type":"Feature","properties":{"valleyId":"jomurak","layer":"shadow","date":"2026-08-01","timeLocal":"17:00"},"geometry":{"type":"Polygon","coordinates":[[[127.4576,37.98528],[127.4576,37.98523],[127.45767,37.98523],[127.45766,37.98528],[127.4576,37.98528]]]}},{"type":"Feature","properties":{"valleyId":"jomurak","layer":"shadow","date":"2026-08-01","timeLocal":"17:00"},"geometry":{"type":"Polygon","coordinates":[[[127.45746,37.98517],[127.45746,37.98512],[127.45753,37.98512],[127.45753,37.98517],[127.45746,37.98517]]]}},{"type":"Feature","properties":{"valleyId":"jomurak","layer":"shadow","date":"2026-08-01","timeLocal":"17:00"},"geometry":{"type":"Polygon","coordinates":[[[127.45027,37.98581],[127.45016,37.98572],[127.45016,37.98569],[127.45012,37.98569],[127.4501,37.98556],[127.45001,37.98549],[127.44992,37.98547],[127.44992,37.98539],[127.44978,37.98536],[127.44976,37.98527],[127.4497,37.98521],[127.44972,37.98507],[127.44965,37.98503],[127.44961,37.98494],[127.44956,37.98494],[127.44957,37.98489],[127.4497,37.98492],[127.4497,37.98487],[127.44977,37.98487],[127.44979,37.98496],[127.44986,37.98496],[127.44986,37.98502],[127.44997,37.98504],[127.45004,37.98509],[127.45001,37.98522],[127.4502,37.98524],[127.45019,37.98551],[127.45026,37.98556],[127.4503,37.98556],[127.45037,37.98573],[127.45037,37.98582],[127.45027,37.98581]]]}},{"type":"Feature","properties":{"valleyId":"jomurak","layer":"shadow","date":"2026-08-01","timeLocal":"17:00"},"geometry":{"type":"Polygon","coordinates":[[[127.4505,37.98508],[127.45048,37.98474],[127.45055,37.98474],[127.45056,37.98508],[127.4505,37.98508]]]}}]}
