{"type":"FeatureCollection","metadata":{"description":"개방지(CHM ≤ 2 m)에 드리운 나무·지형 그림자, 2026-08-01 18:00 KST. canopy 위에 겹쳐 그린다","source":"위성 기반 추정 — Copernicus GLO-30 지형(30 m) + Meta/WRI 수관 높이(1 m CHM, 2019 촬영). 그늘 = 수관(CHM > 2 m) ∪ 나무·지형 그림자 ∪ 원거리 지형 마스크. 현장과 다를 수 있음.","datasetVersion":"2026-09-06.0","collectedAt":"2026-09-06","coordinateOrder":"[longitude, latitude]","crs":"EPSG:4326","representativeDate":"2026-08-01","hours":["10:00","11:00","12:00","13:00","14:00","15:00","16:00","17:00","18:00"],"chmAcquisition":["2019-03"],"assets":{"glo30":{"dataset":"Copernicus DEM GLO-30 (COG, s3://copernicus-dem-30m)","tiles":["Copernicus_DSM_COG_10_N37_00_E127_00_DEM"]},"chm":{"dataset":"Meta/WRI Global Canopy Height Map v1 (alsgedi_global_v6_float, 1 m, CC-BY 4.0)","quadkeys":["132110303"],"acquisition":["2019-03"]}},"method":{"gridResM":2,"canopyThresholdM":2,"bufferHalfM":25,"corridorHalfM":200,"simplifyTolM":2,"minAreaM2":25,"coordDecimals":5},"generator":"scripts/shade 0.1.0","builtAt":"2026-09-06T06:02:45Z","layer":"shadow","timeLocal":"18:00"},"features":[{"type":"Feature","properties":{"valleyId":"chungnyeongsan","layer":"shadow","date":"2026-08-01","timeLocal":"18:00"},"geometry":{"type":"Polygon","coordinates":[[[127.30775,37.75665],[127.30764,37.75658],[127.30764,37.75649],[127.30778,37.75649],[127.30787,37.75658],[127.30784,37.75666],[127.30775,37.75665]]]}},{"type":"Feature","properties":{"valleyId":"chungnyeongsan","layer":"shadow","date":"2026-08-01","timeLocal":"18:00"},"geometry":{"type":"Polygon","coordinates":[[[127.3049,37.75614],[127.3049,37.75607],[127.30497,37.75607],[127.30497,37.75615],[127.3049,37.75614]]]}},{"type":"Feature","properties":{"valleyId":"chungnyeongsan","layer":"shadow","date":"2026-08-01","timeLocal":"18:00"},"geometry":{"type":"Polygon","coordinates":[[[127.30765,37.75611],[127.30765,37.75597],[127.3077,37.75591],[127.30777,37.75592],[127.30777,37.75599],[127.30781,37.75599],[127.30781,37.75604],[127.30772,37.75611],[127.30765,37.75611]]]}},{"type":"Feature","properties":{"valleyId":"chungnyeongsan","layer":"shadow","date":"2026-08-01","timeLocal":"18:00"},"geometry":{"type":"Polygon","coordinates":[[[127.3047,37.756],[127.30464,37.75589],[127.30464,37.7558],[127.30473,37.7558],[127.30473,37.75587],[127.30482,37.75589],[127.30482,37.75596],[127.30477,37.756],[127.3047,37.756]]]}},{"type":"Feature","properties":{"valleyId":"chungnyeongsan","layer":"shadow","date":"2026-08-01","timeLocal":"18:00"},"geometry":{"type":"Polygon","coordinates":[[[127.31573,37.75621],[127.31573,37.75617],[127.31566,37.75612],[127.31532,37.7561],[127.31526,37.75602],[127.31526,37.75597],[127.3153,37.75597],[127.31537,37.75588],[127.31544,37.75588],[127.31544,37.75595],[127.31551,37.75595],[127.31558,37.75601],[127.31571,37.75601],[127.31571,37.75607],[127.31578,37.75608],[127.3158,37.75616],[127.3158,37.75621],[127.31573,37.75621]]]}},{"type":"Feature","properties":{"valleyId":"chungnyeongsan","layer":"shadow","date":"2026-08-01","timeLocal":"18:00"},"geometry":{"type":"Polygon","coordinates":[[[127.3074,37.75593],[127.30741,37.75566],[127.3075,37.75566],[127.3075,37.7557],[127.30755,37.7557],[127.30755,37.75573],[127.30759,37.75575],[127.30759,37.75582],[127.30752,37.75586],[127.30747,37.75593],[127.3074,37.75593]]]}},{"type":"Feature","properties":{"valleyId":"chungnyeongsan","layer":"shadow","date":"2026-08-01","timeLocal":"18:00"},"geometry":{"type":"Polygon","coordinates":[[[127.30455,37.75569],[127.30455,37.7556],[127.30462,37.7556],[127.30462,37.75569],[127.30455,37.75569]]]}},{"type":"Feature","properties":{"valleyId":"chungnyeongsan","layer":"shadow","date":"2026-08-01","timeLocal":"18:00"},"geometry":{"type":"Polygon","coordinates":[[[127.31542,37.75586],[127.3154,37.75574],[127.31547,37.75574],[127.31547,37.75577],[127.31551,37.75577],[127.31551,37.75583],[127.31549,37.75586],[127.31542,37.75586]]]}},{"type":"Feature","properties":{"valleyId":"chungnyeongsan","layer":"shadow","date":"2026-08-01","timeLocal":"18:00"},"geometry":{"type":"Polygon","coordinates":[[[127.30868,37.75569],[127.30866,37.75562],[127.30873,37.75562],[127.30875,37.75569],[127.30868,37.75569]]]}},{"type":"Feature","properties":{"valleyId":"chungnyeongsan","layer":"shadow","date":"2026-08-01","timeLocal":"18:00"},"geometry":{"type":"Polygon","coordinates":[[[127.30721,37.75546],[127.30721,37.75531],[127.30728,37.75531],[127.30733,37.75535],[127.30733,37.75542],[127.30728,37.75546],[127.30721,37.75546]]]}},{"type":"Feature","properties":{"valleyId":"chungnyeongsan","layer":"shadow","date":"2026-08-01","timeLocal":"18:00"},"geometry":{"type":"Polygon","coordinates":[[[127.30823,37.7554],[127.30823,37.75536],[127.30819,37.75536],[127.30819,37.75531],[127.30826,37.75531],[127.30826,37.75535],[127.3083,37.75535],[127.3083,37.7554],[127.30823,37.7554]]]}},{"type":"Feature","properties":{"valleyId":"chungnyeongsan","layer":"shadow","date":"2026-08-01","timeLocal":"18:00"},"geometry":{"type":"Polygon","coordinates":[[[127.3088,37.75526],[127.30881,37.75521],[127.30887,37.75521],[127.30887,37.75526],[127.3088,37.75526]]]}},{"type":"Feature","properties":{"valleyId":"chungnyeongsan","layer":"shadow","date":"2026-08-01","timeLocal":"18:00"},"geometry":{"type":"Polygon","coordinates":[[[127.3044,37.75533],[127.30438,37.75513],[127.30454,37.75513],[127.30454,37.7552],[127.30461,37.75524],[127.3046,37.75533],[127.3044,37.75533]]]}},{"type":"Feature","properties":{"valleyId":"chungnyeongsan","layer":"shadow","date":"2026-08-01","timeLocal":"18:00"},"geometry":{"type":"Polygon","coordinates":[[[127.30724,37.75522],[127.30724,37.75508],[127.30731,37.75508],[127.30733,37.75522],[127.30724,37.75522]]]}},{"type":"Feature","properties":{"valleyId":"chungnyeongsan","layer":"shadow","date":"2026-08-01","timeLocal":"18:00"},"geometry":{"type":"Polygon","coordinates":[[[127.31469,37.75589],[127.31467,37.75574],[127.31463,37.75567],[127.31452,37.7556],[127.31448,37.75542],[127.31439,37.75536],[127.31439,37.75531],[127.31434,37.75531],[127.31428,37.75514],[127.31435,37.75514],[127.31441,37.7552],[127.31441,37.75531],[127.31446,37.75531],[127.31457,37.7554],[127.31457,37.75545],[127.31461,37.75547],[127.31461,37.75551],[127.31466,37.75551],[127.31468,37.75562],[127.31474,37.75562],[127.31474,37.75567],[127.31479,37.75567],[127.31481,37.75575],[127.31488,37.75575],[127.31488,37.75585],[127.31481,37.75589],[127.31469,37.75589]]]}},{"type":"Feature","properties":{"valleyId":"chungnyeongsan","layer":"shadow","date":"2026-08-01","timeLocal":"18:00"},"geometry":{"type":"Polygon","coordinates":[[[127.3138,37.7553],[127.3138,37.75521],[127.31373,37.75514],[127.31355,37.75515],[127.31349,37.75504],[127.31344,37.75504],[127.31344,37.7549],[127.31356,37.7549],[127.31362,37.75497],[127.3138,37.75503],[127.31389,37.75514],[127.31396,37.75514],[127.31403,37.75519],[127.31403,37.75525],[127.31398,37.75528],[127.3138,37.7553]]]}},{"type":"Feature","properties":{"valleyId":"chungnyeongsan","layer":"shadow","date":"2026-08-01","timeLocal":"18:00"},"geometry":{"type":"Polygon","coordinates":[[[127.3067,37.7548],[127.30664,37.75473],[127.30662,37.7546],[127.30671,37.7546],[127.30671,37.75467],[127.30675,37.75469],[127.30677,37.7548],[127.3067,37.7548]]]}},{"type":"Feature","properties":{"valleyId":"chungnyeongsan","layer":"shadow","date":"2026-08-01","timeLocal":"18:00"},"geometry":{"type":"Polygon","coordinates":[[[127.30943,37.75475],[127.30934,37.75471],[127.30934,37.75464],[127.30941,37.75464],[127.3095,37.7547],[127.3095,37.75475],[127.30943,37.75475]]]}},{"type":"Feature","properties":{"valleyId":"chungnyeongsan","layer":"shadow","date":"2026-08-01","timeLocal":"18:00"},"geometry":{"type":"Polygon","coordinates":[[[127.31266,37.75463],[127.31266,37.75458],[127.31279,37.75458],[127.31279,37.75464],[127.31266,37.75463]]]}},{"type":"Feature","properties":{"valleyId":"chungnyeongsan","layer":"shadow","date":"2026-08-01","timeLocal":"18:00"},"geometry":{"type":"Polygon","coordinates":[[[127.31324,37.75491],[127.31317,37.75488],[127.31306,37.75487],[127.31306,37.75484],[127.31301,37.75482],[127.31302,37.75475],[127.31311,37.75466],[127.31311,37.75455],[127.31327,37.75457],[127.31327,37.75464],[127.3132,37.7547],[127.31315,37.75469],[127.31315,37.75475],[127.31324,37.75477],[127.31333,37.75484],[127.31333,37.75491],[127.31324,37.75491]]]}},{"type":"Feature","properties":{"valleyId":"chungnyeongsan","layer":"shadow","date":"2026-08-01","timeLocal":"18:00"},"geometry":{"type":"Polygon","coordinates":[[[127.30609,37.75595],[127.30604,37.75589],[127.30586,37.75589],[127.30582,37.75585],[127.30582,37.75572],[127.30578,37.75565],[127.30569,37.7556],[127.30569,37.75551],[127.30576,37.75544],[127.30576,37.75531],[127.30572,37.75525],[127.3056,37.75524],[127.30556,37.75518],[127.30559,37.75493],[127.3055,37.75486],[127.30553,37.75462],[127.30548,37.75462],[127.30548,37.75458],[127.30535,37.75451],[127.30535,37.75444],[127.30544,37.75444],[127.30544,37.75449],[127.30548,37.75449],[127.30553,37.75455],[127.3056,37.75455],[127.3056,37.75459],[127.30566,37.75464],[127.30564,37.75486],[127.30573,37.75488],[127.30572,37.75515],[127.30576,37.75518],[127.30592,37.7552],[127.30592,37.75547],[127.30594,37.75551],[127.30598,37.75551],[127.306,37.7556],[127.30612,37.7556],[127.30612,37.75573],[127.30605,37.75573],[127.30605,37.75578],[127.30614,37.7558],[127.30616,37.75584],[127.30641,37.75588],[127.30641,37.75595],[127.30609,37.75595]]]}},{"type":"Feature","properties":{"valleyId":"chungnyeongsan","layer":"shadow","date":"2026-08-01","timeLocal":"18:00"},"geometry":{"type":"Polygon","coordinates":[[[127.31307,37.75453],[127.31307,37.75448],[127.31314,37.75448],[127.31313,37.75453],[127.31307,37.75453]]]}},{"type":"Feature","properties":{"valleyId":"chungnyeongsan","layer":"shadow","date":"2026-08-01","timeLocal":"18:00"},"geometry":{"type":"Polygon","coordinates":[[[127.30655,37.75451],[127.30655,37.75447],[127.30648,37.75445],[127.30649,37.75436],[127.30658,37.75437],[127.3066,37.7544],[127.30662,37.75451],[127.30655,37.75451]]]}},{"type":"Feature","properties":{"valleyId":"chungnyeongsan","layer":"shadow","date":"2026-08-01","timeLocal":"18:00"},"geometry":{"type":"Polygon","coordinates":[[[127.31246,37.7544],[127.31244,37.75431],[127.3125,37.75431],[127.31252,37.7544],[127.31246,37.7544]]]}},{"type":"Feature","properties":{"valleyId":"chungnyeongsan","layer":"shadow","date":"2026-08-01","timeLocal":"18:00"},"geometry":{"type":"Polygon","coordinates":[[[127.30454,37.75513],[127.30457,37.75484],[127.30452,37.75479],[127.30448,37.75479],[127.30448,37.75473],[127.30455,37.75472],[127.30462,37.75461],[127.30462,37.75446],[127.30467,37.75441],[127.3047,37.75428],[127.30474,37.75427],[127.30477,37.75414],[127.30488,37.75413],[127.30488,37.75425],[127.30497,37.75425],[127.30511,37.75415],[127.30524,37.75413],[127.30524,37.75418],[127.30531,37.7542],[127.30531,37.75433],[127.30526,37.75435],[127.3053,37.75446],[127.3051,37.75447],[127.30503,37.7544],[127.30492,37.7544],[127.30487,37.75443],[127.30487,37.7545],[127.30476,37.75456],[127.30475,37.7547],[127.30494,37.75467],[127.305,37.75472],[127.30495,37.7549],[127.30493,37.75494],[127.30482,37.75497],[127.30475,37.75502],[127.30475,37.75506],[127.3047,37.75506],[127.3047,37.75511],[127.30454,37.75513]]]}},{"type":"Feature","properties":{"valleyId":"chungnyeongsan","layer":"shadow","date":"2026-08-01","timeLocal":"18:00"},"geometry":{"type":"Polygon","coordinates":[[[127.31314,37.75446],[127.31314,37.75435],[127.31309,37.75433],[127.3131,37.75426],[127.31328,37.75426],[127.31325,37.75444],[127.31314,37.75446]]]}},{"type":"Feature","properties":{"valleyId":"chungnyeongsan","layer":"shadow","date":"2026-08-01","timeLocal":"18:00"},"geometry":{"type":"Polygon","coordinates":[[[127.31266,37.75438],[127.31267,37.75418],[127.31282,37.7542],[127.31282,37.75426],[127.31273,37.75429],[127.31273,37.75438],[127.31266,37.75438]]]}},{"type":"Feature","properties":{"valleyId":"chungnyeongsan","layer":"shadow","date":"2026-08-01","timeLocal":"18:00"},"geometry":{"type":"Polygon","coordinates":[[[127.31188,37.75459],[127.31186,37.75455],[127.31175,37.75455],[127.31168,37.75448],[127.31164,37.75447],[127.31153,37.75435],[127.31135,37.75429],[127.31133,37.75415],[127.31142,37.75415],[127.31146,37.7542],[127.31158,37.75422],[127.31157,37.75426],[127.31162,37.75426],[127.31164,37.75429],[127.31173,37.7543],[127.3118,37.7544],[127.31198,37.75443],[127.31198,37.75446],[127.31205,37.75448],[127.31204,37.75453],[127.312,37.75459],[127.31188,37.75459]]]}},{"type":"Feature","properties":{"valleyId":"chungnyeongsan","layer":"shadow","date":"2026-08-01","timeLocal":"18:00"},"geometry":{"type":"Polygon","coordinates":[[[127.30669,37.75435],[127.30669,37.75428],[127.30665,37.75424],[127.30665,37.75406],[127.30674,37.75408],[127.30681,37.75428],[127.30678,37.75435],[127.30669,37.75435]]]}},{"type":"Feature","properties":{"valleyId":"chungnyeongsan","layer":"shadow","date":"2026-08-01","timeLocal":"18:00"},"geometry":{"type":"Polygon","coordinates":[[[127.30432,37.75493],[127.30423,37.7548],[127.30409,37.75476],[127.30403,37.75458],[127.30401,37.75438],[127.30374,37.75418],[127.30375,37.75413],[127.30366,37.75409],[127.30366,37.75402],[127.30377,37.75402],[127.3039,37.75417],[127.30406,37.75419],[127.30412,37.75449],[127.30417,37.75453],[127.30414,37.75464],[127.30435,37.75468],[127.30434,37.75471],[127.30439,37.75473],[127.30439,37.75493],[127.30432,37.75493]]]}},{"type":"Feature","properties":{"valleyId":"chungnyeongsan","layer":"shadow","date":"2026-08-01","timeLocal":"18:00"},"geometry":{"type":"Polygon","coordinates":[[[127.31246,37.7542],[127.31246,37.75414],[127.31255,37.75415],[127.31255,37.7542],[127.31246,37.7542]]]}},{"type":"Feature","properties":{"valleyId":"chungnyeongsan","layer":"shadow","date":"2026-08-01","timeLocal":"18:00"},"geometry":{"type":"Polygon","coordinates":[[[127.31446,37.75421],[127.31446,37.75414],[127.31453,37.75414],[127.31453,37.75421],[127.31446,37.75421]]]}},{"type":"Feature","properties":{"valleyId":"chungnyeongsan","layer":"shadow","date":"2026-08-01","timeLocal":"18:00"},"geometry":{"type":"Polygon","coordinates":[[[127.30461,37.75401],[127.30461,37.75396],[127.30468,37.75396],[127.30468,37.75401],[127.30461,37.75401]]]}},{"type":"Feature","properties":{"valleyId":"chungnyeongsan","layer":"shadow","date":"2026-08-01","timeLocal":"18:00"},"geometry":{"type":"Polygon","coordinates":[[[127.31101,37.75418],[127.3109,37.75414],[127.31085,37.75403],[127.31101,37.75403],[127.31101,37.75409],[127.31106,37.75412],[127.31115,37.75413],[127.31114,37.75418],[127.31101,37.75418]]]}},{"type":"Feature","properties":{"valleyId":"chungnyeongsan","layer":"shadow","date":"2026-08-01","timeLocal":"18:00"},"geometry":{"type":"Polygon","coordinates":[[[127.31373,37.75413],[127.31374,37.75407],[127.3138,37.75407],[127.3138,37.75413],[127.31373,37.75413]]]}},{"type":"Feature","properties":{"valleyId":"chungnyeongsan","layer":"shadow","date":"2026-08-01","timeLocal":"18:00"},"geometry":{"type":"Polygon","coordinates":[[[127.31378,37.75405],[127.31378,37.754],[127.31387,37.754],[127.31387,37.75406],[127.31378,37.75405]]]}},{"type":"Feature","properties":{"valleyId":"chungnyeongsan","layer":"shadow","date":"2026-08-01","timeLocal":"18:00"},"geometry":{"type":"Polygon","coordinates":[[[127.305,37.754],[127.305,37.75396],[127.30495,37.75395],[127.30498,37.75384],[127.30532,37.75386],[127.30532,37.75397],[127.30509,37.75397],[127.30506,37.754],[127.305,37.754]]]}},{"type":"Feature","properties":{"valleyId":"chungnyeongsan","layer":"shadow","date":"2026-08-01","timeLocal":"18:00"},"geometry":{"type":"Polygon","coordinates":[[[127.30638,37.75416],[127.30636,37.75411],[127.30627,37.75411],[127.30622,37.75407],[127.30622,37.75396],[127.30613,37.75391],[127.30614,37.75384],[127.3062,37.75384],[127.3062,37.75387],[127.30632,37.75389],[127.30634,37.75395],[127.30638,37.75395],[127.30638,37.75404],[127.30645,37.75406],[127.30645,37.75417],[127.30638,37.75416]]]}},{"type":"Feature","properties":{"valleyId":"chungnyeongsan","layer":"shadow","date":"2026-08-01","timeLocal":"18:00"},"geometry":{"type":"Polygon","coordinates":[[[127.31328,37.75399],[127.31328,37.75394],[127.31338,37.75394],[127.31337,37.75399],[127.31328,37.75399]]]}},{"type":"Feature","properties":{"valleyId":"chungnyeongsan","layer":"shadow","date":"2026-08-01","timeLocal":"18:00"},"geometry":{"type":"Polygon","coordinates":[[[127.30566,37.75387],[127.30566,37.75381],[127.30577,37.75381],[127.30577,37.75387],[127.30566,37.75387]]]}},{"type":"Feature","properties":{"valleyId":"chungnyeongsan","layer":"shadow","date":"2026-08-01","timeLocal":"18:00"},"geometry":{"type":"Polygon","coordinates":[[[127.31204,37.7539],[127.31204,37.75385],[127.31211,37.75385],[127.3121,37.7539],[127.31204,37.7539]]]}},{"type":"Feature","properties":{"valleyId":"chungnyeongsan","layer":"shadow","date":"2026-08-01","timeLocal":"18:00"},"geometry":{"type":"Polygon","coordinates":[[[127.30639,37.75384],[127.30639,37.75373],[127.30646,37.75373],[127.30645,37.75384],[127.30639,37.75384]]]}},{"type":"Feature","properties":{"valleyId":"chungnyeongsan","layer":"shadow","date":"2026-08-01","timeLocal":"18:00"},"geometry":{"type":"Polygon","coordinates":[[[127.31358,37.75391],[127.31358,37.75384],[127.31367,37.75384],[127.31367,37.75391],[127.31358,37.75391]]]}},{"type":"Feature","properties":{"valleyId":"chungnyeongsan","layer":"shadow","date":"2026-08-01","timeLocal":"18:00"},"geometry":{"type":"Polygon","coordinates":[[[127.31154,37.75384],[127.31154,37.75379],[127.31161,37.75379],[127.31161,37.75384],[127.31154,37.75384]]]}},{"type":"Feature","properties":{"valleyId":"chungnyeongsan","layer":"shadow","date":"2026-08-01","timeLocal":"18:00"},"geometry":{"type":"Polygon","coordinates":[[[127.31093,37.75383],[127.31093,37.75376],[127.311,37.75376],[127.31099,37.75383],[127.31093,37.75383]]]}},{"type":"Feature","properties":{"valleyId":"chungnyeongsan","layer":"shadow","date":"2026-08-01","timeLocal":"18:00"},"geometry":{"type":"Polygon","coordinates":[[[127.3129,37.75383],[127.3129,37.75377],[127.31297,37.75377],[127.31297,37.75383],[127.3129,37.75383]]]}},{"type":"Feature","properties":{"valleyId":"chungnyeongsan","layer":"shadow","date":"2026-08-01","timeLocal":"18:00"},"geometry":{"type":"Polygon","coordinates":[[[127.30487,37.75376],[127.30482,37.75373],[127.30482,37.75366],[127.30494,37.75355],[127.30498,37.75355],[127.30503,37.7535],[127.3051,37.7535],[127.3051,37.75357],[127.305,37.75373],[127.30496,37.75377],[127.30487,37.75376]]]}},{"type":"Feature","properties":{"valleyId":"chungnyeongsan","layer":"shadow","date":"2026-08-01","timeLocal":"18:00"},"geometry":{"type":"Polygon","coordinates":[[[127.30605,37.75349],[127.30605,37.75344],[127.30612,37.75344],[127.30612,37.75349],[127.30605,37.75349]]]}},{"type":"Feature","properties":{"valleyId":"chungnyeongsan","layer":"shadow","date":"2026-08-01","timeLocal":"18:00"},"geometry":{"type":"Polygon","coordinates":[[[127.3144,37.75401],[127.3144,37.75378],[127.31433,37.75367],[127.31422,37.75366],[127.31418,37.75356],[127.31434,37.75358],[127.31436,37.75365],[127.31445,37.75367],[127.31449,37.75372],[127.31453,37.7539],[127.31449,37.75399],[127.3144,37.75401]]]}},{"type":"Feature","properties":{"valleyId":"chungnyeongsan","layer":"shadow","date":"2026-08-01","timeLocal":"18:00"},"geometry":{"type":"Polygon","coordinates":[[[127.31048,37.75343],[127.31046,37.75336],[127.31053,37.75336],[127.31055,37.75343],[127.31048,37.75343]]]}},{"type":"Feature","properties":{"valleyId":"chungnyeongsan","layer":"shadow","date":"2026-08-01","timeLocal":"18:00"},"geometry":{"type":"Polygon","coordinates":[[[127.30959,37.75345],[127.30958,37.75333],[127.30964,37.75333],[127.30969,37.75338],[127.30969,37.75346],[127.30959,37.75345]]]}},{"type":"Feature","properties":{"valleyId":"chungnyeongsan","layer":"shadow","date":"2026-08-01","timeLocal":"18:00"},"geometry":{"type":"Polygon","coordinates":[[[127.31295,37.75345],[127.31293,37.75341],[127.31282,37.75337],[127.31282,37.75332],[127.31294,37.75332],[127.313,37.75339],[127.31305,37.7534],[127.31305,37.75345],[127.31295,37.75345]]]}},{"type":"Feature","properties":{"valleyId":"chungnyeongsan","layer":"shadow","date":"2026-08-01","timeLocal":"18:00"},"geometry":{"type":"Polygon","coordinates":[[[127.31157,37.75343],[127.31157,37.75337],[127.3116,37.75334],[127.31166,37.75334],[127.31166,37.75329],[127.31178,37.75331],[127.31178,37.7534],[127.31157,37.75343]]]}},{"type":"Feature","properties":{"valleyId":"chungnyeongsan","layer":"shadow","date":"2026-08-01","timeLocal":"18:00"},"geometry":{"type":"Polygon","coordinates":[[[127.30908,37.75334],[127.30912,37.75321],[127.30931,37.75322],[127.3093,37.75329],[127.30937,37.75329],[127.30937,37.75334],[127.30908,37.75334]]]}},{"type":"Feature","properties":{"valleyId":"chungnyeongsan","layer":"shadow","date":"2026-08-01","timeLocal":"18:00"},"geometry":{"type":"Polygon","coordinates":[[[127.30712,37.75342],[127.30708,37.75329],[127.30703,37.75329],[127.30703,37.75324],[127.30708,37.75324],[127.30708,37.75315],[127.30717,37.75315],[127.30715,37.75326],[127.30722,37.75328],[127.30721,37.7534],[127.30712,37.75342]]]}},{"type":"Feature","properties":{"valleyId":"chungnyeongsan","layer":"shadow","date":"2026-08-01","timeLocal":"18:00"},"geometry":{"type":"Polygon","coordinates":[[[127.30688,37.75318],[127.30688,37.75311],[127.30695,37.75311],[127.30695,37.75318],[127.30688,37.75318]]]}},{"type":"Feature","properties":{"valleyId":"chungnyeongsan","layer":"shadow","date":"2026-08-01","timeLocal":"18:00"},"geometry":{"type":"Polygon","coordinates":[[[127.3076,37.75319],[127.3076,37.75312],[127.30767,37.75312],[127.30767,37.75319],[127.3076,37.75319]]]}},{"type":"Feature","properties":{"valleyId":"chungnyeongsan","layer":"shadow","date":"2026-08-01","timeLocal":"18:00"},"geometry":{"type":"Polygon","coordinates":[[[127.30543,37.75383],[127.30548,37.75363],[127.30544,37.75357],[127.30542,37.75341],[127.30535,37.75339],[127.30524,37.75328],[127.30527,37.75305],[127.30536,37.75305],[127.30538,37.7533],[127.30542,37.75336],[127.30555,37.75341],[127.30553,37.75358],[127.30557,37.75361],[127.30557,37.75367],[127.30562,37.75369],[127.30561,37.75383],[127.30543,37.75383]]]}},{"type":"Feature","properties":{"valleyId":"chungnyeongsan","layer":"shadow","date":"2026-08-01","timeLocal":"18:00"},"geometry":{"type":"Polygon","coordinates":[[[127.31396,37.7531],[127.31396,37.75301],[127.31405,37.75301],[127.31403,37.7531],[127.31396,37.7531]]]}},{"type":"Feature","properties":{"valleyId":"chungnyeongsan","layer":"shadow","date":"2026-08-01","timeLocal":"18:00"},"geometry":{"type":"Polygon","coordinates":[[[127.31303,37.75305],[127.31303,37.75296],[127.31312,37.75296],[127.31312,37.75304],[127.31303,37.75305]]]}},{"type":"Feature","properties":{"valleyId":"chungnyeongsan","layer":"shadow","date":"2026-08-01","timeLocal":"18:00"},"geometry":{"type":"Polygon","coordinates":[[[127.31056,37.75311],[127.31051,37.75293],[127.3107,37.75295],[127.31067,37.75309],[127.31056,37.75311]]]}},{"type":"Feature","properties":{"valleyId":"chungnyeongsan","layer":"shadow","date":"2026-08-01","timeLocal":"18:00"},"geometry":{"type":"Polygon","coordinates":[[[127.30809,37.75291],[127.30809,37.75284],[127.30816,37.75284],[127.30815,37.75291],[127.30809,37.75291]]]}},{"type":"Feature","properties":{"valleyId":"chungnyeongsan","layer":"shadow","date":"2026-08-01","timeLocal":"18:00"},"geometry":{"type":"Polygon","coordinates":[[[127.30619,37.75324],[127.3062,37.75313],[127.30613,37.7531],[127.30611,37.75294],[127.30623,37.75277],[127.3063,37.75278],[127.30625,37.75297],[127.30629,37.75324],[127.30619,37.75324]]]}},{"type":"Feature","properties":{"valleyId":"chungnyeongsan","layer":"shadow","date":"2026-08-01","timeLocal":"18:00"},"geometry":{"type":"Polygon","coordinates":[[[127.30358,37.75328],[127.30347,37.75311],[127.30336,37.75311],[127.3033,37.75293],[127.30321,37.75289],[127.30316,37.75284],[127.30319,37.75275],[127.30346,37.75273],[127.30366,37.75281],[127.30368,37.75294],[127.30364,37.75295],[127.30361,37.7531],[127.30365,37.75328],[127.30358,37.75328]]]}},{"type":"Feature","properties":{"valleyId":"chungnyeongsan","layer":"shadow","date":"2026-08-01","timeLocal":"18:00"},"geometry":{"type":"Polygon","coordinates":[[[127.30459,37.7529],[127.30457,37.75282],[127.30452,37.7528],[127.30453,37.75273],[127.30489,37.75277],[127.30484,37.75288],[127.30459,37.7529]]]}},{"type":"Feature","properties":{"valleyId":"chungnyeongsan","layer":"shadow","date":"2026-08-01","timeLocal":"18:00"},"geometry":{"type":"Polygon","coordinates":[[[127.3136,37.7529],[127.3136,37.75283],[127.3137,37.75283],[127.31369,37.75288],[127.3136,37.7529]]]}},{"type":"Feature","properties":{"valleyId":"chungnyeongsan","layer":"shadow","date":"2026-08-01","timeLocal":"18:00"},"geometry":{"type":"Polygon","coordinates":[[[127.30423,37.75276],[127.30421,37.75269],[127.30446,37.7527],[127.30446,37.75275],[127.30423,37.75276]]]}},{"type":"Feature","properties":{"valleyId":"chungnyeongsan","layer":"shadow","date":"2026-08-01","timeLocal":"18:00"},"geometry":{"type":"Polygon","coordinates":[[[127.30779,37.75283],[127.30773,37.7528],[127.30773,37.75274],[127.30791,37.75278],[127.30791,37.75283],[127.30779,37.75283]]]}},{"type":"Feature","properties":{"valleyId":"chungnyeongsan","layer":"shadow","date":"2026-08-01","timeLocal":"18:00"},"geometry":{"type":"Polygon","coordinates":[[[127.31329,37.75282],[127.31329,37.75275],[127.31336,37.75275],[127.31338,37.75282],[127.31329,37.75282]]]}},{"type":"Feature","properties":{"valleyId":"chungnyeongsan","layer":"shadow","date":"2026-08-01","timeLocal":"18:00"},"geometry":{"type":"Polygon","coordinates":[[[127.30625,37.75276],[127.30623,37.75258],[127.30635,37.75258],[127.30634,37.75274],[127.30625,37.75276]]]}},{"type":"Feature","properties":{"valleyId":"chungnyeongsan","layer":"shadow","date":"2026-08-01","timeLocal":"18:00"},"geometry":{"type":"Polygon","coordinates":[[[127.30324,37.75253],[127.30324,37.75244],[127.30331,37.75244],[127.3033,37.75253],[127.30324,37.75253]]]}},{"type":"Feature","properties":{"valleyId":"chungnyeongsan","layer":"shadow","date":"2026-08-01","timeLocal":"18:00"},"geometry":{"type":"Polygon","coordinates":[[[127.31045,37.75284],[127.31043,37.75269],[127.31025,37.75254],[127.31025,37.75249],[127.31032,37.75249],[127.31039,37.75256],[127.31048,37.75258],[127.31052,37.75284],[127.31045,37.75284]]]}},{"type":"Feature","properties":{"valleyId":"chungnyeongsan","layer":"shadow","date":"2026-08-01","timeLocal":"18:00"},"geometry":{"type":"Polygon","coordinates":[[[127.30739,37.7527],[127.30741,37.7525],[127.30748,37.75243],[127.30758,37.75243],[127.30757,37.75249],[127.30766,37.75253],[127.30764,37.75265],[127.30752,37.75267],[127.30748,37.7527],[127.30739,37.7527]]]}},{"type":"Feature","properties":{"valleyId":"chungnyeongsan","layer":"shadow","date":"2026-08-01","timeLocal":"18:00"},"geometry":{"type":"Polygon","coordinates":[[[127.30714,37.75248],[127.30714,37.75241],[127.30724,37.75241],[127.30723,37.75248],[127.30714,37.75248]]]}},{"type":"Feature","properties":{"valleyId":"chungnyeongsan","layer":"shadow","date":"2026-08-01","timeLocal":"18:00"},"geometry":{"type":"Polygon","coordinates":[[[127.30703,37.75244],[127.30703,37.75239],[127.3071,37.75239],[127.3071,37.75244],[127.30703,37.75244]]]}},{"type":"Feature","properties":{"valleyId":"chungnyeongsan","layer":"shadow","date":"2026-08-01","timeLocal":"18:00"},"geometry":{"type":"Polygon","coordinates":[[[127.30753,37.75242],[127.30754,37.75214],[127.30763,37.75215],[127.30764,37.75236],[127.3076,37.75238],[127.3076,37.75242],[127.30753,37.75242]]]}},{"type":"Feature","properties":{"valleyId":"chungnyeongsan","layer":"shadow","date":"2026-08-01","timeLocal":"18:00"},"geometry":{"type":"Polygon","coordinates":[[[127.30736,37.75209],[127.30738,37.75196],[127.30749,37.75196],[127.30745,37.75209],[127.30736,37.75209]]]}},{"type":"Feature","properties":{"valleyId":"chungnyeongsan","layer":"shadow","date":"2026-08-01","timeLocal":"18:00"},"geometry":{"type":"Polygon","coordinates":[[[127.30417,37.75226],[127.30411,37.7522],[127.30413,37.75199],[127.30405,37.75193],[127.30405,37.75188],[127.3043,37.75192],[127.30433,37.75217],[127.30429,37.75219],[127.30426,37.75226],[127.30417,37.75226]]]}},{"type":"Feature","properties":{"valleyId":"chungnyeongsan","layer":"shadow","date":"2026-08-01","timeLocal":"18:00"},"geometry":{"type":"Polygon","coordinates":[[[127.30761,37.75184],[127.30761,37.75179],[127.30768,37.75179],[127.30768,37.75184],[127.30761,37.75184]]]}},{"type":"Feature","properties":{"valleyId":"chungnyeongsan","layer":"shadow","date":"2026-08-01","timeLocal":"18:00"},"geometry":{"type":"Polygon","coordinates":[[[127.30788,37.75193],[127.30789,37.75177],[127.30798,37.75177],[127.30795,37.75193],[127.30788,37.75193]]]}},{"type":"Feature","properties":{"valleyId":"chungnyeongsan","layer":"shadow","date":"2026-08-01","timeLocal":"18:00"},"geometry":{"type":"Polygon","coordinates":[[[127.30682,37.75177],[127.30682,37.75168],[127.30693,37.7517],[127.30693,37.75178],[127.30682,37.75177]]]}},{"type":"Feature","properties":{"valleyId":"chungnyeongsan","layer":"shadow","date":"2026-08-01","timeLocal":"18:00"},"geometry":{"type":"Polygon","coordinates":[[[127.30727,37.75182],[127.3073,37.75167],[127.30739,37.75167],[127.30741,37.7518],[127.30727,37.75182]]]}},{"type":"Feature","properties":{"valleyId":"chungnyeongsan","layer":"shadow","date":"2026-08-01","timeLocal":"18:00"},"geometry":{"type":"Polygon","coordinates":[[[127.30782,37.75164],[127.30782,37.75155],[127.30789,37.75156],[127.30789,37.75165],[127.30782,37.75164]]]}},{"type":"Feature","properties":{"valleyId":"chungnyeongsan","layer":"shadow","date":"2026-08-01","timeLocal":"18:00"},"geometry":{"type":"Polygon","coordinates":[[[127.30605,37.75147],[127.30601,37.75146],[127.30601,37.7514],[127.30612,37.75142],[127.30612,37.75148],[127.30605,37.75147]]]}},{"type":"Feature","properties":{"valleyId":"chungnyeongsan","layer":"shadow","date":"2026-08-01","timeLocal":"18:00"},"geometry":{"type":"Polygon","coordinates":[[[127.30666,37.75163],[127.30666,37.75154],[127.30658,37.75145],[127.30658,37.75137],[127.30665,37.75137],[127.30664,37.75141],[127.30671,37.75147],[127.30678,37.75147],[127.30675,37.75163],[127.30666,37.75163]]]}},{"type":"Feature","properties":{"valleyId":"chungnyeongsan","layer":"shadow","date":"2026-08-01","timeLocal":"18:00"},"geometry":{"type":"Polygon","coordinates":[[[127.30501,37.75141],[127.30501,37.75132],[127.30519,37.7513],[127.30522,37.75139],[127.30501,37.75141]]]}},{"type":"Feature","properties":{"valleyId":"chungnyeongsan","layer":"shadow","date":"2026-08-01","timeLocal":"18:00"},"geometry":{"type":"Polygon","coordinates":[[[127.30564,37.75275],[127.30557,37.75271],[127.30557,37.75257],[127.30562,37.75253],[127.30565,37.75239],[127.30572,37.75233],[127.30572,37.75223],[127.30579,37.75219],[127.30579,37.75199],[127.30593,37.75185],[127.30593,37.75174],[127.30607,37.75175],[127.30612,37.75171],[127.30617,37.75144],[127.30628,37.75144],[127.30633,37.7513],[127.30647,37.75128],[127.30647,37.75123],[127.30642,37.75123],[127.30642,37.75114],[127.30638,37.7511],[127.30631,37.7511],[127.30631,37.75105],[127.30636,37.75101],[127.30645,37.75101],[127.30647,37.75114],[127.30651,37.75114],[127.30654,37.75121],[127.30658,37.75121],[127.30658,37.75128],[127.30649,37.7513],[127.30649,37.75135],[127.3064,37.75135],[127.30635,37.75148],[127.30639,37.75148],[127.30646,37.75155],[127.30643,37.75171],[127.30646,37.75175],[127.3065,37.75175],[127.3065,37.75197],[127.30636,37.752],[127.30636,37.75207],[127.30624,37.75216],[127.30624,37.7522],[127.3062,37.7522],[127.30619,37.75223],[127.30603,37.75232],[127.30601,37.75241],[127.30592,37.75245],[127.30591,37.75263],[127.30571,37.75262],[127.30573,37.75273],[127.30564,37.75275]]]}},{"type":"Feature","properties":{"valleyId":"chungnyeongsan","layer":"shadow","date":"2026-08-01","timeLocal":"18:00"},"geometry":{"type":"Polygon","coordinates":[[[127.30676,37.75132],[127.30676,37.75127],[127.30685,37.75123],[127.30688,37.75096],[127.30691,37.75093],[127.30697,37.75093],[127.30694,37.7512],[127.30692,37.75123],[127.30688,37.75123],[127.30685,37.75132],[127.30676,37.75132]]]}},{"type":"Feature","properties":{"valleyId":"chungnyeongsan","layer":"shadow","date":"2026-08-01","timeLocal":"18:00"},"geometry":{"type":"Polygon","coordinates":[[[127.30695,37.75091],[127.30695,37.75086],[127.30702,37.75086],[127.30702,37.75091],[127.30695,37.75091]]]}},{"type":"Feature","properties":{"valleyId":"chungnyeongsan","layer":"shadow","date":"2026-08-01","timeLocal":"18:00"},"geometry":{"type":"Polygon","coordinates":[[[127.30781,37.75091],[127.30782,37.75085],[127.30788,37.75085],[127.30788,37.75091],[127.30781,37.75091]]]}},{"type":"Feature","properties":{"valleyId":"chungnyeongsan","layer":"shadow","date":"2026-08-01","timeLocal":"18:00"},"geometry":{"type":"Polygon","coordinates":[[[127.30661,37.75085],[127.30661,37.75078],[127.30668,37.75078],[127.3067,37.75085],[127.30661,37.75085]]]}},{"type":"Feature","properties":{"valleyId":"chungnyeongsan","layer":"shadow","date":"2026-08-01","timeLocal":"18:00"},"geometry":{"type":"Polygon","coordinates":[[[127.3075,37.75085],[127.3075,37.75079],[127.30757,37.75079],[127.30757,37.75085],[127.3075,37.75085]]]}},{"type":"Feature","properties":{"valleyId":"chungnyeongsan","layer":"shadow","date":"2026-08-01","timeLocal":"18:00"},"geometry":{"type":"Polygon","coordinates":[[[127.30616,37.75088],[127.30616,37.75081],[127.30611,37.75079],[127.30612,37.75074],[127.30618,37.75074],[127.30625,37.75079],[127.30625,37.75088],[127.30616,37.75088]]]}},{"type":"Feature","properties":{"valleyId":"chungnyeongsan","layer":"shadow","date":"2026-08-01","timeLocal":"18:00"},"geometry":{"type":"Polygon","coordinates":[[[127.30503,37.75173],[127.30496,37.75168],[127.30491,37.75167],[127.30492,37.75153],[127.30526,37.75154],[127.30526,37.75136],[127.30537,37.75136],[127.30538,37.75127],[127.30527,37.75117],[127.30516,37.75096],[127.30507,37.75094],[127.30498,37.75085],[127.30496,37.75077],[127.30485,37.7507],[127.30485,37.75065],[127.30501,37.75065],[127.305,37.75068],[127.30514,37.75069],[127.30516,37.75072],[127.3055,37.75073],[127.30551,37.75058],[127.30571,37.75059],[127.30573,37.75069],[127.30568,37.75075],[127.30568,37.75082],[127.30598,37.75084],[127.30607,37.75095],[127.30606,37.75111],[127.30611,37.75113],[127.3061,37.75126],[127.30599,37.75128],[127.30599,37.75131],[127.30594,37.75133],[127.30594,37.75144],[127.30589,37.75145],[127.30593,37.75171],[127.30587,37.75171],[127.30587,37.75162],[127.3058,37.75162],[127.30532,37.75168],[127.30525,37.75173],[127.30503,37.75173]]]}},{"type":"Feature","properties":{"valleyId":"chungnyeongsan","layer":"shadow","date":"2026-08-01","timeLocal":"18:00"},"geometry":{"type":"Polygon","coordinates":[[[127.30655,37.75076],[127.30646,37.75072],[127.30639,37.75054],[127.30653,37.75054],[127.30657,37.7506],[127.30662,37.7506],[127.30661,37.75076],[127.30655,37.75076]]]}},{"type":"Feature","properties":{"valleyId":"chungnyeongsan","layer":"shadow","date":"2026-08-01","timeLocal":"18:00"},"geometry":{"type":"Polygon","coordinates":[[[127.30591,37.75061],[127.30592,37.75052],[127.30587,37.75044],[127.3058,37.75044],[127.30581,37.75039],[127.30592,37.75039],[127.30592,37.75043],[127.30601,37.75045],[127.306,37.75061],[127.30591,37.75061]]]}},{"type":"Feature","properties":{"valleyId":"chungnyeongsan","layer":"shadow","date":"2026-08-01","timeLocal":"18:00"},"geometry":{"type":"Polygon","coordinates":[[[127.30685,37.75044],[127.30685,37.75039],[127.30692,37.75039],[127.30692,37.75044],[127.30685,37.75044]]]}},{"type":"Feature","properties":{"valleyId":"chungnyeongsan","layer":"shadow","date":"2026-08-01","timeLocal":"18:00"},"geometry":{"type":"Polygon","coordinates":[[[127.3083,37.75039],[127.3083,37.75034],[127.30837,37.75034],[127.30837,37.75039],[127.3083,37.75039]]]}},{"type":"Feature","properties":{"valleyId":"chungnyeongsan","layer":"shadow","date":"2026-08-01","timeLocal":"18:00"},"geometry":{"type":"Polygon","coordinates":[[[127.30574,37.75028],[127.30574,37.75023],[127.3059,37.75021],[127.30588,37.75028],[127.30574,37.75028]]]}},{"type":"Feature","properties":{"valleyId":"chungnyeongsan","layer":"shadow","date":"2026-08-01","timeLocal":"18:00"},"geometry":{"type":"Polygon","coordinates":[[[127.30329,37.75237],[127.30329,37.75228],[127.30338,37.75228],[127.30338,37.75218],[127.30329,37.75214],[127.30337,37.75172],[127.30351,37.75137],[127.30377,37.75094],[127.30378,37.75083],[127.30364,37.75063],[127.30365,37.7505],[127.30369,37.75041],[127.30376,37.75038],[127.30377,37.75027],[127.30363,37.75018],[127.30343,37.75012],[127.30341,37.74989],[127.30393,37.74989],[127.30393,37.75],[127.30416,37.75004],[127.30427,37.75002],[127.30427,37.7499],[127.30461,37.7499],[127.30461,37.75003],[127.30488,37.75011],[127.30488,37.75025],[127.30483,37.75029],[127.30483,37.75041],[127.30474,37.75041],[127.30474,37.75048],[127.30467,37.75055],[127.30466,37.75072],[127.30453,37.75071],[127.30453,37.75079],[127.30441,37.7508],[127.30439,37.75091],[127.30427,37.75093],[127.30424,37.7515],[127.30428,37.7515],[127.30428,37.75158],[127.30423,37.75157],[127.30423,37.75179],[127.30393,37.75179],[127.30389,37.75182],[127.30389,37.75188],[127.30382,37.75189],[127.30382,37.75195],[127.30361,37.75198],[127.30356,37.75209],[127.30352,37.75209],[127.30347,37.75216],[127.30349,37.75234],[127.30342,37.75237],[127.30329,37.75237]]]}},{"type":"Feature","properties":{"valleyId":"chungnyeongsan","layer":"shadow","date":"2026-08-01","timeLocal":"18:00"},"geometry":{"type":"Polygon","coordinates":[[[127.30441,37.74976],[127.30439,37.74968],[127.3046,37.74967],[127.30459,37.74974],[127.30441,37.74976]]]}},{"type":"Feature","properties":{"valleyId":"chungnyeongsan","layer":"shadow","date":"2026-08-01","timeLocal":"18:00"},"geometry":{"type":"Polygon","coordinates":[[[127.307,37.7497],[127.307,37.7496],[127.30725,37.74958],[127.30725,37.74965],[127.30716,37.74965],[127.30709,37.74967],[127.30709,37.74971],[127.307,37.7497]]]}},{"type":"Feature","properties":{"valleyId":"chungnyeongsan","layer":"shadow","date":"2026-08-01","timeLocal":"18:00"},"geometry":{"type":"Polygon","coordinates":[[[127.3044,37.7495],[127.3044,37.74945],[127.30456,37.74945],[127.30455,37.74951],[127.3044,37.7495]]]}},{"type":"Feature","properties":{"valleyId":"chungnyeongsan","layer":"shadow","date":"2026-08-01","timeLocal":"18:00"},"geometry":{"type":"Polygon","coordinates":[[[127.30615,37.75029],[127.30613,37.75011],[127.30609,37.75003],[127.30609,37.74978],[127.30603,37.74973],[127.30598,37.74958],[127.30601,37.74938],[127.30608,37.74938],[127.30607,37.74956],[127.30612,37.74956],[127.30614,37.74969],[127.30618,37.74969],[127.30623,37.7498],[127.3062,37.75002],[127.30625,37.75002],[127.30624,37.75007],[127.30629,37.75011],[127.30629,37.75018],[127.30622,37.75023],[127.30622,37.75029],[127.30615,37.75029]]]}},{"type":"Feature","properties":{"valleyId":"chungnyeongsan","layer":"shadow","date":"2026-08-01","timeLocal":"18:00"},"geometry":{"type":"Polygon","coordinates":[[[127.30474,37.74953],[127.30474,37.74945],[127.30467,37.74945],[127.30465,37.74927],[127.30485,37.74928],[127.30494,37.74933],[127.30492,37.74948],[127.30485,37.74947],[127.30483,37.74953],[127.30474,37.74953]]]}},{"type":"Feature","properties":{"valleyId":"chungnyeongsan","layer":"shadow","date":"2026-08-01","timeLocal":"18:00"},"geometry":{"type":"Polygon","coordinates":[[[127.30581,37.74927],[127.30581,37.74918],[127.30588,37.74918],[127.30588,37.74927],[127.30581,37.74927]]]}},{"type":"Feature","properties":{"valleyId":"chungnyeongsan","layer":"shadow","date":"2026-08-01","timeLocal":"18:00"},"geometry":{"type":"Polygon","coordinates":[[[127.30438,37.74929],[127.30436,37.74925],[127.30431,37.74925],[127.30431,37.7492],[127.30427,37.7492],[127.30427,37.74912],[127.30443,37.74913],[127.30443,37.74918],[127.30452,37.74918],[127.30452,37.74922],[127.30456,37.74922],[127.30456,37.74929],[127.30438,37.74929]]]}},{"type":"Feature","properties":{"valleyId":"chungnyeongsan","layer":"shadow","date":"2026-08-01","timeLocal":"18:00"},"geometry":{"type":"Polygon","coordinates":[[[127.3057,37.75005],[127.3057,37.74994],[127.30561,37.74985],[127.30557,37.74985],[127.30557,37.74959],[127.30562,37.74958],[127.30562,37.74952],[127.30558,37.7495],[127.3056,37.74934],[127.30556,37.7492],[127.30556,37.74902],[127.30563,37.74902],[127.30565,37.74916],[127.30572,37.74916],[127.30572,37.74931],[127.30567,37.74932],[127.30567,37.74938],[127.30576,37.74945],[127.30575,37.74985],[127.30584,37.74987],[127.30584,37.75005],[127.3057,37.75005]]]}},{"type":"Feature","properties":{"valleyId":"chungnyeongsan","layer":"shadow","date":"2026-08-01","timeLocal":"18:00"},"geometry":{"type":"Polygon","coordinates":[[[127.3074,37.74902],[127.30741,37.74893],[127.30747,37.74894],[127.30749,37.74901],[127.3074,37.74902]]]}},{"type":"Feature","properties":{"valleyId":"chungnyeongsan","layer":"shadow","date":"2026-08-01","timeLocal":"18:00"},"geometry":{"type":"Polygon","coordinates":[[[127.30622,37.74899],[127.30625,37.74886],[127.30632,37.74886],[127.30629,37.74899],[127.30622,37.74899]]]}},{"type":"Feature","properties":{"valleyId":"chungnyeongsan","layer":"shadow","date":"2026-08-01","timeLocal":"18:00"},"geometry":{"type":"Polygon","coordinates":[[[127.30559,37.74896],[127.30559,37.74889],[127.30564,37.74887],[127.30564,37.74867],[127.30582,37.74871],[127.30582,37.74886],[127.30568,37.74891],[127.30566,37.74896],[127.30559,37.74896]]]}},{"type":"Feature","properties":{"valleyId":"chungnyeongsan","layer":"shadow","date":"2026-08-01","timeLocal":"18:00"},"geometry":{"type":"Polygon","coordinates":[[[127.30553,37.74869],[127.30548,37.74862],[127.30537,37.74862],[127.30537,37.74865],[127.3053,37.74865],[127.3053,37.7486],[127.30537,37.7486],[127.30537,37.74851],[127.30558,37.74849],[127.30557,37.7486],[127.30562,37.7486],[127.30562,37.74869],[127.30553,37.74869]]]}},{"type":"Feature","properties":{"valleyId":"chungnyeongsan","layer":"shadow","date":"2026-08-01","timeLocal":"18:00"},"geometry":{"type":"Polygon","coordinates":[[[127.30338,37.74924],[127.30339,37.74902],[127.30346,37.7487],[127.30333,37.74855],[127.30331,37.74846],[127.3034,37.74846],[127.30342,37.74852],[127.30349,37.74854],[127.30362,37.74854],[127.30362,37.74875],[127.30371,37.74879],[127.3037,37.74895],[127.30361,37.74895],[127.30361,37.74908],[127.30345,37.74908],[127.30345,37.74924],[127.30338,37.74924]]]}},{"type":"Feature","properties":{"valleyId":"chungnyeongsan","layer":"shadow","date":"2026-08-01","timeLocal":"18:00"},"geometry":{"type":"Polygon","coordinates":[[[127.3078,37.74856],[127.30773,37.74851],[127.30773,37.74843],[127.30789,37.74845],[127.30789,37.74856],[127.3078,37.74856]]]}},{"type":"Feature","properties":{"valleyId":"chungnyeongsan","layer":"shadow","date":"2026-08-01","timeLocal":"18:00"},"geometry":{"type":"Polygon","coordinates":[[[127.30751,37.74843],[127.30749,37.74836],[127.30758,37.74836],[127.30758,37.74843],[127.30751,37.74843]]]}},{"type":"Feature","properties":{"valleyId":"chungnyeongsan","layer":"shadow","date":"2026-08-01","timeLocal":"18:00"},"geometry":{"type":"Polygon","coordinates":[[[127.30674,37.74743],[127.30672,37.7473],[127.30678,37.7473],[127.3068,37.74743],[127.30674,37.74743]]]}},{"type":"Feature","properties":{"valleyId":"chungnyeongsan","layer":"shadow","date":"2026-08-01","timeLocal":"18:00"},"geometry":{"type":"Polygon","coordinates":[[[127.30713,37.74724],[127.30713,37.74716],[127.30722,37.74717],[127.30722,37.74724],[127.30713,37.74724]]]}},{"type":"Feature","properties":{"valleyId":"chungnyeongsan","layer":"shadow","date":"2026-08-01","timeLocal":"18:00"},"geometry":{"type":"Polygon","coordinates":[[[127.3064,37.74712],[127.3064,37.74706],[127.30647,37.74706],[127.30647,37.74712],[127.3064,37.74712]]]}},{"type":"Feature","properties":{"valleyId":"chungnyeongsan","layer":"shadow","date":"2026-08-01","timeLocal":"18:00"},"geometry":{"type":"Polygon","coordinates":[[[127.30368,37.74693],[127.30359,37.74691],[127.30359,37.74686],[127.30375,37.74688],[127.30375,37.74694],[127.30368,37.74693]]]}},{"type":"Feature","properties":{"valleyId":"chungnyeongsan","layer":"shadow","date":"2026-08-01","timeLocal":"18:00"},"geometry":{"type":"Polygon","coordinates":[[[127.30691,37.7468],[127.30691,37.74675],[127.30698,37.74675],[127.30698,37.7468],[127.30691,37.7468]]]}},{"type":"Feature","properties":{"valleyId":"chungnyeongsan","layer":"shadow","date":"2026-08-01","timeLocal":"18:00"},"geometry":{"type":"Polygon","coordinates":[[[127.30603,37.74663],[127.30603,37.74654],[127.3061,37.74654],[127.3061,37.74663],[127.30603,37.74663]]]}},{"type":"Feature","properties":{"valleyId":"chungnyeongsan","layer":"shadow","date":"2026-08-01","timeLocal":"18:00"},"geometry":{"type":"Polygon","coordinates":[[[127.3061,37.74648],[127.3061,37.74641],[127.30606,37.74641],[127.30606,37.74636],[127.30619,37.74639],[127.30619,37.74647],[127.3061,37.74648]]]}},{"type":"Feature","properties":{"valleyId":"chungnyeongsan","layer":"shadow","date":"2026-08-01","timeLocal":"18:00"},"geometry":{"type":"Polygon","coordinates":[[[127.30616,37.74583],[127.30616,37.74574],[127.30623,37.74575],[127.30623,37.74584],[127.30616,37.74583]]]}},{"type":"Feature","properties":{"valleyId":"chungnyeongsan","layer":"shadow","date":"2026-08-01","timeLocal":"18:00"},"geometry":{"type":"Polygon","coordinates":[[[127.30396,37.74881],[127.30396,37.74874],[127.3038,37.7487],[127.30381,37.74823],[127.30329,37.7483],[127.30329,37.74839],[127.30322,37.74839],[127.30309,37.74817],[127.30309,37.74812],[127.30298,37.74792],[127.30294,37.7477],[127.3031,37.74766],[127.30312,37.74761],[127.30321,37.74761],[127.30326,37.74769],[127.30342,37.74767],[127.30344,37.7476],[127.30349,37.74758],[127.30349,37.74753],[127.30337,37.74752],[127.30335,37.74743],[127.30319,37.74741],[127.30322,37.74729],[127.30297,37.74728],[127.30295,37.74736],[127.30286,37.74735],[127.30286,37.7473],[127.30295,37.74727],[127.303,37.74719],[127.30306,37.7472],[127.30311,37.74716],[127.30314,37.74698],[127.30307,37.74698],[127.30307,37.74707],[127.303,37.74707],[127.303,37.74689],[127.30307,37.74678],[127.30307,37.74671],[127.30294,37.74671],[127.30292,37.74662],[127.30278,37.74661],[127.30278,37.74649],[127.30285,37.7464],[127.30286,37.74629],[127.3029,37.74626],[127.30293,37.74615],[127.30305,37.74597],[127.30309,37.74595],[127.30319,37.74581],[127.30326,37.74577],[127.30326,37.74574],[127.3033,37.74574],[127.3033,37.7457],[127.30344,37.7456],[127.3036,37.74562],[127.30372,37.74547],[127.30383,37.74549],[127.30383,37.74555],[127.30369,37.7456],[127.30369,37.74571],[127.30344,37.74572],[127.30332,37.74576],[127.3033,37.74579],[127.3033,37.74585],[127.30337,37.7459],[127.30346,37.7459],[127.30343,37.74603],[127.30348,37.74607],[127.30347,37.74616],[127.30322,37.74615],[127.30316,37.74617],[127.30309,37.74624],[127.30299,37.74626],[127.30299,37.74631],[127.30315,37.74633],[127.30317,37.7464],[127.30335,37.74641],[127.30335,37.74646],[127.30313,37.74648],[127.3031,37.74651],[127.30312,37.7466],[127.30326,37.7466],[127.30326,37.74668],[127.30337,37.7467],[127.30337,37.74675],[127.30325,37.74684],[127.30325,37.74698],[127.30332,37.74698],[127.30334,37.74695],[127.30348,37.74695],[127.30348,37.747],[127.30341,37.74702],[127.30341,37.74707],[127.30331,37.74716],[127.30331,37.74731],[127.30345,37.74731],[127.30351,37.74738],[127.30379,37.74735],[127.30383,37.7475],[127.30387,37.74753],[127.30396,37.74753],[127.30403,37.74748],[127.30403,37.74743],[127.3039,37.74737],[127.3039,37.7473],[127.30404,37.74728],[127.30408,37.74734],[127.30424,37.74734],[127.30429,37.74727],[127.30443,37.7472],[127.30443,37.74713],[127.30436,37.74707],[127.3042,37.74701],[127.30409,37.74703],[127.30409,37.74712],[127.30404,37.74719],[127.30395,37.74717],[127.30405,37.74694],[127.30416,37.74692],[127.30421,37.74689],[127.30419,37.74676],[127.3041,37.74674],[127.30405,37.74669],[127.30406,37.74643],[127.30413,37.74638],[127.30429,37.74638],[127.30431,37.74633],[127.30438,37.74633],[127.30443,37.74619],[127.30454,37.74619],[127.30465,37.74625],[127.30486,37.74625],[127.30488,37.74632],[127.30492,37.74634],[127.30491,37.7467],[127.30503,37.74679],[127.30502,37.74692],[127.30507,37.74699],[127.30511,37.74699],[127.30516,37.74705],[127.30522,37.74705],[127.30525,37.7469],[127.30516,37.74678],[127.30519,37.7466],[127.30515,37.74647],[127.3051,37.74645],[127.3051,37.74638],[127.30515,37.74638],[127.30524,37.74629],[127.30535,37.74629],[127.30538,37.74611],[127.30529,37.74611],[127.30531,37.74622],[127.30502,37.74621],[127.30502,37.74614],[127.30506,37.74614],[127.3052,37.74602],[127.3052,37.74587],[127.30541,37.74586],[127.30541,37.74597],[127.30547,37.746],[127.30545,37.74622],[127.30549,37.74622],[127.30551,37.74629],[127.30558,37.74635],[127.30563,37.74635],[127.30565,37.7464],[127.30571,37.7464],[127.30571,37.74644],[127.3058,37.74648],[127.30582,37.74662],[127.30591,37.74666],[127.30605,37.74664],[127.30604,37.74695],[127.30597,37.74697],[127.30597,37.74709],[127.30588,37.74718],[127.30588,37.74724],[127.30597,37.74729],[127.30597,37.74736],[127.30592,37.74742],[127.30587,37.74742],[127.30589,37.74761],[127.30585,37.74765],[127.30582,37.74779],[127.30584,37.74783],[127.30593,37.74783],[127.30593,37.74789],[127.30588,37.7479],[127.30588,37.74803],[127.30597,37.74808],[127.30597,37.74812],[127.3062,37.74816],[127.3062,37.74821],[127.30615,37.74821],[127.30613,37.74825],[127.30594,37.74826],[127.30595,37.74817],[127.3059,37.74814],[127.30583,37.74814],[127.30572,37.74796],[127.30573,37.74785],[127.30566,37.74777],[127.30562,37.74761],[127.30555,37.74759],[127.30551,37.74754],[127.30544,37.74754],[127.30543,37.74777],[127.30555,37.74784],[127.30563,37.74799],[127.30563,37.74806],[127.30568,37.74808],[127.30567,37.7483],[127.30547,37.74829],[127.3054,37.74835],[127.30528,37.74836],[127.30526,37.7484],[127.30503,37.74843],[127.30499,37.74845],[127.30498,37.74856],[127.30451,37.74853],[127.30449,37.74837],[127.30442,37.74837],[127.30442,37.7484],[127.30431,37.7484],[127.3043,37.74882],[127.30396,37.74881]],[[127.30329,37.74821],[127.30356,37.74818],[127.30372,37.7482],[127.30381,37.74818],[127.30381,37.74813],[127.30372,37.74812],[127.30373,37.74805],[127.30345,37.74805],[127.30341,37.74808],[127.30329,37.7481],[127.30329,37.74821]],[[127.3047,37.74814],[127.30481,37.74814],[127.30481,37.74807],[127.30468,37.74805],[127.3047,37.74814]],[[127.30323,37.74792],[127.3033,37.74792],[127.30332,37.74785],[127.30328,37.74783],[127.30323,37.7477],[127.30317,37.7477],[127.30314,37.74781],[127.30323,37.74792]],[[127.30479,37.74724],[127.30486,37.74724],[127.30495,37.74713],[127.30495,37.74704],[127.30489,37.74695],[127.30482,37.74695],[127.30479,37.74699],[127.30479,37.74724]],[[127.30573,37.74684],[127.30589,37.74682],[127.30589,37.7467],[127.30582,37.74669],[127.30573,37.74675],[127.30573,37.74684]],[[127.30474,37.74648],[127.30483,37.74648],[127.30481,37.74639],[127.30474,37.74639],[127.30474,37.74648]]]}},{"type":"Feature","properties":{"valleyId":"chungnyeongsan","layer":"shadow","date":"2026-08-01","timeLocal":"18:00"},"geometry":{"type":"Polygon","coordinates":[[[127.30567,37.74619],[127.30563,37.74601],[127.3057,37.74599],[127.3057,37.74585],[127.30577,37.74579],[127.30582,37.74579],[127.30582,37.74572],[127.30571,37.74567],[127.30562,37.74566],[127.30553,37.7457],[127.30553,37.74574],[127.30548,37.74573],[127.30546,37.74577],[127.30539,37.74577],[127.30539,37.74566],[127.30548,37.74559],[127.30553,37.74559],[127.30553,37.74552],[127.30549,37.74546],[127.30551,37.74532],[127.30572,37.74538],[127.30576,37.74545],[127.30585,37.74545],[127.30587,37.74554],[127.3058,37.74556],[127.30578,37.74565],[127.30603,37.74569],[127.30602,37.74576],[127.30584,37.74588],[127.30584,37.74596],[127.30575,37.74601],[127.30574,37.74619],[127.30567,37.74619]]]}},{"type":"Feature","properties":{"valleyId":"chungnyeongsan","layer":"shadow","date":"2026-08-01","timeLocal":"18:00"},"geometry":{"type":"Polygon","coordinates":[[[127.30583,37.74536],[127.30583,37.74523],[127.30595,37.74525],[127.30594,37.74533],[127.3059,37.74536],[127.30583,37.74536]]]}},{"type":"Feature","properties":{"valleyId":"chungnyeongsan","layer":"shadow","date":"2026-08-01","timeLocal":"18:00"},"geometry":{"type":"Polygon","coordinates":[[[127.30418,37.74595],[127.30421,37.74584],[127.30428,37.74577],[127.30428,37.74566],[127.30412,37.74564],[127.30394,37.74568],[127.30389,37.74562],[127.3039,37.74553],[127.30403,37.74552],[127.30406,37.74548],[127.30426,37.74545],[127.30431,37.74541],[127.30449,37.7454],[127.30449,37.74545],[127.3044,37.74545],[127.3044,37.7455],[127.30449,37.74556],[127.30455,37.74556],[127.30456,37.74549],[127.3046,37.74549],[127.3046,37.74538],[127.30477,37.74524],[127.30483,37.74524],[127.30488,37.74529],[127.30501,37.7453],[127.30508,37.74526],[127.30508,37.74521],[127.30504,37.74519],[127.30488,37.74519],[127.30486,37.74509],[127.3054,37.74512],[127.30563,37.74518],[127.3056,37.7453],[127.30554,37.7453],[127.30554,37.74527],[127.30545,37.74527],[127.3054,37.74528],[127.3054,37.74532],[127.30522,37.74532],[127.30519,37.74535],[127.30492,37.74537],[127.30488,37.7454],[127.30467,37.74542],[127.30469,37.74549],[127.30483,37.74549],[127.30485,37.7456],[127.30507,37.7456],[127.30507,37.74564],[127.30519,37.74569],[127.30518,37.74584],[127.30505,37.74584],[127.30498,37.74578],[127.30498,37.74573],[127.30494,37.74569],[127.30487,37.74569],[127.30475,37.74572],[127.30466,37.74581],[127.30457,37.74581],[127.30452,37.74586],[127.30446,37.74586],[127.30439,37.74592],[127.30418,37.74595]]]}}]}
