{"type":"FeatureCollection","metadata":{"description":"개방지(CHM ≤ 2 m)에 드리운 나무·지형 그림자, 2026-08-01 10:00 KST. canopy 위에 겹쳐 그린다","source":"위성 기반 추정 — Copernicus GLO-30 지형(30 m) + Meta/WRI 수관 높이(1 m CHM, 2019 촬영). 그늘 = 수관(CHM > 2 m) ∪ 나무·지형 그림자 ∪ 원거리 지형 마스크. 현장과 다를 수 있음.","datasetVersion":"2026-09-06.0","collectedAt":"2026-09-06","coordinateOrder":"[longitude, latitude]","crs":"EPSG:4326","representativeDate":"2026-08-01","hours":["10:00","11:00","12:00","13:00","14:00","15:00","16:00","17:00","18:00"],"chmAcquisition":["2019-03"],"assets":{"glo30":{"dataset":"Copernicus DEM GLO-30 (COG, s3://copernicus-dem-30m)","tiles":["Copernicus_DSM_COG_10_N37_00_E127_00_DEM"]},"chm":{"dataset":"Meta/WRI Global Canopy Height Map v1 (alsgedi_global_v6_float, 1 m, CC-BY 4.0)","quadkeys":["132110303"],"acquisition":["2019-03"]}},"method":{"gridResM":2,"canopyThresholdM":2,"bufferHalfM":25,"corridorHalfM":200,"simplifyTolM":2,"minAreaM2":25,"coordDecimals":5},"generator":"scripts/shade 0.1.0","builtAt":"2026-09-06T06:02:45Z","layer":"shadow","timeLocal":"10:00"},"features":[{"type":"Feature","properties":{"valleyId":"chungnyeongsan","layer":"shadow","date":"2026-08-01","timeLocal":"10:00"},"geometry":{"type":"Polygon","coordinates":[[[127.31282,37.75435],[127.31282,37.75428],[127.31289,37.75428],[127.31289,37.75435],[127.31282,37.75435]]]}},{"type":"Feature","properties":{"valleyId":"chungnyeongsan","layer":"shadow","date":"2026-08-01","timeLocal":"10:00"},"geometry":{"type":"Polygon","coordinates":[[[127.31346,37.7543],[127.31346,37.75425],[127.31353,37.75425],[127.31353,37.7543],[127.31346,37.7543]]]}},{"type":"Feature","properties":{"valleyId":"chungnyeongsan","layer":"shadow","date":"2026-08-01","timeLocal":"10:00"},"geometry":{"type":"Polygon","coordinates":[[[127.31287,37.75422],[127.31287,37.75408],[127.31294,37.75408],[127.31296,37.75419],[127.31294,37.75422],[127.31287,37.75422]]]}},{"type":"Feature","properties":{"valleyId":"chungnyeongsan","layer":"shadow","date":"2026-08-01","timeLocal":"10:00"},"geometry":{"type":"Polygon","coordinates":[[[127.31383,37.75407],[127.31381,37.75398],[127.31387,37.75398],[127.31389,37.75407],[127.31383,37.75407]]]}},{"type":"Feature","properties":{"valleyId":"chungnyeongsan","layer":"shadow","date":"2026-08-01","timeLocal":"10:00"},"geometry":{"type":"Polygon","coordinates":[[[127.31371,37.75398],[127.31372,37.75393],[127.31378,37.75393],[127.31378,37.75398],[127.31371,37.75398]]]}},{"type":"Feature","properties":{"valleyId":"chungnyeongsan","layer":"shadow","date":"2026-08-01","timeLocal":"10:00"},"geometry":{"type":"Polygon","coordinates":[[[127.3145,37.75423],[127.31448,37.7541],[127.31439,37.75406],[127.3144,37.75378],[127.31433,37.75367],[127.31434,37.75358],[127.31443,37.7536],[127.31451,37.75378],[127.31458,37.75405],[127.31469,37.75416],[127.31469,37.75423],[127.3145,37.75423]]]}},{"type":"Feature","properties":{"valleyId":"chungnyeongsan","layer":"shadow","date":"2026-08-01","timeLocal":"10:00"},"geometry":{"type":"Polygon","coordinates":[[[127.31407,37.75348],[127.31405,37.75341],[127.31411,37.75341],[127.31413,37.75348],[127.31407,37.75348]]]}},{"type":"Feature","properties":{"valleyId":"chungnyeongsan","layer":"shadow","date":"2026-08-01","timeLocal":"10:00"},"geometry":{"type":"Polygon","coordinates":[[[127.31212,37.75338],[127.31212,37.75333],[127.31219,37.75333],[127.31218,37.75338],[127.31212,37.75338]]]}},{"type":"Feature","properties":{"valleyId":"chungnyeongsan","layer":"shadow","date":"2026-08-01","timeLocal":"10:00"},"geometry":{"type":"Polygon","coordinates":[[[127.31369,37.75319],[127.31369,37.75312],[127.31376,37.75312],[127.31376,37.75319],[127.31369,37.75319]]]}},{"type":"Feature","properties":{"valleyId":"chungnyeongsan","layer":"shadow","date":"2026-08-01","timeLocal":"10:00"},"geometry":{"type":"Polygon","coordinates":[[[127.31072,37.753],[127.31072,37.75291],[127.31079,37.75291],[127.31079,37.753],[127.31072,37.753]]]}},{"type":"Feature","properties":{"valleyId":"chungnyeongsan","layer":"shadow","date":"2026-08-01","timeLocal":"10:00"},"geometry":{"type":"Polygon","coordinates":[[[127.30949,37.75297],[127.30945,37.75282],[127.30956,37.7528],[127.30956,37.75297],[127.30949,37.75297]]]}},{"type":"Feature","properties":{"valleyId":"chungnyeongsan","layer":"shadow","date":"2026-08-01","timeLocal":"10:00"},"geometry":{"type":"Polygon","coordinates":[[[127.31056,37.75291],[127.31054,37.75282],[127.31047,37.7528],[127.31043,37.75267],[127.31036,37.75264],[127.31044,37.75237],[127.31055,37.75239],[127.31052,37.7526],[127.31057,37.75266],[127.31056,37.75282],[127.31061,37.75282],[127.31063,37.75286],[127.31063,37.75291],[127.31056,37.75291]]]}},{"type":"Feature","properties":{"valleyId":"chungnyeongsan","layer":"shadow","date":"2026-08-01","timeLocal":"10:00"},"geometry":{"type":"Polygon","coordinates":[[[127.30772,37.75224],[127.30772,37.75218],[127.30779,37.75218],[127.30778,37.75224],[127.30772,37.75224]]]}},{"type":"Feature","properties":{"valleyId":"chungnyeongsan","layer":"shadow","date":"2026-08-01","timeLocal":"10:00"},"geometry":{"type":"Polygon","coordinates":[[[127.30572,37.7483],[127.3057,37.74817],[127.30577,37.74817],[127.30579,37.7483],[127.30572,37.7483]]]}},{"type":"Feature","properties":{"valleyId":"chungnyeongsan","layer":"shadow","date":"2026-08-01","timeLocal":"10:00"},"geometry":{"type":"Polygon","coordinates":[[[127.30552,37.74797],[127.30548,37.7479],[127.30548,37.74784],[127.30555,37.74784],[127.30559,37.74792],[127.30559,37.74797],[127.30552,37.74797]]]}}]}
