{"type":"FeatureCollection","metadata":{"description":"개방지(CHM ≤ 2 m)에 드리운 나무·지형 그림자, 2026-08-01 17:00 KST. canopy 위에 겹쳐 그린다","source":"위성 기반 추정 — Copernicus GLO-30 지형(30 m) + Meta/WRI 수관 높이(1 m CHM, 2019 촬영). 그늘 = 수관(CHM > 2 m) ∪ 나무·지형 그림자 ∪ 원거리 지형 마스크. 현장과 다를 수 있음.","datasetVersion":"2026-09-06.0","collectedAt":"2026-09-06","coordinateOrder":"[longitude, latitude]","crs":"EPSG:4326","representativeDate":"2026-08-01","hours":["10:00","11:00","12:00","13:00","14:00","15:00","16:00","17:00","18:00"],"chmAcquisition":["2019-03"],"assets":{"glo30":{"dataset":"Copernicus DEM GLO-30 (COG, s3://copernicus-dem-30m)","tiles":["Copernicus_DSM_COG_10_N37_00_E127_00_DEM"]},"chm":{"dataset":"Meta/WRI Global Canopy Height Map v1 (alsgedi_global_v6_float, 1 m, CC-BY 4.0)","quadkeys":["132110303"],"acquisition":["2019-03"]}},"method":{"gridResM":2,"canopyThresholdM":2,"bufferHalfM":25,"corridorHalfM":200,"simplifyTolM":2,"minAreaM2":25,"coordDecimals":5},"generator":"scripts/shade 0.1.0","builtAt":"2026-09-06T06:02:45Z","layer":"shadow","timeLocal":"17:00"},"features":[{"type":"Feature","properties":{"valleyId":"chungnyeongsan","layer":"shadow","date":"2026-08-01","timeLocal":"17:00"},"geometry":{"type":"Polygon","coordinates":[[[127.30771,37.75664],[127.30764,37.75658],[127.30764,37.75649],[127.30773,37.75649],[127.30778,37.75656],[127.30777,37.75664],[127.30771,37.75664]]]}},{"type":"Feature","properties":{"valleyId":"chungnyeongsan","layer":"shadow","date":"2026-08-01","timeLocal":"17:00"},"geometry":{"type":"Polygon","coordinates":[[[127.30765,37.75611],[127.30765,37.75597],[127.30772,37.75597],[127.30774,37.75608],[127.30772,37.75611],[127.30765,37.75611]]]}},{"type":"Feature","properties":{"valleyId":"chungnyeongsan","layer":"shadow","date":"2026-08-01","timeLocal":"17:00"},"geometry":{"type":"Polygon","coordinates":[[[127.31532,37.7561],[127.31533,37.75604],[127.31539,37.75604],[127.31539,37.7561],[127.31532,37.7561]]]}},{"type":"Feature","properties":{"valleyId":"chungnyeongsan","layer":"shadow","date":"2026-08-01","timeLocal":"17:00"},"geometry":{"type":"Polygon","coordinates":[[[127.30609,37.75595],[127.30609,37.75589],[127.30618,37.75589],[127.30618,37.75595],[127.30609,37.75595]]]}},{"type":"Feature","properties":{"valleyId":"chungnyeongsan","layer":"shadow","date":"2026-08-01","timeLocal":"17:00"},"geometry":{"type":"Polygon","coordinates":[[[127.30584,37.75587],[127.30582,37.75585],[127.3058,37.75567],[127.30587,37.75567],[127.30591,37.75573],[127.30591,37.75587],[127.30584,37.75587]]]}},{"type":"Feature","properties":{"valleyId":"chungnyeongsan","layer":"shadow","date":"2026-08-01","timeLocal":"17:00"},"geometry":{"type":"Polygon","coordinates":[[[127.30741,37.75591],[127.30741,37.75566],[127.30748,37.75566],[127.30748,37.75571],[127.30752,37.75575],[127.30752,37.75588],[127.30747,37.75591],[127.30741,37.75591]]]}},{"type":"Feature","properties":{"valleyId":"chungnyeongsan","layer":"shadow","date":"2026-08-01","timeLocal":"17:00"},"geometry":{"type":"Polygon","coordinates":[[[127.31469,37.75589],[127.31467,37.75576],[127.31474,37.75576],[127.31476,37.75589],[127.31469,37.75589]]]}},{"type":"Feature","properties":{"valleyId":"chungnyeongsan","layer":"shadow","date":"2026-08-01","timeLocal":"17:00"},"geometry":{"type":"Polygon","coordinates":[[[127.30455,37.75567],[127.30455,37.7556],[127.30462,37.7556],[127.30462,37.75567],[127.30455,37.75567]]]}},{"type":"Feature","properties":{"valleyId":"chungnyeongsan","layer":"shadow","date":"2026-08-01","timeLocal":"17:00"},"geometry":{"type":"Polygon","coordinates":[[[127.30721,37.75544],[127.30721,37.75537],[127.30728,37.75537],[127.30728,37.75544],[127.30721,37.75544]]]}},{"type":"Feature","properties":{"valleyId":"chungnyeongsan","layer":"shadow","date":"2026-08-01","timeLocal":"17:00"},"geometry":{"type":"Polygon","coordinates":[[[127.30571,37.75562],[127.30569,37.75551],[127.30576,37.75544],[127.30574,37.75526],[127.30583,37.75526],[127.30592,37.75531],[127.30592,37.7554],[127.30578,37.75554],[127.30578,37.75562],[127.30571,37.75562]]]}},{"type":"Feature","properties":{"valleyId":"chungnyeongsan","layer":"shadow","date":"2026-08-01","timeLocal":"17:00"},"geometry":{"type":"Polygon","coordinates":[[[127.3044,37.75533],[127.30438,37.75513],[127.30454,37.75513],[127.30454,37.7552],[127.30461,37.75524],[127.3046,37.75533],[127.3044,37.75533]]]}},{"type":"Feature","properties":{"valleyId":"chungnyeongsan","layer":"shadow","date":"2026-08-01","timeLocal":"17:00"},"geometry":{"type":"Polygon","coordinates":[[[127.30724,37.75522],[127.30724,37.75517],[127.30731,37.75517],[127.30731,37.75522],[127.30724,37.75522]]]}},{"type":"Feature","properties":{"valleyId":"chungnyeongsan","layer":"shadow","date":"2026-08-01","timeLocal":"17:00"},"geometry":{"type":"Polygon","coordinates":[[[127.3138,37.7553],[127.3138,37.75524],[127.31389,37.75525],[127.31389,37.7553],[127.3138,37.7553]]]}},{"type":"Feature","properties":{"valleyId":"chungnyeongsan","layer":"shadow","date":"2026-08-01","timeLocal":"17:00"},"geometry":{"type":"Polygon","coordinates":[[[127.30556,37.75518],[127.30556,37.75511],[127.30563,37.75511],[127.30563,37.75518],[127.30556,37.75518]]]}},{"type":"Feature","properties":{"valleyId":"chungnyeongsan","layer":"shadow","date":"2026-08-01","timeLocal":"17:00"},"geometry":{"type":"Polygon","coordinates":[[[127.30558,37.75509],[127.30559,37.75495],[127.30566,37.75495],[127.30565,37.75509],[127.30558,37.75509]]]}},{"type":"Feature","properties":{"valleyId":"chungnyeongsan","layer":"shadow","date":"2026-08-01","timeLocal":"17:00"},"geometry":{"type":"Polygon","coordinates":[[[127.31355,37.75515],[127.31351,37.75511],[127.31351,37.75504],[127.31344,37.75504],[127.31344,37.75492],[127.31351,37.75492],[127.31353,37.75504],[127.31362,37.75506],[127.31362,37.75515],[127.31355,37.75515]]]}},{"type":"Feature","properties":{"valleyId":"chungnyeongsan","layer":"shadow","date":"2026-08-01","timeLocal":"17:00"},"geometry":{"type":"Polygon","coordinates":[[[127.30552,37.75475],[127.30553,37.75466],[127.30559,37.75466],[127.30559,37.75475],[127.30552,37.75475]]]}},{"type":"Feature","properties":{"valleyId":"chungnyeongsan","layer":"shadow","date":"2026-08-01","timeLocal":"17:00"},"geometry":{"type":"Polygon","coordinates":[[[127.31306,37.75487],[127.31306,37.75484],[127.31301,37.75482],[127.31302,37.75475],[127.31308,37.75475],[127.31313,37.75482],[127.31313,37.75487],[127.31306,37.75487]]]}},{"type":"Feature","properties":{"valleyId":"chungnyeongsan","layer":"shadow","date":"2026-08-01","timeLocal":"17:00"},"geometry":{"type":"Polygon","coordinates":[[[127.31311,37.75468],[127.31311,37.7546],[127.31318,37.7546],[127.31318,37.75468],[127.31311,37.75468]]]}},{"type":"Feature","properties":{"valleyId":"chungnyeongsan","layer":"shadow","date":"2026-08-01","timeLocal":"17:00"},"geometry":{"type":"Polygon","coordinates":[[[127.30648,37.75445],[127.30649,37.75438],[127.30655,37.75438],[127.30655,37.75446],[127.30648,37.75445]]]}},{"type":"Feature","properties":{"valleyId":"chungnyeongsan","layer":"shadow","date":"2026-08-01","timeLocal":"17:00"},"geometry":{"type":"Polygon","coordinates":[[[127.30669,37.75435],[127.30669,37.7543],[127.30676,37.7543],[127.30676,37.75435],[127.30669,37.75435]]]}},{"type":"Feature","properties":{"valleyId":"chungnyeongsan","layer":"shadow","date":"2026-08-01","timeLocal":"17:00"},"geometry":{"type":"Polygon","coordinates":[[[127.30432,37.75493],[127.30423,37.7548],[127.30409,37.75476],[127.30403,37.75458],[127.30401,37.75438],[127.30374,37.75418],[127.30375,37.75413],[127.30384,37.75413],[127.30395,37.7542],[127.30399,37.75429],[127.30408,37.75431],[127.30412,37.75449],[127.30417,37.75453],[127.30414,37.75464],[127.30435,37.75468],[127.30434,37.75471],[127.30439,37.75473],[127.30439,37.75493],[127.30432,37.75493]]]}},{"type":"Feature","properties":{"valleyId":"chungnyeongsan","layer":"shadow","date":"2026-08-01","timeLocal":"17:00"},"geometry":{"type":"Polygon","coordinates":[[[127.30454,37.75513],[127.30457,37.75484],[127.30452,37.75479],[127.30448,37.75479],[127.30448,37.75473],[127.30455,37.75472],[127.30462,37.75461],[127.30462,37.75446],[127.30467,37.75441],[127.3047,37.75428],[127.30474,37.75427],[127.30477,37.75414],[127.30488,37.75413],[127.30488,37.75425],[127.30492,37.75425],[127.30492,37.75431],[127.30485,37.75434],[127.30485,37.75447],[127.30476,37.75456],[127.30473,37.7547],[127.30464,37.75473],[127.30464,37.75479],[127.30471,37.75479],[127.30473,37.75484],[127.3048,37.75486],[127.30479,37.75497],[127.30465,37.75513],[127.30454,37.75513]]]}},{"type":"Feature","properties":{"valleyId":"chungnyeongsan","layer":"shadow","date":"2026-08-01","timeLocal":"17:00"},"geometry":{"type":"Polygon","coordinates":[[[127.30667,37.75428],[127.30665,37.75415],[127.30672,37.75415],[127.30674,37.75428],[127.30667,37.75428]]]}},{"type":"Feature","properties":{"valleyId":"chungnyeongsan","layer":"shadow","date":"2026-08-01","timeLocal":"17:00"},"geometry":{"type":"Polygon","coordinates":[[[127.31314,37.75446],[127.31314,37.75435],[127.31309,37.75433],[127.3131,37.75426],[127.31319,37.75424],[127.31323,37.75444],[127.31314,37.75446]]]}},{"type":"Feature","properties":{"valleyId":"chungnyeongsan","layer":"shadow","date":"2026-08-01","timeLocal":"17:00"},"geometry":{"type":"Polygon","coordinates":[[[127.31266,37.75429],[127.31266,37.75422],[127.31276,37.75422],[127.31275,37.75427],[127.31266,37.75429]]]}},{"type":"Feature","properties":{"valleyId":"chungnyeongsan","layer":"shadow","date":"2026-08-01","timeLocal":"17:00"},"geometry":{"type":"Polygon","coordinates":[[[127.30461,37.75401],[127.30461,37.75396],[127.30468,37.75396],[127.30468,37.75401],[127.30461,37.75401]]]}},{"type":"Feature","properties":{"valleyId":"chungnyeongsan","layer":"shadow","date":"2026-08-01","timeLocal":"17:00"},"geometry":{"type":"Polygon","coordinates":[[[127.30627,37.75411],[127.30622,37.75407],[127.30622,37.75395],[127.30631,37.75395],[127.30633,37.75411],[127.30627,37.75411]]]}},{"type":"Feature","properties":{"valleyId":"chungnyeongsan","layer":"shadow","date":"2026-08-01","timeLocal":"17:00"},"geometry":{"type":"Polygon","coordinates":[[[127.305,37.754],[127.305,37.75396],[127.30495,37.75395],[127.30495,37.75387],[127.30498,37.75384],[127.30505,37.75384],[127.30506,37.754],[127.305,37.754]]]}},{"type":"Feature","properties":{"valleyId":"chungnyeongsan","layer":"shadow","date":"2026-08-01","timeLocal":"17:00"},"geometry":{"type":"Polygon","coordinates":[[[127.3144,37.75399],[127.3144,37.75378],[127.31436,37.75374],[127.31436,37.75368],[127.31443,37.75369],[127.31451,37.75381],[127.31446,37.75399],[127.3144,37.75399]]]}},{"type":"Feature","properties":{"valleyId":"chungnyeongsan","layer":"shadow","date":"2026-08-01","timeLocal":"17:00"},"geometry":{"type":"Polygon","coordinates":[[[127.30487,37.75376],[127.30482,37.75373],[127.30482,37.75366],[127.30494,37.75355],[127.30505,37.75353],[127.30505,37.75361],[127.30501,37.75362],[127.305,37.75373],[127.30496,37.75377],[127.30487,37.75376]]]}},{"type":"Feature","properties":{"valleyId":"chungnyeongsan","layer":"shadow","date":"2026-08-01","timeLocal":"17:00"},"geometry":{"type":"Polygon","coordinates":[[[127.31422,37.75366],[127.31422,37.75361],[127.31429,37.75361],[127.31429,37.75367],[127.31422,37.75366]]]}},{"type":"Feature","properties":{"valleyId":"chungnyeongsan","layer":"shadow","date":"2026-08-01","timeLocal":"17:00"},"geometry":{"type":"Polygon","coordinates":[[[127.31157,37.75343],[127.3116,37.75334],[127.31166,37.75334],[127.31166,37.75343],[127.31157,37.75343]]]}},{"type":"Feature","properties":{"valleyId":"chungnyeongsan","layer":"shadow","date":"2026-08-01","timeLocal":"17:00"},"geometry":{"type":"Polygon","coordinates":[[[127.30613,37.7531],[127.30613,37.75304],[127.3062,37.75304],[127.3062,37.7531],[127.30613,37.7531]]]}},{"type":"Feature","properties":{"valleyId":"chungnyeongsan","layer":"shadow","date":"2026-08-01","timeLocal":"17:00"},"geometry":{"type":"Polygon","coordinates":[[[127.30611,37.75301],[127.30611,37.75294],[127.30618,37.75294],[127.30618,37.75301],[127.30611,37.75301]]]}},{"type":"Feature","properties":{"valleyId":"chungnyeongsan","layer":"shadow","date":"2026-08-01","timeLocal":"17:00"},"geometry":{"type":"Polygon","coordinates":[[[127.31053,37.75305],[127.31054,37.75294],[127.31063,37.75295],[127.3106,37.75305],[127.31053,37.75305]]]}},{"type":"Feature","properties":{"valleyId":"chungnyeongsan","layer":"shadow","date":"2026-08-01","timeLocal":"17:00"},"geometry":{"type":"Polygon","coordinates":[[[127.30347,37.75313],[127.30336,37.75311],[127.3033,37.75293],[127.30321,37.75289],[127.30316,37.75284],[127.30319,37.75277],[127.30339,37.75277],[127.30339,37.75281],[127.30362,37.75283],[127.30361,37.75308],[127.30356,37.75308],[127.30354,37.75313],[127.30347,37.75313]]]}},{"type":"Feature","properties":{"valleyId":"chungnyeongsan","layer":"shadow","date":"2026-08-01","timeLocal":"17:00"},"geometry":{"type":"Polygon","coordinates":[[[127.30459,37.7529],[127.30457,37.75282],[127.30452,37.7528],[127.30453,37.75275],[127.30462,37.75275],[127.30462,37.75279],[127.30468,37.75282],[127.30468,37.75288],[127.30459,37.7529]]]}},{"type":"Feature","properties":{"valleyId":"chungnyeongsan","layer":"shadow","date":"2026-08-01","timeLocal":"17:00"},"geometry":{"type":"Polygon","coordinates":[[[127.3136,37.7529],[127.3136,37.75283],[127.31367,37.75283],[127.31367,37.7529],[127.3136,37.7529]]]}},{"type":"Feature","properties":{"valleyId":"chungnyeongsan","layer":"shadow","date":"2026-08-01","timeLocal":"17:00"},"geometry":{"type":"Polygon","coordinates":[[[127.30739,37.75268],[127.30739,37.75254],[127.30741,37.7525],[127.30748,37.7525],[127.30748,37.75268],[127.30739,37.75268]]]}},{"type":"Feature","properties":{"valleyId":"chungnyeongsan","layer":"shadow","date":"2026-08-01","timeLocal":"17:00"},"geometry":{"type":"Polygon","coordinates":[[[127.30324,37.75253],[127.30324,37.75244],[127.30331,37.75244],[127.3033,37.75253],[127.30324,37.75253]]]}},{"type":"Feature","properties":{"valleyId":"chungnyeongsan","layer":"shadow","date":"2026-08-01","timeLocal":"17:00"},"geometry":{"type":"Polygon","coordinates":[[[127.30753,37.75238],[127.30751,37.75223],[127.30758,37.75224],[127.3076,37.75238],[127.30753,37.75238]]]}},{"type":"Feature","properties":{"valleyId":"chungnyeongsan","layer":"shadow","date":"2026-08-01","timeLocal":"17:00"},"geometry":{"type":"Polygon","coordinates":[[[127.30415,37.75224],[127.30411,37.7522],[127.30411,37.75206],[127.30418,37.75206],[127.30418,37.75215],[127.30422,37.75219],[127.30422,37.75224],[127.30415,37.75224]]]}},{"type":"Feature","properties":{"valleyId":"chungnyeongsan","layer":"shadow","date":"2026-08-01","timeLocal":"17:00"},"geometry":{"type":"Polygon","coordinates":[[[127.30736,37.75205],[127.30736,37.752],[127.30743,37.752],[127.30742,37.75205],[127.30736,37.75205]]]}},{"type":"Feature","properties":{"valleyId":"chungnyeongsan","layer":"shadow","date":"2026-08-01","timeLocal":"17:00"},"geometry":{"type":"Polygon","coordinates":[[[127.30727,37.75183],[127.3073,37.75171],[127.30736,37.75171],[127.30734,37.75184],[127.30727,37.75183]]]}},{"type":"Feature","properties":{"valleyId":"chungnyeongsan","layer":"shadow","date":"2026-08-01","timeLocal":"17:00"},"geometry":{"type":"Polygon","coordinates":[[[127.30503,37.75173],[127.30503,37.75168],[127.30514,37.75168],[127.30514,37.75173],[127.30503,37.75173]]]}},{"type":"Feature","properties":{"valleyId":"chungnyeongsan","layer":"shadow","date":"2026-08-01","timeLocal":"17:00"},"geometry":{"type":"Polygon","coordinates":[[[127.30562,37.75253],[127.30565,37.75239],[127.30572,37.75233],[127.30572,37.75223],[127.30579,37.75219],[127.30579,37.75199],[127.30593,37.75185],[127.30593,37.75174],[127.30612,37.75173],[127.30614,37.75155],[127.30617,37.75151],[127.30623,37.75151],[127.30628,37.75157],[127.30628,37.75168],[127.30623,37.75169],[127.30623,37.75173],[127.30614,37.75173],[127.30611,37.75185],[127.30607,37.75187],[127.30607,37.75193],[127.30597,37.75198],[127.30595,37.75212],[127.30583,37.75219],[127.3058,37.75246],[127.30576,37.75248],[127.30576,37.75252],[127.30562,37.75253]]]}},{"type":"Feature","properties":{"valleyId":"chungnyeongsan","layer":"shadow","date":"2026-08-01","timeLocal":"17:00"},"geometry":{"type":"Polygon","coordinates":[[[127.30666,37.75161],[127.30667,37.75152],[127.30673,37.75152],[127.30675,37.75159],[127.30666,37.75161]]]}},{"type":"Feature","properties":{"valleyId":"chungnyeongsan","layer":"shadow","date":"2026-08-01","timeLocal":"17:00"},"geometry":{"type":"Polygon","coordinates":[[[127.30337,37.75178],[127.30349,37.75142],[127.30356,37.75142],[127.30355,37.75178],[127.30337,37.75178]]]}},{"type":"Feature","properties":{"valleyId":"chungnyeongsan","layer":"shadow","date":"2026-08-01","timeLocal":"17:00"},"geometry":{"type":"Polygon","coordinates":[[[127.30501,37.75137],[127.30501,37.75132],[127.30508,37.75132],[127.30508,37.75137],[127.30501,37.75137]]]}},{"type":"Feature","properties":{"valleyId":"chungnyeongsan","layer":"shadow","date":"2026-08-01","timeLocal":"17:00"},"geometry":{"type":"Polygon","coordinates":[[[127.30686,37.75111],[127.30686,37.75102],[127.30693,37.75102],[127.30692,37.75111],[127.30686,37.75111]]]}},{"type":"Feature","properties":{"valleyId":"chungnyeongsan","layer":"shadow","date":"2026-08-01","timeLocal":"17:00"},"geometry":{"type":"Polygon","coordinates":[[[127.30537,37.75137],[127.30538,37.75127],[127.30527,37.75117],[127.30518,37.75096],[127.30529,37.75096],[127.30532,37.751],[127.30561,37.751],[127.30563,37.75131],[127.30558,37.75131],[127.30551,37.75136],[127.30537,37.75137]]]}},{"type":"Feature","properties":{"valleyId":"chungnyeongsan","layer":"shadow","date":"2026-08-01","timeLocal":"17:00"},"geometry":{"type":"Polygon","coordinates":[[[127.30498,37.75085],[127.30498,37.75079],[127.30505,37.75079],[127.30505,37.75085],[127.30498,37.75085]]]}},{"type":"Feature","properties":{"valleyId":"chungnyeongsan","layer":"shadow","date":"2026-08-01","timeLocal":"17:00"},"geometry":{"type":"Polygon","coordinates":[[[127.30646,37.75072],[127.30644,37.75063],[127.30653,37.75063],[127.30655,37.75072],[127.30646,37.75072]]]}},{"type":"Feature","properties":{"valleyId":"chungnyeongsan","layer":"shadow","date":"2026-08-01","timeLocal":"17:00"},"geometry":{"type":"Polygon","coordinates":[[[127.30591,37.75061],[127.30592,37.75055],[127.30598,37.75055],[127.30598,37.75061],[127.30591,37.75061]]]}},{"type":"Feature","properties":{"valleyId":"chungnyeongsan","layer":"shadow","date":"2026-08-01","timeLocal":"17:00"},"geometry":{"type":"Polygon","coordinates":[[[127.30369,37.7507],[127.30364,37.75063],[127.30365,37.7505],[127.30369,37.75041],[127.30376,37.75038],[127.30377,37.75027],[127.30372,37.75025],[127.30372,37.7502],[127.30379,37.7502],[127.3039,37.75027],[127.30399,37.75029],[127.30399,37.75035],[127.30397,37.75042],[127.3039,37.75047],[127.30387,37.75067],[127.3038,37.7507],[127.30369,37.7507]]]}},{"type":"Feature","properties":{"valleyId":"chungnyeongsan","layer":"shadow","date":"2026-08-01","timeLocal":"17:00"},"geometry":{"type":"Polygon","coordinates":[[[127.30359,37.75018],[127.30352,37.75014],[127.30352,37.75005],[127.30359,37.75005],[127.30366,37.75012],[127.30365,37.75018],[127.30359,37.75018]]]}},{"type":"Feature","properties":{"valleyId":"chungnyeongsan","layer":"shadow","date":"2026-08-01","timeLocal":"17:00"},"geometry":{"type":"Polygon","coordinates":[[[127.30615,37.75023],[127.30613,37.75021],[127.30609,37.74998],[127.30616,37.74998],[127.30618,37.75011],[127.30622,37.75014],[127.30622,37.75023],[127.30615,37.75023]]]}},{"type":"Feature","properties":{"valleyId":"chungnyeongsan","layer":"shadow","date":"2026-08-01","timeLocal":"17:00"},"geometry":{"type":"Polygon","coordinates":[[[127.30609,37.74991],[127.30607,37.74973],[127.30614,37.74973],[127.30616,37.74991],[127.30609,37.74991]]]}},{"type":"Feature","properties":{"valleyId":"chungnyeongsan","layer":"shadow","date":"2026-08-01","timeLocal":"17:00"},"geometry":{"type":"Polygon","coordinates":[[[127.307,37.7497],[127.307,37.74961],[127.30712,37.74963],[127.30712,37.74969],[127.307,37.7497]]]}},{"type":"Feature","properties":{"valleyId":"chungnyeongsan","layer":"shadow","date":"2026-08-01","timeLocal":"17:00"},"geometry":{"type":"Polygon","coordinates":[[[127.3057,37.75003],[127.30568,37.74988],[127.30557,37.74985],[127.30557,37.74959],[127.30562,37.74959],[127.30562,37.7495],[127.30558,37.7495],[127.30558,37.74943],[127.30565,37.74943],[127.30564,37.7495],[127.30569,37.7495],[127.30564,37.74968],[127.30573,37.74972],[127.3057,37.74988],[127.30582,37.74992],[127.30581,37.74999],[127.30577,37.74999],[127.30577,37.75003],[127.3057,37.75003]]]}},{"type":"Feature","properties":{"valleyId":"chungnyeongsan","layer":"shadow","date":"2026-08-01","timeLocal":"17:00"},"geometry":{"type":"Polygon","coordinates":[[[127.30474,37.74949],[127.30474,37.74944],[127.30469,37.74944],[127.30465,37.74931],[127.30474,37.74931],[127.30478,37.74937],[127.30483,37.74937],[127.3048,37.74949],[127.30474,37.74949]]]}},{"type":"Feature","properties":{"valleyId":"chungnyeongsan","layer":"shadow","date":"2026-08-01","timeLocal":"17:00"},"geometry":{"type":"Polygon","coordinates":[[[127.30558,37.74932],[127.30558,37.74925],[127.30565,37.74925],[127.30565,37.74932],[127.30558,37.74932]]]}},{"type":"Feature","properties":{"valleyId":"chungnyeongsan","layer":"shadow","date":"2026-08-01","timeLocal":"17:00"},"geometry":{"type":"Polygon","coordinates":[[[127.30564,37.74889],[127.30564,37.74871],[127.30571,37.74871],[127.3057,37.74889],[127.30564,37.74889]]]}},{"type":"Feature","properties":{"valleyId":"chungnyeongsan","layer":"shadow","date":"2026-08-01","timeLocal":"17:00"},"geometry":{"type":"Polygon","coordinates":[[[127.30537,37.74858],[127.30537,37.74851],[127.30544,37.74851],[127.30546,37.74858],[127.30537,37.74858]]]}},{"type":"Feature","properties":{"valleyId":"chungnyeongsan","layer":"shadow","date":"2026-08-01","timeLocal":"17:00"},"geometry":{"type":"Polygon","coordinates":[[[127.30317,37.74831],[127.30318,37.74824],[127.30338,37.74826],[127.30338,37.74832],[127.30317,37.74831]]]}},{"type":"Feature","properties":{"valleyId":"chungnyeongsan","layer":"shadow","date":"2026-08-01","timeLocal":"17:00"},"geometry":{"type":"Polygon","coordinates":[[[127.30594,37.74826],[127.30595,37.74816],[127.30611,37.74819],[127.3061,37.74825],[127.30594,37.74826]]]}},{"type":"Feature","properties":{"valleyId":"chungnyeongsan","layer":"shadow","date":"2026-08-01","timeLocal":"17:00"},"geometry":{"type":"Polygon","coordinates":[[[127.30583,37.74814],[127.30584,37.74808],[127.3059,37.74808],[127.3059,37.74814],[127.30583,37.74814]]]}},{"type":"Feature","properties":{"valleyId":"chungnyeongsan","layer":"shadow","date":"2026-08-01","timeLocal":"17:00"},"geometry":{"type":"Polygon","coordinates":[[[127.30465,37.74828],[127.30465,37.74821],[127.30456,37.74821],[127.30452,37.74817],[127.30452,37.74808],[127.30456,37.74808],[127.30457,37.74801],[127.30463,37.74798],[127.30491,37.74798],[127.30491,37.74802],[127.305,37.74802],[127.305,37.74805],[127.30518,37.74806],[127.30525,37.74809],[127.30524,37.74815],[127.30499,37.74816],[127.30499,37.74829],[127.30465,37.74828]],[[127.3047,37.74814],[127.30481,37.74814],[127.30481,37.74807],[127.30468,37.74805],[127.3047,37.74814]]]}},{"type":"Feature","properties":{"valleyId":"chungnyeongsan","layer":"shadow","date":"2026-08-01","timeLocal":"17:00"},"geometry":{"type":"Polygon","coordinates":[[[127.30302,37.74801],[127.30305,37.7479],[127.30318,37.7479],[127.30318,37.74799],[127.30302,37.74801]]]}},{"type":"Feature","properties":{"valleyId":"chungnyeongsan","layer":"shadow","date":"2026-08-01","timeLocal":"17:00"},"geometry":{"type":"Polygon","coordinates":[[[127.30575,37.74799],[127.30573,37.74785],[127.30566,37.74777],[127.30564,37.74765],[127.30571,37.74765],[127.30575,37.74769],[127.30577,37.74783],[127.3058,37.74787],[127.30584,37.74787],[127.30581,37.74799],[127.30575,37.74799]]]}},{"type":"Feature","properties":{"valleyId":"chungnyeongsan","layer":"shadow","date":"2026-08-01","timeLocal":"17:00"},"geometry":{"type":"Polygon","coordinates":[[[127.30493,37.74719],[127.30495,37.74704],[127.30502,37.74704],[127.30502,37.74717],[127.30493,37.74719]]]}},{"type":"Feature","properties":{"valleyId":"chungnyeongsan","layer":"shadow","date":"2026-08-01","timeLocal":"17:00"},"geometry":{"type":"Polygon","coordinates":[[[127.30368,37.74693],[127.30359,37.74691],[127.30359,37.74686],[127.30375,37.74688],[127.30375,37.74694],[127.30368,37.74693]]]}},{"type":"Feature","properties":{"valleyId":"chungnyeongsan","layer":"shadow","date":"2026-08-01","timeLocal":"17:00"},"geometry":{"type":"Polygon","coordinates":[[[127.30523,37.7469],[127.30523,37.74685],[127.30518,37.74681],[127.30518,37.74676],[127.30525,37.74676],[127.3053,37.74683],[127.30529,37.7469],[127.30523,37.7469]]]}},{"type":"Feature","properties":{"valleyId":"chungnyeongsan","layer":"shadow","date":"2026-08-01","timeLocal":"17:00"},"geometry":{"type":"Polygon","coordinates":[[[127.30519,37.74665],[127.30519,37.7466],[127.30515,37.74647],[127.30521,37.74647],[127.30521,37.74652],[127.30526,37.74654],[127.30526,37.74665],[127.30519,37.74665]]]}},{"type":"Feature","properties":{"valleyId":"chungnyeongsan","layer":"shadow","date":"2026-08-01","timeLocal":"17:00"},"geometry":{"type":"Polygon","coordinates":[[[127.30401,37.74753],[127.30403,37.74743],[127.3039,37.74737],[127.3039,37.7473],[127.30404,37.74728],[127.30408,37.74734],[127.30424,37.74734],[127.30429,37.74727],[127.30443,37.7472],[127.30443,37.74713],[127.30436,37.74707],[127.3042,37.74701],[127.30409,37.74703],[127.30409,37.74712],[127.30404,37.74719],[127.30395,37.74717],[127.30405,37.74694],[127.30416,37.74692],[127.30421,37.74689],[127.30419,37.74676],[127.3041,37.74674],[127.30405,37.74669],[127.30406,37.74643],[127.30413,37.74638],[127.30429,37.74638],[127.30431,37.74633],[127.3044,37.74631],[127.3044,37.74621],[127.30447,37.74621],[127.30451,37.74628],[127.30455,37.7468],[127.30459,37.74684],[127.30459,37.74691],[127.30448,37.74696],[127.30448,37.74702],[127.30452,37.74702],[127.30456,37.74709],[127.3047,37.74713],[127.30474,37.7472],[127.30474,37.74729],[127.30451,37.74732],[127.30449,37.7474],[127.30476,37.74745],[127.30476,37.74751],[127.30401,37.74753]]]}},{"type":"Feature","properties":{"valleyId":"chungnyeongsan","layer":"shadow","date":"2026-08-01","timeLocal":"17:00"},"geometry":{"type":"Polygon","coordinates":[[[127.30332,37.74792],[127.30332,37.74785],[127.30328,37.74783],[127.30323,37.7477],[127.30317,37.7477],[127.30312,37.74774],[127.30312,37.74781],[127.30305,37.74781],[127.30305,37.74784],[127.30296,37.74784],[127.30294,37.74777],[127.30294,37.7477],[127.3031,37.74766],[127.30312,37.74761],[127.30321,37.74761],[127.30326,37.74769],[127.30342,37.74767],[127.30344,37.7476],[127.30349,37.74758],[127.30349,37.74753],[127.30337,37.74752],[127.30335,37.74743],[127.30319,37.74741],[127.30322,37.74729],[127.30297,37.74728],[127.30295,37.74736],[127.30286,37.74735],[127.30286,37.7473],[127.30295,37.74727],[127.303,37.74719],[127.30306,37.7472],[127.30311,37.74716],[127.30313,37.74707],[127.30314,37.74698],[127.30307,37.74698],[127.30307,37.74707],[127.303,37.74707],[127.303,37.74689],[127.30307,37.74678],[127.30307,37.74671],[127.30294,37.74671],[127.30292,37.74662],[127.30278,37.74661],[127.30278,37.74649],[127.30285,37.7464],[127.30286,37.74629],[127.3029,37.74626],[127.30293,37.74617],[127.30304,37.74619],[127.30304,37.74624],[127.30299,37.74626],[127.30302,37.74633],[127.30315,37.74633],[127.30317,37.7464],[127.30329,37.74641],[127.30326,37.74648],[127.30313,37.74648],[127.3031,37.74651],[127.3031,37.74662],[127.30324,37.7466],[127.30326,37.74668],[127.30337,37.7467],[127.30337,37.74675],[127.30325,37.74684],[127.30325,37.74698],[127.30332,37.74698],[127.30334,37.74695],[127.30348,37.74695],[127.30348,37.747],[127.30341,37.74702],[127.30341,37.74707],[127.30331,37.74716],[127.30329,37.74729],[127.30345,37.74731],[127.30351,37.74738],[127.30379,37.74735],[127.30378,37.74742],[127.30385,37.7475],[127.30385,37.74755],[127.3039,37.74755],[127.30385,37.74766],[127.30362,37.74767],[127.30362,37.74773],[127.30373,37.74773],[127.30373,37.74776],[127.30378,37.74776],[127.30378,37.74782],[127.30359,37.74783],[127.30359,37.74791],[127.30332,37.74792]]]}},{"type":"Feature","properties":{"valleyId":"chungnyeongsan","layer":"shadow","date":"2026-08-01","timeLocal":"17:00"},"geometry":{"type":"Polygon","coordinates":[[[127.30502,37.7462],[127.30502,37.74614],[127.30509,37.74614],[127.30508,37.7462],[127.30502,37.7462]]]}},{"type":"Feature","properties":{"valleyId":"chungnyeongsan","layer":"shadow","date":"2026-08-01","timeLocal":"17:00"},"geometry":{"type":"Polygon","coordinates":[[[127.30511,37.74614],[127.30511,37.74609],[127.3052,37.74602],[127.3052,37.74596],[127.30527,37.74597],[127.30527,37.74604],[127.3052,37.74609],[127.3052,37.74613],[127.30511,37.74614]]]}},{"type":"Feature","properties":{"valleyId":"chungnyeongsan","layer":"shadow","date":"2026-08-01","timeLocal":"17:00"},"geometry":{"type":"Polygon","coordinates":[[[127.30334,37.74599],[127.30334,37.74594],[127.30341,37.74594],[127.30341,37.74599],[127.30334,37.74599]]]}},{"type":"Feature","properties":{"valleyId":"chungnyeongsan","layer":"shadow","date":"2026-08-01","timeLocal":"17:00"},"geometry":{"type":"Polygon","coordinates":[[[127.3057,37.74599],[127.3057,37.74592],[127.30577,37.74592],[127.30577,37.74599],[127.3057,37.74599]]]}},{"type":"Feature","properties":{"valleyId":"chungnyeongsan","layer":"shadow","date":"2026-08-01","timeLocal":"17:00"},"geometry":{"type":"Polygon","coordinates":[[[127.30502,37.74582],[127.30498,37.74578],[127.30498,37.74571],[127.30507,37.74571],[127.30512,37.74577],[127.30512,37.74582],[127.30502,37.74582]]]}},{"type":"Feature","properties":{"valleyId":"chungnyeongsan","layer":"shadow","date":"2026-08-01","timeLocal":"17:00"},"geometry":{"type":"Polygon","coordinates":[[[127.30332,37.74574],[127.30333,37.74569],[127.30342,37.74567],[127.30341,37.74574],[127.30332,37.74574]]]}},{"type":"Feature","properties":{"valleyId":"chungnyeongsan","layer":"shadow","date":"2026-08-01","timeLocal":"17:00"},"geometry":{"type":"Polygon","coordinates":[[[127.30418,37.74595],[127.30421,37.74584],[127.30428,37.74577],[127.30428,37.74566],[127.30448,37.74568],[127.30453,37.74572],[127.30452,37.74586],[127.30446,37.74586],[127.30427,37.74595],[127.30418,37.74595]]]}},{"type":"Feature","properties":{"valleyId":"chungnyeongsan","layer":"shadow","date":"2026-08-01","timeLocal":"17:00"},"geometry":{"type":"Polygon","coordinates":[[[127.30394,37.74568],[127.30389,37.74562],[127.3039,37.74555],[127.30412,37.74559],[127.30412,37.74566],[127.30394,37.74568]]]}},{"type":"Feature","properties":{"valleyId":"chungnyeongsan","layer":"shadow","date":"2026-08-01","timeLocal":"17:00"},"geometry":{"type":"Polygon","coordinates":[[[127.30357,37.74571],[127.30358,37.74563],[127.3036,37.7456],[127.30364,37.7456],[127.30367,37.74551],[127.30372,37.74547],[127.30378,37.74548],[127.3038,37.74555],[127.30367,37.7456],[127.30364,37.74571],[127.30357,37.74571]]]}},{"type":"Feature","properties":{"valleyId":"chungnyeongsan","layer":"shadow","date":"2026-08-01","timeLocal":"17:00"},"geometry":{"type":"Polygon","coordinates":[[[127.30455,37.74558],[127.30456,37.74549],[127.30462,37.74549],[127.30462,37.74558],[127.30455,37.74558]]]}},{"type":"Feature","properties":{"valleyId":"chungnyeongsan","layer":"shadow","date":"2026-08-01","timeLocal":"17:00"},"geometry":{"type":"Polygon","coordinates":[[[127.3041,37.74552],[127.3041,37.74546],[127.30417,37.74546],[127.30417,37.74552],[127.3041,37.74552]]]}},{"type":"Feature","properties":{"valleyId":"chungnyeongsan","layer":"shadow","date":"2026-08-01","timeLocal":"17:00"},"geometry":{"type":"Polygon","coordinates":[[[127.30419,37.7455],[127.30419,37.74545],[127.30449,37.7454],[127.30449,37.74545],[127.30442,37.74548],[127.30419,37.7455]]]}},{"type":"Feature","properties":{"valleyId":"chungnyeongsan","layer":"shadow","date":"2026-08-01","timeLocal":"17:00"},"geometry":{"type":"Polygon","coordinates":[[[127.30539,37.74577],[127.30539,37.74566],[127.30548,37.74559],[127.30553,37.74559],[127.30549,37.74539],[127.30556,37.74539],[127.30556,37.74543],[127.3056,37.74543],[127.30562,37.74561],[127.30546,37.74577],[127.30539,37.74577]]]}},{"type":"Feature","properties":{"valleyId":"chungnyeongsan","layer":"shadow","date":"2026-08-01","timeLocal":"17:00"},"geometry":{"type":"Polygon","coordinates":[[[127.30465,37.7454],[127.30467,37.74531],[127.30477,37.74524],[127.30483,37.74524],[127.30488,37.74529],[127.30499,37.74529],[127.30499,37.74535],[127.30465,37.7454]]]}},{"type":"Feature","properties":{"valleyId":"chungnyeongsan","layer":"shadow","date":"2026-08-01","timeLocal":"17:00"},"geometry":{"type":"Polygon","coordinates":[[[127.30583,37.74532],[127.30583,37.74523],[127.30595,37.74525],[127.30592,37.74533],[127.30583,37.74532]]]}},{"type":"Feature","properties":{"valleyId":"chungnyeongsan","layer":"shadow","date":"2026-08-01","timeLocal":"17:00"},"geometry":{"type":"Polygon","coordinates":[[[127.30508,37.74526],[127.30508,37.74519],[127.30522,37.74521],[127.30522,37.74526],[127.30508,37.74526]]]}},{"type":"Feature","properties":{"valleyId":"chungnyeongsan","layer":"shadow","date":"2026-08-01","timeLocal":"17:00"},"geometry":{"type":"Polygon","coordinates":[[[127.30488,37.74519],[127.30486,37.74509],[127.30506,37.7451],[127.30506,37.74519],[127.30488,37.74519]]]}}]}
