{"type":"FeatureCollection","metadata":{"description":"개방지(CHM ≤ 2 m)에 드리운 나무·지형 그림자, 2026-08-01 15:00 KST. canopy 위에 겹쳐 그린다","source":"위성 기반 추정 — Copernicus GLO-30 지형(30 m) + Meta/WRI 수관 높이(1 m CHM, 2019 촬영). 그늘 = 수관(CHM > 2 m) ∪ 나무·지형 그림자 ∪ 원거리 지형 마스크. 현장과 다를 수 있음.","datasetVersion":"2026-09-06.0","collectedAt":"2026-09-06","coordinateOrder":"[longitude, latitude]","crs":"EPSG:4326","representativeDate":"2026-08-01","hours":["10:00","11:00","12:00","13:00","14:00","15:00","16:00","17:00","18:00"],"chmAcquisition":["2019-03"],"assets":{"glo30":{"dataset":"Copernicus DEM GLO-30 (COG, s3://copernicus-dem-30m)","tiles":["Copernicus_DSM_COG_10_N37_00_E127_00_DEM"]},"chm":{"dataset":"Meta/WRI Global Canopy Height Map v1 (alsgedi_global_v6_float, 1 m, CC-BY 4.0)","quadkeys":["132110303"],"acquisition":["2019-03"]}},"method":{"gridResM":2,"canopyThresholdM":2,"bufferHalfM":25,"corridorHalfM":200,"simplifyTolM":2,"minAreaM2":25,"coordDecimals":5},"generator":"scripts/shade 0.1.0","builtAt":"2026-09-06T06:02:45Z","layer":"shadow","timeLocal":"15:00"},"features":[{"type":"Feature","properties":{"valleyId":"chungnyeongsan","layer":"shadow","date":"2026-08-01","timeLocal":"15:00"},"geometry":{"type":"Polygon","coordinates":[[[127.30438,37.75529],[127.30438,37.75515],[127.30445,37.75515],[127.30445,37.75529],[127.30438,37.75529]]]}},{"type":"Feature","properties":{"valleyId":"chungnyeongsan","layer":"shadow","date":"2026-08-01","timeLocal":"15:00"},"geometry":{"type":"Polygon","coordinates":[[[127.30454,37.75508],[127.30457,37.75493],[127.30463,37.75493],[127.30461,37.75508],[127.30454,37.75508]]]}},{"type":"Feature","properties":{"valleyId":"chungnyeongsan","layer":"shadow","date":"2026-08-01","timeLocal":"15:00"},"geometry":{"type":"Polygon","coordinates":[[[127.30481,37.74818],[127.30481,37.74812],[127.30488,37.74812],[127.30488,37.74818],[127.30481,37.74818]]]}},{"type":"Feature","properties":{"valleyId":"chungnyeongsan","layer":"shadow","date":"2026-08-01","timeLocal":"15:00"},"geometry":{"type":"Polygon","coordinates":[[[127.30296,37.74774],[127.30296,37.74768],[127.30303,37.74768],[127.30303,37.74774],[127.30296,37.74774]]]}},{"type":"Feature","properties":{"valleyId":"chungnyeongsan","layer":"shadow","date":"2026-08-01","timeLocal":"15:00"},"geometry":{"type":"Polygon","coordinates":[[[127.30312,37.74767],[127.30312,37.74761],[127.30319,37.74761],[127.30319,37.74767],[127.30312,37.74767]]]}},{"type":"Feature","properties":{"valleyId":"chungnyeongsan","layer":"shadow","date":"2026-08-01","timeLocal":"15:00"},"geometry":{"type":"Polygon","coordinates":[[[127.30399,37.74755],[127.30399,37.7475],[127.30403,37.74746],[127.3041,37.74746],[127.3041,37.74752],[127.30405,37.74755],[127.30399,37.74755]]]}},{"type":"Feature","properties":{"valleyId":"chungnyeongsan","layer":"shadow","date":"2026-08-01","timeLocal":"15:00"},"geometry":{"type":"Polygon","coordinates":[[[127.30405,37.74669],[127.30405,37.74662],[127.30412,37.74662],[127.30412,37.74669],[127.30405,37.74669]]]}},{"type":"Feature","properties":{"valleyId":"chungnyeongsan","layer":"shadow","date":"2026-08-01","timeLocal":"15:00"},"geometry":{"type":"Polygon","coordinates":[[[127.30406,37.74649],[127.30406,37.74643],[127.30413,37.74644],[127.30412,37.74649],[127.30406,37.74649]]]}},{"type":"Feature","properties":{"valleyId":"chungnyeongsan","layer":"shadow","date":"2026-08-01","timeLocal":"15:00"},"geometry":{"type":"Polygon","coordinates":[[[127.30418,37.74595],[127.30421,37.74584],[127.30427,37.74584],[127.30427,37.74593],[127.30418,37.74595]]]}},{"type":"Feature","properties":{"valleyId":"chungnyeongsan","layer":"shadow","date":"2026-08-01","timeLocal":"15:00"},"geometry":{"type":"Polygon","coordinates":[[[127.30428,37.74579],[127.30428,37.74574],[127.30435,37.74574],[127.30434,37.74579],[127.30428,37.74579]]]}},{"type":"Feature","properties":{"valleyId":"chungnyeongsan","layer":"shadow","date":"2026-08-01","timeLocal":"15:00"},"geometry":{"type":"Polygon","coordinates":[[[127.30403,37.74555],[127.30406,37.74548],[127.30417,37.74546],[127.30417,37.74554],[127.30403,37.74555]]]}},{"type":"Feature","properties":{"valleyId":"chungnyeongsan","layer":"shadow","date":"2026-08-01","timeLocal":"15:00"},"geometry":{"type":"Polygon","coordinates":[[[127.30467,37.74536],[127.30467,37.74531],[127.30474,37.74531],[127.30474,37.74536],[127.30467,37.74536]]]}}]}
