{"type":"FeatureCollection","metadata":{"description":"개방지(CHM ≤ 2 m)에 드리운 나무·지형 그림자, 2026-08-01 16:00 KST. canopy 위에 겹쳐 그린다","source":"위성 기반 추정 — Copernicus GLO-30 지형(30 m) + Meta/WRI 수관 높이(1 m CHM, 2019 촬영). 그늘 = 수관(CHM > 2 m) ∪ 나무·지형 그림자 ∪ 원거리 지형 마스크. 현장과 다를 수 있음.","datasetVersion":"2026-09-06.0","collectedAt":"2026-09-06","coordinateOrder":"[longitude, latitude]","crs":"EPSG:4326","representativeDate":"2026-08-01","hours":["10:00","11:00","12:00","13:00","14:00","15:00","16:00","17:00","18:00"],"chmAcquisition":["2019-03","2019-05"],"assets":{"glo30":{"dataset":"Copernicus DEM GLO-30 (COG, s3://copernicus-dem-30m)","tiles":["Copernicus_DSM_COG_10_N37_00_E127_00_DEM"]},"chm":{"dataset":"Meta/WRI Global Canopy Height Map v1 (alsgedi_global_v6_float, 1 m, CC-BY 4.0)","quadkeys":["132110302","132110320"],"acquisition":["2019-03","2019-05"]}},"method":{"gridResM":2,"canopyThresholdM":2,"bufferHalfM":25,"corridorHalfM":200,"simplifyTolM":2,"minAreaM2":25,"coordDecimals":5},"generator":"scripts/shade 0.1.0","builtAt":"2026-09-06T06:13:38Z","layer":"shadow","timeLocal":"16:00"},"features":[{"type":"Feature","properties":{"valleyId":"suraksan","layer":"shadow","date":"2026-08-01","timeLocal":"16:00"},"geometry":{"type":"Polygon","coordinates":[[[127.12029,37.71567],[127.12029,37.71558],[127.12039,37.71558],[127.12038,37.71567],[127.12029,37.71567]]]}},{"type":"Feature","properties":{"valleyId":"suraksan","layer":"shadow","date":"2026-08-01","timeLocal":"16:00"},"geometry":{"type":"Polygon","coordinates":[[[127.12081,37.71512],[127.12081,37.71507],[127.12087,37.71507],[127.12087,37.71512],[127.12081,37.71512]]]}},{"type":"Feature","properties":{"valleyId":"suraksan","layer":"shadow","date":"2026-08-01","timeLocal":"16:00"},"geometry":{"type":"Polygon","coordinates":[[[127.1143,37.71316],[127.1143,37.71309],[127.11437,37.71309],[127.11437,37.71316],[127.1143,37.71316]]]}},{"type":"Feature","properties":{"valleyId":"suraksan","layer":"shadow","date":"2026-08-01","timeLocal":"16:00"},"geometry":{"type":"Polygon","coordinates":[[[127.12408,37.7131],[127.12406,37.71296],[127.12415,37.71296],[127.12415,37.7131],[127.12408,37.7131]]]}},{"type":"Feature","properties":{"valleyId":"suraksan","layer":"shadow","date":"2026-08-01","timeLocal":"16:00"},"geometry":{"type":"Polygon","coordinates":[[[127.11363,37.71265],[127.11363,37.71256],[127.1137,37.71256],[127.11375,37.71259],[127.11374,37.71265],[127.11363,37.71265]]]}},{"type":"Feature","properties":{"valleyId":"suraksan","layer":"shadow","date":"2026-08-01","timeLocal":"16:00"},"geometry":{"type":"Polygon","coordinates":[[[127.11396,37.71206],[127.11396,37.712],[127.11403,37.712],[127.11403,37.71206],[127.11396,37.71206]]]}},{"type":"Feature","properties":{"valleyId":"suraksan","layer":"shadow","date":"2026-08-01","timeLocal":"16:00"},"geometry":{"type":"Polygon","coordinates":[[[127.12464,37.71241],[127.12465,37.71214],[127.12472,37.71214],[127.12471,37.71241],[127.12464,37.71241]]]}},{"type":"Feature","properties":{"valleyId":"suraksan","layer":"shadow","date":"2026-08-01","timeLocal":"16:00"},"geometry":{"type":"Polygon","coordinates":[[[127.12467,37.71208],[127.12465,37.71201],[127.12472,37.71201],[127.12474,37.71209],[127.12467,37.71208]]]}},{"type":"Feature","properties":{"valleyId":"suraksan","layer":"shadow","date":"2026-08-01","timeLocal":"16:00"},"geometry":{"type":"Polygon","coordinates":[[[127.11449,37.71187],[127.11449,37.71178],[127.11463,37.7118],[127.11463,37.71185],[127.11449,37.71187]]]}},{"type":"Feature","properties":{"valleyId":"suraksan","layer":"shadow","date":"2026-08-01","timeLocal":"16:00"},"geometry":{"type":"Polygon","coordinates":[[[127.12461,37.71199],[127.12461,37.71194],[127.12467,37.71194],[127.12467,37.71199],[127.12461,37.71199]]]}},{"type":"Feature","properties":{"valleyId":"suraksan","layer":"shadow","date":"2026-08-01","timeLocal":"16:00"},"geometry":{"type":"Polygon","coordinates":[[[127.12397,37.71195],[127.12397,37.71187],[127.12406,37.71186],[127.12404,37.71195],[127.12397,37.71195]]]}},{"type":"Feature","properties":{"valleyId":"suraksan","layer":"shadow","date":"2026-08-01","timeLocal":"16:00"},"geometry":{"type":"Polygon","coordinates":[[[127.12428,37.7115],[127.12428,37.71145],[127.12435,37.71145],[127.12435,37.7115],[127.12428,37.7115]]]}},{"type":"Feature","properties":{"valleyId":"suraksan","layer":"shadow","date":"2026-08-01","timeLocal":"16:00"},"geometry":{"type":"Polygon","coordinates":[[[127.12035,37.71057],[127.12035,37.7105],[127.12045,37.7105],[127.12044,37.71056],[127.12035,37.71057]]]}},{"type":"Feature","properties":{"valleyId":"suraksan","layer":"shadow","date":"2026-08-01","timeLocal":"16:00"},"geometry":{"type":"Polygon","coordinates":[[[127.11846,37.71002],[127.11846,37.70997],[127.11858,37.70997],[127.11857,37.71002],[127.11846,37.71002]]]}},{"type":"Feature","properties":{"valleyId":"suraksan","layer":"shadow","date":"2026-08-01","timeLocal":"16:00"},"geometry":{"type":"Polygon","coordinates":[[[127.1186,37.70995],[127.1186,37.7099],[127.11867,37.7099],[127.11867,37.70995],[127.1186,37.70995]]]}},{"type":"Feature","properties":{"valleyId":"suraksan","layer":"shadow","date":"2026-08-01","timeLocal":"16:00"},"geometry":{"type":"Polygon","coordinates":[[[127.12005,37.70997],[127.12003,37.70988],[127.1201,37.70988],[127.12012,37.70997],[127.12005,37.70997]]]}},{"type":"Feature","properties":{"valleyId":"suraksan","layer":"shadow","date":"2026-08-01","timeLocal":"16:00"},"geometry":{"type":"Polygon","coordinates":[[[127.11137,37.70953],[127.1114,37.7094],[127.11149,37.7094],[127.11149,37.70948],[127.11144,37.70949],[127.11144,37.70953],[127.11137,37.70953]]]}},{"type":"Feature","properties":{"valleyId":"suraksan","layer":"shadow","date":"2026-08-01","timeLocal":"16:00"},"geometry":{"type":"Polygon","coordinates":[[[127.11126,37.70936],[127.11126,37.70931],[127.11133,37.70931],[127.11133,37.70937],[127.11126,37.70936]]]}},{"type":"Feature","properties":{"valleyId":"suraksan","layer":"shadow","date":"2026-08-01","timeLocal":"16:00"},"geometry":{"type":"Polygon","coordinates":[[[127.11655,37.70934],[127.11655,37.70925],[127.11662,37.70925],[127.11664,37.70932],[127.11655,37.70934]]]}},{"type":"Feature","properties":{"valleyId":"suraksan","layer":"shadow","date":"2026-08-01","timeLocal":"16:00"},"geometry":{"type":"Polygon","coordinates":[[[127.11968,37.70936],[127.11968,37.70928],[127.11975,37.70928],[127.11975,37.70936],[127.11968,37.70936]]]}},{"type":"Feature","properties":{"valleyId":"suraksan","layer":"shadow","date":"2026-08-01","timeLocal":"16:00"},"geometry":{"type":"Polygon","coordinates":[[[127.11991,37.70932],[127.11993,37.70921],[127.12,37.70922],[127.12002,37.70931],[127.11991,37.70932]]]}},{"type":"Feature","properties":{"valleyId":"suraksan","layer":"shadow","date":"2026-08-01","timeLocal":"16:00"},"geometry":{"type":"Polygon","coordinates":[[[127.11805,37.70924],[127.11805,37.70918],[127.11812,37.70919],[127.11812,37.70924],[127.11805,37.70924]]]}},{"type":"Feature","properties":{"valleyId":"suraksan","layer":"shadow","date":"2026-08-01","timeLocal":"16:00"},"geometry":{"type":"Polygon","coordinates":[[[127.1188,37.70912],[127.1188,37.70907],[127.11887,37.70907],[127.11887,37.70913],[127.1188,37.70912]]]}},{"type":"Feature","properties":{"valleyId":"suraksan","layer":"shadow","date":"2026-08-01","timeLocal":"16:00"},"geometry":{"type":"Polygon","coordinates":[[[127.11977,37.7086],[127.11977,37.70847],[127.11984,37.70847],[127.11984,37.7086],[127.11977,37.7086]]]}},{"type":"Feature","properties":{"valleyId":"suraksan","layer":"shadow","date":"2026-08-01","timeLocal":"16:00"},"geometry":{"type":"Polygon","coordinates":[[[127.1229,37.70851],[127.1229,37.70843],[127.12297,37.70843],[127.12297,37.70851],[127.1229,37.70851]]]}},{"type":"Feature","properties":{"valleyId":"suraksan","layer":"shadow","date":"2026-08-01","timeLocal":"16:00"},"geometry":{"type":"Polygon","coordinates":[[[127.10989,37.70819],[127.10989,37.70812],[127.10998,37.70812],[127.10998,37.70819],[127.10989,37.70819]]]}},{"type":"Feature","properties":{"valleyId":"suraksan","layer":"shadow","date":"2026-08-01","timeLocal":"16:00"},"geometry":{"type":"Polygon","coordinates":[[[127.12304,37.70838],[127.12302,37.70827],[127.12309,37.70827],[127.12311,37.70838],[127.12304,37.70838]]]}},{"type":"Feature","properties":{"valleyId":"suraksan","layer":"shadow","date":"2026-08-01","timeLocal":"16:00"},"geometry":{"type":"Polygon","coordinates":[[[127.12137,37.70823],[127.12137,37.70817],[127.12143,37.70818],[127.12143,37.70823],[127.12137,37.70823]]]}},{"type":"Feature","properties":{"valleyId":"suraksan","layer":"shadow","date":"2026-08-01","timeLocal":"16:00"},"geometry":{"type":"Polygon","coordinates":[[[127.10982,37.70803],[127.10982,37.70795],[127.10992,37.70796],[127.10991,37.70803],[127.10982,37.70803]]]}},{"type":"Feature","properties":{"valleyId":"suraksan","layer":"shadow","date":"2026-08-01","timeLocal":"16:00"},"geometry":{"type":"Polygon","coordinates":[[[127.11953,37.70742],[127.11953,37.70733],[127.1196,37.70733],[127.11959,37.70743],[127.11953,37.70742]]]}},{"type":"Feature","properties":{"valleyId":"suraksan","layer":"shadow","date":"2026-08-01","timeLocal":"16:00"},"geometry":{"type":"Polygon","coordinates":[[[127.10687,37.7071],[127.1069,37.70699],[127.10697,37.70699],[127.10694,37.7071],[127.10687,37.7071]]]}},{"type":"Feature","properties":{"valleyId":"suraksan","layer":"shadow","date":"2026-08-01","timeLocal":"16:00"},"geometry":{"type":"Polygon","coordinates":[[[127.11218,37.70713],[127.11218,37.70707],[127.11225,37.70707],[127.11225,37.70713],[127.11218,37.70713]]]}},{"type":"Feature","properties":{"valleyId":"suraksan","layer":"shadow","date":"2026-08-01","timeLocal":"16:00"},"geometry":{"type":"Polygon","coordinates":[[[127.10849,37.70703],[127.10849,37.70692],[127.10856,37.70692],[127.10858,37.70703],[127.10849,37.70703]]]}},{"type":"Feature","properties":{"valleyId":"suraksan","layer":"shadow","date":"2026-08-01","timeLocal":"16:00"},"geometry":{"type":"Polygon","coordinates":[[[127.12135,37.70716],[127.12135,37.70709],[127.12142,37.70709],[127.12144,37.70717],[127.12135,37.70716]]]}},{"type":"Feature","properties":{"valleyId":"suraksan","layer":"shadow","date":"2026-08-01","timeLocal":"16:00"},"geometry":{"type":"Polygon","coordinates":[[[127.11553,37.70666],[127.11553,37.7066],[127.11562,37.7066],[127.11562,37.70666],[127.11553,37.70666]]]}},{"type":"Feature","properties":{"valleyId":"suraksan","layer":"shadow","date":"2026-08-01","timeLocal":"16:00"},"geometry":{"type":"Polygon","coordinates":[[[127.11511,37.70636],[127.11515,37.70624],[127.11527,37.70624],[127.11524,37.70635],[127.11511,37.70636]]]}},{"type":"Feature","properties":{"valleyId":"suraksan","layer":"shadow","date":"2026-08-01","timeLocal":"16:00"},"geometry":{"type":"Polygon","coordinates":[[[127.10715,37.70623],[127.10715,37.70602],[127.10722,37.70602],[127.10724,37.70616],[127.10721,37.70624],[127.10715,37.70623]]]}},{"type":"Feature","properties":{"valleyId":"suraksan","layer":"shadow","date":"2026-08-01","timeLocal":"16:00"},"geometry":{"type":"Polygon","coordinates":[[[127.11295,37.70535],[127.11296,37.70528],[127.11302,37.70528],[127.11302,37.70536],[127.11295,37.70535]]]}},{"type":"Feature","properties":{"valleyId":"suraksan","layer":"shadow","date":"2026-08-01","timeLocal":"16:00"},"geometry":{"type":"Polygon","coordinates":[[[127.11748,37.70489],[127.11748,37.70483],[127.11753,37.70483],[127.11753,37.7048],[127.1176,37.7048],[127.11759,37.70489],[127.11748,37.70489]]]}},{"type":"Feature","properties":{"valleyId":"suraksan","layer":"shadow","date":"2026-08-01","timeLocal":"16:00"},"geometry":{"type":"Polygon","coordinates":[[[127.12208,37.70496],[127.12206,37.70478],[127.12211,37.70469],[127.12212,37.70456],[127.12219,37.70444],[127.12219,37.70435],[127.12226,37.70435],[127.12225,37.70462],[127.1222,37.70465],[127.12218,37.70478],[127.12213,37.7048],[127.12215,37.70496],[127.12208,37.70496]]]}},{"type":"Feature","properties":{"valleyId":"suraksan","layer":"shadow","date":"2026-08-01","timeLocal":"16:00"},"geometry":{"type":"Polygon","coordinates":[[[127.10149,37.70297],[127.10149,37.70292],[127.10156,37.70292],[127.10156,37.70297],[127.10149,37.70297]]]}},{"type":"Feature","properties":{"valleyId":"suraksan","layer":"shadow","date":"2026-08-01","timeLocal":"16:00"},"geometry":{"type":"Polygon","coordinates":[[[127.10279,37.70191],[127.10279,37.70184],[127.10286,37.70184],[127.10288,37.70191],[127.10279,37.70191]]]}},{"type":"Feature","properties":{"valleyId":"suraksan","layer":"shadow","date":"2026-08-01","timeLocal":"16:00"},"geometry":{"type":"Polygon","coordinates":[[[127.12533,37.69957],[127.12533,37.6995],[127.1254,37.6995],[127.12542,37.69957],[127.12533,37.69957]]]}},{"type":"Feature","properties":{"valleyId":"suraksan","layer":"shadow","date":"2026-08-01","timeLocal":"16:00"},"geometry":{"type":"Polygon","coordinates":[[[127.12638,37.6982],[127.12638,37.69812],[127.12645,37.69813],[127.12645,37.6982],[127.12638,37.6982]]]}}]}
