{"type":"FeatureCollection","metadata":{"description":"개방지(CHM ≤ 2 m)에 드리운 나무·지형 그림자, 2026-08-01 17:00 KST. canopy 위에 겹쳐 그린다","source":"위성 기반 추정 — Copernicus GLO-30 지형(30 m) + Meta/WRI 수관 높이(1 m CHM, 2019 촬영). 그늘 = 수관(CHM > 2 m) ∪ 나무·지형 그림자 ∪ 원거리 지형 마스크. 현장과 다를 수 있음.","datasetVersion":"2026-09-06.0","collectedAt":"2026-09-06","coordinateOrder":"[longitude, latitude]","crs":"EPSG:4326","representativeDate":"2026-08-01","hours":["10:00","11:00","12:00","13:00","14:00","15:00","16:00","17:00","18:00"],"chmAcquisition":["2019-03","2019-05"],"assets":{"glo30":{"dataset":"Copernicus DEM GLO-30 (COG, s3://copernicus-dem-30m)","tiles":["Copernicus_DSM_COG_10_N37_00_E127_00_DEM"]},"chm":{"dataset":"Meta/WRI Global Canopy Height Map v1 (alsgedi_global_v6_float, 1 m, CC-BY 4.0)","quadkeys":["132110302","132110320"],"acquisition":["2019-03","2019-05"]}},"method":{"gridResM":2,"canopyThresholdM":2,"bufferHalfM":25,"corridorHalfM":200,"simplifyTolM":2,"minAreaM2":25,"coordDecimals":5},"generator":"scripts/shade 0.1.0","builtAt":"2026-09-06T06:13:38Z","layer":"shadow","timeLocal":"17:00"},"features":[{"type":"Feature","properties":{"valleyId":"suraksan","layer":"shadow","date":"2026-08-01","timeLocal":"17:00"},"geometry":{"type":"Polygon","coordinates":[[[127.12027,37.71585],[127.12027,37.7158],[127.12033,37.7158],[127.12033,37.71585],[127.12027,37.71585]]]}},{"type":"Feature","properties":{"valleyId":"suraksan","layer":"shadow","date":"2026-08-01","timeLocal":"17:00"},"geometry":{"type":"Polygon","coordinates":[[[127.12029,37.71566],[127.1203,37.71557],[127.12041,37.71557],[127.12048,37.7156],[127.12047,37.71566],[127.12029,37.71566]]]}},{"type":"Feature","properties":{"valleyId":"suraksan","layer":"shadow","date":"2026-08-01","timeLocal":"17:00"},"geometry":{"type":"Polygon","coordinates":[[[127.12055,37.71543],[127.1206,37.71519],[127.12065,37.71514],[127.12071,37.71514],[127.12071,37.71528],[127.12067,37.71528],[127.12062,37.71543],[127.12055,37.71543]]]}},{"type":"Feature","properties":{"valleyId":"suraksan","layer":"shadow","date":"2026-08-01","timeLocal":"17:00"},"geometry":{"type":"Polygon","coordinates":[[[127.12164,37.71515],[127.12165,37.7151],[127.12171,37.7151],[127.12171,37.71516],[127.12164,37.71515]]]}},{"type":"Feature","properties":{"valleyId":"suraksan","layer":"shadow","date":"2026-08-01","timeLocal":"17:00"},"geometry":{"type":"Polygon","coordinates":[[[127.12081,37.71512],[127.12081,37.71503],[127.12092,37.71505],[127.1209,37.71512],[127.12081,37.71512]]]}},{"type":"Feature","properties":{"valleyId":"suraksan","layer":"shadow","date":"2026-08-01","timeLocal":"17:00"},"geometry":{"type":"Polygon","coordinates":[[[127.11458,37.71437],[127.11452,37.71432],[127.11452,37.71421],[127.11459,37.71418],[127.11464,37.71407],[127.11471,37.71407],[127.1147,37.71416],[127.11463,37.71421],[127.11465,37.71438],[127.11458,37.71437]]]}},{"type":"Feature","properties":{"valleyId":"suraksan","layer":"shadow","date":"2026-08-01","timeLocal":"17:00"},"geometry":{"type":"Polygon","coordinates":[[[127.11471,37.71405],[127.11471,37.71393],[127.1148,37.71393],[127.1148,37.71404],[127.11471,37.71405]]]}},{"type":"Feature","properties":{"valleyId":"suraksan","layer":"shadow","date":"2026-08-01","timeLocal":"17:00"},"geometry":{"type":"Polygon","coordinates":[[[127.1146,37.71382],[127.11458,37.71373],[127.11462,37.71369],[127.11469,37.71369],[127.11469,37.71382],[127.1146,37.71382]]]}},{"type":"Feature","properties":{"valleyId":"suraksan","layer":"shadow","date":"2026-08-01","timeLocal":"17:00"},"geometry":{"type":"Polygon","coordinates":[[[127.12582,37.71405],[127.12583,37.714],[127.12578,37.71398],[127.12581,37.71385],[127.1259,37.71385],[127.12592,37.71398],[127.12598,37.714],[127.12598,37.71405],[127.12582,37.71405]]]}},{"type":"Feature","properties":{"valleyId":"suraksan","layer":"shadow","date":"2026-08-01","timeLocal":"17:00"},"geometry":{"type":"Polygon","coordinates":[[[127.119,37.71381],[127.11905,37.71356],[127.11914,37.71356],[127.11916,37.71378],[127.119,37.71381]]]}},{"type":"Feature","properties":{"valleyId":"suraksan","layer":"shadow","date":"2026-08-01","timeLocal":"17:00"},"geometry":{"type":"Polygon","coordinates":[[[127.12574,37.71383],[127.12572,37.71372],[127.12567,37.7137],[127.12568,37.71363],[127.12574,37.71363],[127.12576,37.71371],[127.12581,37.71372],[127.12581,37.71383],[127.12574,37.71383]]]}},{"type":"Feature","properties":{"valleyId":"suraksan","layer":"shadow","date":"2026-08-01","timeLocal":"17:00"},"geometry":{"type":"Polygon","coordinates":[[[127.11395,37.7135],[127.11393,37.71343],[127.11395,37.71339],[127.11402,37.71339],[127.11402,37.7135],[127.11395,37.7135]]]}},{"type":"Feature","properties":{"valleyId":"suraksan","layer":"shadow","date":"2026-08-01","timeLocal":"17:00"},"geometry":{"type":"Polygon","coordinates":[[[127.11896,37.71353],[127.11896,37.71347],[127.11903,37.71347],[127.11903,37.71353],[127.11896,37.71353]]]}},{"type":"Feature","properties":{"valleyId":"suraksan","layer":"shadow","date":"2026-08-01","timeLocal":"17:00"},"geometry":{"type":"Polygon","coordinates":[[[127.11883,37.71345],[127.11883,37.7134],[127.11892,37.7134],[127.11892,37.71345],[127.11883,37.71345]]]}},{"type":"Feature","properties":{"valleyId":"suraksan","layer":"shadow","date":"2026-08-01","timeLocal":"17:00"},"geometry":{"type":"Polygon","coordinates":[[[127.12019,37.71338],[127.12019,37.71331],[127.12031,37.71331],[127.1203,37.71338],[127.12019,37.71338]]]}},{"type":"Feature","properties":{"valleyId":"suraksan","layer":"shadow","date":"2026-08-01","timeLocal":"17:00"},"geometry":{"type":"Polygon","coordinates":[[[127.11402,37.71337],[127.114,37.71318],[127.11407,37.71318],[127.11407,37.71321],[127.11412,37.71321],[127.11411,37.71336],[127.11402,37.71337]]]}},{"type":"Feature","properties":{"valleyId":"suraksan","layer":"shadow","date":"2026-08-01","timeLocal":"17:00"},"geometry":{"type":"Polygon","coordinates":[[[127.1143,37.71318],[127.1143,37.71305],[127.11439,37.71306],[127.11446,37.71309],[127.11446,37.71316],[127.1143,37.71318]]]}},{"type":"Feature","properties":{"valleyId":"suraksan","layer":"shadow","date":"2026-08-01","timeLocal":"17:00"},"geometry":{"type":"Polygon","coordinates":[[[127.1138,37.7131],[127.11385,37.71292],[127.11392,37.71292],[127.11392,37.71303],[127.11387,37.71303],[127.11387,37.7131],[127.1138,37.7131]]]}},{"type":"Feature","properties":{"valleyId":"suraksan","layer":"shadow","date":"2026-08-01","timeLocal":"17:00"},"geometry":{"type":"Polygon","coordinates":[[[127.12728,37.71299],[127.12728,37.71292],[127.12735,37.71292],[127.12735,37.71299],[127.12728,37.71299]]]}},{"type":"Feature","properties":{"valleyId":"suraksan","layer":"shadow","date":"2026-08-01","timeLocal":"17:00"},"geometry":{"type":"Polygon","coordinates":[[[127.11314,37.71302],[127.11315,37.71282],[127.11326,37.71279],[127.11324,37.71266],[127.11331,37.71266],[127.11333,37.71279],[127.11329,37.71279],[127.11326,37.71297],[127.11321,37.71302],[127.11314,37.71302]]]}},{"type":"Feature","properties":{"valleyId":"suraksan","layer":"shadow","date":"2026-08-01","timeLocal":"17:00"},"geometry":{"type":"Polygon","coordinates":[[[127.11376,37.71287],[127.11374,37.71272],[127.11363,37.71268],[127.11363,37.71256],[127.11386,37.71256],[127.11386,37.71261],[127.11377,37.71263],[127.11377,37.7127],[127.11385,37.71274],[127.11385,37.71281],[127.11383,37.71287],[127.11376,37.71287]]]}},{"type":"Feature","properties":{"valleyId":"suraksan","layer":"shadow","date":"2026-08-01","timeLocal":"17:00"},"geometry":{"type":"Polygon","coordinates":[[[127.12751,37.7128],[127.12751,37.71272],[127.12758,37.71273],[127.12758,37.7128],[127.12751,37.7128]]]}},{"type":"Feature","properties":{"valleyId":"suraksan","layer":"shadow","date":"2026-08-01","timeLocal":"17:00"},"geometry":{"type":"Polygon","coordinates":[[[127.11245,37.71254],[127.11244,37.71234],[127.1125,37.71234],[127.1125,37.71241],[127.11255,37.71243],[127.11254,37.71254],[127.11245,37.71254]]]}},{"type":"Feature","properties":{"valleyId":"suraksan","layer":"shadow","date":"2026-08-01","timeLocal":"17:00"},"geometry":{"type":"Polygon","coordinates":[[[127.1241,37.71321],[127.12406,37.71301],[127.12409,37.71262],[127.12418,37.71247],[127.12446,37.71244],[127.12446,37.7125],[127.12441,37.71249],[127.12441,37.71253],[127.12434,37.71253],[127.12436,37.71266],[127.12432,37.71266],[127.12427,37.71283],[127.1244,37.71284],[127.1244,37.71294],[127.12449,37.71295],[127.12449,37.713],[127.1244,37.71305],[127.1244,37.71311],[127.12433,37.71311],[127.12433,37.71314],[127.12428,37.71314],[127.12419,37.71321],[127.1241,37.71321]]]}},{"type":"Feature","properties":{"valleyId":"suraksan","layer":"shadow","date":"2026-08-01","timeLocal":"17:00"},"geometry":{"type":"Polygon","coordinates":[[[127.11364,37.71216],[127.11365,37.71203],[127.11371,37.71204],[127.11373,37.71214],[127.11364,37.71216]]]}},{"type":"Feature","properties":{"valleyId":"suraksan","layer":"shadow","date":"2026-08-01","timeLocal":"17:00"},"geometry":{"type":"Polygon","coordinates":[[[127.11396,37.71206],[127.11397,37.71197],[127.11412,37.71199],[127.11412,37.71204],[127.11396,37.71206]]]}},{"type":"Feature","properties":{"valleyId":"suraksan","layer":"shadow","date":"2026-08-01","timeLocal":"17:00"},"geometry":{"type":"Polygon","coordinates":[[[127.12628,37.71209],[127.12628,37.71198],[127.12635,37.71198],[127.12637,37.71208],[127.12628,37.71209]]]}},{"type":"Feature","properties":{"valleyId":"suraksan","layer":"shadow","date":"2026-08-01","timeLocal":"17:00"},"geometry":{"type":"Polygon","coordinates":[[[127.11691,37.712],[127.11692,37.71194],[127.11674,37.71189],[127.11674,37.71183],[127.11685,37.71183],[127.11694,37.71187],[127.11694,37.71194],[127.11701,37.71194],[127.117,37.712],[127.11691,37.712]]]}},{"type":"Feature","properties":{"valleyId":"suraksan","layer":"shadow","date":"2026-08-01","timeLocal":"17:00"},"geometry":{"type":"Polygon","coordinates":[[[127.11451,37.71194],[127.11449,37.71176],[127.1147,37.71176],[127.11469,37.71183],[127.1146,37.71183],[127.11458,37.71194],[127.11451,37.71194]]]}},{"type":"Feature","properties":{"valleyId":"suraksan","layer":"shadow","date":"2026-08-01","timeLocal":"17:00"},"geometry":{"type":"Polygon","coordinates":[[[127.11392,37.71184],[127.11393,37.71173],[127.11399,37.71173],[127.11399,37.71184],[127.11392,37.71184]]]}},{"type":"Feature","properties":{"valleyId":"suraksan","layer":"shadow","date":"2026-08-01","timeLocal":"17:00"},"geometry":{"type":"Polygon","coordinates":[[[127.11311,37.71174],[127.11311,37.71163],[127.11318,37.71163],[127.11318,37.71174],[127.11311,37.71174]]]}},{"type":"Feature","properties":{"valleyId":"suraksan","layer":"shadow","date":"2026-08-01","timeLocal":"17:00"},"geometry":{"type":"Polygon","coordinates":[[[127.12177,37.71184],[127.12178,37.71175],[127.12184,37.71175],[127.12184,37.71184],[127.12177,37.71184]]]}},{"type":"Feature","properties":{"valleyId":"suraksan","layer":"shadow","date":"2026-08-01","timeLocal":"17:00"},"geometry":{"type":"Polygon","coordinates":[[[127.11307,37.71257],[127.11302,37.71244],[127.11303,37.71222],[127.11308,37.71217],[127.11308,37.71208],[127.11301,37.71202],[127.11297,37.7119],[127.11292,37.7119],[127.11286,37.71184],[127.11282,37.7117],[127.11277,37.7117],[127.11268,37.71162],[127.11268,37.71157],[127.11282,37.71161],[127.11284,37.7117],[127.11288,37.7117],[127.11297,37.71177],[127.11299,37.71188],[127.11304,37.71188],[127.11306,37.71193],[127.1131,37.71194],[127.11312,37.71201],[127.11317,37.71201],[127.11317,37.71204],[127.11324,37.71208],[127.11323,37.71224],[127.11319,37.71228],[127.11312,37.71228],[127.11309,37.71233],[127.11309,37.7124],[127.11314,37.71244],[127.11313,37.71257],[127.11307,37.71257]]]}},{"type":"Feature","properties":{"valleyId":"suraksan","layer":"shadow","date":"2026-08-01","timeLocal":"17:00"},"geometry":{"type":"Polygon","coordinates":[[[127.12408,37.71204],[127.12397,37.71195],[127.12397,37.71187],[127.12404,37.71184],[127.12404,37.71177],[127.124,37.71175],[127.12402,37.71166],[127.12409,37.71166],[127.12409,37.71173],[127.12413,37.71177],[127.12413,37.71197],[127.12417,37.71199],[127.12417,37.71204],[127.12408,37.71204]]]}},{"type":"Feature","properties":{"valleyId":"suraksan","layer":"shadow","date":"2026-08-01","timeLocal":"17:00"},"geometry":{"type":"Polygon","coordinates":[[[127.11298,37.71156],[127.11298,37.71148],[127.11305,37.71148],[127.11305,37.71156],[127.11298,37.71156]]]}},{"type":"Feature","properties":{"valleyId":"suraksan","layer":"shadow","date":"2026-08-01","timeLocal":"17:00"},"geometry":{"type":"Polygon","coordinates":[[[127.12624,37.71196],[127.1262,37.71182],[127.12615,37.71182],[127.12616,37.71168],[127.12622,37.71168],[127.12622,37.7118],[127.12631,37.71184],[127.12631,37.71197],[127.12624,37.71196]]]}},{"type":"Feature","properties":{"valleyId":"suraksan","layer":"shadow","date":"2026-08-01","timeLocal":"17:00"},"geometry":{"type":"Polygon","coordinates":[[[127.12466,37.71253],[127.12467,37.71207],[127.12458,37.71192],[127.12452,37.71188],[127.1245,37.71176],[127.1245,37.7117],[127.12459,37.71167],[127.12459,37.71161],[127.12471,37.71163],[127.1247,37.71169],[127.12466,37.71169],[127.12468,37.71189],[127.12481,37.71192],[127.12485,37.712],[127.12485,37.71209],[127.12481,37.71214],[127.12485,37.71238],[127.1248,37.71239],[127.12477,37.71252],[127.12466,37.71253]]]}},{"type":"Feature","properties":{"valleyId":"suraksan","layer":"shadow","date":"2026-08-01","timeLocal":"17:00"},"geometry":{"type":"Polygon","coordinates":[[[127.11674,37.71153],[127.11675,37.71145],[127.11681,37.71145],[127.11681,37.71153],[127.11674,37.71153]]]}},{"type":"Feature","properties":{"valleyId":"suraksan","layer":"shadow","date":"2026-08-01","timeLocal":"17:00"},"geometry":{"type":"Polygon","coordinates":[[[127.11278,37.71143],[127.11278,37.71137],[127.11285,37.71137],[127.11284,37.71143],[127.11278,37.71143]]]}},{"type":"Feature","properties":{"valleyId":"suraksan","layer":"shadow","date":"2026-08-01","timeLocal":"17:00"},"geometry":{"type":"Polygon","coordinates":[[[127.12494,37.71146],[127.12494,37.7114],[127.12501,37.7114],[127.125,37.71146],[127.12494,37.71146]]]}},{"type":"Feature","properties":{"valleyId":"suraksan","layer":"shadow","date":"2026-08-01","timeLocal":"17:00"},"geometry":{"type":"Polygon","coordinates":[[[127.12451,37.71143],[127.12451,37.71134],[127.12458,37.71134],[127.12457,37.71143],[127.12451,37.71143]]]}},{"type":"Feature","properties":{"valleyId":"suraksan","layer":"shadow","date":"2026-08-01","timeLocal":"17:00"},"geometry":{"type":"Polygon","coordinates":[[[127.12423,37.71159],[127.12423,37.71154],[127.12428,37.71152],[127.12428,37.71141],[127.12421,37.71141],[127.12421,37.71132],[127.12428,37.71132],[127.1243,37.71141],[127.12444,37.71145],[127.12444,37.7115],[127.12437,37.71152],[127.12434,37.71157],[127.12423,37.71159]]]}},{"type":"Feature","properties":{"valleyId":"suraksan","layer":"shadow","date":"2026-08-01","timeLocal":"17:00"},"geometry":{"type":"Polygon","coordinates":[[[127.12596,37.71133],[127.12596,37.71128],[127.12603,37.71128],[127.12603,37.71133],[127.12596,37.71133]]]}},{"type":"Feature","properties":{"valleyId":"suraksan","layer":"shadow","date":"2026-08-01","timeLocal":"17:00"},"geometry":{"type":"Polygon","coordinates":[[[127.12734,37.71132],[127.12735,37.71124],[127.12741,37.71124],[127.12741,37.71132],[127.12734,37.71132]]]}},{"type":"Feature","properties":{"valleyId":"suraksan","layer":"shadow","date":"2026-08-01","timeLocal":"17:00"},"geometry":{"type":"Polygon","coordinates":[[[127.11469,37.71108],[127.11469,37.71102],[127.11476,37.71102],[127.11476,37.71108],[127.11469,37.71108]]]}},{"type":"Feature","properties":{"valleyId":"suraksan","layer":"shadow","date":"2026-08-01","timeLocal":"17:00"},"geometry":{"type":"Polygon","coordinates":[[[127.11496,37.7111],[127.11497,37.7109],[127.11504,37.7109],[127.11508,37.71094],[127.11508,37.71101],[127.11503,37.71103],[127.11503,37.7111],[127.11496,37.7111]]]}},{"type":"Feature","properties":{"valleyId":"suraksan","layer":"shadow","date":"2026-08-01","timeLocal":"17:00"},"geometry":{"type":"Polygon","coordinates":[[[127.11249,37.7109],[127.1125,37.71084],[127.11256,37.71085],[127.11256,37.7109],[127.11249,37.7109]]]}},{"type":"Feature","properties":{"valleyId":"suraksan","layer":"shadow","date":"2026-08-01","timeLocal":"17:00"},"geometry":{"type":"Polygon","coordinates":[[[127.11325,37.7108],[127.11325,37.71071],[127.11332,37.71071],[127.11331,37.7108],[127.11325,37.7108]]]}},{"type":"Feature","properties":{"valleyId":"suraksan","layer":"shadow","date":"2026-08-01","timeLocal":"17:00"},"geometry":{"type":"Polygon","coordinates":[[[127.11386,37.71076],[127.11386,37.7107],[127.11393,37.71071],[127.11393,37.71076],[127.11386,37.71076]]]}},{"type":"Feature","properties":{"valleyId":"suraksan","layer":"shadow","date":"2026-08-01","timeLocal":"17:00"},"geometry":{"type":"Polygon","coordinates":[[[127.11778,37.7108],[127.11779,37.71071],[127.11785,37.71071],[127.11787,37.71079],[127.11778,37.7108]]]}},{"type":"Feature","properties":{"valleyId":"suraksan","layer":"shadow","date":"2026-08-01","timeLocal":"17:00"},"geometry":{"type":"Polygon","coordinates":[[[127.11339,37.71062],[127.11339,37.71057],[127.11346,37.71057],[127.11345,37.71063],[127.11339,37.71062]]]}},{"type":"Feature","properties":{"valleyId":"suraksan","layer":"shadow","date":"2026-08-01","timeLocal":"17:00"},"geometry":{"type":"Polygon","coordinates":[[[127.11792,37.71061],[127.11793,37.71055],[127.11799,37.71055],[127.11799,37.71061],[127.11792,37.71061]]]}},{"type":"Feature","properties":{"valleyId":"suraksan","layer":"shadow","date":"2026-08-01","timeLocal":"17:00"},"geometry":{"type":"Polygon","coordinates":[[[127.11459,37.71054],[127.11459,37.71048],[127.11466,37.71048],[127.11466,37.71054],[127.11459,37.71054]]]}},{"type":"Feature","properties":{"valleyId":"suraksan","layer":"shadow","date":"2026-08-01","timeLocal":"17:00"},"geometry":{"type":"Polygon","coordinates":[[[127.12035,37.71054],[127.12036,37.71045],[127.12054,37.71049],[127.12054,37.71054],[127.12035,37.71054]]]}},{"type":"Feature","properties":{"valleyId":"suraksan","layer":"shadow","date":"2026-08-01","timeLocal":"17:00"},"geometry":{"type":"Polygon","coordinates":[[[127.11763,37.71044],[127.11764,37.71039],[127.1177,37.71039],[127.1177,37.71044],[127.11763,37.71044]]]}},{"type":"Feature","properties":{"valleyId":"suraksan","layer":"shadow","date":"2026-08-01","timeLocal":"17:00"},"geometry":{"type":"Polygon","coordinates":[[[127.11732,37.71043],[127.11732,37.71036],[127.11741,37.71036],[127.11741,37.71042],[127.11732,37.71043]]]}},{"type":"Feature","properties":{"valleyId":"suraksan","layer":"shadow","date":"2026-08-01","timeLocal":"17:00"},"geometry":{"type":"Polygon","coordinates":[[[127.11784,37.71034],[127.11784,37.71028],[127.11791,37.71028],[127.11791,37.71034],[127.11784,37.71034]]]}},{"type":"Feature","properties":{"valleyId":"suraksan","layer":"shadow","date":"2026-08-01","timeLocal":"17:00"},"geometry":{"type":"Polygon","coordinates":[[[127.11837,37.71013],[127.11839,37.71002],[127.11846,37.71002],[127.11846,37.71011],[127.11837,37.71013]]]}},{"type":"Feature","properties":{"valleyId":"suraksan","layer":"shadow","date":"2026-08-01","timeLocal":"17:00"},"geometry":{"type":"Polygon","coordinates":[[[127.11318,37.70995],[127.11318,37.70988],[127.11327,37.70988],[127.11327,37.70994],[127.11318,37.70995]]]}},{"type":"Feature","properties":{"valleyId":"suraksan","layer":"shadow","date":"2026-08-01","timeLocal":"17:00"},"geometry":{"type":"Polygon","coordinates":[[[127.11275,37.70991],[127.11275,37.70986],[127.11282,37.70986],[127.11281,37.70991],[127.11275,37.70991]]]}},{"type":"Feature","properties":{"valleyId":"suraksan","layer":"shadow","date":"2026-08-01","timeLocal":"17:00"},"geometry":{"type":"Polygon","coordinates":[[[127.11722,37.70995],[127.11722,37.70989],[127.11728,37.70989],[127.11728,37.70995],[127.11722,37.70995]]]}},{"type":"Feature","properties":{"valleyId":"suraksan","layer":"shadow","date":"2026-08-01","timeLocal":"17:00"},"geometry":{"type":"Polygon","coordinates":[[[127.1186,37.70997],[127.1186,37.7099],[127.11871,37.7099],[127.11871,37.70995],[127.1186,37.70997]]]}},{"type":"Feature","properties":{"valleyId":"suraksan","layer":"shadow","date":"2026-08-01","timeLocal":"17:00"},"geometry":{"type":"Polygon","coordinates":[[[127.11295,37.70986],[127.11295,37.70977],[127.11302,37.70977],[127.11304,37.70984],[127.11295,37.70986]]]}},{"type":"Feature","properties":{"valleyId":"suraksan","layer":"shadow","date":"2026-08-01","timeLocal":"17:00"},"geometry":{"type":"Polygon","coordinates":[[[127.12013,37.71025],[127.12014,37.71012],[127.12012,37.71005],[127.12005,37.71003],[127.12003,37.70985],[127.12021,37.70989],[127.12021,37.70998],[127.12016,37.70998],[127.12016,37.71003],[127.12023,37.71014],[127.12023,37.71023],[127.12013,37.71025]]]}},{"type":"Feature","properties":{"valleyId":"suraksan","layer":"shadow","date":"2026-08-01","timeLocal":"17:00"},"geometry":{"type":"Polygon","coordinates":[[[127.11462,37.70951],[127.11462,37.70944],[127.11469,37.70944],[127.11469,37.70951],[127.11462,37.70951]]]}},{"type":"Feature","properties":{"valleyId":"suraksan","layer":"shadow","date":"2026-08-01","timeLocal":"17:00"},"geometry":{"type":"Polygon","coordinates":[[[127.11555,37.70945],[127.11555,37.7094],[127.11562,37.7094],[127.11562,37.70945],[127.11555,37.70945]]]}},{"type":"Feature","properties":{"valleyId":"suraksan","layer":"shadow","date":"2026-08-01","timeLocal":"17:00"},"geometry":{"type":"Polygon","coordinates":[[[127.11807,37.70937],[127.11807,37.70931],[127.11814,37.70931],[127.11814,37.70937],[127.11807,37.70937]]]}},{"type":"Feature","properties":{"valleyId":"suraksan","layer":"shadow","date":"2026-08-01","timeLocal":"17:00"},"geometry":{"type":"Polygon","coordinates":[[[127.11137,37.70956],[127.11135,37.70949],[127.1114,37.70947],[127.1114,37.70938],[127.11126,37.70936],[127.1112,37.70926],[127.11104,37.70922],[127.11104,37.70916],[127.1112,37.70917],[127.1112,37.70924],[127.1114,37.70926],[127.11147,37.70931],[127.11147,37.70939],[127.11163,37.70939],[127.11162,37.70944],[127.11153,37.70951],[127.11144,37.70951],[127.11144,37.70957],[127.11137,37.70956]]]}},{"type":"Feature","properties":{"valleyId":"suraksan","layer":"shadow","date":"2026-08-01","timeLocal":"17:00"},"geometry":{"type":"Polygon","coordinates":[[[127.11655,37.70934],[127.11655,37.70923],[127.11667,37.70923],[127.11669,37.70933],[127.11655,37.70934]]]}},{"type":"Feature","properties":{"valleyId":"suraksan","layer":"shadow","date":"2026-08-01","timeLocal":"17:00"},"geometry":{"type":"Polygon","coordinates":[[[127.11968,37.70936],[127.11968,37.70926],[127.11975,37.70927],[127.11975,37.70936],[127.11968,37.70936]]]}},{"type":"Feature","properties":{"valleyId":"suraksan","layer":"shadow","date":"2026-08-01","timeLocal":"17:00"},"geometry":{"type":"Polygon","coordinates":[[[127.11805,37.70922],[127.11805,37.70917],[127.11814,37.70917],[127.11814,37.70922],[127.11805,37.70922]]]}},{"type":"Feature","properties":{"valleyId":"suraksan","layer":"shadow","date":"2026-08-01","timeLocal":"17:00"},"geometry":{"type":"Polygon","coordinates":[[[127.11832,37.70924],[127.11832,37.70915],[127.11839,37.70915],[127.11839,37.70924],[127.11832,37.70924]]]}},{"type":"Feature","properties":{"valleyId":"suraksan","layer":"shadow","date":"2026-08-01","timeLocal":"17:00"},"geometry":{"type":"Polygon","coordinates":[[[127.11991,37.70932],[127.11994,37.70916],[127.12009,37.7092],[127.12007,37.70931],[127.11991,37.70932]]]}},{"type":"Feature","properties":{"valleyId":"suraksan","layer":"shadow","date":"2026-08-01","timeLocal":"17:00"},"geometry":{"type":"Polygon","coordinates":[[[127.12359,37.70922],[127.12359,37.70913],[127.12372,37.70915],[127.12372,37.7092],[127.12359,37.70922]]]}},{"type":"Feature","properties":{"valleyId":"suraksan","layer":"shadow","date":"2026-08-01","timeLocal":"17:00"},"geometry":{"type":"Polygon","coordinates":[[[127.11817,37.7091],[127.11817,37.70904],[127.11824,37.70904],[127.11824,37.7091],[127.11817,37.7091]]]}},{"type":"Feature","properties":{"valleyId":"suraksan","layer":"shadow","date":"2026-08-01","timeLocal":"17:00"},"geometry":{"type":"Polygon","coordinates":[[[127.11878,37.70916],[127.11883,37.70905],[127.11899,37.70904],[127.11898,37.70909],[127.11894,37.70909],[127.11885,37.70916],[127.11878,37.70916]]]}},{"type":"Feature","properties":{"valleyId":"suraksan","layer":"shadow","date":"2026-08-01","timeLocal":"17:00"},"geometry":{"type":"Polygon","coordinates":[[[127.11912,37.70906],[127.11912,37.70899],[127.11919,37.70899],[127.11919,37.70906],[127.11912,37.70906]]]}},{"type":"Feature","properties":{"valleyId":"suraksan","layer":"shadow","date":"2026-08-01","timeLocal":"17:00"},"geometry":{"type":"Polygon","coordinates":[[[127.11776,37.70898],[127.11776,37.70891],[127.11785,37.70891],[127.11785,37.70897],[127.11776,37.70898]]]}},{"type":"Feature","properties":{"valleyId":"suraksan","layer":"shadow","date":"2026-08-01","timeLocal":"17:00"},"geometry":{"type":"Polygon","coordinates":[[[127.11411,37.70891],[127.11411,37.70885],[127.11418,37.70885],[127.11418,37.70891],[127.11411,37.70891]]]}},{"type":"Feature","properties":{"valleyId":"suraksan","layer":"shadow","date":"2026-08-01","timeLocal":"17:00"},"geometry":{"type":"Polygon","coordinates":[[[127.11955,37.70899],[127.11956,37.70892],[127.11962,37.70892],[127.11964,37.70899],[127.11955,37.70899]]]}},{"type":"Feature","properties":{"valleyId":"suraksan","layer":"shadow","date":"2026-08-01","timeLocal":"17:00"},"geometry":{"type":"Polygon","coordinates":[[[127.11506,37.7089],[127.11507,37.70885],[127.11513,37.70885],[127.11513,37.7089],[127.11506,37.7089]]]}},{"type":"Feature","properties":{"valleyId":"suraksan","layer":"shadow","date":"2026-08-01","timeLocal":"17:00"},"geometry":{"type":"Polygon","coordinates":[[[127.12026,37.70879],[127.12026,37.70872],[127.12033,37.70872],[127.12033,37.70879],[127.12026,37.70879]]]}},{"type":"Feature","properties":{"valleyId":"suraksan","layer":"shadow","date":"2026-08-01","timeLocal":"17:00"},"geometry":{"type":"Polygon","coordinates":[[[127.11536,37.70882],[127.11536,37.70875],[127.11543,37.70869],[127.11546,37.70862],[127.11557,37.7086],[127.11557,37.70866],[127.11548,37.70871],[127.11543,37.70882],[127.11536,37.70882]]]}},{"type":"Feature","properties":{"valleyId":"suraksan","layer":"shadow","date":"2026-08-01","timeLocal":"17:00"},"geometry":{"type":"Polygon","coordinates":[[[127.11375,37.70863],[127.11373,37.70856],[127.1138,37.70856],[127.11382,37.70863],[127.11375,37.70863]]]}},{"type":"Feature","properties":{"valleyId":"suraksan","layer":"shadow","date":"2026-08-01","timeLocal":"17:00"},"geometry":{"type":"Polygon","coordinates":[[[127.12306,37.70925],[127.12309,37.70916],[127.12322,37.70916],[127.12323,37.70911],[127.1233,37.70905],[127.12327,37.70898],[127.12318,37.70898],[127.12323,37.70883],[127.12321,37.70873],[127.12315,37.70869],[127.12315,37.70864],[127.12322,37.70864],[127.12328,37.70871],[127.12333,37.70871],[127.12332,37.70885],[127.12337,37.70887],[127.12336,37.70904],[127.12341,37.70904],[127.12341,37.70909],[127.12338,37.70916],[127.12334,37.70916],[127.12334,37.7092],[127.12325,37.70925],[127.12306,37.70925]]]}},{"type":"Feature","properties":{"valleyId":"suraksan","layer":"shadow","date":"2026-08-01","timeLocal":"17:00"},"geometry":{"type":"Polygon","coordinates":[[[127.11009,37.70841],[127.11009,37.70835],[127.11018,37.70836],[127.11018,37.70841],[127.11009,37.70841]]]}},{"type":"Feature","properties":{"valleyId":"suraksan","layer":"shadow","date":"2026-08-01","timeLocal":"17:00"},"geometry":{"type":"Polygon","coordinates":[[[127.11179,37.70842],[127.11179,37.70835],[127.11186,37.70835],[127.11185,37.70842],[127.11179,37.70842]]]}},{"type":"Feature","properties":{"valleyId":"suraksan","layer":"shadow","date":"2026-08-01","timeLocal":"17:00"},"geometry":{"type":"Polygon","coordinates":[[[127.12104,37.70851],[127.12104,37.70846],[127.12113,37.70846],[127.12113,37.70851],[127.12104,37.70851]]]}},{"type":"Feature","properties":{"valleyId":"suraksan","layer":"shadow","date":"2026-08-01","timeLocal":"17:00"},"geometry":{"type":"Polygon","coordinates":[[[127.11977,37.70862],[127.11977,37.70847],[127.11984,37.70842],[127.11991,37.70842],[127.1199,37.70858],[127.11977,37.70862]]]}},{"type":"Feature","properties":{"valleyId":"suraksan","layer":"shadow","date":"2026-08-01","timeLocal":"17:00"},"geometry":{"type":"Polygon","coordinates":[[[127.10997,37.70832],[127.10998,37.70826],[127.11009,37.70826],[127.11009,37.70832],[127.10997,37.70832]]]}},{"type":"Feature","properties":{"valleyId":"suraksan","layer":"shadow","date":"2026-08-01","timeLocal":"17:00"},"geometry":{"type":"Polygon","coordinates":[[[127.11458,37.70837],[127.11458,37.7083],[127.11469,37.70832],[127.11469,37.70837],[127.11458,37.70837]]]}},{"type":"Feature","properties":{"valleyId":"suraksan","layer":"shadow","date":"2026-08-01","timeLocal":"17:00"},"geometry":{"type":"Polygon","coordinates":[[[127.12,37.7084],[127.12,37.70835],[127.12007,37.70835],[127.12007,37.70841],[127.12,37.7084]]]}},{"type":"Feature","properties":{"valleyId":"suraksan","layer":"shadow","date":"2026-08-01","timeLocal":"17:00"},"geometry":{"type":"Polygon","coordinates":[[[127.12263,37.70845],[127.12261,37.70836],[127.12268,37.70836],[127.1227,37.70845],[127.12263,37.70845]]]}},{"type":"Feature","properties":{"valleyId":"suraksan","layer":"shadow","date":"2026-08-01","timeLocal":"17:00"},"geometry":{"type":"Polygon","coordinates":[[[127.10896,37.70819],[127.10896,37.70814],[127.10903,37.70814],[127.10902,37.70819],[127.10896,37.70819]]]}},{"type":"Feature","properties":{"valleyId":"suraksan","layer":"shadow","date":"2026-08-01","timeLocal":"17:00"},"geometry":{"type":"Polygon","coordinates":[[[127.10989,37.70819],[127.10989,37.7081],[127.11007,37.70812],[127.11007,37.70817],[127.10989,37.70819]]]}},{"type":"Feature","properties":{"valleyId":"suraksan","layer":"shadow","date":"2026-08-01","timeLocal":"17:00"},"geometry":{"type":"Polygon","coordinates":[[[127.11975,37.70829],[127.11975,37.70824],[127.11982,37.70824],[127.11982,37.70829],[127.11975,37.70829]]]}},{"type":"Feature","properties":{"valleyId":"suraksan","layer":"shadow","date":"2026-08-01","timeLocal":"17:00"},"geometry":{"type":"Polygon","coordinates":[[[127.12303,37.70862],[127.12297,37.7086],[127.12295,37.70851],[127.1229,37.70851],[127.1229,37.70843],[127.12304,37.7084],[127.12304,37.70833],[127.12297,37.70827],[127.12298,37.7082],[127.12309,37.7082],[127.12318,37.70826],[127.12318,37.70838],[127.12306,37.70842],[127.12306,37.70849],[127.12308,37.70854],[127.12313,37.70854],[127.12313,37.70862],[127.12303,37.70862]]]}},{"type":"Feature","properties":{"valleyId":"suraksan","layer":"shadow","date":"2026-08-01","timeLocal":"17:00"},"geometry":{"type":"Polygon","coordinates":[[[127.11991,37.70821],[127.11994,37.70813],[127.12003,37.70813],[127.12003,37.70819],[127.11991,37.70821]]]}},{"type":"Feature","properties":{"valleyId":"suraksan","layer":"shadow","date":"2026-08-01","timeLocal":"17:00"},"geometry":{"type":"Polygon","coordinates":[[[127.12137,37.70823],[127.12137,37.70814],[127.12153,37.70816],[127.12152,37.70821],[127.12137,37.70823]]]}},{"type":"Feature","properties":{"valleyId":"suraksan","layer":"shadow","date":"2026-08-01","timeLocal":"17:00"},"geometry":{"type":"Polygon","coordinates":[[[127.10907,37.70809],[127.10905,37.70792],[127.10914,37.70792],[127.10916,37.70807],[127.10907,37.70809]]]}},{"type":"Feature","properties":{"valleyId":"suraksan","layer":"shadow","date":"2026-08-01","timeLocal":"17:00"},"geometry":{"type":"Polygon","coordinates":[[[127.10982,37.70808],[127.10983,37.70792],[127.11001,37.70794],[127.11,37.70801],[127.10991,37.70801],[127.10991,37.70808],[127.10982,37.70808]]]}},{"type":"Feature","properties":{"valleyId":"suraksan","layer":"shadow","date":"2026-08-01","timeLocal":"17:00"},"geometry":{"type":"Polygon","coordinates":[[[127.10885,37.70792],[127.10885,37.70787],[127.10892,37.70787],[127.10892,37.70792],[127.10885,37.70792]]]}},{"type":"Feature","properties":{"valleyId":"suraksan","layer":"shadow","date":"2026-08-01","timeLocal":"17:00"},"geometry":{"type":"Polygon","coordinates":[[[127.12291,37.7082],[127.12277,37.70814],[127.12278,37.70809],[127.12293,37.70809],[127.12298,37.70813],[127.12298,37.7082],[127.12291,37.7082]]]}},{"type":"Feature","properties":{"valleyId":"suraksan","layer":"shadow","date":"2026-08-01","timeLocal":"17:00"},"geometry":{"type":"Polygon","coordinates":[[[127.12014,37.7081],[127.12015,37.70801],[127.12026,37.70803],[127.12026,37.70808],[127.12014,37.7081]]]}},{"type":"Feature","properties":{"valleyId":"suraksan","layer":"shadow","date":"2026-08-01","timeLocal":"17:00"},"geometry":{"type":"Polygon","coordinates":[[[127.1077,37.70761],[127.1077,37.70754],[127.10777,37.70754],[127.10779,37.70761],[127.1077,37.70761]]]}},{"type":"Feature","properties":{"valleyId":"suraksan","layer":"shadow","date":"2026-08-01","timeLocal":"17:00"},"geometry":{"type":"Polygon","coordinates":[[[127.12217,37.70775],[127.12217,37.7077],[127.12224,37.7077],[127.12224,37.70776],[127.12217,37.70775]]]}},{"type":"Feature","properties":{"valleyId":"suraksan","layer":"shadow","date":"2026-08-01","timeLocal":"17:00"},"geometry":{"type":"Polygon","coordinates":[[[127.11312,37.70756],[127.11313,37.7075],[127.11319,37.7075],[127.11319,37.70756],[127.11312,37.70756]]]}},{"type":"Feature","properties":{"valleyId":"suraksan","layer":"shadow","date":"2026-08-01","timeLocal":"17:00"},"geometry":{"type":"Polygon","coordinates":[[[127.10671,37.70742],[127.10671,37.70734],[127.1068,37.70735],[127.1068,37.7074],[127.10671,37.70742]]]}},{"type":"Feature","properties":{"valleyId":"suraksan","layer":"shadow","date":"2026-08-01","timeLocal":"17:00"},"geometry":{"type":"Polygon","coordinates":[[[127.12186,37.70757],[127.12186,37.70752],[127.12195,37.70752],[127.12195,37.70757],[127.12186,37.70757]]]}},{"type":"Feature","properties":{"valleyId":"suraksan","layer":"shadow","date":"2026-08-01","timeLocal":"17:00"},"geometry":{"type":"Polygon","coordinates":[[[127.10864,37.70729],[127.10864,37.70721],[127.10871,37.70721],[127.10871,37.70729],[127.10864,37.70729]]]}},{"type":"Feature","properties":{"valleyId":"suraksan","layer":"shadow","date":"2026-08-01","timeLocal":"17:00"},"geometry":{"type":"Polygon","coordinates":[[[127.11227,37.70733],[127.11227,37.70724],[127.11236,37.70724],[127.11234,37.70733],[127.11227,37.70733]]]}},{"type":"Feature","properties":{"valleyId":"suraksan","layer":"shadow","date":"2026-08-01","timeLocal":"17:00"},"geometry":{"type":"Polygon","coordinates":[[[127.11953,37.70742],[127.11953,37.70733],[127.11962,37.70734],[127.11962,37.70743],[127.11953,37.70742]]]}},{"type":"Feature","properties":{"valleyId":"suraksan","layer":"shadow","date":"2026-08-01","timeLocal":"17:00"},"geometry":{"type":"Polygon","coordinates":[[[127.10923,37.70713],[127.10923,37.70708],[127.1093,37.70708],[127.1093,37.70713],[127.10923,37.70713]]]}},{"type":"Feature","properties":{"valleyId":"suraksan","layer":"shadow","date":"2026-08-01","timeLocal":"17:00"},"geometry":{"type":"Polygon","coordinates":[[[127.1125,37.70719],[127.1125,37.7071],[127.11257,37.7071],[127.11259,37.70717],[127.1125,37.70719]]]}},{"type":"Feature","properties":{"valleyId":"suraksan","layer":"shadow","date":"2026-08-01","timeLocal":"17:00"},"geometry":{"type":"Polygon","coordinates":[[[127.12116,37.70738],[127.12116,37.70731],[127.12107,37.70727],[127.12107,37.7072],[127.1213,37.70724],[127.1213,37.70729],[127.12123,37.70731],[127.12123,37.70738],[127.12116,37.70738]]]}},{"type":"Feature","properties":{"valleyId":"suraksan","layer":"shadow","date":"2026-08-01","timeLocal":"17:00"},"geometry":{"type":"Polygon","coordinates":[[[127.10581,37.70701],[127.10581,37.70695],[127.10588,37.70695],[127.10588,37.70701],[127.10581,37.70701]]]}},{"type":"Feature","properties":{"valleyId":"suraksan","layer":"shadow","date":"2026-08-01","timeLocal":"17:00"},"geometry":{"type":"Polygon","coordinates":[[[127.10885,37.70711],[127.10876,37.70705],[127.10876,37.707],[127.1089,37.70702],[127.10892,37.70711],[127.10885,37.70711]]]}},{"type":"Feature","properties":{"valleyId":"suraksan","layer":"shadow","date":"2026-08-01","timeLocal":"17:00"},"geometry":{"type":"Polygon","coordinates":[[[127.11221,37.70711],[127.11221,37.70704],[127.1123,37.70704],[127.1123,37.70711],[127.11221,37.70711]]]}},{"type":"Feature","properties":{"valleyId":"suraksan","layer":"shadow","date":"2026-08-01","timeLocal":"17:00"},"geometry":{"type":"Polygon","coordinates":[[[127.11837,37.70719],[127.11838,37.70714],[127.11844,37.70714],[127.11844,37.70719],[127.11837,37.70719]]]}},{"type":"Feature","properties":{"valleyId":"suraksan","layer":"shadow","date":"2026-08-01","timeLocal":"17:00"},"geometry":{"type":"Polygon","coordinates":[[[127.10849,37.70703],[127.10849,37.7069],[127.10865,37.70693],[127.10862,37.70702],[127.10849,37.70703]]]}},{"type":"Feature","properties":{"valleyId":"suraksan","layer":"shadow","date":"2026-08-01","timeLocal":"17:00"},"geometry":{"type":"Polygon","coordinates":[[[127.12135,37.70716],[127.12135,37.70707],[127.12151,37.7071],[127.12151,37.70715],[127.12135,37.70716]]]}},{"type":"Feature","properties":{"valleyId":"suraksan","layer":"shadow","date":"2026-08-01","timeLocal":"17:00"},"geometry":{"type":"Polygon","coordinates":[[[127.10826,37.70688],[127.10827,37.70681],[127.10833,37.70681],[127.10833,37.70688],[127.10826,37.70688]]]}},{"type":"Feature","properties":{"valleyId":"suraksan","layer":"shadow","date":"2026-08-01","timeLocal":"17:00"},"geometry":{"type":"Polygon","coordinates":[[[127.11847,37.70706],[127.11845,37.70697],[127.11856,37.70699],[127.11856,37.70705],[127.11847,37.70706]]]}},{"type":"Feature","properties":{"valleyId":"suraksan","layer":"shadow","date":"2026-08-01","timeLocal":"17:00"},"geometry":{"type":"Polygon","coordinates":[[[127.12033,37.70686],[127.12033,37.70681],[127.1204,37.70681],[127.1204,37.70686],[127.12033,37.70686]]]}},{"type":"Feature","properties":{"valleyId":"suraksan","layer":"shadow","date":"2026-08-01","timeLocal":"17:00"},"geometry":{"type":"Polygon","coordinates":[[[127.11553,37.70666],[127.11555,37.70655],[127.11569,37.70659],[127.11567,37.70666],[127.11553,37.70666]]]}},{"type":"Feature","properties":{"valleyId":"suraksan","layer":"shadow","date":"2026-08-01","timeLocal":"17:00"},"geometry":{"type":"Polygon","coordinates":[[[127.12066,37.70665],[127.12066,37.70658],[127.12073,37.70658],[127.12072,37.70665],[127.12066,37.70665]]]}},{"type":"Feature","properties":{"valleyId":"suraksan","layer":"shadow","date":"2026-08-01","timeLocal":"17:00"},"geometry":{"type":"Polygon","coordinates":[[[127.10812,37.70641],[127.10812,37.70634],[127.10819,37.70634],[127.10818,37.70641],[127.10812,37.70641]]]}},{"type":"Feature","properties":{"valleyId":"suraksan","layer":"shadow","date":"2026-08-01","timeLocal":"17:00"},"geometry":{"type":"Polygon","coordinates":[[[127.11286,37.70649],[127.11286,37.70642],[127.11293,37.70642],[127.11292,37.70649],[127.11286,37.70649]]]}},{"type":"Feature","properties":{"valleyId":"suraksan","layer":"shadow","date":"2026-08-01","timeLocal":"17:00"},"geometry":{"type":"Polygon","coordinates":[[[127.11321,37.7068],[127.11321,37.70671],[127.11328,37.70666],[127.11328,37.70662],[127.11335,37.70662],[127.11335,37.70659],[127.11347,37.70657],[127.11351,37.70652],[127.11358,37.7065],[127.11365,37.70639],[127.11372,37.70639],[127.11369,37.70652],[127.11365,37.70652],[127.11363,37.70657],[127.11353,37.70659],[127.11349,37.70666],[127.11335,37.70664],[127.11333,37.70677],[127.11328,37.7068],[127.11321,37.7068]]]}},{"type":"Feature","properties":{"valleyId":"suraksan","layer":"shadow","date":"2026-08-01","timeLocal":"17:00"},"geometry":{"type":"Polygon","coordinates":[[[127.11878,37.70646],[127.11878,37.7064],[127.11885,37.7064],[127.11885,37.70646],[127.11878,37.70646]]]}},{"type":"Feature","properties":{"valleyId":"suraksan","layer":"shadow","date":"2026-08-01","timeLocal":"17:00"},"geometry":{"type":"Polygon","coordinates":[[[127.11374,37.70639],[127.11377,37.70625],[127.11384,37.70625],[127.11386,37.7064],[127.11374,37.70639]]]}},{"type":"Feature","properties":{"valleyId":"suraksan","layer":"shadow","date":"2026-08-01","timeLocal":"17:00"},"geometry":{"type":"Polygon","coordinates":[[[127.11819,37.70634],[127.11819,37.70629],[127.11826,37.70629],[127.11826,37.70634],[127.11819,37.70634]]]}},{"type":"Feature","properties":{"valleyId":"suraksan","layer":"shadow","date":"2026-08-01","timeLocal":"17:00"},"geometry":{"type":"Polygon","coordinates":[[[127.11511,37.70636],[127.11511,37.70631],[127.11515,37.70629],[127.11516,37.7062],[127.11536,37.70624],[127.11536,37.70631],[127.11511,37.70636]]]}},{"type":"Feature","properties":{"valleyId":"suraksan","layer":"shadow","date":"2026-08-01","timeLocal":"17:00"},"geometry":{"type":"Polygon","coordinates":[[[127.1068,37.70727],[127.1068,37.70715],[127.10685,37.70713],[127.1069,37.70704],[127.1069,37.70688],[127.10697,37.70672],[127.10703,37.70641],[127.10715,37.70625],[127.10715,37.70602],[127.10724,37.706],[127.10724,37.70604],[127.10731,37.70607],[127.10731,37.70622],[127.10719,37.7064],[127.10714,37.70641],[127.10709,37.70674],[127.10702,37.70677],[127.10699,37.70697],[127.10704,37.70699],[127.10703,37.70708],[127.10699,37.70713],[127.10692,37.70715],[127.10692,37.70724],[127.10687,37.70728],[127.1068,37.70727]]]}},{"type":"Feature","properties":{"valleyId":"suraksan","layer":"shadow","date":"2026-08-01","timeLocal":"17:00"},"geometry":{"type":"Polygon","coordinates":[[[127.11366,37.70621],[127.11364,37.7061],[127.11371,37.70611],[127.11375,37.70621],[127.11366,37.70621]]]}},{"type":"Feature","properties":{"valleyId":"suraksan","layer":"shadow","date":"2026-08-01","timeLocal":"17:00"},"geometry":{"type":"Polygon","coordinates":[[[127.11581,37.70614],[127.11582,37.70609],[127.11588,37.70609],[127.11588,37.70614],[127.11581,37.70614]]]}},{"type":"Feature","properties":{"valleyId":"suraksan","layer":"shadow","date":"2026-08-01","timeLocal":"17:00"},"geometry":{"type":"Polygon","coordinates":[[[127.11828,37.70623],[127.11829,37.70612],[127.11838,37.70611],[127.11835,37.70623],[127.11828,37.70623]]]}},{"type":"Feature","properties":{"valleyId":"suraksan","layer":"shadow","date":"2026-08-01","timeLocal":"17:00"},"geometry":{"type":"Polygon","coordinates":[[[127.10722,37.70597],[127.10722,37.70589],[127.10729,37.70589],[127.10729,37.70597],[127.10722,37.70597]]]}},{"type":"Feature","properties":{"valleyId":"suraksan","layer":"shadow","date":"2026-08-01","timeLocal":"17:00"},"geometry":{"type":"Polygon","coordinates":[[[127.11346,37.70605],[127.11344,37.70596],[127.11351,37.70596],[127.11353,37.70605],[127.11346,37.70605]]]}},{"type":"Feature","properties":{"valleyId":"suraksan","layer":"shadow","date":"2026-08-01","timeLocal":"17:00"},"geometry":{"type":"Polygon","coordinates":[[[127.11573,37.70598],[127.11573,37.70592],[127.1158,37.70592],[127.1158,37.70598],[127.11573,37.70598]]]}},{"type":"Feature","properties":{"valleyId":"suraksan","layer":"shadow","date":"2026-08-01","timeLocal":"17:00"},"geometry":{"type":"Polygon","coordinates":[[[127.11289,37.70602],[127.11292,37.70588],[127.11299,37.70581],[127.11306,37.70581],[127.11305,37.70588],[127.11298,37.70591],[127.11298,37.70602],[127.11289,37.70602]]]}},{"type":"Feature","properties":{"valleyId":"suraksan","layer":"shadow","date":"2026-08-01","timeLocal":"17:00"},"geometry":{"type":"Polygon","coordinates":[[[127.11777,37.70613],[127.11772,37.70599],[127.11766,37.70592],[127.11766,37.70586],[127.11773,37.70586],[127.11784,37.70597],[127.11786,37.7061],[127.11783,37.70614],[127.11777,37.70613]]]}},{"type":"Feature","properties":{"valleyId":"suraksan","layer":"shadow","date":"2026-08-01","timeLocal":"17:00"},"geometry":{"type":"Polygon","coordinates":[[[127.10668,37.70569],[127.10669,37.70561],[127.10675,37.70562],[127.10675,37.70569],[127.10668,37.70569]]]}},{"type":"Feature","properties":{"valleyId":"suraksan","layer":"shadow","date":"2026-08-01","timeLocal":"17:00"},"geometry":{"type":"Polygon","coordinates":[[[127.11852,37.706],[127.11852,37.70595],[127.11859,37.70589],[127.11859,37.70582],[127.11864,37.70582],[127.11864,37.70575],[127.11873,37.70575],[127.11872,37.7059],[127.11859,37.706],[127.11852,37.706]]]}},{"type":"Feature","properties":{"valleyId":"suraksan","layer":"shadow","date":"2026-08-01","timeLocal":"17:00"},"geometry":{"type":"Polygon","coordinates":[[[127.11848,37.70577],[127.11848,37.70569],[127.11859,37.7057],[127.11859,37.70575],[127.11848,37.70577]]]}},{"type":"Feature","properties":{"valleyId":"suraksan","layer":"shadow","date":"2026-08-01","timeLocal":"17:00"},"geometry":{"type":"Polygon","coordinates":[[[127.11952,37.70577],[127.11952,37.70569],[127.11961,37.7057],[127.11961,37.70575],[127.11952,37.70577]]]}},{"type":"Feature","properties":{"valleyId":"suraksan","layer":"shadow","date":"2026-08-01","timeLocal":"17:00"},"geometry":{"type":"Polygon","coordinates":[[[127.11476,37.70571],[127.11476,37.7056],[127.11485,37.7056],[127.11487,37.70567],[127.11483,37.70571],[127.11476,37.70571]]]}},{"type":"Feature","properties":{"valleyId":"suraksan","layer":"shadow","date":"2026-08-01","timeLocal":"17:00"},"geometry":{"type":"Polygon","coordinates":[[[127.1133,37.70592],[127.11324,37.70585],[127.11326,37.70567],[127.1132,37.70563],[127.1132,37.70557],[127.11331,37.70558],[127.11333,37.70565],[127.1134,37.70569],[127.1134,37.70574],[127.11333,37.70577],[127.11337,37.70592],[127.1133,37.70592]]]}},{"type":"Feature","properties":{"valleyId":"suraksan","layer":"shadow","date":"2026-08-01","timeLocal":"17:00"},"geometry":{"type":"Polygon","coordinates":[[[127.11732,37.70569],[127.1173,37.70562],[127.11737,37.70562],[127.11739,37.7057],[127.11732,37.70569]]]}},{"type":"Feature","properties":{"valleyId":"suraksan","layer":"shadow","date":"2026-08-01","timeLocal":"17:00"},"geometry":{"type":"Polygon","coordinates":[[[127.11862,37.7057],[127.11862,37.70563],[127.11869,37.70563],[127.11868,37.7057],[127.11862,37.7057]]]}},{"type":"Feature","properties":{"valleyId":"suraksan","layer":"shadow","date":"2026-08-01","timeLocal":"17:00"},"geometry":{"type":"Polygon","coordinates":[[[127.11465,37.70556],[127.11465,37.70547],[127.11472,37.70547],[127.11472,37.70556],[127.11465,37.70556]]]}},{"type":"Feature","properties":{"valleyId":"suraksan","layer":"shadow","date":"2026-08-01","timeLocal":"17:00"},"geometry":{"type":"Polygon","coordinates":[[[127.12261,37.70569],[127.12259,37.70558],[127.12266,37.70558],[127.12268,37.70569],[127.12261,37.70569]]]}},{"type":"Feature","properties":{"valleyId":"suraksan","layer":"shadow","date":"2026-08-01","timeLocal":"17:00"},"geometry":{"type":"Polygon","coordinates":[[[127.10583,37.70535],[127.10583,37.70528],[127.1059,37.70528],[127.1059,37.70535],[127.10583,37.70535]]]}},{"type":"Feature","properties":{"valleyId":"suraksan","layer":"shadow","date":"2026-08-01","timeLocal":"17:00"},"geometry":{"type":"Polygon","coordinates":[[[127.11844,37.7056],[127.11844,37.70553],[127.11851,37.70552],[127.11851,37.70548],[127.11855,37.70546],[127.11856,37.70539],[127.11867,37.70539],[127.11867,37.70545],[127.1186,37.70546],[127.1186,37.70555],[127.11853,37.70555],[127.11853,37.70561],[127.11844,37.7056]]]}},{"type":"Feature","properties":{"valleyId":"suraksan","layer":"shadow","date":"2026-08-01","timeLocal":"17:00"},"geometry":{"type":"Polygon","coordinates":[[[127.11304,37.70554],[127.11304,37.7055],[127.11297,37.70544],[127.11293,37.70544],[127.11296,37.70528],[127.11305,37.70525],[127.11316,37.70525],[127.11316,37.70534],[127.11307,37.70539],[127.11306,37.70545],[127.11315,37.70548],[127.11315,37.70554],[127.11304,37.70554]]]}},{"type":"Feature","properties":{"valleyId":"suraksan","layer":"shadow","date":"2026-08-01","timeLocal":"17:00"},"geometry":{"type":"Polygon","coordinates":[[[127.11717,37.70549],[127.11715,37.70533],[127.11726,37.70532],[127.11726,37.70546],[127.11724,37.70549],[127.11717,37.70549]]]}},{"type":"Feature","properties":{"valleyId":"suraksan","layer":"shadow","date":"2026-08-01","timeLocal":"17:00"},"geometry":{"type":"Polygon","coordinates":[[[127.1313,37.70563],[127.13128,37.70554],[127.13139,37.70554],[127.13139,37.70563],[127.1313,37.70563]]]}},{"type":"Feature","properties":{"valleyId":"suraksan","layer":"shadow","date":"2026-08-01","timeLocal":"17:00"},"geometry":{"type":"Polygon","coordinates":[[[127.10386,37.70512],[127.10386,37.70501],[127.10389,37.70497],[127.10396,37.70498],[127.10395,37.70512],[127.10386,37.70512]]]}},{"type":"Feature","properties":{"valleyId":"suraksan","layer":"shadow","date":"2026-08-01","timeLocal":"17:00"},"geometry":{"type":"Polygon","coordinates":[[[127.12319,37.70534],[127.12319,37.70527],[127.12325,37.70527],[127.12325,37.70534],[127.12319,37.70534]]]}},{"type":"Feature","properties":{"valleyId":"suraksan","layer":"shadow","date":"2026-08-01","timeLocal":"17:00"},"geometry":{"type":"Polygon","coordinates":[[[127.13124,37.70543],[127.13124,37.70536],[127.13131,37.70536],[127.1313,37.70543],[127.13124,37.70543]]]}},{"type":"Feature","properties":{"valleyId":"suraksan","layer":"shadow","date":"2026-08-01","timeLocal":"17:00"},"geometry":{"type":"Polygon","coordinates":[[[127.12187,37.7053],[127.12192,37.70516],[127.12201,37.70514],[127.12198,37.70528],[127.12187,37.7053]]]}},{"type":"Feature","properties":{"valleyId":"suraksan","layer":"shadow","date":"2026-08-01","timeLocal":"17:00"},"geometry":{"type":"Polygon","coordinates":[[[127.11847,37.70537],[127.11838,37.70533],[127.11831,37.70522],[127.11824,37.70519],[127.11822,37.70508],[127.11829,37.70508],[127.11838,37.70515],[127.11838,37.70519],[127.11849,37.70524],[127.11853,37.70537],[127.11847,37.70537]]]}},{"type":"Feature","properties":{"valleyId":"suraksan","layer":"shadow","date":"2026-08-01","timeLocal":"17:00"},"geometry":{"type":"Polygon","coordinates":[[[127.10552,37.70513],[127.10547,37.70511],[127.10548,37.70486],[127.10557,37.70484],[127.10559,37.70513],[127.10552,37.70513]]]}},{"type":"Feature","properties":{"valleyId":"suraksan","layer":"shadow","date":"2026-08-01","timeLocal":"17:00"},"geometry":{"type":"Polygon","coordinates":[[[127.10428,37.70491],[127.1043,37.70478],[127.10435,37.70475],[127.10442,37.70475],[127.10441,37.70486],[127.10435,37.70486],[127.10434,37.70491],[127.10428,37.70491]]]}},{"type":"Feature","properties":{"valleyId":"suraksan","layer":"shadow","date":"2026-08-01","timeLocal":"17:00"},"geometry":{"type":"Polygon","coordinates":[[[127.10557,37.70482],[127.10557,37.7047],[127.10567,37.7047],[127.10566,37.70482],[127.10557,37.70482]]]}},{"type":"Feature","properties":{"valleyId":"suraksan","layer":"shadow","date":"2026-08-01","timeLocal":"17:00"},"geometry":{"type":"Polygon","coordinates":[[[127.12344,37.70505],[127.12344,37.70495],[127.12356,37.70496],[127.12356,37.70504],[127.12344,37.70505]]]}},{"type":"Feature","properties":{"valleyId":"suraksan","layer":"shadow","date":"2026-08-01","timeLocal":"17:00"},"geometry":{"type":"Polygon","coordinates":[[[127.10544,37.70466],[127.10533,37.70458],[127.10533,37.70453],[127.10546,37.70455],[127.10551,37.70466],[127.10544,37.70466]]]}},{"type":"Feature","properties":{"valleyId":"suraksan","layer":"shadow","date":"2026-08-01","timeLocal":"17:00"},"geometry":{"type":"Polygon","coordinates":[[[127.11752,37.70514],[127.11745,37.7051],[127.11745,37.70501],[127.1175,37.70499],[127.11748,37.70485],[127.11734,37.70485],[127.1173,37.70496],[127.11721,37.70495],[127.11721,37.7049],[127.11741,37.70476],[127.11755,37.70472],[127.11762,37.70467],[127.1178,37.70464],[127.1178,37.70489],[127.11768,37.70489],[127.11765,37.70514],[127.11752,37.70514]]]}},{"type":"Feature","properties":{"valleyId":"suraksan","layer":"shadow","date":"2026-08-01","timeLocal":"17:00"},"geometry":{"type":"Polygon","coordinates":[[[127.12928,37.70489],[127.12928,37.70482],[127.12935,37.70482],[127.12934,37.70489],[127.12928,37.70489]]]}},{"type":"Feature","properties":{"valleyId":"suraksan","layer":"shadow","date":"2026-08-01","timeLocal":"17:00"},"geometry":{"type":"Polygon","coordinates":[[[127.10453,37.7047],[127.10451,37.70453],[127.10447,37.7045],[127.10447,37.70444],[127.10442,37.70444],[127.10443,37.70439],[127.10454,37.70439],[127.10456,37.70443],[127.1046,37.7047],[127.10453,37.7047]]]}},{"type":"Feature","properties":{"valleyId":"suraksan","layer":"shadow","date":"2026-08-01","timeLocal":"17:00"},"geometry":{"type":"Polygon","coordinates":[[[127.10467,37.70439],[127.10468,37.70434],[127.10474,37.70434],[127.10474,37.70439],[127.10467,37.70439]]]}},{"type":"Feature","properties":{"valleyId":"suraksan","layer":"shadow","date":"2026-08-01","timeLocal":"17:00"},"geometry":{"type":"Polygon","coordinates":[[[127.12275,37.70475],[127.12275,37.70457],[127.12282,37.70457],[127.12281,37.70475],[127.12275,37.70475]]]}},{"type":"Feature","properties":{"valleyId":"suraksan","layer":"shadow","date":"2026-08-01","timeLocal":"17:00"},"geometry":{"type":"Polygon","coordinates":[[[127.12908,37.70473],[127.12906,37.70464],[127.12912,37.70464],[127.12914,37.70473],[127.12908,37.70473]]]}},{"type":"Feature","properties":{"valleyId":"suraksan","layer":"shadow","date":"2026-08-01","timeLocal":"17:00"},"geometry":{"type":"Polygon","coordinates":[[[127.10531,37.70433],[127.10531,37.70429],[127.10527,37.70428],[127.10527,37.70422],[127.10534,37.70422],[127.10538,37.70428],[127.10538,37.70433],[127.10531,37.70433]]]}},{"type":"Feature","properties":{"valleyId":"suraksan","layer":"shadow","date":"2026-08-01","timeLocal":"17:00"},"geometry":{"type":"Polygon","coordinates":[[[127.10447,37.70423],[127.10448,37.70414],[127.10454,37.70414],[127.10454,37.70423],[127.10447,37.70423]]]}},{"type":"Feature","properties":{"valleyId":"suraksan","layer":"shadow","date":"2026-08-01","timeLocal":"17:00"},"geometry":{"type":"Polygon","coordinates":[[[127.12883,37.7046],[127.12883,37.70447],[127.1289,37.70447],[127.12892,37.70456],[127.1289,37.7046],[127.12883,37.7046]]]}},{"type":"Feature","properties":{"valleyId":"suraksan","layer":"shadow","date":"2026-08-01","timeLocal":"17:00"},"geometry":{"type":"Polygon","coordinates":[[[127.10529,37.70419],[127.10529,37.7041],[127.10536,37.7041],[127.10536,37.70419],[127.10529,37.70419]]]}},{"type":"Feature","properties":{"valleyId":"suraksan","layer":"shadow","date":"2026-08-01","timeLocal":"17:00"},"geometry":{"type":"Polygon","coordinates":[[[127.12278,37.70436],[127.12278,37.7043],[127.12285,37.7043],[127.12285,37.70436],[127.12278,37.70436]]]}},{"type":"Feature","properties":{"valleyId":"suraksan","layer":"shadow","date":"2026-08-01","timeLocal":"17:00"},"geometry":{"type":"Polygon","coordinates":[[[127.1287,37.70443],[127.1287,37.70438],[127.12877,37.70438],[127.12877,37.70443],[127.1287,37.70443]]]}},{"type":"Feature","properties":{"valleyId":"suraksan","layer":"shadow","date":"2026-08-01","timeLocal":"17:00"},"geometry":{"type":"Polygon","coordinates":[[[127.12326,37.70433],[127.12324,37.70426],[127.12333,37.70426],[127.12332,37.70433],[127.12326,37.70433]]]}},{"type":"Feature","properties":{"valleyId":"suraksan","layer":"shadow","date":"2026-08-01","timeLocal":"17:00"},"geometry":{"type":"Polygon","coordinates":[[[127.10486,37.70411],[127.10487,37.704],[127.10482,37.70396],[127.10482,37.70391],[127.10489,37.70391],[127.10496,37.70398],[127.10493,37.70411],[127.10486,37.70411]]]}},{"type":"Feature","properties":{"valleyId":"suraksan","layer":"shadow","date":"2026-08-01","timeLocal":"17:00"},"geometry":{"type":"Polygon","coordinates":[[[127.12834,37.70436],[127.12834,37.70427],[127.12841,37.70427],[127.12843,37.70436],[127.12834,37.70436]]]}},{"type":"Feature","properties":{"valleyId":"suraksan","layer":"shadow","date":"2026-08-01","timeLocal":"17:00"},"geometry":{"type":"Polygon","coordinates":[[[127.10435,37.70388],[127.10435,37.70383],[127.10444,37.70383],[127.10444,37.70388],[127.10435,37.70388]]]}},{"type":"Feature","properties":{"valleyId":"suraksan","layer":"shadow","date":"2026-08-01","timeLocal":"17:00"},"geometry":{"type":"Polygon","coordinates":[[[127.12201,37.70512],[127.12212,37.70456],[127.12219,37.70444],[127.12219,37.70437],[127.1221,37.70427],[127.1221,37.70409],[127.12217,37.7041],[127.12226,37.70413],[127.12226,37.70417],[127.12231,37.70417],[127.12233,37.70426],[127.12242,37.70428],[127.12251,37.70434],[127.12251,37.70437],[127.12257,37.70439],[127.12256,37.70497],[127.1222,37.70498],[127.12215,37.70501],[127.12215,37.70509],[127.1221,37.70512],[127.12201,37.70512]]]}},{"type":"Feature","properties":{"valleyId":"suraksan","layer":"shadow","date":"2026-08-01","timeLocal":"17:00"},"geometry":{"type":"Polygon","coordinates":[[[127.12814,37.70424],[127.12814,37.70419],[127.12823,37.70419],[127.12823,37.70425],[127.12814,37.70424]]]}},{"type":"Feature","properties":{"valleyId":"suraksan","layer":"shadow","date":"2026-08-01","timeLocal":"17:00"},"geometry":{"type":"Polygon","coordinates":[[[127.10464,37.70385],[127.10464,37.7038],[127.10471,37.7038],[127.10471,37.70385],[127.10464,37.70385]]]}},{"type":"Feature","properties":{"valleyId":"suraksan","layer":"shadow","date":"2026-08-01","timeLocal":"17:00"},"geometry":{"type":"Polygon","coordinates":[[[127.10501,37.70377],[127.10501,37.70371],[127.1051,37.70371],[127.1051,37.70377],[127.10501,37.70377]]]}},{"type":"Feature","properties":{"valleyId":"suraksan","layer":"shadow","date":"2026-08-01","timeLocal":"17:00"},"geometry":{"type":"Polygon","coordinates":[[[127.12796,37.70419],[127.12787,37.70413],[127.12787,37.70408],[127.128,37.70408],[127.12802,37.70419],[127.12796,37.70419]]]}},{"type":"Feature","properties":{"valleyId":"suraksan","layer":"shadow","date":"2026-08-01","timeLocal":"17:00"},"geometry":{"type":"Polygon","coordinates":[[[127.10517,37.70366],[127.10517,37.70357],[127.10524,37.70357],[127.10524,37.70366],[127.10517,37.70366]]]}},{"type":"Feature","properties":{"valleyId":"suraksan","layer":"shadow","date":"2026-08-01","timeLocal":"17:00"},"geometry":{"type":"Polygon","coordinates":[[[127.12152,37.70392],[127.12147,37.7039],[127.12148,37.70383],[127.12159,37.70383],[127.12159,37.70392],[127.12152,37.70392]]]}},{"type":"Feature","properties":{"valleyId":"suraksan","layer":"shadow","date":"2026-08-01","timeLocal":"17:00"},"geometry":{"type":"Polygon","coordinates":[[[127.12274,37.70427],[127.12276,37.70407],[127.1227,37.70382],[127.12277,37.70382],[127.12277,37.70385],[127.12286,37.70393],[127.12281,37.70407],[127.12288,37.70409],[127.12287,37.70416],[127.12281,37.70418],[127.1228,37.70427],[127.12274,37.70427]]]}},{"type":"Feature","properties":{"valleyId":"suraksan","layer":"shadow","date":"2026-08-01","timeLocal":"17:00"},"geometry":{"type":"Polygon","coordinates":[[[127.1217,37.70378],[127.12171,37.70366],[127.1218,37.70366],[127.12182,37.70375],[127.12177,37.70378],[127.1217,37.70378]]]}},{"type":"Feature","properties":{"valleyId":"suraksan","layer":"shadow","date":"2026-08-01","timeLocal":"17:00"},"geometry":{"type":"Polygon","coordinates":[[[127.1289,37.70381],[127.1289,37.70373],[127.12896,37.70374],[127.12896,37.70381],[127.1289,37.70381]]]}},{"type":"Feature","properties":{"valleyId":"suraksan","layer":"shadow","date":"2026-08-01","timeLocal":"17:00"},"geometry":{"type":"Polygon","coordinates":[[[127.13089,37.70375],[127.13089,37.70369],[127.13096,37.70369],[127.13096,37.70375],[127.13089,37.70375]]]}},{"type":"Feature","properties":{"valleyId":"suraksan","layer":"shadow","date":"2026-08-01","timeLocal":"17:00"},"geometry":{"type":"Polygon","coordinates":[[[127.10506,37.70357],[127.10504,37.7035],[127.10495,37.70344],[127.10493,37.70319],[127.105,37.70319],[127.10504,37.70323],[127.10502,37.70335],[127.10515,37.70352],[127.10515,37.70357],[127.10506,37.70357]]]}},{"type":"Feature","properties":{"valleyId":"suraksan","layer":"shadow","date":"2026-08-01","timeLocal":"17:00"},"geometry":{"type":"Polygon","coordinates":[[[127.10055,37.70315],[127.10056,37.70308],[127.10065,37.70308],[127.10065,37.70316],[127.10055,37.70315]]]}},{"type":"Feature","properties":{"valleyId":"suraksan","layer":"shadow","date":"2026-08-01","timeLocal":"17:00"},"geometry":{"type":"Polygon","coordinates":[[[127.12164,37.70365],[127.12157,37.7036],[127.12157,37.70355],[127.12164,37.70349],[127.12162,37.70337],[127.12169,37.70337],[127.12174,37.7034],[127.12171,37.70366],[127.12164,37.70365]]]}},{"type":"Feature","properties":{"valleyId":"suraksan","layer":"shadow","date":"2026-08-01","timeLocal":"17:00"},"geometry":{"type":"Polygon","coordinates":[[[127.10026,37.70301],[127.10027,37.70293],[127.10036,37.70293],[127.10035,37.70301],[127.10026,37.70301]]]}},{"type":"Feature","properties":{"valleyId":"suraksan","layer":"shadow","date":"2026-08-01","timeLocal":"17:00"},"geometry":{"type":"Polygon","coordinates":[[[127.10149,37.70297],[127.10149,37.70286],[127.10161,37.70286],[127.10163,37.7029],[127.1017,37.7029],[127.10169,37.70296],[127.10165,37.70297],[127.10149,37.70297]]]}},{"type":"Feature","properties":{"valleyId":"suraksan","layer":"shadow","date":"2026-08-01","timeLocal":"17:00"},"geometry":{"type":"Polygon","coordinates":[[[127.12766,37.70334],[127.12766,37.70328],[127.12773,37.70328],[127.12773,37.70334],[127.12766,37.70334]]]}},{"type":"Feature","properties":{"valleyId":"suraksan","layer":"shadow","date":"2026-08-01","timeLocal":"17:00"},"geometry":{"type":"Polygon","coordinates":[[[127.10047,37.70297],[127.10049,37.70283],[127.10048,37.70267],[127.10039,37.70257],[127.10041,37.70249],[127.1005,37.70249],[127.1005,37.70254],[127.10057,37.70254],[127.10057,37.70272],[127.10061,37.70276],[127.10058,37.70296],[127.10047,37.70297]]]}},{"type":"Feature","properties":{"valleyId":"suraksan","layer":"shadow","date":"2026-08-01","timeLocal":"17:00"},"geometry":{"type":"Polygon","coordinates":[[[127.1315,37.70293],[127.1315,37.70287],[127.13157,37.70288],[127.13157,37.70293],[127.1315,37.70293]]]}},{"type":"Feature","properties":{"valleyId":"suraksan","layer":"shadow","date":"2026-08-01","timeLocal":"17:00"},"geometry":{"type":"Polygon","coordinates":[[[127.13144,37.70282],[127.13144,37.70269],[127.13151,37.70269],[127.13151,37.70282],[127.13144,37.70282]]]}},{"type":"Feature","properties":{"valleyId":"suraksan","layer":"shadow","date":"2026-08-01","timeLocal":"17:00"},"geometry":{"type":"Polygon","coordinates":[[[127.12961,37.70261],[127.12959,37.7025],[127.12965,37.7025],[127.1297,37.70247],[127.12968,37.70232],[127.12975,37.70232],[127.12979,37.70243],[127.12972,37.70252],[127.12972,37.70261],[127.12961,37.70261]]]}},{"type":"Feature","properties":{"valleyId":"suraksan","layer":"shadow","date":"2026-08-01","timeLocal":"17:00"},"geometry":{"type":"Polygon","coordinates":[[[127.12519,37.70229],[127.12519,37.7022],[127.12531,37.70222],[127.1253,37.70227],[127.12519,37.70229]]]}},{"type":"Feature","properties":{"valleyId":"suraksan","layer":"shadow","date":"2026-08-01","timeLocal":"17:00"},"geometry":{"type":"Polygon","coordinates":[[[127.10279,37.70191],[127.10279,37.7018],[127.10297,37.70182],[127.10295,37.7019],[127.10279,37.70191]]]}},{"type":"Feature","properties":{"valleyId":"suraksan","layer":"shadow","date":"2026-08-01","timeLocal":"17:00"},"geometry":{"type":"Polygon","coordinates":[[[127.10053,37.70249],[127.10055,37.7024],[127.10069,37.70235],[127.10069,37.70231],[127.10076,37.70227],[127.10083,37.7021],[127.10088,37.7021],[127.10088,37.70184],[127.10084,37.70183],[127.10084,37.70177],[127.10093,37.70177],[127.10095,37.70183],[127.10106,37.70185],[127.10106,37.70196],[127.10102,37.70195],[127.10104,37.7021],[127.10099,37.7021],[127.10094,37.7023],[127.10092,37.70233],[127.10082,37.70235],[127.1008,37.7024],[127.10076,37.7024],[127.10073,37.70244],[127.10064,37.70245],[127.10062,37.70249],[127.10053,37.70249]]]}},{"type":"Feature","properties":{"valleyId":"suraksan","layer":"shadow","date":"2026-08-01","timeLocal":"17:00"},"geometry":{"type":"Polygon","coordinates":[[[127.12263,37.70216],[127.12263,37.70208],[127.12272,37.70209],[127.12272,37.70214],[127.12263,37.70216]]]}},{"type":"Feature","properties":{"valleyId":"suraksan","layer":"shadow","date":"2026-08-01","timeLocal":"17:00"},"geometry":{"type":"Polygon","coordinates":[[[127.10068,37.70177],[127.10066,37.7017],[127.10073,37.7017],[127.10075,37.70177],[127.10068,37.70177]]]}},{"type":"Feature","properties":{"valleyId":"suraksan","layer":"shadow","date":"2026-08-01","timeLocal":"17:00"},"geometry":{"type":"Polygon","coordinates":[[[127.12898,37.70231],[127.12896,37.70213],[127.12898,37.7021],[127.12905,37.7021],[127.12907,37.70231],[127.12898,37.70231]]]}},{"type":"Feature","properties":{"valleyId":"suraksan","layer":"shadow","date":"2026-08-01","timeLocal":"17:00"},"geometry":{"type":"Polygon","coordinates":[[[127.12869,37.70211],[127.12869,37.70205],[127.12876,37.70206],[127.12876,37.70211],[127.12869,37.70211]]]}},{"type":"Feature","properties":{"valleyId":"suraksan","layer":"shadow","date":"2026-08-01","timeLocal":"17:00"},"geometry":{"type":"Polygon","coordinates":[[[127.10009,37.70165],[127.10007,37.70156],[127.10014,37.70156],[127.10016,37.70165],[127.10009,37.70165]]]}},{"type":"Feature","properties":{"valleyId":"suraksan","layer":"shadow","date":"2026-08-01","timeLocal":"17:00"},"geometry":{"type":"Polygon","coordinates":[[[127.10057,37.70171],[127.1005,37.70166],[127.10051,37.70151],[127.10057,37.70151],[127.10059,37.70164],[127.10064,37.70166],[127.10064,37.70171],[127.10057,37.70171]]]}},{"type":"Feature","properties":{"valleyId":"suraksan","layer":"shadow","date":"2026-08-01","timeLocal":"17:00"},"geometry":{"type":"Polygon","coordinates":[[[127.10026,37.70146],[127.10026,37.70135],[127.10033,37.70135],[127.10033,37.70146],[127.10026,37.70146]]]}},{"type":"Feature","properties":{"valleyId":"suraksan","layer":"shadow","date":"2026-08-01","timeLocal":"17:00"},"geometry":{"type":"Polygon","coordinates":[[[127.1004,37.70139],[127.10038,37.70115],[127.10045,37.70115],[127.10051,37.70119],[127.10051,37.70137],[127.1004,37.70139]]]}},{"type":"Feature","properties":{"valleyId":"suraksan","layer":"shadow","date":"2026-08-01","timeLocal":"17:00"},"geometry":{"type":"Polygon","coordinates":[[[127.10022,37.70117],[127.10022,37.70106],[127.10031,37.70106],[127.10036,37.7011],[127.10036,37.70117],[127.10022,37.70117]]]}},{"type":"Feature","properties":{"valleyId":"suraksan","layer":"shadow","date":"2026-08-01","timeLocal":"17:00"},"geometry":{"type":"Polygon","coordinates":[[[127.10237,37.70129],[127.10235,37.70116],[127.10228,37.70115],[127.10233,37.70097],[127.10242,37.70099],[127.10237,37.70117],[127.10244,37.70117],[127.10244,37.70129],[127.10237,37.70129]]]}},{"type":"Feature","properties":{"valleyId":"suraksan","layer":"shadow","date":"2026-08-01","timeLocal":"17:00"},"geometry":{"type":"Polygon","coordinates":[[[127.10272,37.70104],[127.10272,37.70095],[127.10279,37.70096],[127.10279,37.70105],[127.10272,37.70104]]]}},{"type":"Feature","properties":{"valleyId":"suraksan","layer":"shadow","date":"2026-08-01","timeLocal":"17:00"},"geometry":{"type":"Polygon","coordinates":[[[127.12201,37.70141],[127.12202,37.70135],[127.12206,37.70132],[127.12204,37.70121],[127.12215,37.70121],[127.1222,37.70127],[127.12217,37.70136],[127.12208,37.70141],[127.12201,37.70141]]]}},{"type":"Feature","properties":{"valleyId":"suraksan","layer":"shadow","date":"2026-08-01","timeLocal":"17:00"},"geometry":{"type":"Polygon","coordinates":[[[127.09991,37.70089],[127.09991,37.7008],[127.09998,37.7008],[127.09998,37.70089],[127.09991,37.70089]]]}},{"type":"Feature","properties":{"valleyId":"suraksan","layer":"shadow","date":"2026-08-01","timeLocal":"17:00"},"geometry":{"type":"Polygon","coordinates":[[[127.12191,37.70117],[127.12191,37.70112],[127.12198,37.70112],[127.12197,37.70117],[127.12191,37.70117]]]}},{"type":"Feature","properties":{"valleyId":"suraksan","layer":"shadow","date":"2026-08-01","timeLocal":"17:00"},"geometry":{"type":"Polygon","coordinates":[[[127.10213,37.70091],[127.10211,37.70078],[127.10198,37.70069],[127.10194,37.70062],[127.10192,37.70047],[127.10201,37.70049],[127.10205,37.70066],[127.10212,37.70067],[127.10214,37.70073],[127.1022,37.70077],[127.1022,37.70091],[127.10213,37.70091]]]}},{"type":"Feature","properties":{"valleyId":"suraksan","layer":"shadow","date":"2026-08-01","timeLocal":"17:00"},"geometry":{"type":"Polygon","coordinates":[[[127.09926,37.7005],[127.09926,37.70045],[127.09922,37.70043],[127.09922,37.70036],[127.09929,37.70036],[127.09935,37.70043],[127.09935,37.70049],[127.09926,37.7005]]]}},{"type":"Feature","properties":{"valleyId":"suraksan","layer":"shadow","date":"2026-08-01","timeLocal":"17:00"},"geometry":{"type":"Polygon","coordinates":[[[127.10167,37.70049],[127.10165,37.7004],[127.10176,37.70036],[127.10181,37.70031],[127.1019,37.70031],[127.1019,37.70036],[127.10185,37.70036],[127.10176,37.70043],[127.10176,37.70049],[127.10167,37.70049]]]}},{"type":"Feature","properties":{"valleyId":"suraksan","layer":"shadow","date":"2026-08-01","timeLocal":"17:00"},"geometry":{"type":"Polygon","coordinates":[[[127.12235,37.70067],[127.12235,37.7006],[127.12246,37.70062],[127.12246,37.70068],[127.12235,37.70067]]]}},{"type":"Feature","properties":{"valleyId":"suraksan","layer":"shadow","date":"2026-08-01","timeLocal":"17:00"},"geometry":{"type":"Polygon","coordinates":[[[127.12432,37.70071],[127.12432,37.70063],[127.12444,37.70064],[127.12441,37.70071],[127.12432,37.70071]]]}},{"type":"Feature","properties":{"valleyId":"suraksan","layer":"shadow","date":"2026-08-01","timeLocal":"17:00"},"geometry":{"type":"Polygon","coordinates":[[[127.1019,37.70031],[127.1019,37.70024],[127.10179,37.70022],[127.10172,37.70015],[127.10175,37.70006],[127.10186,37.70008],[127.10186,37.70015],[127.10199,37.7002],[127.10197,37.70031],[127.1019,37.70031]]]}},{"type":"Feature","properties":{"valleyId":"suraksan","layer":"shadow","date":"2026-08-01","timeLocal":"17:00"},"geometry":{"type":"Polygon","coordinates":[[[127.10283,37.70024],[127.10286,37.7],[127.10293,37.7],[127.1029,37.70024],[127.10283,37.70024]]]}},{"type":"Feature","properties":{"valleyId":"suraksan","layer":"shadow","date":"2026-08-01","timeLocal":"17:00"},"geometry":{"type":"Polygon","coordinates":[[[127.10179,37.70002],[127.10173,37.69984],[127.10164,37.69984],[127.10164,37.69977],[127.10178,37.69977],[127.10177,37.6998],[127.10182,37.69982],[127.10188,37.69995],[127.10188,37.70002],[127.10179,37.70002]]]}},{"type":"Feature","properties":{"valleyId":"suraksan","layer":"shadow","date":"2026-08-01","timeLocal":"17:00"},"geometry":{"type":"Polygon","coordinates":[[[127.10146,37.69971],[127.10146,37.69965],[127.10155,37.69964],[127.10155,37.69971],[127.10146,37.69971]]]}},{"type":"Feature","properties":{"valleyId":"suraksan","layer":"shadow","date":"2026-08-01","timeLocal":"17:00"},"geometry":{"type":"Polygon","coordinates":[[[127.12533,37.69957],[127.12533,37.69948],[127.12551,37.6995],[127.12551,37.69955],[127.12533,37.69957]]]}},{"type":"Feature","properties":{"valleyId":"suraksan","layer":"shadow","date":"2026-08-01","timeLocal":"17:00"},"geometry":{"type":"Polygon","coordinates":[[[127.12506,37.69953],[127.12506,37.69947],[127.12515,37.69947],[127.12515,37.69953],[127.12506,37.69953]]]}},{"type":"Feature","properties":{"valleyId":"suraksan","layer":"shadow","date":"2026-08-01","timeLocal":"17:00"},"geometry":{"type":"Polygon","coordinates":[[[127.12615,37.69845],[127.12617,37.69836],[127.12624,37.69836],[127.12622,37.69845],[127.12615,37.69845]]]}},{"type":"Feature","properties":{"valleyId":"suraksan","layer":"shadow","date":"2026-08-01","timeLocal":"17:00"},"geometry":{"type":"Polygon","coordinates":[[[127.12638,37.6982],[127.12638,37.69811],[127.12652,37.69813],[127.12652,37.69818],[127.12638,37.6982]]]}},{"type":"Feature","properties":{"valleyId":"suraksan","layer":"shadow","date":"2026-08-01","timeLocal":"17:00"},"geometry":{"type":"Polygon","coordinates":[[[127.12648,37.6978],[127.12648,37.69775],[127.12655,37.69775],[127.12655,37.6978],[127.12648,37.6978]]]}},{"type":"Feature","properties":{"valleyId":"suraksan","layer":"shadow","date":"2026-08-01","timeLocal":"17:00"},"geometry":{"type":"Polygon","coordinates":[[[127.12484,37.69826],[127.12486,37.69812],[127.12477,37.6981],[127.12475,37.69806],[127.12473,37.6979],[127.12467,37.69784],[127.12467,37.69772],[127.12458,37.69756],[127.12459,37.69748],[127.12465,37.69748],[127.12467,37.69757],[127.12472,37.69758],[127.12476,37.69779],[127.12478,37.69783],[127.12483,37.69783],[127.12482,37.69797],[127.12489,37.69805],[127.12489,37.69812],[127.12495,37.69814],[127.12493,37.69825],[127.12484,37.69826]]]}},{"type":"Feature","properties":{"valleyId":"suraksan","layer":"shadow","date":"2026-08-01","timeLocal":"17:00"},"geometry":{"type":"Polygon","coordinates":[[[127.12472,37.69743],[127.12472,37.69738],[127.12481,37.69738],[127.12481,37.69743],[127.12472,37.69743]]]}},{"type":"Feature","properties":{"valleyId":"suraksan","layer":"shadow","date":"2026-08-01","timeLocal":"17:00"},"geometry":{"type":"Polygon","coordinates":[[[127.12434,37.69728],[127.12432,37.69717],[127.12443,37.69716],[127.12441,37.69728],[127.12434,37.69728]]]}},{"type":"Feature","properties":{"valleyId":"suraksan","layer":"shadow","date":"2026-08-01","timeLocal":"17:00"},"geometry":{"type":"Polygon","coordinates":[[[127.12507,37.69729],[127.12511,37.69719],[127.12523,37.69713],[127.12523,37.69704],[127.1253,37.69704],[127.1253,37.69717],[127.12525,37.69719],[127.12525,37.69726],[127.12507,37.69729]]]}},{"type":"Feature","properties":{"valleyId":"suraksan","layer":"shadow","date":"2026-08-01","timeLocal":"17:00"},"geometry":{"type":"Polygon","coordinates":[[[127.12464,37.69716],[127.12464,37.69712],[127.12459,37.69712],[127.1246,37.69707],[127.12464,37.69705],[127.12465,37.69691],[127.12469,37.69691],[127.12469,37.69687],[127.12476,37.69687],[127.12475,37.69707],[127.12471,37.69709],[127.12471,37.69716],[127.12464,37.69716]]]}},{"type":"Feature","properties":{"valleyId":"suraksan","layer":"shadow","date":"2026-08-01","timeLocal":"17:00"},"geometry":{"type":"Polygon","coordinates":[[[127.12613,37.69648],[127.12613,37.69639],[127.1262,37.69632],[127.1262,37.69625],[127.12632,37.69623],[127.12622,37.69646],[127.12613,37.69648]]]}}]}
