{"type":"FeatureCollection","metadata":{"description":"수관 아래(CHM > 2 m) — 시각 무관. 구간 회랑 ±200 m 절단","source":"위성 기반 추정 — Copernicus GLO-30 지형(30 m) + Meta/WRI 수관 높이(1 m CHM, 2019 촬영). 그늘 = 수관(CHM > 2 m) ∪ 나무·지형 그림자 ∪ 원거리 지형 마스크. 현장과 다를 수 있음.","datasetVersion":"2026-09-06.0","collectedAt":"2026-09-06","coordinateOrder":"[longitude, latitude]","crs":"EPSG:4326","representativeDate":"2026-08-01","hours":["10:00","11:00","12:00","13:00","14:00","15:00","16:00","17:00","18:00"],"chmAcquisition":["2019-03"],"assets":{"glo30":{"dataset":"Copernicus DEM GLO-30 (COG, s3://copernicus-dem-30m)","tiles":["Copernicus_DSM_COG_10_N38_00_E127_00_DEM"]},"chm":{"dataset":"Meta/WRI Global Canopy Height Map v1 (alsgedi_global_v6_float, 1 m, CC-BY 4.0)","quadkeys":["132110302"],"acquisition":["2019-03"]}},"method":{"gridResM":2,"canopyThresholdM":2,"bufferHalfM":25,"corridorHalfM":200,"simplifyTolM":2,"minAreaM2":25,"coordDecimals":5},"generator":"scripts/shade 0.1.0","builtAt":"2026-09-06T05:54:22Z","layer":"canopy"},"features":[{"type":"Feature","properties":{"valleyId":"jijangsan","layer":"canopy","date":"2026-08-01"},"geometry":{"type":"Polygon","coordinates":[[[127.20995,38.12234],[127.20995,38.12228],[127.21005,38.12228],[127.21004,38.12234],[127.20995,38.12234]]]}},{"type":"Feature","properties":{"valleyId":"jijangsan","layer":"canopy","date":"2026-08-01"},"geometry":{"type":"Polygon","coordinates":[[[127.20981,38.12176],[127.20981,38.1217],[127.2099,38.12169],[127.2099,38.12176],[127.20981,38.12176]]]}},{"type":"Feature","properties":{"valleyId":"jijangsan","layer":"canopy","date":"2026-08-01"},"geometry":{"type":"Polygon","coordinates":[[[127.21188,38.12173],[127.21186,38.12166],[127.21193,38.12166],[127.21195,38.12174],[127.21188,38.12173]]]}},{"type":"Feature","properties":{"valleyId":"jijangsan","layer":"canopy","date":"2026-08-01"},"geometry":{"type":"Polygon","coordinates":[[[127.21168,38.12166],[127.21166,38.1216],[127.21157,38.12157],[127.21159,38.12146],[127.21166,38.12146],[127.21177,38.12155],[127.21177,38.12164],[127.21168,38.12166]]]}},{"type":"Feature","properties":{"valleyId":"jijangsan","layer":"canopy","date":"2026-08-01"},"geometry":{"type":"Polygon","coordinates":[[[127.20847,38.12143],[127.20838,38.12137],[127.20838,38.12132],[127.20845,38.12127],[127.20859,38.12127],[127.20856,38.12141],[127.20847,38.12143]]]}},{"type":"Feature","properties":{"valleyId":"jijangsan","layer":"canopy","date":"2026-08-01"},"geometry":{"type":"Polygon","coordinates":[[[127.21132,38.12133],[127.21133,38.12126],[127.21139,38.12126],[127.21139,38.12133],[127.21132,38.12133]]]}},{"type":"Feature","properties":{"valleyId":"jijangsan","layer":"canopy","date":"2026-08-01"},"geometry":{"type":"Polygon","coordinates":[[[127.20923,38.12121],[127.20923,38.12114],[127.2093,38.12114],[127.2093,38.12121],[127.20923,38.12121]]]}},{"type":"Feature","properties":{"valleyId":"jijangsan","layer":"canopy","date":"2026-08-01"},"geometry":{"type":"Polygon","coordinates":[[[127.21114,38.1212],[127.21115,38.12113],[127.21124,38.12113],[127.21124,38.1212],[127.21114,38.1212]]]}},{"type":"Feature","properties":{"valleyId":"jijangsan","layer":"canopy","date":"2026-08-01"},"geometry":{"type":"Polygon","coordinates":[[[127.21094,38.12109],[127.2109,38.12105],[127.2109,38.12098],[127.21104,38.121],[127.21106,38.12109],[127.21094,38.12109]]]}},{"type":"Feature","properties":{"valleyId":"jijangsan","layer":"canopy","date":"2026-08-01"},"geometry":{"type":"Polygon","coordinates":[[[127.21072,38.12096],[127.2107,38.12085],[127.21061,38.12085],[127.21054,38.12078],[127.21043,38.12078],[127.21043,38.12069],[127.21054,38.12069],[127.21059,38.12074],[127.21068,38.12076],[127.2107,38.12083],[127.21079,38.12083],[127.21088,38.12089],[127.21088,38.12096],[127.21072,38.12096]]]}},{"type":"Feature","properties":{"valleyId":"jijangsan","layer":"canopy","date":"2026-08-01"},"geometry":{"type":"Polygon","coordinates":[[[127.212,38.12062],[127.21198,38.12051],[127.21205,38.12051],[127.21207,38.12062],[127.212,38.12062]]]}},{"type":"Feature","properties":{"valleyId":"jijangsan","layer":"canopy","date":"2026-08-01"},"geometry":{"type":"Polygon","coordinates":[[[127.21186,38.11977],[127.21187,38.11972],[127.21196,38.11968],[127.212,38.11961],[127.21214,38.11958],[127.21214,38.11965],[127.21209,38.11968],[127.21198,38.1197],[127.21196,38.11977],[127.21186,38.11977]]]}},{"type":"Feature","properties":{"valleyId":"jijangsan","layer":"canopy","date":"2026-08-01"},"geometry":{"type":"Polygon","coordinates":[[[127.20772,38.11951],[127.20772,38.11942],[127.20781,38.11942],[127.20779,38.11951],[127.20772,38.11951]]]}},{"type":"Feature","properties":{"valleyId":"jijangsan","layer":"canopy","date":"2026-08-01"},"geometry":{"type":"Polygon","coordinates":[[[127.21228,38.11952],[127.21228,38.11945],[127.21242,38.11944],[127.21242,38.11951],[127.21228,38.11952]]]}},{"type":"Feature","properties":{"valleyId":"jijangsan","layer":"canopy","date":"2026-08-01"},"geometry":{"type":"Polygon","coordinates":[[[127.20723,38.12004],[127.20707,38.11979],[127.20696,38.11968],[127.20692,38.11957],[127.20687,38.11955],[127.20637,38.11868],[127.20632,38.11866],[127.20631,38.11851],[127.20621,38.11849],[127.20606,38.11822],[127.20602,38.1182],[127.20578,38.11775],[127.20551,38.11661],[127.20567,38.1165],[127.2057,38.11634],[127.20581,38.11634],[127.20594,38.11647],[127.2061,38.11646],[127.20608,38.11633],[127.20597,38.11631],[127.20595,38.11627],[127.20596,38.11604],[127.20602,38.11604],[127.20604,38.11611],[127.20611,38.11615],[127.20613,38.11624],[127.20625,38.11628],[127.20636,38.11637],[127.20636,38.11642],[127.20642,38.11646],[127.20642,38.11651],[127.20667,38.11668],[127.20671,38.11679],[127.20678,38.11683],[127.2068,38.11692],[127.20693,38.11708],[127.20691,38.11726],[127.20679,38.11728],[127.20679,38.11731],[127.2067,38.11737],[127.20667,38.11742],[127.20669,38.11755],[127.20683,38.11757],[127.20681,38.11766],[127.20665,38.11765],[127.20664,38.11773],[127.20671,38.11773],[127.20673,38.11778],[127.20673,38.11789],[127.20664,38.11796],[127.20664,38.11801],[127.20657,38.11805],[127.20652,38.11814],[127.20647,38.11816],[127.20647,38.11825],[127.20643,38.11826],[127.20638,38.11835],[127.20638,38.11842],[127.20644,38.1185],[127.20644,38.11866],[127.20664,38.11864],[127.20678,38.11875],[127.20694,38.11876],[127.20698,38.11883],[127.2071,38.11883],[127.20716,38.11889],[127.20716,38.11898],[127.20721,38.11901],[127.20727,38.11901],[127.20737,38.11891],[127.20748,38.11889],[127.20758,38.11882],[127.20783,38.11879],[127.20782,38.11888],[127.20759,38.119],[127.20759,38.11907],[127.20752,38.11913],[127.20752,38.11925],[127.20761,38.11934],[127.20754,38.11951],[127.20753,38.11972],[127.20746,38.11977],[127.20746,38.11985],[127.20739,38.11988],[127.20739,38.11997],[127.20732,38.12001],[127.20732,38.12004],[127.20723,38.12004]]]}},{"type":"Feature","properties":{"valleyId":"jijangsan","layer":"canopy","date":"2026-08-01"},"geometry":{"type":"Polygon","coordinates":[[[127.20545,38.11619],[127.20546,38.11596],[127.20557,38.11596],[127.20559,38.11589],[127.20564,38.11587],[127.20596,38.11589],[127.20596,38.11604],[127.20573,38.11604],[127.2057,38.11607],[127.20564,38.11607],[127.20561,38.1162],[127.20545,38.11619]]]}},{"type":"Feature","properties":{"valleyId":"jijangsan","layer":"canopy","date":"2026-08-01"},"geometry":{"type":"Polygon","coordinates":[[[127.20664,38.11592],[127.20664,38.11587],[127.20671,38.11587],[127.20671,38.11592],[127.20664,38.11592]]]}},{"type":"Feature","properties":{"valleyId":"jijangsan","layer":"canopy","date":"2026-08-01"},"geometry":{"type":"Polygon","coordinates":[[[127.20628,38.11588],[127.20621,38.11586],[127.20621,38.11581],[127.20628,38.11577],[127.20646,38.11578],[127.20653,38.11581],[127.20653,38.11587],[127.20628,38.11588]]]}},{"type":"Feature","properties":{"valleyId":"jijangsan","layer":"canopy","date":"2026-08-01"},"geometry":{"type":"Polygon","coordinates":[[[127.20665,38.11576],[127.20665,38.11571],[127.20672,38.11571],[127.20671,38.11576],[127.20665,38.11576]]]}},{"type":"Feature","properties":{"valleyId":"jijangsan","layer":"canopy","date":"2026-08-01"},"geometry":{"type":"Polygon","coordinates":[[[127.20846,38.11528],[127.20846,38.11519],[127.20855,38.11518],[127.20855,38.11527],[127.20846,38.11528]]]}},{"type":"Feature","properties":{"valleyId":"jijangsan","layer":"canopy","date":"2026-08-01"},"geometry":{"type":"Polygon","coordinates":[[[127.20539,38.11571],[127.20536,38.11531],[127.2054,38.11441],[127.20548,38.11385],[127.20555,38.11385],[127.2058,38.11409],[127.20584,38.11418],[127.20591,38.1142],[127.20595,38.11429],[127.20602,38.11433],[127.20601,38.11469],[127.20606,38.11469],[127.2061,38.1148],[127.20614,38.11482],[127.20612,38.11494],[127.20616,38.115],[127.20618,38.11532],[127.20611,38.11537],[127.20611,38.11541],[127.20604,38.11543],[127.20601,38.11548],[127.20597,38.11548],[127.20595,38.11552],[127.20574,38.11555],[127.2056,38.1156],[127.20555,38.11567],[127.20539,38.11571]]]}},{"type":"Feature","properties":{"valleyId":"jijangsan","layer":"canopy","date":"2026-08-01"},"geometry":{"type":"Polygon","coordinates":[[[127.2098,38.11383],[127.2098,38.11375],[127.20989,38.11376],[127.20989,38.11381],[127.2098,38.11383]]]}},{"type":"Feature","properties":{"valleyId":"jijangsan","layer":"canopy","date":"2026-08-01"},"geometry":{"type":"Polygon","coordinates":[[[127.20827,38.1138],[127.20832,38.11366],[127.20841,38.11366],[127.20838,38.11377],[127.20834,38.1138],[127.20827,38.1138]]]}},{"type":"Feature","properties":{"valleyId":"jijangsan","layer":"canopy","date":"2026-08-01"},"geometry":{"type":"Polygon","coordinates":[[[127.20841,38.11359],[127.20839,38.1135],[127.20844,38.11345],[127.20851,38.11345],[127.20853,38.11355],[127.2085,38.11359],[127.20841,38.11359]]]}},{"type":"Feature","properties":{"valleyId":"jijangsan","layer":"canopy","date":"2026-08-01"},"geometry":{"type":"Polygon","coordinates":[[[127.20939,38.11364],[127.20935,38.1136],[127.20935,38.11355],[127.20942,38.11353],[127.20942,38.11342],[127.20953,38.11343],[127.20958,38.11348],[127.20957,38.11361],[127.20953,38.11361],[127.2095,38.11364],[127.20939,38.11364]]]}},{"type":"Feature","properties":{"valleyId":"jijangsan","layer":"canopy","date":"2026-08-01"},"geometry":{"type":"Polygon","coordinates":[[[127.20866,38.11359],[127.20862,38.11357],[127.20862,38.11345],[127.20867,38.11341],[127.20876,38.11341],[127.20875,38.11356],[127.20873,38.11359],[127.20866,38.11359]]]}},{"type":"Feature","properties":{"valleyId":"jijangsan","layer":"canopy","date":"2026-08-01"},"geometry":{"type":"Polygon","coordinates":[[[127.20894,38.11336],[127.20894,38.11329],[127.20901,38.11329],[127.20901,38.11336],[127.20894,38.11336]]]}},{"type":"Feature","properties":{"valleyId":"jijangsan","layer":"canopy","date":"2026-08-01"},"geometry":{"type":"Polygon","coordinates":[[[127.20556,38.11371],[127.20554,38.11356],[127.20561,38.11324],[127.20578,38.11288],[127.20585,38.11288],[127.20584,38.11326],[127.20577,38.11328],[127.20575,38.11333],[127.20566,38.11338],[127.20565,38.11346],[127.20588,38.11351],[127.20595,38.11346],[127.20611,38.11346],[127.20613,38.11341],[127.2062,38.11339],[127.2062,38.11336],[127.20625,38.11334],[127.20646,38.11332],[127.20645,38.11338],[127.20634,38.11345],[127.20634,38.1135],[127.20624,38.11359],[127.20617,38.11359],[127.20615,38.11354],[127.20606,38.11354],[127.20601,38.11361],[127.20581,38.1136],[127.20572,38.11364],[127.20572,38.11371],[127.20556,38.11371]]]}},{"type":"Feature","properties":{"valleyId":"jijangsan","layer":"canopy","date":"2026-08-01"},"geometry":{"type":"Polygon","coordinates":[[[127.20734,38.11246],[127.20735,38.11231],[127.20737,38.11228],[127.20744,38.11228],[127.20743,38.11244],[127.20734,38.11246]]]}},{"type":"Feature","properties":{"valleyId":"jijangsan","layer":"canopy","date":"2026-08-01"},"geometry":{"type":"Polygon","coordinates":[[[127.20705,38.1124],[127.20705,38.11227],[127.20712,38.11224],[127.20715,38.11213],[127.20724,38.11213],[127.20723,38.11236],[127.20705,38.1124]]]}},{"type":"Feature","properties":{"valleyId":"jijangsan","layer":"canopy","date":"2026-08-01"},"geometry":{"type":"Polygon","coordinates":[[[127.20788,38.11209],[127.20776,38.11205],[127.20779,38.11198],[127.20799,38.11203],[127.20799,38.11209],[127.20788,38.11209]]]}},{"type":"Feature","properties":{"valleyId":"jijangsan","layer":"canopy","date":"2026-08-01"},"geometry":{"type":"Polygon","coordinates":[[[127.20739,38.11224],[127.2074,38.11211],[127.20747,38.11195],[127.20754,38.11195],[127.20754,38.11192],[127.20768,38.11194],[127.20767,38.11199],[127.20754,38.11201],[127.20749,38.11208],[127.20746,38.11224],[127.20739,38.11224]]]}},{"type":"Feature","properties":{"valleyId":"jijangsan","layer":"canopy","date":"2026-08-01"},"geometry":{"type":"Polygon","coordinates":[[[127.2074,38.11193],[127.2074,38.11186],[127.20747,38.11186],[127.20747,38.11193],[127.2074,38.11193]]]}},{"type":"Feature","properties":{"valleyId":"jijangsan","layer":"canopy","date":"2026-08-01"},"geometry":{"type":"Polygon","coordinates":[[[127.20738,38.1108],[127.20739,38.11073],[127.20745,38.11073],[127.20745,38.1108],[127.20738,38.1108]]]}},{"type":"Feature","properties":{"valleyId":"jijangsan","layer":"canopy","date":"2026-08-01"},"geometry":{"type":"Polygon","coordinates":[[[127.20755,38.11053],[127.20755,38.11048],[127.20749,38.11038],[127.20749,38.11029],[127.2076,38.11031],[127.2076,38.11044],[127.20764,38.11046],[127.20764,38.11051],[127.20755,38.11053]]]}},{"type":"Feature","properties":{"valleyId":"jijangsan","layer":"canopy","date":"2026-08-01"},"geometry":{"type":"Polygon","coordinates":[[[127.21223,38.11044],[127.21216,38.11035],[127.21216,38.11026],[127.21228,38.11019],[127.21244,38.11019],[127.21244,38.11024],[127.21237,38.1103],[127.21237,38.11037],[127.2123,38.11044],[127.21223,38.11044]]]}},{"type":"Feature","properties":{"valleyId":"jijangsan","layer":"canopy","date":"2026-08-01"},"geometry":{"type":"Polygon","coordinates":[[[127.20731,38.11013],[127.20731,38.11002],[127.20743,38.11001],[127.20745,38.11013],[127.20731,38.11013]]]}},{"type":"Feature","properties":{"valleyId":"jijangsan","layer":"canopy","date":"2026-08-01"},"geometry":{"type":"Polygon","coordinates":[[[127.21144,38.10998],[127.21144,38.10987],[127.21151,38.10987],[127.21151,38.10998],[127.21144,38.10998]]]}},{"type":"Feature","properties":{"valleyId":"jijangsan","layer":"canopy","date":"2026-08-01"},"geometry":{"type":"Polygon","coordinates":[[[127.21269,38.10936],[127.21269,38.10931],[127.21276,38.10931],[127.21276,38.10937],[127.21269,38.10936]]]}},{"type":"Feature","properties":{"valleyId":"jijangsan","layer":"canopy","date":"2026-08-01"},"geometry":{"type":"Polygon","coordinates":[[[127.21183,38.10816],[127.21178,38.10805],[127.21192,38.10806],[127.21194,38.10816],[127.21183,38.10816]]]}},{"type":"Feature","properties":{"valleyId":"jijangsan","layer":"canopy","date":"2026-08-01"},"geometry":{"type":"Polygon","coordinates":[[[127.20986,38.10579],[127.20986,38.10573],[127.20993,38.10574],[127.20992,38.10579],[127.20986,38.10579]]]}},{"type":"Feature","properties":{"valleyId":"jijangsan","layer":"canopy","date":"2026-08-01"},"geometry":{"type":"Polygon","coordinates":[[[127.19382,38.10484],[127.19382,38.10479],[127.19389,38.10479],[127.19389,38.10484],[127.19382,38.10484]]]}},{"type":"Feature","properties":{"valleyId":"jijangsan","layer":"canopy","date":"2026-08-01"},"geometry":{"type":"Polygon","coordinates":[[[127.20866,38.10519],[127.20867,38.10501],[127.20874,38.10494],[127.20883,38.10494],[127.20882,38.10507],[127.20873,38.10514],[127.20873,38.1052],[127.20866,38.10519]]]}},{"type":"Feature","properties":{"valleyId":"jijangsan","layer":"canopy","date":"2026-08-01"},"geometry":{"type":"Polygon","coordinates":[[[127.20837,38.10497],[127.20833,38.10494],[127.20833,38.10488],[127.20842,38.10487],[127.20846,38.10497],[127.20837,38.10497]]]}},{"type":"Feature","properties":{"valleyId":"jijangsan","layer":"canopy","date":"2026-08-01"},"geometry":{"type":"Polygon","coordinates":[[[127.19387,38.10477],[127.19387,38.10468],[127.19392,38.10464],[127.19397,38.10452],[127.19406,38.10452],[127.19401,38.10474],[127.19387,38.10477]]]}},{"type":"Feature","properties":{"valleyId":"jijangsan","layer":"canopy","date":"2026-08-01"},"geometry":{"type":"Polygon","coordinates":[[[127.19386,38.10587],[127.19387,38.10553],[127.19395,38.10535],[127.19395,38.10511],[127.19402,38.10499],[127.19403,38.10488],[127.19414,38.1047],[127.19417,38.10452],[127.19426,38.1045],[127.19431,38.10458],[127.1943,38.10485],[127.19425,38.10487],[127.19425,38.10496],[127.19436,38.10512],[127.19433,38.10546],[127.19426,38.10551],[127.19425,38.10582],[127.19402,38.10587],[127.19386,38.10587]]]}},{"type":"Feature","properties":{"valleyId":"jijangsan","layer":"canopy","date":"2026-08-01"},"geometry":{"type":"Polygon","coordinates":[[[127.19418,38.10407],[127.19416,38.10402],[127.19398,38.10391],[127.19396,38.10373],[127.19383,38.10365],[127.19383,38.10358],[127.1939,38.10358],[127.19404,38.10347],[127.19411,38.10348],[127.19411,38.10344],[127.19415,38.10342],[127.1942,38.10333],[127.19425,38.10333],[127.19425,38.1033],[127.19436,38.1033],[127.19436,38.10339],[127.19431,38.10346],[127.19417,38.10357],[127.19417,38.10369],[127.19414,38.10373],[127.19408,38.10373],[127.19407,38.10378],[127.19414,38.1038],[127.19425,38.10396],[127.19425,38.10407],[127.19418,38.10407]]]}},{"type":"Feature","properties":{"valleyId":"jijangsan","layer":"canopy","date":"2026-08-01"},"geometry":{"type":"Polygon","coordinates":[[[127.20778,38.10307],[127.20778,38.10302],[127.20787,38.10302],[127.20787,38.10307],[127.20778,38.10307]]]}},{"type":"Feature","properties":{"valleyId":"jijangsan","layer":"canopy","date":"2026-08-01"},"geometry":{"type":"Polygon","coordinates":[[[127.20757,38.10312],[127.20744,38.10305],[127.20744,38.10299],[127.20771,38.10303],[127.20769,38.10312],[127.20757,38.10312]]]}},{"type":"Feature","properties":{"valleyId":"jijangsan","layer":"canopy","date":"2026-08-01"},"geometry":{"type":"Polygon","coordinates":[[[127.20815,38.10293],[127.20815,38.10284],[127.20826,38.10284],[127.20826,38.1029],[127.20821,38.10293],[127.20815,38.10293]]]}},{"type":"Feature","properties":{"valleyId":"jijangsan","layer":"canopy","date":"2026-08-01"},"geometry":{"type":"Polygon","coordinates":[[[127.19327,38.10588],[127.19268,38.10574],[127.19234,38.10559],[127.19212,38.10543],[127.19207,38.10543],[127.19167,38.10504],[127.19141,38.10457],[127.19133,38.10408],[127.19134,38.10379],[127.19144,38.10338],[127.19172,38.10292],[127.19179,38.10288],[127.19186,38.10277],[127.192,38.10269],[127.192,38.10265],[127.19212,38.10258],[127.19219,38.10258],[127.19228,38.10265],[127.19237,38.10266],[127.19239,38.10269],[127.19246,38.10269],[127.1925,38.10273],[127.19271,38.10273],[127.19273,38.10281],[127.19278,38.10282],[127.19277,38.10297],[127.19288,38.10306],[127.19288,38.10313],[127.19274,38.10318],[127.19274,38.10326],[127.19297,38.10326],[127.1931,38.10335],[127.1931,38.10348],[127.19317,38.10348],[127.19321,38.10352],[127.1932,38.10395],[127.19311,38.104],[127.19309,38.10414],[127.19302,38.10416],[127.19295,38.10427],[127.19288,38.1043],[127.19287,38.10445],[127.1928,38.10445],[127.19273,38.1045],[127.19269,38.1045],[127.19266,38.10457],[127.1928,38.10468],[127.1928,38.10473],[127.19273,38.10475],[127.19268,38.10481],[127.19268,38.10493],[127.19275,38.10497],[127.19291,38.10497],[127.19311,38.10508],[127.19322,38.10508],[127.19331,38.10518],[127.19345,38.10523],[127.19349,38.1053],[127.19344,38.10554],[127.19343,38.10577],[127.19348,38.10588],[127.19327,38.10588]]]}},{"type":"Feature","properties":{"valleyId":"jijangsan","layer":"canopy","date":"2026-08-01"},"geometry":{"type":"Polygon","coordinates":[[[127.19311,38.1024],[127.19311,38.10234],[127.19318,38.10234],[127.19317,38.1024],[127.19311,38.1024]]]}},{"type":"Feature","properties":{"valleyId":"jijangsan","layer":"canopy","date":"2026-08-01"},"geometry":{"type":"Polygon","coordinates":[[[127.19499,38.10549],[127.19499,38.10545],[127.19488,38.10538],[127.19484,38.10531],[127.19477,38.10502],[127.19478,38.10466],[127.19481,38.10457],[127.19488,38.10453],[127.19488,38.10444],[127.19481,38.10439],[127.19487,38.10399],[127.1948,38.10394],[127.1948,38.1039],[127.19471,38.10386],[127.19471,38.10377],[127.19476,38.10376],[127.19479,38.10365],[127.19479,38.10352],[127.19468,38.10348],[127.19465,38.10341],[127.19456,38.10339],[127.19443,38.10326],[127.19436,38.10324],[127.19434,38.10312],[127.19425,38.10299],[127.19419,38.10297],[127.19419,38.10288],[127.19414,38.10285],[127.19415,38.10275],[127.19422,38.10268],[127.19426,38.10268],[127.19426,38.10256],[127.19431,38.10254],[127.19431,38.10247],[127.19443,38.10227],[127.19452,38.10227],[127.19484,38.10241],[127.19486,38.10244],[127.19504,38.10252],[127.19511,38.10259],[127.19515,38.10259],[127.19538,38.10277],[127.19538,38.10281],[127.19553,38.10294],[127.19571,38.10319],[127.19588,38.10365],[127.19589,38.10435],[127.19574,38.10478],[127.1956,38.10501],[127.19555,38.10503],[127.19553,38.1051],[127.19541,38.10519],[127.19541,38.10523],[127.19513,38.10546],[127.19499,38.10549]]]}},{"type":"Feature","properties":{"valleyId":"jijangsan","layer":"canopy","date":"2026-08-01"},"geometry":{"type":"Polygon","coordinates":[[[127.1929,38.1023],[127.19288,38.10223],[127.193,38.10221],[127.19299,38.1023],[127.1929,38.1023]]]}},{"type":"Feature","properties":{"valleyId":"jijangsan","layer":"canopy","date":"2026-08-01"},"geometry":{"type":"Polygon","coordinates":[[[127.19352,38.10224],[127.19348,38.1022],[127.19348,38.10213],[127.19361,38.10213],[127.19361,38.10224],[127.19352,38.10224]]]}},{"type":"Feature","properties":{"valleyId":"jijangsan","layer":"canopy","date":"2026-08-01"},"geometry":{"type":"Polygon","coordinates":[[[127.20768,38.10228],[127.20766,38.1022],[127.20787,38.10223],[127.20787,38.10228],[127.20768,38.10228]]]}},{"type":"Feature","properties":{"valleyId":"jijangsan","layer":"canopy","date":"2026-08-01"},"geometry":{"type":"Polygon","coordinates":[[[127.20721,38.10186],[127.20722,38.10178],[127.20731,38.10179],[127.20731,38.10186],[127.20721,38.10186]]]}},{"type":"Feature","properties":{"valleyId":"jijangsan","layer":"canopy","date":"2026-08-01"},"geometry":{"type":"Polygon","coordinates":[[[127.20733,38.10182],[127.20735,38.10173],[127.20747,38.10172],[127.20751,38.10175],[127.20749,38.10182],[127.20733,38.10182]]]}},{"type":"Feature","properties":{"valleyId":"jijangsan","layer":"canopy","date":"2026-08-01"},"geometry":{"type":"Polygon","coordinates":[[[127.21229,38.10505],[127.2122,38.10501],[127.2122,38.10496],[127.21209,38.10487],[127.21203,38.10474],[127.21169,38.10461],[127.21164,38.10454],[127.21157,38.1045],[127.21155,38.10441],[127.21146,38.10437],[127.21146,38.10434],[127.21131,38.10428],[127.21126,38.10421],[127.21119,38.10419],[127.21106,38.10408],[127.21109,38.10395],[127.21116,38.10393],[127.21116,38.10388],[127.21109,38.10383],[127.21104,38.10382],[127.211,38.10375],[127.21096,38.10344],[127.21089,38.10339],[127.21081,38.10315],[127.21072,38.10308],[127.2107,38.1029],[127.21061,38.10281],[127.21062,38.10268],[127.21053,38.10259],[127.21051,38.10248],[127.21044,38.10245],[127.2103,38.10244],[127.21021,38.10248],[127.20985,38.10245],[127.20978,38.10238],[127.20967,38.10236],[127.2096,38.10229],[127.2096,38.1022],[127.20956,38.10213],[127.20956,38.10191],[127.20952,38.10185],[127.20959,38.10164],[127.20964,38.1016],[127.2098,38.10164],[127.20987,38.10159],[127.20994,38.10159],[127.20994,38.10152],[127.20998,38.1015],[127.2101,38.10152],[127.21007,38.10159],[127.20998,38.10159],[127.20998,38.10166],[127.21002,38.10172],[127.21016,38.1017],[127.21034,38.10174],[127.21048,38.10173],[127.21057,38.10165],[127.21069,38.10166],[127.21068,38.10171],[127.21082,38.10171],[127.21101,38.10157],[127.21112,38.10155],[127.21117,38.10148],[127.21135,38.10141],[127.21164,38.10095],[127.21175,38.10088],[127.21176,38.10084],[127.2118,38.10084],[127.2119,38.1007],[127.21203,38.10065],[127.21206,38.10061],[127.21222,38.10065],[127.21221,38.10074],[127.21202,38.10106],[127.21181,38.10128],[127.21177,38.10198],[127.21181,38.10243],[127.21179,38.10304],[127.2115,38.10394],[127.21201,38.10433],[127.21201,38.10436],[127.21208,38.1044],[127.21208,38.10444],[127.21221,38.10456],[127.21243,38.10498],[127.21243,38.10504],[127.21229,38.10505]]]}},{"type":"Feature","properties":{"valleyId":"jijangsan","layer":"canopy","date":"2026-08-01"},"geometry":{"type":"Polygon","coordinates":[[[127.20996,38.10073],[127.20994,38.10065],[127.21,38.10062],[127.21001,38.10053],[127.21008,38.10053],[127.21007,38.10069],[127.21005,38.10073],[127.20996,38.10073]]]}},{"type":"Feature","properties":{"valleyId":"jijangsan","layer":"canopy","date":"2026-08-01"},"geometry":{"type":"Polygon","coordinates":[[[127.2085,38.09962],[127.20848,38.09955],[127.20857,38.09955],[127.20857,38.09962],[127.2085,38.09962]]]}},{"type":"Feature","properties":{"valleyId":"jijangsan","layer":"canopy","date":"2026-08-01"},"geometry":{"type":"Polygon","coordinates":[[[127.21047,38.09929],[127.21047,38.09924],[127.21052,38.09924],[127.21054,38.09918],[127.21054,38.09911],[127.21061,38.09911],[127.21059,38.09924],[127.21054,38.09924],[127.21054,38.09929],[127.21047,38.09929]]]}},{"type":"Feature","properties":{"valleyId":"jijangsan","layer":"canopy","date":"2026-08-01"},"geometry":{"type":"Polygon","coordinates":[[[127.21154,38.09927],[127.21154,38.0992],[127.21166,38.09913],[127.21175,38.09899],[127.21182,38.09893],[127.21194,38.09892],[127.21198,38.09897],[127.21198,38.0991],[127.21177,38.09915],[127.21177,38.09926],[127.21154,38.09927]]]}},{"type":"Feature","properties":{"valleyId":"jijangsan","layer":"canopy","date":"2026-08-01"},"geometry":{"type":"Polygon","coordinates":[[[127.21154,38.09839],[127.21154,38.09834],[127.21159,38.09832],[127.21164,38.09821],[127.21175,38.09812],[127.21187,38.09811],[127.21187,38.09816],[127.21175,38.09821],[127.21175,38.09825],[127.21168,38.09828],[127.21168,38.09834],[127.21161,38.09839],[127.21154,38.09839]]]}},{"type":"Feature","properties":{"valleyId":"jijangsan","layer":"canopy","date":"2026-08-01"},"geometry":{"type":"Polygon","coordinates":[[[127.20872,38.09802],[127.20872,38.09795],[127.20879,38.09795],[127.20879,38.09802],[127.20872,38.09802]]]}},{"type":"Feature","properties":{"valleyId":"jijangsan","layer":"canopy","date":"2026-08-01"},"geometry":{"type":"Polygon","coordinates":[[[127.20822,38.09801],[127.2083,38.09774],[127.20839,38.09773],[127.20841,38.09793],[127.20834,38.09796],[127.20833,38.09802],[127.20822,38.09801]]]}},{"type":"Feature","properties":{"valleyId":"jijangsan","layer":"canopy","date":"2026-08-01"},"geometry":{"type":"Polygon","coordinates":[[[127.21384,38.0966],[127.21385,38.0965],[127.21398,38.09646],[127.21399,38.0963],[127.21408,38.0963],[127.21412,38.09634],[127.21412,38.09645],[127.21401,38.09646],[127.21396,38.09661],[127.21384,38.0966]]]}},{"type":"Feature","properties":{"valleyId":"jijangsan","layer":"canopy","date":"2026-08-01"},"geometry":{"type":"Polygon","coordinates":[[[127.21491,38.09855],[127.21485,38.09849],[127.21462,38.09847],[127.21451,38.09836],[127.21449,38.09827],[127.2144,38.09823],[127.21435,38.09816],[127.21417,38.09812],[127.21406,38.09796],[127.21399,38.09796],[127.2139,38.0979],[127.21393,38.09763],[127.21389,38.09756],[127.21389,38.09738],[127.21396,38.09733],[127.21396,38.09729],[127.21415,38.09719],[127.21417,38.09711],[127.21424,38.09706],[127.21429,38.09706],[127.21429,38.09703],[127.21436,38.09697],[127.21456,38.09698],[127.2147,38.09701],[127.21486,38.09694],[127.21489,38.09689],[127.21507,38.09686],[127.21507,38.09673],[127.21503,38.09662],[127.21496,38.0966],[127.21492,38.09653],[127.21474,38.09642],[127.21472,38.09631],[127.21477,38.09613],[127.21488,38.09615],[127.21499,38.09624],[127.21499,38.09639],[127.21517,38.09639],[127.21524,38.09644],[127.21524,38.09648],[127.21533,38.09654],[127.21535,38.09661],[127.21544,38.09668],[127.21555,38.09686],[127.2157,38.09732],[127.21569,38.0975],[127.21555,38.09751],[127.21555,38.09757],[127.21569,38.09759],[127.21568,38.09784],[127.21561,38.09809],[127.21554,38.09825],[127.21547,38.09832],[127.21546,38.09838],[127.21539,38.09843],[127.21532,38.09855],[127.21526,38.09855],[127.21526,38.09852],[127.21521,38.0985],[127.21524,38.09836],[127.21512,38.09837],[127.21503,38.09855],[127.21491,38.09855]]]}}]}
