{"type":"FeatureCollection","metadata":{"description":"개방지(CHM ≤ 2 m)에 드리운 나무·지형 그림자, 2026-08-01 16:00 KST. canopy 위에 겹쳐 그린다","source":"위성 기반 추정 — Copernicus GLO-30 지형(30 m) + Meta/WRI 수관 높이(1 m CHM, 2019 촬영). 그늘 = 수관(CHM > 2 m) ∪ 나무·지형 그림자 ∪ 원거리 지형 마스크. 현장과 다를 수 있음.","datasetVersion":"2026-09-06.0","collectedAt":"2026-09-06","coordinateOrder":"[longitude, latitude]","crs":"EPSG:4326","representativeDate":"2026-08-01","hours":["10:00","11:00","12:00","13:00","14:00","15:00","16:00","17:00","18:00"],"chmAcquisition":["2019-03"],"assets":{"glo30":{"dataset":"Copernicus DEM GLO-30 (COG, s3://copernicus-dem-30m)","tiles":["Copernicus_DSM_COG_10_N38_00_E127_00_DEM"]},"chm":{"dataset":"Meta/WRI Global Canopy Height Map v1 (alsgedi_global_v6_float, 1 m, CC-BY 4.0)","quadkeys":["132110302"],"acquisition":["2019-03"]}},"method":{"gridResM":2,"canopyThresholdM":2,"bufferHalfM":25,"corridorHalfM":200,"simplifyTolM":2,"minAreaM2":25,"coordDecimals":5},"generator":"scripts/shade 0.1.0","builtAt":"2026-09-06T05:54:22Z","layer":"shadow","timeLocal":"16:00"},"features":[{"type":"Feature","properties":{"valleyId":"jijangsan","layer":"shadow","date":"2026-08-01","timeLocal":"16:00"},"geometry":{"type":"Polygon","coordinates":[[[127.20859,38.12136],[127.20859,38.12131],[127.20866,38.12131],[127.20865,38.12136],[127.20859,38.12136]]]}},{"type":"Feature","properties":{"valleyId":"jijangsan","layer":"shadow","date":"2026-08-01","timeLocal":"16:00"},"geometry":{"type":"Polygon","coordinates":[[[127.21124,38.12122],[127.21124,38.12117],[127.21131,38.12117],[127.2113,38.12122],[127.21124,38.12122]]]}},{"type":"Feature","properties":{"valleyId":"jijangsan","layer":"shadow","date":"2026-08-01","timeLocal":"16:00"},"geometry":{"type":"Polygon","coordinates":[[[127.21198,38.11979],[127.21198,38.11972],[127.21207,38.1197],[127.21207,38.11977],[127.21198,38.11979]]]}},{"type":"Feature","properties":{"valleyId":"jijangsan","layer":"shadow","date":"2026-08-01","timeLocal":"16:00"},"geometry":{"type":"Polygon","coordinates":[[[127.20756,38.11933],[127.20752,38.11925],[127.20752,38.1192],[127.20759,38.1192],[127.20763,38.11925],[127.20763,38.11933],[127.20756,38.11933]]]}},{"type":"Feature","properties":{"valleyId":"jijangsan","layer":"shadow","date":"2026-08-01","timeLocal":"16:00"},"geometry":{"type":"Polygon","coordinates":[[[127.20759,38.11907],[127.20759,38.119],[127.20766,38.119],[127.20766,38.11907],[127.20759,38.11907]]]}},{"type":"Feature","properties":{"valleyId":"jijangsan","layer":"shadow","date":"2026-08-01","timeLocal":"16:00"},"geometry":{"type":"Polygon","coordinates":[[[127.2064,38.11837],[127.2064,38.1183],[127.20647,38.11825],[127.20647,38.11816],[127.20652,38.11814],[127.20657,38.11805],[127.20664,38.11803],[127.20664,38.11796],[127.20671,38.11796],[127.2067,38.11803],[127.20666,38.11803],[127.20666,38.1181],[127.20661,38.11812],[127.20658,38.11828],[127.20654,38.11828],[127.20651,38.11837],[127.2064,38.11837]]]}},{"type":"Feature","properties":{"valleyId":"jijangsan","layer":"shadow","date":"2026-08-01","timeLocal":"16:00"},"geometry":{"type":"Polygon","coordinates":[[[127.20671,38.11794],[127.20671,38.11773],[127.20676,38.11771],[127.20676,38.11766],[127.20683,38.11764],[127.20681,38.11749],[127.2069,38.1175],[127.20692,38.11768],[127.2068,38.11773],[127.2068,38.11791],[127.20678,38.11794],[127.20671,38.11794]]]}},{"type":"Feature","properties":{"valleyId":"jijangsan","layer":"shadow","date":"2026-08-01","timeLocal":"16:00"},"geometry":{"type":"Polygon","coordinates":[[[127.20667,38.11747],[127.20667,38.11742],[127.20677,38.1174],[127.20676,38.11748],[127.20667,38.11747]]]}},{"type":"Feature","properties":{"valleyId":"jijangsan","layer":"shadow","date":"2026-08-01","timeLocal":"16:00"},"geometry":{"type":"Polygon","coordinates":[[[127.20679,38.11735],[127.20679,38.11728],[127.20688,38.11728],[127.20688,38.11735],[127.20679,38.11735]]]}},{"type":"Feature","properties":{"valleyId":"jijangsan","layer":"shadow","date":"2026-08-01","timeLocal":"16:00"},"geometry":{"type":"Polygon","coordinates":[[[127.20691,38.1173],[127.20693,38.1171],[127.207,38.1171],[127.20697,38.1173],[127.20691,38.1173]]]}},{"type":"Feature","properties":{"valleyId":"jijangsan","layer":"shadow","date":"2026-08-01","timeLocal":"16:00"},"geometry":{"type":"Polygon","coordinates":[[[127.20615,38.11539],[127.20618,38.11516],[127.20625,38.11516],[127.20624,38.11539],[127.20615,38.11539]]]}},{"type":"Feature","properties":{"valleyId":"jijangsan","layer":"shadow","date":"2026-08-01","timeLocal":"16:00"},"geometry":{"type":"Polygon","coordinates":[[[127.20612,38.11494],[127.20612,38.11489],[127.20619,38.11489],[127.20619,38.11494],[127.20612,38.11494]]]}},{"type":"Feature","properties":{"valleyId":"jijangsan","layer":"shadow","date":"2026-08-01","timeLocal":"16:00"},"geometry":{"type":"Polygon","coordinates":[[[127.20601,38.11469],[127.20602,38.11449],[127.20608,38.11449],[127.2061,38.11469],[127.20601,38.11469]]]}},{"type":"Feature","properties":{"valleyId":"jijangsan","layer":"shadow","date":"2026-08-01","timeLocal":"16:00"},"geometry":{"type":"Polygon","coordinates":[[[127.20989,38.11383],[127.20989,38.11376],[127.20996,38.11376],[127.20996,38.11383],[127.20989,38.11383]]]}},{"type":"Feature","properties":{"valleyId":"jijangsan","layer":"shadow","date":"2026-08-01","timeLocal":"16:00"},"geometry":{"type":"Polygon","coordinates":[[[127.20957,38.11364],[127.20958,38.11348],[127.20967,38.11348],[127.20973,38.11354],[127.20973,38.11361],[127.20957,38.11364]]]}},{"type":"Feature","properties":{"valleyId":"jijangsan","layer":"shadow","date":"2026-08-01","timeLocal":"16:00"},"geometry":{"type":"Polygon","coordinates":[[[127.20875,38.11359],[127.20876,38.11345],[127.20885,38.11345],[127.20889,38.11349],[127.20889,38.11354],[127.20882,38.1136],[127.20875,38.11359]]]}},{"type":"Feature","properties":{"valleyId":"jijangsan","layer":"shadow","date":"2026-08-01","timeLocal":"16:00"},"geometry":{"type":"Polygon","coordinates":[[[127.20565,38.11346],[127.20566,38.11338],[127.20575,38.11337],[127.20572,38.11346],[127.20565,38.11346]]]}},{"type":"Feature","properties":{"valleyId":"jijangsan","layer":"shadow","date":"2026-08-01","timeLocal":"16:00"},"geometry":{"type":"Polygon","coordinates":[[[127.20575,38.11335],[127.20575,38.1133],[127.20584,38.11328],[127.20584,38.11333],[127.20575,38.11335]]]}},{"type":"Feature","properties":{"valleyId":"jijangsan","layer":"shadow","date":"2026-08-01","timeLocal":"16:00"},"geometry":{"type":"Polygon","coordinates":[[[127.20584,38.11324],[127.20584,38.11319],[127.20591,38.11319],[127.20591,38.11324],[127.20584,38.11324]]]}},{"type":"Feature","properties":{"valleyId":"jijangsan","layer":"shadow","date":"2026-08-01","timeLocal":"16:00"},"geometry":{"type":"Polygon","coordinates":[[[127.20582,38.11315],[127.20585,38.1129],[127.20592,38.1129],[127.20591,38.1131],[127.20589,38.11315],[127.20582,38.11315]]]}},{"type":"Feature","properties":{"valleyId":"jijangsan","layer":"shadow","date":"2026-08-01","timeLocal":"16:00"},"geometry":{"type":"Polygon","coordinates":[[[127.20723,38.11238],[127.20723,38.11229],[127.20732,38.11229],[127.20732,38.11236],[127.20723,38.11238]]]}},{"type":"Feature","properties":{"valleyId":"jijangsan","layer":"shadow","date":"2026-08-01","timeLocal":"16:00"},"geometry":{"type":"Polygon","coordinates":[[[127.20743,38.11246],[127.20744,38.11226],[127.20751,38.11226],[127.2075,38.11246],[127.20743,38.11246]]]}},{"type":"Feature","properties":{"valleyId":"jijangsan","layer":"shadow","date":"2026-08-01","timeLocal":"16:00"},"geometry":{"type":"Polygon","coordinates":[[[127.20746,38.11224],[127.20749,38.11208],[127.20754,38.11201],[127.20761,38.11201],[127.20758,38.11219],[127.20753,38.11224],[127.20746,38.11224]]]}},{"type":"Feature","properties":{"valleyId":"jijangsan","layer":"shadow","date":"2026-08-01","timeLocal":"16:00"},"geometry":{"type":"Polygon","coordinates":[[[127.21194,38.10816],[127.21194,38.10809],[127.21206,38.10809],[127.21206,38.10817],[127.21194,38.10816]]]}},{"type":"Feature","properties":{"valleyId":"jijangsan","layer":"shadow","date":"2026-08-01","timeLocal":"16:00"},"geometry":{"type":"Polygon","coordinates":[[[127.19268,38.10486],[127.19268,38.10481],[127.19275,38.10481],[127.19275,38.10486],[127.19268,38.10486]]]}},{"type":"Feature","properties":{"valleyId":"jijangsan","layer":"shadow","date":"2026-08-01","timeLocal":"16:00"},"geometry":{"type":"Polygon","coordinates":[[[127.20846,38.10499],[127.20846,38.1049],[127.2086,38.10492],[127.20857,38.10499],[127.20846,38.10499]]]}},{"type":"Feature","properties":{"valleyId":"jijangsan","layer":"shadow","date":"2026-08-01","timeLocal":"16:00"},"geometry":{"type":"Polygon","coordinates":[[[127.19318,38.10397],[127.19321,38.1038],[127.19328,38.1038],[127.19325,38.10397],[127.19318,38.10397]]]}},{"type":"Feature","properties":{"valleyId":"jijangsan","layer":"shadow","date":"2026-08-01","timeLocal":"16:00"},"geometry":{"type":"Polygon","coordinates":[[[127.19274,38.10326],[127.19274,38.10318],[127.19284,38.10319],[127.19283,38.10324],[127.19274,38.10326]]]}},{"type":"Feature","properties":{"valleyId":"jijangsan","layer":"shadow","date":"2026-08-01","timeLocal":"16:00"},"geometry":{"type":"Polygon","coordinates":[[[127.19279,38.103],[127.19278,38.10284],[127.19284,38.10284],[127.19286,38.10301],[127.19279,38.103]]]}},{"type":"Feature","properties":{"valleyId":"jijangsan","layer":"shadow","date":"2026-08-01","timeLocal":"16:00"},"geometry":{"type":"Polygon","coordinates":[[[127.20751,38.10182],[127.20751,38.10177],[127.20758,38.10177],[127.20758,38.10183],[127.20751,38.10182]]]}}]}
