{"type":"FeatureCollection","metadata":{"description":"개방지(CHM ≤ 2 m)에 드리운 나무·지형 그림자, 2026-08-01 18:00 KST. canopy 위에 겹쳐 그린다","source":"위성 기반 추정 — Copernicus GLO-30 지형(30 m) + Meta/WRI 수관 높이(1 m CHM, 2019 촬영). 그늘 = 수관(CHM > 2 m) ∪ 나무·지형 그림자 ∪ 원거리 지형 마스크. 현장과 다를 수 있음.","datasetVersion":"2026-09-06.0","collectedAt":"2026-09-06","coordinateOrder":"[longitude, latitude]","crs":"EPSG:4326","representativeDate":"2026-08-01","hours":["10:00","11:00","12:00","13:00","14:00","15:00","16:00","17:00","18:00"],"chmAcquisition":["2019-03"],"assets":{"glo30":{"dataset":"Copernicus DEM GLO-30 (COG, s3://copernicus-dem-30m)","tiles":["Copernicus_DSM_COG_10_N38_00_E127_00_DEM"]},"chm":{"dataset":"Meta/WRI Global Canopy Height Map v1 (alsgedi_global_v6_float, 1 m, CC-BY 4.0)","quadkeys":["132110302"],"acquisition":["2019-03"]}},"method":{"gridResM":2,"canopyThresholdM":2,"bufferHalfM":25,"corridorHalfM":200,"simplifyTolM":2,"minAreaM2":25,"coordDecimals":5},"generator":"scripts/shade 0.1.0","builtAt":"2026-09-06T05:54:22Z","layer":"shadow","timeLocal":"18:00"},"features":[{"type":"Feature","properties":{"valleyId":"jijangsan","layer":"shadow","date":"2026-08-01","timeLocal":"18:00"},"geometry":{"type":"Polygon","coordinates":[[[127.20549,38.11657],[127.20545,38.11619],[127.20561,38.1162],[127.20564,38.11607],[127.2057,38.11607],[127.20573,38.11604],[127.20596,38.11604],[127.20595,38.11627],[127.20597,38.11631],[127.20608,38.11633],[127.2061,38.11646],[127.20594,38.11647],[127.20581,38.11634],[127.2057,38.11634],[127.20567,38.1165],[127.20558,38.11657],[127.20549,38.11657]]]}},{"type":"Feature","properties":{"valleyId":"jijangsan","layer":"shadow","date":"2026-08-01","timeLocal":"18:00"},"geometry":{"type":"Polygon","coordinates":[[[127.20952,38.11388],[127.20952,38.11382],[127.20959,38.11382],[127.20959,38.11388],[127.20952,38.11388]]]}},{"type":"Feature","properties":{"valleyId":"jijangsan","layer":"shadow","date":"2026-08-01","timeLocal":"18:00"},"geometry":{"type":"Polygon","coordinates":[[[127.20989,38.11383],[127.20989,38.11374],[127.21009,38.11374],[127.21009,38.1138],[127.20989,38.11383]]]}},{"type":"Feature","properties":{"valleyId":"jijangsan","layer":"shadow","date":"2026-08-01","timeLocal":"18:00"},"geometry":{"type":"Polygon","coordinates":[[[127.20919,38.11356],[127.20919,38.11351],[127.20926,38.11351],[127.20926,38.11357],[127.20919,38.11356]]]}},{"type":"Feature","properties":{"valleyId":"jijangsan","layer":"shadow","date":"2026-08-01","timeLocal":"18:00"},"geometry":{"type":"Polygon","coordinates":[[[127.20957,38.11361],[127.20956,38.11341],[127.20974,38.11339],[127.21001,38.11343],[127.21006,38.11347],[127.21005,38.11352],[127.20999,38.11352],[127.20996,38.11356],[127.2098,38.11356],[127.2098,38.11359],[127.20957,38.11361]]]}},{"type":"Feature","properties":{"valleyId":"jijangsan","layer":"shadow","date":"2026-08-01","timeLocal":"18:00"},"geometry":{"type":"Polygon","coordinates":[[[127.20858,38.11329],[127.20858,38.11323],[127.20865,38.11323],[127.20865,38.11329],[127.20858,38.11329]]]}},{"type":"Feature","properties":{"valleyId":"jijangsan","layer":"shadow","date":"2026-08-01","timeLocal":"18:00"},"geometry":{"type":"Polygon","coordinates":[[[127.20714,38.11252],[127.20714,38.11247],[127.20721,38.11247],[127.2072,38.11253],[127.20714,38.11252]]]}},{"type":"Feature","properties":{"valleyId":"jijangsan","layer":"shadow","date":"2026-08-01","timeLocal":"18:00"},"geometry":{"type":"Polygon","coordinates":[[[127.21043,38.12245],[127.21004,38.12237],[127.21005,38.12228],[127.20986,38.12232],[127.20939,38.12209],[127.20894,38.12174],[127.2089,38.12174],[127.20878,38.12163],[127.20874,38.12163],[127.2086,38.1215],[127.20854,38.12149],[127.20859,38.12127],[127.20845,38.12127],[127.2084,38.12132],[127.20831,38.12132],[127.20829,38.12128],[127.20825,38.12128],[127.20789,38.12097],[127.20789,38.12093],[127.20775,38.12081],[127.20773,38.12073],[127.20769,38.12072],[127.20765,38.12061],[127.20758,38.12055],[127.20758,38.12048],[127.20749,38.12042],[127.20729,38.12013],[127.20729,38.12004],[127.20739,38.11997],[127.20739,38.11988],[127.20746,38.11985],[127.20746,38.11977],[127.20753,38.11972],[127.20754,38.11951],[127.20761,38.11934],[127.20752,38.11925],[127.20752,38.11913],[127.20759,38.11907],[127.20759,38.119],[127.20782,38.11888],[127.20783,38.11879],[127.20758,38.11882],[127.20748,38.11889],[127.20737,38.11891],[127.20727,38.11901],[127.20721,38.11901],[127.20716,38.11898],[127.20716,38.11889],[127.2071,38.11883],[127.20698,38.11883],[127.20694,38.11876],[127.20678,38.11875],[127.20664,38.11864],[127.20644,38.11866],[127.20644,38.1185],[127.20638,38.11842],[127.20638,38.11835],[127.20643,38.11826],[127.20647,38.11825],[127.20647,38.11816],[127.20652,38.11814],[127.20657,38.11805],[127.20664,38.11801],[127.20664,38.11796],[127.20673,38.11789],[127.20673,38.11778],[127.20671,38.11773],[127.20664,38.11773],[127.20665,38.11765],[127.20681,38.11766],[127.20683,38.11757],[127.20669,38.11755],[127.20667,38.11742],[127.2067,38.11737],[127.20679,38.11731],[127.20679,38.11728],[127.20691,38.11726],[127.20693,38.11708],[127.20687,38.11697],[127.20682,38.11695],[127.20678,38.11683],[127.20671,38.11679],[127.20667,38.11668],[127.20642,38.11651],[127.20642,38.11646],[127.20636,38.11642],[127.20636,38.11637],[127.20625,38.11628],[127.20613,38.11624],[127.20611,38.11615],[127.20604,38.11611],[127.20602,38.11604],[127.20596,38.11604],[127.20596,38.11589],[127.20564,38.11587],[127.20559,38.11589],[127.20557,38.11596],[127.20543,38.11598],[127.20544,38.11571],[127.20549,38.11567],[127.20555,38.11567],[127.2056,38.1156],[127.20601,38.11548],[127.20602,38.11545],[127.20608,38.11543],[127.20618,38.11532],[127.20616,38.115],[127.20612,38.11494],[127.20614,38.11482],[127.2061,38.1148],[127.20606,38.11469],[127.20601,38.11469],[127.20602,38.11433],[127.20595,38.11429],[127.20591,38.1142],[127.20584,38.11418],[127.20584,38.11414],[127.20564,38.11396],[127.2056,38.11387],[127.20551,38.11383],[127.20551,38.11371],[127.20572,38.11371],[127.20572,38.11364],[127.20581,38.1136],[127.20601,38.11361],[127.20606,38.11354],[127.20615,38.11354],[127.20617,38.11359],[127.20624,38.11359],[127.20634,38.1135],[127.20634,38.11345],[127.20645,38.11338],[127.20646,38.11332],[127.20625,38.11334],[127.2062,38.11336],[127.2062,38.11339],[127.20613,38.11341],[127.20611,38.11346],[127.20595,38.11346],[127.20588,38.11351],[127.20565,38.11346],[127.20566,38.11338],[127.20575,38.11333],[127.20577,38.11328],[127.20584,38.11326],[127.20585,38.11278],[127.20611,38.11235],[127.20627,38.11235],[127.20627,38.1124],[127.20636,38.11242],[127.20636,38.11269],[127.20645,38.11273],[127.20647,38.11282],[127.20656,38.11288],[127.20694,38.1129],[127.20696,38.11301],[127.20708,38.11301],[127.20712,38.11305],[127.20726,38.11307],[127.20742,38.11307],[127.20755,38.11313],[127.20771,38.11313],[127.2079,38.11318],[127.20831,38.11319],[127.2083,38.1133],[127.20846,38.11334],[127.20846,38.11337],[127.2086,38.11334],[127.2086,38.11338],[127.20864,38.11339],[127.20862,38.11357],[127.20866,38.11359],[127.20873,38.11359],[127.20875,38.11356],[127.20876,38.11341],[127.20894,38.11342],[127.20901,38.11336],[127.20901,38.11327],[127.20917,38.11328],[127.20917,38.11333],[127.20912,38.11333],[127.20912,38.1134],[127.20921,38.11342],[127.20921,38.11349],[127.2091,38.11349],[127.20907,38.11353],[127.20903,38.11353],[127.20903,38.11358],[127.20914,38.11362],[127.20914,38.11373],[127.20909,38.11373],[127.20909,38.11396],[127.2092,38.11398],[127.2092,38.11391],[127.20927,38.11391],[127.20927,38.11398],[127.20922,38.11398],[127.2092,38.11411],[127.2091,38.11414],[127.2091,38.11432],[127.20903,38.11439],[127.20903,38.11445],[127.20898,38.11444],[127.20898,38.1145],[127.20905,38.11454],[127.20905,38.11466],[127.20911,38.11468],[127.20911,38.11477],[127.20918,38.11483],[127.20929,38.11483],[127.20929,38.11494],[127.20936,38.11496],[127.20942,38.11503],[127.20952,38.11503],[127.20958,38.1151],[127.20992,38.11511],[127.21,38.11581],[127.20999,38.11597],[127.20995,38.11599],[127.20994,38.11621],[127.20996,38.1163],[127.21008,38.11639],[127.21,38.11657],[127.21,38.11673],[127.20993,38.11678],[127.20992,38.117],[127.20976,38.117],[127.20969,38.11707],[127.20965,38.11707],[127.20958,38.11712],[127.20956,38.11782],[127.20963,38.11788],[127.20965,38.11795],[127.20972,38.11795],[127.20978,38.11806],[127.2099,38.11808],[127.20992,38.11817],[127.20996,38.11819],[127.20996,38.11823],[127.21003,38.11825],[127.2101,38.11835],[127.21023,38.11836],[127.21023,38.11845],[127.2103,38.11847],[127.21032,38.11852],[127.21048,38.11863],[127.21057,38.11863],[127.21057,38.11874],[127.21063,38.11878],[127.21065,38.11885],[127.21072,38.11885],[127.21074,38.11891],[127.2109,38.11891],[127.2109,38.11902],[127.21095,38.11905],[127.21117,38.11909],[127.2112,38.11913],[127.21133,38.11915],[127.21135,38.11919],[127.21158,38.11919],[127.21158,38.11926],[127.21167,38.11928],[127.21169,38.11932],[127.21187,38.11936],[127.21196,38.11941],[127.21206,38.11941],[127.21212,38.11947],[127.21226,38.11947],[127.21226,38.11954],[127.21239,38.11956],[127.21239,38.11962],[127.21251,38.11964],[127.21257,38.11974],[127.21262,38.11975],[127.21262,38.11978],[127.21266,38.1198],[127.21267,38.1203],[127.2126,38.12043],[127.2126,38.12057],[127.21264,38.12061],[127.21264,38.12068],[127.21269,38.12068],[127.21275,38.12077],[127.21291,38.12083],[127.21295,38.12094],[127.21304,38.12096],[127.21294,38.1213],[127.21278,38.12157],[127.21271,38.12157],[127.21264,38.12162],[127.21264,38.12175],[127.21238,38.12194],[127.21236,38.12199],[127.21227,38.12199],[127.21226,38.12205],[127.2122,38.1221],[127.21215,38.1221],[127.21196,38.12222],[127.2116,38.12236],[127.21105,38.12246],[127.21043,38.12245]],[[127.20981,38.12176],[127.2099,38.12176],[127.2099,38.12169],[127.20983,38.12169],[127.20981,38.12176]],[[127.21188,38.12173],[127.21195,38.12174],[127.21193,38.12166],[127.21186,38.12166],[127.21188,38.12173]],[[127.21168,38.12166],[127.21177,38.12164],[127.21177,38.12155],[127.21166,38.12146],[127.21159,38.12146],[127.21157,38.12157],[127.21164,38.12159],[127.21168,38.12166]],[[127.21132,38.12133],[127.21139,38.12133],[127.21139,38.12126],[127.21133,38.12126],[127.21132,38.12133]],[[127.20923,38.12121],[127.2093,38.12121],[127.2093,38.12114],[127.20923,38.12114],[127.20923,38.12121]],[[127.21114,38.1212],[127.21124,38.1212],[127.21124,38.12113],[127.21115,38.12113],[127.21114,38.1212]],[[127.21094,38.12109],[127.21106,38.12109],[127.21104,38.121],[127.2109,38.12098],[127.2109,38.12105],[127.21094,38.12109]],[[127.21072,38.12096],[127.21088,38.12096],[127.21088,38.12089],[127.21079,38.12083],[127.21067,38.12083],[127.21068,38.12076],[127.21059,38.12074],[127.21054,38.12069],[127.21043,38.12069],[127.21043,38.12076],[127.21054,38.12078],[127.21061,38.12085],[127.2107,38.12085],[127.21072,38.12096]],[[127.212,38.12062],[127.21207,38.12062],[127.21205,38.12051],[127.21198,38.12051],[127.212,38.12062]],[[127.21186,38.11977],[127.21196,38.11977],[127.21198,38.1197],[127.21209,38.11968],[127.21214,38.11965],[127.21214,38.11958],[127.212,38.11961],[127.21196,38.11968],[127.21187,38.11972],[127.21186,38.11977]],[[127.20772,38.11951],[127.20779,38.11951],[127.20781,38.11942],[127.20772,38.11942],[127.20772,38.11951]],[[127.20664,38.11592],[127.20671,38.11592],[127.20671,38.11587],[127.20664,38.11587],[127.20664,38.11592]],[[127.20628,38.11588],[127.20653,38.11587],[127.20653,38.11581],[127.20646,38.11578],[127.20628,38.11577],[127.20621,38.11581],[127.20621,38.11586],[127.20628,38.11588]],[[127.20665,38.11576],[127.20671,38.11576],[127.20672,38.11571],[127.20665,38.11571],[127.20665,38.11576]],[[127.20846,38.11528],[127.20855,38.11527],[127.20855,38.11518],[127.20846,38.11519],[127.20846,38.11528]],[[127.20827,38.1138],[127.20834,38.1138],[127.20838,38.11377],[127.20841,38.11366],[127.20832,38.11366],[127.20827,38.1138]],[[127.20841,38.11359],[127.2085,38.11359],[127.20851,38.11345],[127.20841,38.11346],[127.20841,38.11359]]]}},{"type":"Feature","properties":{"valleyId":"jijangsan","layer":"shadow","date":"2026-08-01","timeLocal":"18:00"},"geometry":{"type":"Polygon","coordinates":[[[127.20723,38.11236],[127.20724,38.11211],[127.20737,38.11211],[127.20739,38.11228],[127.20735,38.11231],[127.20735,38.11237],[127.20723,38.11236]]]}},{"type":"Feature","properties":{"valleyId":"jijangsan","layer":"shadow","date":"2026-08-01","timeLocal":"18:00"},"geometry":{"type":"Polygon","coordinates":[[[127.20743,38.11247],[127.20744,38.11224],[127.20749,38.11219],[127.20749,38.11208],[127.20754,38.11201],[127.20772,38.11199],[127.20776,38.11214],[127.2076,38.11223],[127.2076,38.11228],[127.20769,38.11232],[127.20769,38.11241],[127.20762,38.11244],[127.2075,38.11244],[127.2075,38.11248],[127.20743,38.11247]]]}},{"type":"Feature","properties":{"valleyId":"jijangsan","layer":"shadow","date":"2026-08-01","timeLocal":"18:00"},"geometry":{"type":"Polygon","coordinates":[[[127.20799,38.1121],[127.20799,38.112],[127.20808,38.112],[127.2081,38.11209],[127.20799,38.1121]]]}},{"type":"Feature","properties":{"valleyId":"jijangsan","layer":"shadow","date":"2026-08-01","timeLocal":"18:00"},"geometry":{"type":"Polygon","coordinates":[[[127.20767,38.11197],[127.20768,38.11194],[127.20763,38.11192],[127.20747,38.11192],[127.20745,38.11183],[127.2074,38.11183],[127.20741,38.11174],[127.20752,38.11174],[127.20754,38.11185],[127.20768,38.11185],[127.2077,38.1119],[127.20788,38.1119],[127.20788,38.11198],[127.20767,38.11197]]]}},{"type":"Feature","properties":{"valleyId":"jijangsan","layer":"shadow","date":"2026-08-01","timeLocal":"18:00"},"geometry":{"type":"Polygon","coordinates":[[[127.20716,38.11175],[127.20716,38.1117],[127.20725,38.1117],[127.20725,38.11175],[127.20716,38.11175]]]}},{"type":"Feature","properties":{"valleyId":"jijangsan","layer":"shadow","date":"2026-08-01","timeLocal":"18:00"},"geometry":{"type":"Polygon","coordinates":[[[127.20842,38.11134],[127.2084,38.11126],[127.20849,38.11127],[127.20849,38.11134],[127.20842,38.11134]]]}},{"type":"Feature","properties":{"valleyId":"jijangsan","layer":"shadow","date":"2026-08-01","timeLocal":"18:00"},"geometry":{"type":"Polygon","coordinates":[[[127.20745,38.1108],[127.20745,38.11069],[127.20752,38.11069],[127.20754,38.1108],[127.20745,38.1108]]]}},{"type":"Feature","properties":{"valleyId":"jijangsan","layer":"shadow","date":"2026-08-01","timeLocal":"18:00"},"geometry":{"type":"Polygon","coordinates":[[[127.20725,38.11063],[127.20725,38.11058],[127.20732,38.11058],[127.20732,38.11063],[127.20725,38.11063]]]}},{"type":"Feature","properties":{"valleyId":"jijangsan","layer":"shadow","date":"2026-08-01","timeLocal":"18:00"},"geometry":{"type":"Polygon","coordinates":[[[127.20764,38.11053],[127.20764,38.11046],[127.2076,38.11044],[127.20758,38.11026],[127.20767,38.11026],[127.20769,38.1103],[127.20778,38.11032],[127.20771,38.11053],[127.20764,38.11053]]]}},{"type":"Feature","properties":{"valleyId":"jijangsan","layer":"shadow","date":"2026-08-01","timeLocal":"18:00"},"geometry":{"type":"Polygon","coordinates":[[[127.20744,38.11024],[127.20745,38.11004],[127.2074,38.11001],[127.2074,38.10993],[127.20745,38.10992],[127.20745,38.10988],[127.20754,38.10988],[127.20759,38.10997],[127.20758,38.11008],[127.20751,38.11013],[127.20753,38.11024],[127.20744,38.11024]]]}},{"type":"Feature","properties":{"valleyId":"jijangsan","layer":"shadow","date":"2026-08-01","timeLocal":"18:00"},"geometry":{"type":"Polygon","coordinates":[[[127.21151,38.10996],[127.21151,38.10982],[127.21158,38.10982],[127.21158,38.10985],[127.21165,38.10987],[127.21165,38.10993],[127.2116,38.10996],[127.21151,38.10996]]]}},{"type":"Feature","properties":{"valleyId":"jijangsan","layer":"shadow","date":"2026-08-01","timeLocal":"18:00"},"geometry":{"type":"Polygon","coordinates":[[[127.21067,38.10906],[127.21067,38.10901],[127.21073,38.10901],[127.21073,38.10906],[127.21067,38.10906]]]}},{"type":"Feature","properties":{"valleyId":"jijangsan","layer":"shadow","date":"2026-08-01","timeLocal":"18:00"},"geometry":{"type":"Polygon","coordinates":[[[127.20853,38.10881],[127.20853,38.10874],[127.20862,38.10874],[127.20862,38.1088],[127.20853,38.10881]]]}},{"type":"Feature","properties":{"valleyId":"jijangsan","layer":"shadow","date":"2026-08-01","timeLocal":"18:00"},"geometry":{"type":"Polygon","coordinates":[[[127.21194,38.10815],[127.21194,38.10804],[127.21233,38.10804],[127.21233,38.1081],[127.21229,38.10811],[127.21215,38.10811],[127.21212,38.10815],[127.21194,38.10815]]]}},{"type":"Feature","properties":{"valleyId":"jijangsan","layer":"shadow","date":"2026-08-01","timeLocal":"18:00"},"geometry":{"type":"Polygon","coordinates":[[[127.20992,38.10581],[127.20993,38.10572],[127.21002,38.10572],[127.20999,38.10581],[127.20992,38.10581]]]}},{"type":"Feature","properties":{"valleyId":"jijangsan","layer":"shadow","date":"2026-08-01","timeLocal":"18:00"},"geometry":{"type":"Polygon","coordinates":[[[127.20873,38.1052],[127.20873,38.10514],[127.20882,38.10507],[127.20883,38.10494],[127.20858,38.10496],[127.20855,38.10499],[127.20846,38.10499],[127.20844,38.10485],[127.20899,38.10486],[127.20899,38.10496],[127.20905,38.10498],[127.20905,38.10504],[127.20898,38.10511],[127.20887,38.10513],[127.20884,38.1052],[127.20873,38.1052]]]}},{"type":"Feature","properties":{"valleyId":"jijangsan","layer":"shadow","date":"2026-08-01","timeLocal":"18:00"},"geometry":{"type":"Polygon","coordinates":[[[127.20764,38.10318],[127.20764,38.10312],[127.20769,38.10312],[127.20769,38.10305],[127.20778,38.10305],[127.20773,38.10318],[127.20764,38.10318]]]}},{"type":"Feature","properties":{"valleyId":"jijangsan","layer":"shadow","date":"2026-08-01","timeLocal":"18:00"},"geometry":{"type":"Polygon","coordinates":[[[127.20787,38.10306],[127.20787,38.103],[127.20798,38.103],[127.20798,38.10306],[127.20787,38.10306]]]}},{"type":"Feature","properties":{"valleyId":"jijangsan","layer":"shadow","date":"2026-08-01","timeLocal":"18:00"},"geometry":{"type":"Polygon","coordinates":[[[127.2081,38.10302],[127.2081,38.10297],[127.20817,38.10297],[127.20817,38.10302],[127.2081,38.10302]]]}},{"type":"Feature","properties":{"valleyId":"jijangsan","layer":"shadow","date":"2026-08-01","timeLocal":"18:00"},"geometry":{"type":"Polygon","coordinates":[[[127.20746,38.10298],[127.20744,38.10289],[127.20753,38.10289],[127.20753,38.10298],[127.20746,38.10298]]]}},{"type":"Feature","properties":{"valleyId":"jijangsan","layer":"shadow","date":"2026-08-01","timeLocal":"18:00"},"geometry":{"type":"Polygon","coordinates":[[[127.20826,38.10294],[127.20826,38.10283],[127.20849,38.10283],[127.20847,38.1029],[127.20833,38.1029],[127.20833,38.10294],[127.20826,38.10294]]]}},{"type":"Feature","properties":{"valleyId":"jijangsan","layer":"shadow","date":"2026-08-01","timeLocal":"18:00"},"geometry":{"type":"Polygon","coordinates":[[[127.20881,38.10284],[127.20881,38.10278],[127.2089,38.10278],[127.2089,38.10284],[127.20881,38.10284]]]}},{"type":"Feature","properties":{"valleyId":"jijangsan","layer":"shadow","date":"2026-08-01","timeLocal":"18:00"},"geometry":{"type":"Polygon","coordinates":[[[127.19348,38.10588],[127.19343,38.10577],[127.19349,38.1053],[127.19345,38.10523],[127.19331,38.10518],[127.19322,38.10508],[127.19311,38.10508],[127.19291,38.10497],[127.19275,38.10497],[127.19268,38.10493],[127.19268,38.10481],[127.19273,38.10475],[127.1928,38.10473],[127.1928,38.10468],[127.19275,38.10463],[127.19269,38.10461],[127.19267,38.10452],[127.1928,38.10445],[127.19287,38.10445],[127.19288,38.1043],[127.19295,38.10427],[127.19297,38.1042],[127.19309,38.10414],[127.19311,38.104],[127.19318,38.10398],[127.19321,38.10352],[127.19317,38.10348],[127.1931,38.10348],[127.1931,38.10335],[127.19304,38.1033],[127.19299,38.1033],[127.19297,38.10326],[127.19274,38.10326],[127.19274,38.10318],[127.19288,38.10313],[127.19288,38.10306],[127.19277,38.10297],[127.19278,38.10282],[127.19273,38.10281],[127.19271,38.10273],[127.1925,38.10273],[127.19246,38.10269],[127.19239,38.10269],[127.19237,38.10266],[127.19228,38.10265],[127.19219,38.1026],[127.19219,38.10253],[127.19235,38.10246],[127.1924,38.1024],[127.19274,38.10226],[127.19288,38.10227],[127.1929,38.1023],[127.19299,38.1023],[127.193,38.1022],[127.19329,38.10215],[127.19345,38.10215],[127.19345,38.10219],[127.19352,38.10224],[127.19361,38.10224],[127.19364,38.10213],[127.19382,38.10214],[127.19386,38.10216],[127.19386,38.10225],[127.19395,38.10225],[127.19397,38.10228],[127.19409,38.10232],[127.19413,38.10241],[127.1942,38.10243],[127.1942,38.10247],[127.19424,38.10249],[127.19426,38.10268],[127.19422,38.10268],[127.19415,38.10275],[127.19419,38.10297],[127.19423,38.10297],[127.1943,38.10305],[127.19436,38.10324],[127.19443,38.10326],[127.19456,38.10337],[127.19463,38.10348],[127.19462,38.10381],[127.19457,38.10388],[127.19454,38.10417],[127.1945,38.10422],[127.19448,38.10487],[127.19444,38.10487],[127.19441,38.10492],[127.19441,38.10505],[127.19448,38.10505],[127.1945,38.1051],[127.19449,38.10532],[127.19447,38.10541],[127.1944,38.10548],[127.19439,38.10568],[127.19458,38.10568],[127.19457,38.10574],[127.19434,38.1058],[127.19425,38.1058],[127.19423,38.10577],[127.19424,38.10555],[127.19433,38.10546],[127.19436,38.10512],[127.19425,38.10496],[127.19425,38.10487],[127.1943,38.10485],[127.19431,38.10458],[127.19426,38.1045],[127.19419,38.1045],[127.19414,38.1047],[127.19403,38.10488],[127.19402,38.10499],[127.19393,38.1052],[127.19395,38.10535],[127.19387,38.10553],[127.19386,38.10585],[127.19384,38.10589],[127.19348,38.10588]],[[127.19382,38.10484],[127.19389,38.10484],[127.19389,38.10477],[127.19401,38.10474],[127.19406,38.10452],[127.19397,38.10452],[127.19382,38.10484]],[[127.19418,38.10407],[127.19425,38.10407],[127.19425,38.10396],[127.19414,38.1038],[127.19407,38.10378],[127.19408,38.10373],[127.19414,38.10373],[127.19417,38.10357],[127.19431,38.10346],[127.19436,38.10339],[127.19436,38.1033],[127.19425,38.1033],[127.19425,38.10333],[127.1942,38.10333],[127.19411,38.10348],[127.19404,38.10347],[127.19397,38.10355],[127.19383,38.10358],[127.19383,38.10365],[127.19396,38.10373],[127.19398,38.10391],[127.19405,38.10396],[127.19409,38.10396],[127.19418,38.10407]],[[127.19311,38.1024],[127.19317,38.1024],[127.19318,38.10234],[127.19311,38.10234],[127.19311,38.1024]]]}},{"type":"Feature","properties":{"valleyId":"jijangsan","layer":"shadow","date":"2026-08-01","timeLocal":"18:00"},"geometry":{"type":"Polygon","coordinates":[[[127.20787,38.10228],[127.20787,38.10219],[127.208,38.10221],[127.208,38.10226],[127.20787,38.10228]]]}},{"type":"Feature","properties":{"valleyId":"jijangsan","layer":"shadow","date":"2026-08-01","timeLocal":"18:00"},"geometry":{"type":"Polygon","coordinates":[[[127.20746,38.10222],[127.20746,38.10215],[127.20757,38.10217],[127.20757,38.10222],[127.20746,38.10222]]]}},{"type":"Feature","properties":{"valleyId":"jijangsan","layer":"shadow","date":"2026-08-01","timeLocal":"18:00"},"geometry":{"type":"Polygon","coordinates":[[[127.20785,38.10179],[127.20786,38.10172],[127.20795,38.1017],[127.20792,38.10179],[127.20785,38.10179]]]}},{"type":"Feature","properties":{"valleyId":"jijangsan","layer":"shadow","date":"2026-08-01","timeLocal":"18:00"},"geometry":{"type":"Polygon","coordinates":[[[127.20751,38.10182],[127.20749,38.1017],[127.20777,38.1017],[127.20774,38.10179],[127.20751,38.10182]]]}},{"type":"Feature","properties":{"valleyId":"jijangsan","layer":"shadow","date":"2026-08-01","timeLocal":"18:00"},"geometry":{"type":"Polygon","coordinates":[[[127.21068,38.10171],[127.21069,38.10162],[127.21076,38.10162],[127.2108,38.10166],[127.2108,38.10171],[127.21068,38.10171]]]}},{"type":"Feature","properties":{"valleyId":"jijangsan","layer":"shadow","date":"2026-08-01","timeLocal":"18:00"},"geometry":{"type":"Polygon","coordinates":[[[127.2101,38.10156],[127.2101,38.10149],[127.21017,38.10149],[127.21019,38.10156],[127.2101,38.10156]]]}},{"type":"Feature","properties":{"valleyId":"jijangsan","layer":"shadow","date":"2026-08-01","timeLocal":"18:00"},"geometry":{"type":"Polygon","coordinates":[[[127.20967,38.10144],[127.20967,38.10135],[127.20974,38.10135],[127.20973,38.10144],[127.20967,38.10144]]]}},{"type":"Feature","properties":{"valleyId":"jijangsan","layer":"shadow","date":"2026-08-01","timeLocal":"18:00"},"geometry":{"type":"Polygon","coordinates":[[[127.20726,38.10112],[127.20726,38.10097],[127.20737,38.10097],[127.20735,38.10112],[127.20726,38.10112]]]}},{"type":"Feature","properties":{"valleyId":"jijangsan","layer":"shadow","date":"2026-08-01","timeLocal":"18:00"},"geometry":{"type":"Polygon","coordinates":[[[127.20813,38.10061],[127.20814,38.10055],[127.2082,38.10056],[127.2082,38.10061],[127.20813,38.10061]]]}},{"type":"Feature","properties":{"valleyId":"jijangsan","layer":"shadow","date":"2026-08-01","timeLocal":"18:00"},"geometry":{"type":"Polygon","coordinates":[[[127.21005,38.10075],[127.21008,38.10051],[127.21017,38.10051],[127.21021,38.10069],[127.21012,38.10071],[127.21012,38.10075],[127.21005,38.10075]]]}},{"type":"Feature","properties":{"valleyId":"jijangsan","layer":"shadow","date":"2026-08-01","timeLocal":"18:00"},"geometry":{"type":"Polygon","coordinates":[[[127.21022,38.1001],[127.21022,38.10003],[127.21029,38.10003],[127.21029,38.1001],[127.21022,38.1001]]]}},{"type":"Feature","properties":{"valleyId":"jijangsan","layer":"shadow","date":"2026-08-01","timeLocal":"18:00"},"geometry":{"type":"Polygon","coordinates":[[[127.21075,38.09996],[127.21075,38.09989],[127.21082,38.09989],[127.21084,38.09996],[127.21075,38.09996]]]}},{"type":"Feature","properties":{"valleyId":"jijangsan","layer":"shadow","date":"2026-08-01","timeLocal":"18:00"},"geometry":{"type":"Polygon","coordinates":[[[127.20857,38.09962],[127.20857,38.09952],[127.20878,38.09952],[127.20878,38.09957],[127.20868,38.09959],[127.20866,38.09962],[127.20857,38.09962]]]}},{"type":"Feature","properties":{"valleyId":"jijangsan","layer":"shadow","date":"2026-08-01","timeLocal":"18:00"},"geometry":{"type":"Polygon","coordinates":[[[127.21049,38.0994],[127.21049,38.09931],[127.21058,38.09929],[127.21058,38.0994],[127.21049,38.0994]]]}},{"type":"Feature","properties":{"valleyId":"jijangsan","layer":"shadow","date":"2026-08-01","timeLocal":"18:00"},"geometry":{"type":"Polygon","coordinates":[[[127.21179,38.09928],[127.21179,38.09924],[127.21175,38.09924],[127.21177,38.09915],[127.21189,38.09915],[127.21188,38.09928],[127.21179,38.09928]]]}},{"type":"Feature","properties":{"valleyId":"jijangsan","layer":"shadow","date":"2026-08-01","timeLocal":"18:00"},"geometry":{"type":"Polygon","coordinates":[[[127.21059,38.09926],[127.21061,38.09908],[127.21073,38.0991],[127.21072,38.09919],[127.21065,38.09926],[127.21059,38.09926]]]}},{"type":"Feature","properties":{"valleyId":"jijangsan","layer":"shadow","date":"2026-08-01","timeLocal":"18:00"},"geometry":{"type":"Polygon","coordinates":[[[127.21321,38.09917],[127.21321,38.09912],[127.21328,38.09912],[127.21328,38.09917],[127.21321,38.09917]]]}},{"type":"Feature","properties":{"valleyId":"jijangsan","layer":"shadow","date":"2026-08-01","timeLocal":"18:00"},"geometry":{"type":"Polygon","coordinates":[[[127.21314,38.09908],[127.21315,38.09903],[127.21321,38.09903],[127.21321,38.09908],[127.21314,38.09908]]]}},{"type":"Feature","properties":{"valleyId":"jijangsan","layer":"shadow","date":"2026-08-01","timeLocal":"18:00"},"geometry":{"type":"Polygon","coordinates":[[[127.21198,38.09912],[127.21196,38.09892],[127.21203,38.09892],[127.21208,38.09894],[127.21207,38.09908],[127.21205,38.09912],[127.21198,38.09912]]]}},{"type":"Feature","properties":{"valleyId":"jijangsan","layer":"shadow","date":"2026-08-01","timeLocal":"18:00"},"geometry":{"type":"Polygon","coordinates":[[[127.21156,38.09846],[127.21156,38.09841],[127.21163,38.09841],[127.21163,38.09846],[127.21156,38.09846]]]}},{"type":"Feature","properties":{"valleyId":"jijangsan","layer":"shadow","date":"2026-08-01","timeLocal":"18:00"},"geometry":{"type":"Polygon","coordinates":[[[127.21168,38.09837],[127.21168,38.09828],[127.21175,38.09825],[127.2118,38.09818],[127.21187,38.09816],[127.21187,38.09809],[127.212,38.09809],[127.21193,38.09827],[127.21186,38.09832],[127.21179,38.09832],[127.21179,38.09836],[127.21168,38.09837]]]}},{"type":"Feature","properties":{"valleyId":"jijangsan","layer":"shadow","date":"2026-08-01","timeLocal":"18:00"},"geometry":{"type":"Polygon","coordinates":[[[127.20795,38.09886],[127.20815,38.09818],[127.20822,38.09818],[127.20822,38.09807],[127.20827,38.09805],[127.20827,38.09801],[127.20833,38.09802],[127.20834,38.09796],[127.20841,38.09793],[127.20841,38.09776],[127.20834,38.09771],[127.20837,38.0976],[127.20846,38.09748],[127.20853,38.09748],[127.20855,38.09751],[127.20869,38.09752],[127.20868,38.09773],[127.20873,38.09777],[127.20873,38.09786],[127.20879,38.09786],[127.2088,38.09779],[127.20891,38.09779],[127.20891,38.09792],[127.209,38.09795],[127.209,38.09801],[127.20884,38.09804],[127.20883,38.09826],[127.20881,38.09829],[127.20876,38.09829],[127.20876,38.09838],[127.20866,38.0986],[127.20857,38.0986],[127.20855,38.09865],[127.20832,38.09874],[127.20831,38.09886],[127.20795,38.09886]],[[127.20872,38.09802],[127.20879,38.09802],[127.20879,38.09795],[127.20872,38.09795],[127.20872,38.09802]]]}},{"type":"Feature","properties":{"valleyId":"jijangsan","layer":"shadow","date":"2026-08-01","timeLocal":"18:00"},"geometry":{"type":"Polygon","coordinates":[[[127.2088,38.09757],[127.20883,38.09745],[127.20894,38.09745],[127.20894,38.0975],[127.20887,38.09754],[127.20887,38.09757],[127.2088,38.09757]]]}},{"type":"Feature","properties":{"valleyId":"jijangsan","layer":"shadow","date":"2026-08-01","timeLocal":"18:00"},"geometry":{"type":"Polygon","coordinates":[[[127.20881,38.09732],[127.20881,38.09727],[127.20888,38.09727],[127.20888,38.09732],[127.20881,38.09732]]]}},{"type":"Feature","properties":{"valleyId":"jijangsan","layer":"shadow","date":"2026-08-01","timeLocal":"18:00"},"geometry":{"type":"Polygon","coordinates":[[[127.21391,38.09666],[127.21391,38.0966],[127.21396,38.09661],[127.21401,38.09648],[127.21412,38.09645],[127.2141,38.09628],[127.21415,38.09628],[127.21415,38.09619],[127.21424,38.09618],[127.21426,38.09641],[127.21417,38.09645],[127.21414,38.09655],[127.21409,38.09655],[127.21409,38.09659],[127.21405,38.09659],[127.214,38.09666],[127.21391,38.09666]]]}},{"type":"Feature","properties":{"valleyId":"jijangsan","layer":"shadow","date":"2026-08-01","timeLocal":"18:00"},"geometry":{"type":"Polygon","coordinates":[[[127.21422,38.09594],[127.21423,38.09589],[127.21429,38.09589],[127.21429,38.09594],[127.21422,38.09594]]]}}]}
