{"type":"FeatureCollection","metadata":{"description":"개방지(CHM ≤ 2 m)에 드리운 나무·지형 그림자, 2026-08-01 17:00 KST. canopy 위에 겹쳐 그린다","source":"위성 기반 추정 — Copernicus GLO-30 지형(30 m) + Meta/WRI 수관 높이(1 m CHM, 2019 촬영). 그늘 = 수관(CHM > 2 m) ∪ 나무·지형 그림자 ∪ 원거리 지형 마스크. 현장과 다를 수 있음.","datasetVersion":"2026-09-06.0","collectedAt":"2026-09-06","coordinateOrder":"[longitude, latitude]","crs":"EPSG:4326","representativeDate":"2026-08-01","hours":["10:00","11:00","12:00","13:00","14:00","15:00","16:00","17:00","18:00"],"chmAcquisition":["2019-03"],"assets":{"glo30":{"dataset":"Copernicus DEM GLO-30 (COG, s3://copernicus-dem-30m)","tiles":["Copernicus_DSM_COG_10_N38_00_E127_00_DEM"]},"chm":{"dataset":"Meta/WRI Global Canopy Height Map v1 (alsgedi_global_v6_float, 1 m, CC-BY 4.0)","quadkeys":["132110302"],"acquisition":["2019-03"]}},"method":{"gridResM":2,"canopyThresholdM":2,"bufferHalfM":25,"corridorHalfM":200,"simplifyTolM":2,"minAreaM2":25,"coordDecimals":5},"generator":"scripts/shade 0.1.0","builtAt":"2026-09-06T05:54:22Z","layer":"shadow","timeLocal":"17:00"},"features":[{"type":"Feature","properties":{"valleyId":"jijangsan","layer":"shadow","date":"2026-08-01","timeLocal":"17:00"},"geometry":{"type":"Polygon","coordinates":[[[127.21007,38.12234],[127.21007,38.12228],[127.21014,38.12228],[127.21014,38.12234],[127.21007,38.12234]]]}},{"type":"Feature","properties":{"valleyId":"jijangsan","layer":"shadow","date":"2026-08-01","timeLocal":"17:00"},"geometry":{"type":"Polygon","coordinates":[[[127.2099,38.12176],[127.2099,38.1217],[127.20997,38.12171],[127.20997,38.12176],[127.2099,38.12176]]]}},{"type":"Feature","properties":{"valleyId":"jijangsan","layer":"shadow","date":"2026-08-01","timeLocal":"17:00"},"geometry":{"type":"Polygon","coordinates":[[[127.21177,38.12164],[127.21177,38.12155],[127.21184,38.12155],[127.21186,38.12164],[127.21177,38.12164]]]}},{"type":"Feature","properties":{"valleyId":"jijangsan","layer":"shadow","date":"2026-08-01","timeLocal":"17:00"},"geometry":{"type":"Polygon","coordinates":[[[127.20858,38.1214],[127.20859,38.12127],[127.2087,38.12129],[127.20868,38.12138],[127.20858,38.1214]]]}},{"type":"Feature","properties":{"valleyId":"jijangsan","layer":"shadow","date":"2026-08-01","timeLocal":"17:00"},"geometry":{"type":"Polygon","coordinates":[[[127.21139,38.12133],[127.21139,38.12126],[127.21146,38.12126],[127.21148,38.12133],[127.21139,38.12133]]]}},{"type":"Feature","properties":{"valleyId":"jijangsan","layer":"shadow","date":"2026-08-01","timeLocal":"17:00"},"geometry":{"type":"Polygon","coordinates":[[[127.21124,38.1212],[127.21124,38.12113],[127.21135,38.12115],[127.21135,38.1212],[127.21124,38.1212]]]}},{"type":"Feature","properties":{"valleyId":"jijangsan","layer":"shadow","date":"2026-08-01","timeLocal":"17:00"},"geometry":{"type":"Polygon","coordinates":[[[127.21106,38.12107],[127.21106,38.12102],[127.21113,38.12102],[127.21112,38.12107],[127.21106,38.12107]]]}},{"type":"Feature","properties":{"valleyId":"jijangsan","layer":"shadow","date":"2026-08-01","timeLocal":"17:00"},"geometry":{"type":"Polygon","coordinates":[[[127.20807,38.12007],[127.20807,38.12002],[127.20816,38.12002],[127.20816,38.12007],[127.20807,38.12007]]]}},{"type":"Feature","properties":{"valleyId":"jijangsan","layer":"shadow","date":"2026-08-01","timeLocal":"17:00"},"geometry":{"type":"Polygon","coordinates":[[[127.21195,38.12008],[127.21195,38.12002],[127.21202,38.12002],[127.21202,38.12008],[127.21195,38.12008]]]}},{"type":"Feature","properties":{"valleyId":"jijangsan","layer":"shadow","date":"2026-08-01","timeLocal":"17:00"},"geometry":{"type":"Polygon","coordinates":[[[127.21198,38.11979],[127.212,38.1197],[127.21214,38.11968],[127.21211,38.11977],[127.21198,38.11979]]]}},{"type":"Feature","properties":{"valleyId":"jijangsan","layer":"shadow","date":"2026-08-01","timeLocal":"17:00"},"geometry":{"type":"Polygon","coordinates":[[[127.21214,38.11968],[127.21214,38.11961],[127.21223,38.1196],[127.21223,38.11967],[127.21214,38.11968]]]}},{"type":"Feature","properties":{"valleyId":"jijangsan","layer":"shadow","date":"2026-08-01","timeLocal":"17:00"},"geometry":{"type":"Polygon","coordinates":[[[127.2076,38.12059],[127.20758,38.12048],[127.20749,38.12042],[127.20729,38.12013],[127.20729,38.12004],[127.20739,38.11997],[127.20739,38.11988],[127.20746,38.11985],[127.20746,38.11977],[127.20753,38.11972],[127.20754,38.11951],[127.20761,38.11934],[127.20752,38.11925],[127.20752,38.11913],[127.20759,38.11907],[127.20759,38.119],[127.20773,38.11897],[127.20775,38.11908],[127.20771,38.11911],[127.2077,38.11917],[127.20784,38.11928],[127.20788,38.11953],[127.20781,38.11953],[127.20781,38.11967],[127.20769,38.11967],[127.20764,38.11978],[127.20757,38.11983],[127.20761,38.12001],[127.20755,38.12001],[127.20754,38.12008],[127.20768,38.12012],[127.20768,38.12021],[127.20779,38.12021],[127.20779,38.12048],[127.20767,38.12048],[127.20767,38.12059],[127.2076,38.12059]],[[127.20772,38.11951],[127.20779,38.11951],[127.20781,38.11942],[127.20772,38.11942],[127.20772,38.11951]]]}},{"type":"Feature","properties":{"valleyId":"jijangsan","layer":"shadow","date":"2026-08-01","timeLocal":"17:00"},"geometry":{"type":"Polygon","coordinates":[[[127.20718,38.119],[127.20716,38.11898],[127.20714,38.11883],[127.20726,38.11885],[127.20725,38.119],[127.20718,38.119]]]}},{"type":"Feature","properties":{"valleyId":"jijangsan","layer":"shadow","date":"2026-08-01","timeLocal":"17:00"},"geometry":{"type":"Polygon","coordinates":[[[127.20782,38.1189],[127.20783,38.11879],[127.2079,38.11879],[127.20789,38.1189],[127.20782,38.1189]]]}},{"type":"Feature","properties":{"valleyId":"jijangsan","layer":"shadow","date":"2026-08-01","timeLocal":"17:00"},"geometry":{"type":"Polygon","coordinates":[[[127.20694,38.11878],[127.20694,38.11872],[127.20701,38.11872],[127.20701,38.11878],[127.20694,38.11878]]]}},{"type":"Feature","properties":{"valleyId":"jijangsan","layer":"shadow","date":"2026-08-01","timeLocal":"17:00"},"geometry":{"type":"Polygon","coordinates":[[[127.20673,38.11874],[127.20671,38.11865],[127.20678,38.11865],[127.2068,38.11874],[127.20673,38.11874]]]}},{"type":"Feature","properties":{"valleyId":"jijangsan","layer":"shadow","date":"2026-08-01","timeLocal":"17:00"},"geometry":{"type":"Polygon","coordinates":[[[127.20594,38.11647],[127.2059,38.11645],[127.20588,38.11636],[127.20595,38.11636],[127.20595,38.1164],[127.20604,38.11642],[127.20604,38.11647],[127.20594,38.11647]]]}},{"type":"Feature","properties":{"valleyId":"jijangsan","layer":"shadow","date":"2026-08-01","timeLocal":"17:00"},"geometry":{"type":"Polygon","coordinates":[[[127.20644,38.11862],[127.20644,38.1185],[127.20638,38.11842],[127.20638,38.11835],[127.20643,38.11826],[127.20647,38.11825],[127.20647,38.11816],[127.20652,38.11814],[127.20657,38.11805],[127.20664,38.11801],[127.20664,38.11796],[127.20673,38.11789],[127.20673,38.11778],[127.20671,38.11773],[127.20664,38.11773],[127.20665,38.11765],[127.20683,38.11764],[127.20683,38.11757],[127.20669,38.11755],[127.20667,38.11742],[127.2067,38.11737],[127.20679,38.11731],[127.20679,38.11728],[127.20691,38.11726],[127.20693,38.11708],[127.20687,38.11697],[127.20682,38.11695],[127.20678,38.11683],[127.20671,38.11679],[127.20667,38.11668],[127.20642,38.11651],[127.20642,38.11646],[127.20636,38.11642],[127.20636,38.11637],[127.20629,38.11633],[127.20629,38.11628],[127.20636,38.11628],[127.20649,38.11639],[127.20656,38.11652],[127.20669,38.11657],[127.20678,38.11668],[127.20685,38.11668],[127.20687,38.11681],[127.20705,38.11696],[127.20719,38.11696],[127.20718,38.11708],[127.20723,38.1171],[127.20729,38.11723],[127.20752,38.11723],[127.20752,38.1175],[127.20736,38.1175],[127.20733,38.11765],[127.20721,38.11781],[127.20721,38.11786],[127.20726,38.1179],[127.20727,38.11813],[127.20725,38.11819],[127.20716,38.11824],[127.20715,38.11831],[127.20704,38.11831],[127.20697,38.11838],[127.20681,38.11845],[127.20681,38.11858],[127.2066,38.11857],[127.2066,38.11861],[127.20644,38.11862]]]}},{"type":"Feature","properties":{"valleyId":"jijangsan","layer":"shadow","date":"2026-08-01","timeLocal":"17:00"},"geometry":{"type":"Polygon","coordinates":[[[127.2062,38.11628],[127.20613,38.11624],[127.20611,38.11613],[127.20618,38.11613],[127.2062,38.11619],[127.20627,38.11622],[127.20627,38.11628],[127.2062,38.11628]]]}},{"type":"Feature","properties":{"valleyId":"jijangsan","layer":"shadow","date":"2026-08-01","timeLocal":"17:00"},"geometry":{"type":"Polygon","coordinates":[[[127.20563,38.11618],[127.20564,38.11607],[127.20573,38.11607],[127.2057,38.11618],[127.20563,38.11618]]]}},{"type":"Feature","properties":{"valleyId":"jijangsan","layer":"shadow","date":"2026-08-01","timeLocal":"17:00"},"geometry":{"type":"Polygon","coordinates":[[[127.20602,38.11608],[127.20602,38.11604],[127.20596,38.11604],[127.20596,38.11588],[127.20603,38.11588],[127.20602,38.11599],[127.20609,38.11599],[127.20609,38.11608],[127.20602,38.11608]]]}},{"type":"Feature","properties":{"valleyId":"jijangsan","layer":"shadow","date":"2026-08-01","timeLocal":"17:00"},"geometry":{"type":"Polygon","coordinates":[[[127.20855,38.11527],[127.20855,38.1152],[127.20864,38.1152],[127.20864,38.11525],[127.20855,38.11527]]]}},{"type":"Feature","properties":{"valleyId":"jijangsan","layer":"shadow","date":"2026-08-01","timeLocal":"17:00"},"geometry":{"type":"Polygon","coordinates":[[[127.20543,38.11598],[127.20544,38.11571],[127.20549,38.11567],[127.20555,38.11567],[127.2056,38.1156],[127.20601,38.11548],[127.20602,38.11545],[127.20608,38.11543],[127.20618,38.11532],[127.20616,38.115],[127.20612,38.11494],[127.20614,38.11482],[127.2061,38.1148],[127.20606,38.11469],[127.20601,38.11469],[127.20602,38.11433],[127.20595,38.11429],[127.20591,38.1142],[127.20584,38.11418],[127.20573,38.11402],[127.20564,38.11396],[127.20564,38.11391],[127.20555,38.11387],[127.20555,38.1138],[127.20565,38.11378],[127.20567,38.11391],[127.20571,38.11391],[127.20587,38.11404],[127.20587,38.11409],[127.20596,38.11416],[127.206,38.11417],[127.20607,38.11424],[127.20623,38.11424],[127.20622,38.11442],[127.20631,38.11451],[127.20656,38.11452],[127.20656,38.1148],[127.20671,38.11491],[127.20671,38.11506],[127.20689,38.11506],[127.20689,38.11533],[127.20663,38.11533],[127.20661,38.11542],[127.20668,38.11542],[127.20667,38.11553],[127.20661,38.11553],[127.20661,38.11544],[127.20654,38.11544],[127.20654,38.1156],[127.20622,38.11559],[127.20606,38.11566],[127.20603,38.11579],[127.20596,38.11579],[127.20596,38.11573],[127.20589,38.11573],[127.20585,38.11577],[127.20585,38.11586],[127.20564,38.11587],[127.20559,38.11589],[127.20557,38.11596],[127.20543,38.11598]]]}},{"type":"Feature","properties":{"valleyId":"jijangsan","layer":"shadow","date":"2026-08-01","timeLocal":"17:00"},"geometry":{"type":"Polygon","coordinates":[[[127.20989,38.11383],[127.20989,38.11376],[127.21,38.11376],[127.21,38.11381],[127.20989,38.11383]]]}},{"type":"Feature","properties":{"valleyId":"jijangsan","layer":"shadow","date":"2026-08-01","timeLocal":"17:00"},"geometry":{"type":"Polygon","coordinates":[[[127.20838,38.11379],[127.20841,38.11366],[127.2085,38.11366],[127.20847,38.11377],[127.20838,38.11379]]]}},{"type":"Feature","properties":{"valleyId":"jijangsan","layer":"shadow","date":"2026-08-01","timeLocal":"17:00"},"geometry":{"type":"Polygon","coordinates":[[[127.20853,38.11354],[127.20853,38.11348],[127.2086,38.11348],[127.20859,38.11354],[127.20853,38.11354]]]}},{"type":"Feature","properties":{"valleyId":"jijangsan","layer":"shadow","date":"2026-08-01","timeLocal":"17:00"},"geometry":{"type":"Polygon","coordinates":[[[127.20875,38.11358],[127.20876,38.11343],[127.20894,38.11343],[127.20898,38.11347],[127.20898,38.11353],[127.20894,38.11356],[127.20875,38.11358]]]}},{"type":"Feature","properties":{"valleyId":"jijangsan","layer":"shadow","date":"2026-08-01","timeLocal":"17:00"},"geometry":{"type":"Polygon","coordinates":[[[127.20957,38.11362],[127.20956,38.11343],[127.20965,38.11343],[127.20985,38.11352],[127.20985,38.11357],[127.20957,38.11362]]]}},{"type":"Feature","properties":{"valleyId":"jijangsan","layer":"shadow","date":"2026-08-01","timeLocal":"17:00"},"geometry":{"type":"Polygon","coordinates":[[[127.20636,38.11349],[127.20636,38.11343],[127.20645,38.11338],[127.20646,38.11332],[127.20652,38.11333],[127.20654,38.1134],[127.2065,38.11342],[127.2065,38.11345],[127.20636,38.11349]]]}},{"type":"Feature","properties":{"valleyId":"jijangsan","layer":"shadow","date":"2026-08-01","timeLocal":"17:00"},"geometry":{"type":"Polygon","coordinates":[[[127.20901,38.11335],[127.20901,38.11329],[127.20912,38.11329],[127.20912,38.11335],[127.20901,38.11335]]]}},{"type":"Feature","properties":{"valleyId":"jijangsan","layer":"shadow","date":"2026-08-01","timeLocal":"17:00"},"geometry":{"type":"Polygon","coordinates":[[[127.20565,38.11346],[127.20566,38.11338],[127.20575,38.11333],[127.20577,38.11328],[127.20584,38.11326],[127.20585,38.11278],[127.20594,38.11276],[127.20601,38.11292],[127.20598,38.11323],[127.20593,38.11323],[127.20593,38.11332],[127.20586,38.11335],[127.20579,38.11346],[127.20565,38.11346]]]}},{"type":"Feature","properties":{"valleyId":"jijangsan","layer":"shadow","date":"2026-08-01","timeLocal":"17:00"},"geometry":{"type":"Polygon","coordinates":[[[127.20723,38.11236],[127.20721,38.11218],[127.20724,38.11215],[127.20731,38.11215],[127.2073,38.11226],[127.20737,38.11226],[127.20737,38.11231],[127.20732,38.11236],[127.20723,38.11236]]]}},{"type":"Feature","properties":{"valleyId":"jijangsan","layer":"shadow","date":"2026-08-01","timeLocal":"17:00"},"geometry":{"type":"Polygon","coordinates":[[[127.20743,38.11246],[127.20744,38.11224],[127.20749,38.11219],[127.20749,38.11208],[127.20754,38.11201],[127.20765,38.11201],[127.20762,38.11221],[127.20753,38.11224],[127.20753,38.1123],[127.20757,38.11231],[127.20757,38.11244],[127.20743,38.11246]]]}},{"type":"Feature","properties":{"valleyId":"jijangsan","layer":"shadow","date":"2026-08-01","timeLocal":"17:00"},"geometry":{"type":"Polygon","coordinates":[[[127.20747,38.11193],[127.20747,38.11186],[127.20754,38.11186],[127.20754,38.11194],[127.20747,38.11193]]]}},{"type":"Feature","properties":{"valleyId":"jijangsan","layer":"shadow","date":"2026-08-01","timeLocal":"17:00"},"geometry":{"type":"Polygon","coordinates":[[[127.2076,38.11044],[127.2076,38.11031],[127.20767,38.11032],[127.20769,38.11041],[127.20767,38.11044],[127.2076,38.11044]]]}},{"type":"Feature","properties":{"valleyId":"jijangsan","layer":"shadow","date":"2026-08-01","timeLocal":"17:00"},"geometry":{"type":"Polygon","coordinates":[[[127.20745,38.11011],[127.20745,38.11004],[127.20752,38.11004],[127.20751,38.11011],[127.20745,38.11011]]]}},{"type":"Feature","properties":{"valleyId":"jijangsan","layer":"shadow","date":"2026-08-01","timeLocal":"17:00"},"geometry":{"type":"Polygon","coordinates":[[[127.2074,38.11001],[127.2074,38.10993],[127.20747,38.10993],[127.20747,38.11001],[127.2074,38.11001]]]}},{"type":"Feature","properties":{"valleyId":"jijangsan","layer":"shadow","date":"2026-08-01","timeLocal":"17:00"},"geometry":{"type":"Polygon","coordinates":[[[127.21151,38.10996],[127.21151,38.10987],[127.21158,38.10987],[127.21158,38.10996],[127.21151,38.10996]]]}},{"type":"Feature","properties":{"valleyId":"jijangsan","layer":"shadow","date":"2026-08-01","timeLocal":"17:00"},"geometry":{"type":"Polygon","coordinates":[[[127.21194,38.10816],[127.21194,38.10806],[127.21215,38.10808],[127.21215,38.10815],[127.21194,38.10816]]]}},{"type":"Feature","properties":{"valleyId":"jijangsan","layer":"shadow","date":"2026-08-01","timeLocal":"17:00"},"geometry":{"type":"Polygon","coordinates":[[[127.19423,38.10577],[127.19423,38.10569],[127.1943,38.1057],[127.1943,38.10577],[127.19423,38.10577]]]}},{"type":"Feature","properties":{"valleyId":"jijangsan","layer":"shadow","date":"2026-08-01","timeLocal":"17:00"},"geometry":{"type":"Polygon","coordinates":[[[127.19423,38.10564],[127.19424,38.10555],[127.19431,38.10555],[127.1943,38.10564],[127.19423,38.10564]]]}},{"type":"Feature","properties":{"valleyId":"jijangsan","layer":"shadow","date":"2026-08-01","timeLocal":"17:00"},"geometry":{"type":"Polygon","coordinates":[[[127.19348,38.10588],[127.19343,38.10577],[127.19344,38.10554],[127.19347,38.10538],[127.19353,38.10538],[127.19353,38.10563],[127.19357,38.10583],[127.19361,38.10583],[127.19361,38.10588],[127.19348,38.10588]]]}},{"type":"Feature","properties":{"valleyId":"jijangsan","layer":"shadow","date":"2026-08-01","timeLocal":"17:00"},"geometry":{"type":"Polygon","coordinates":[[[127.19347,38.1053],[127.19347,38.10523],[127.19354,38.10523],[127.19354,38.1053],[127.19347,38.1053]]]}},{"type":"Feature","properties":{"valleyId":"jijangsan","layer":"shadow","date":"2026-08-01","timeLocal":"17:00"},"geometry":{"type":"Polygon","coordinates":[[[127.1934,38.10523],[127.19336,38.10518],[127.19327,38.10514],[127.19327,38.10508],[127.19338,38.1051],[127.19347,38.10518],[127.19347,38.10523],[127.1934,38.10523]]]}},{"type":"Feature","properties":{"valleyId":"jijangsan","layer":"shadow","date":"2026-08-01","timeLocal":"17:00"},"geometry":{"type":"Polygon","coordinates":[[[127.19433,38.10543],[127.19436,38.10508],[127.19443,38.10508],[127.1944,38.10543],[127.19433,38.10543]]]}},{"type":"Feature","properties":{"valleyId":"jijangsan","layer":"shadow","date":"2026-08-01","timeLocal":"17:00"},"geometry":{"type":"Polygon","coordinates":[[[127.2088,38.10512],[127.20883,38.10496],[127.20889,38.10496],[127.20891,38.10509],[127.20887,38.10513],[127.2088,38.10512]]]}},{"type":"Feature","properties":{"valleyId":"jijangsan","layer":"shadow","date":"2026-08-01","timeLocal":"17:00"},"geometry":{"type":"Polygon","coordinates":[[[127.20846,38.10497],[127.20846,38.10488],[127.20871,38.10491],[127.20871,38.10496],[127.20846,38.10497]]]}},{"type":"Feature","properties":{"valleyId":"jijangsan","layer":"shadow","date":"2026-08-01","timeLocal":"17:00"},"geometry":{"type":"Polygon","coordinates":[[[127.19275,38.10497],[127.19268,38.10493],[127.19268,38.10481],[127.19273,38.10475],[127.1928,38.10473],[127.1928,38.10468],[127.19275,38.10463],[127.19269,38.10461],[127.19269,38.1045],[127.19278,38.1045],[127.19282,38.10463],[127.19289,38.10468],[127.19294,38.10468],[127.19293,38.10474],[127.19286,38.10477],[127.19282,38.10486],[127.19281,38.10497],[127.19275,38.10497]]]}},{"type":"Feature","properties":{"valleyId":"jijangsan","layer":"shadow","date":"2026-08-01","timeLocal":"17:00"},"geometry":{"type":"Polygon","coordinates":[[[127.19287,38.10447],[127.19288,38.1043],[127.19295,38.10427],[127.19302,38.10416],[127.19308,38.10416],[127.19311,38.104],[127.19318,38.10398],[127.19322,38.1035],[127.1931,38.10348],[127.19311,38.10332],[127.19317,38.10332],[127.19324,38.10339],[127.19324,38.1035],[127.19331,38.10352],[127.1933,38.10372],[127.19335,38.10377],[127.19334,38.10388],[127.19332,38.10395],[127.19325,38.10397],[127.19325,38.10402],[127.1932,38.10404],[127.19318,38.10415],[127.19311,38.10416],[127.19311,38.10423],[127.19299,38.10431],[127.19296,38.10445],[127.19287,38.10447]]]}},{"type":"Feature","properties":{"valleyId":"jijangsan","layer":"shadow","date":"2026-08-01","timeLocal":"17:00"},"geometry":{"type":"Polygon","coordinates":[[[127.19299,38.1033],[127.19297,38.10326],[127.19274,38.10326],[127.19274,38.10318],[127.19288,38.10313],[127.19288,38.10306],[127.19277,38.10297],[127.19278,38.10282],[127.19273,38.10281],[127.19271,38.10271],[127.19285,38.10273],[127.19285,38.10277],[127.19289,38.10277],[127.19291,38.10283],[127.19296,38.10283],[127.19296,38.10286],[127.19305,38.10294],[127.19306,38.1033],[127.19299,38.1033]]]}},{"type":"Feature","properties":{"valleyId":"jijangsan","layer":"shadow","date":"2026-08-01","timeLocal":"17:00"},"geometry":{"type":"Polygon","coordinates":[[[127.20828,38.10292],[127.20829,38.10285],[127.20835,38.10285],[127.20835,38.10292],[127.20828,38.10292]]]}},{"type":"Feature","properties":{"valleyId":"jijangsan","layer":"shadow","date":"2026-08-01","timeLocal":"17:00"},"geometry":{"type":"Polygon","coordinates":[[[127.19228,38.10265],[127.19219,38.1026],[127.19219,38.10253],[127.19224,38.10249],[127.1923,38.10249],[127.19237,38.1026],[127.19237,38.10266],[127.19228,38.10265]]]}},{"type":"Feature","properties":{"valleyId":"jijangsan","layer":"shadow","date":"2026-08-01","timeLocal":"17:00"},"geometry":{"type":"Polygon","coordinates":[[[127.19363,38.10222],[127.19364,38.10213],[127.1937,38.10214],[127.1937,38.10223],[127.19363,38.10222]]]}},{"type":"Feature","properties":{"valleyId":"jijangsan","layer":"shadow","date":"2026-08-01","timeLocal":"17:00"},"geometry":{"type":"Polygon","coordinates":[[[127.20787,38.10228],[127.20787,38.10223],[127.20794,38.10223],[127.20793,38.10228],[127.20787,38.10228]]]}},{"type":"Feature","properties":{"valleyId":"jijangsan","layer":"shadow","date":"2026-08-01","timeLocal":"17:00"},"geometry":{"type":"Polygon","coordinates":[[[127.20751,38.10182],[127.20751,38.10173],[127.20763,38.10174],[127.20763,38.10181],[127.20751,38.10182]]]}},{"type":"Feature","properties":{"valleyId":"jijangsan","layer":"shadow","date":"2026-08-01","timeLocal":"17:00"},"geometry":{"type":"Polygon","coordinates":[[[127.21005,38.10073],[127.21007,38.10055],[127.21014,38.10055],[127.21014,38.10071],[127.21005,38.10073]]]}},{"type":"Feature","properties":{"valleyId":"jijangsan","layer":"shadow","date":"2026-08-01","timeLocal":"17:00"},"geometry":{"type":"Polygon","coordinates":[[[127.20857,38.09961],[127.20857,38.09955],[127.20866,38.09955],[127.20866,38.09961],[127.20857,38.09961]]]}},{"type":"Feature","properties":{"valleyId":"jijangsan","layer":"shadow","date":"2026-08-01","timeLocal":"17:00"},"geometry":{"type":"Polygon","coordinates":[[[127.21061,38.09917],[127.21061,38.09911],[127.21068,38.09911],[127.21068,38.09917],[127.21061,38.09917]]]}},{"type":"Feature","properties":{"valleyId":"jijangsan","layer":"shadow","date":"2026-08-01","timeLocal":"17:00"},"geometry":{"type":"Polygon","coordinates":[[[127.21168,38.09836],[127.21168,38.09828],[127.21175,38.09825],[127.21175,38.09821],[127.21184,38.0982],[127.21184,38.09827],[127.21177,38.0983],[127.21177,38.09834],[127.21168,38.09836]]]}},{"type":"Feature","properties":{"valleyId":"jijangsan","layer":"shadow","date":"2026-08-01","timeLocal":"17:00"},"geometry":{"type":"Polygon","coordinates":[[[127.20879,38.09802],[127.20879,38.09795],[127.20886,38.09795],[127.20888,38.09802],[127.20879,38.09802]]]}},{"type":"Feature","properties":{"valleyId":"jijangsan","layer":"shadow","date":"2026-08-01","timeLocal":"17:00"},"geometry":{"type":"Polygon","coordinates":[[[127.20841,38.09785],[127.20841,38.09778],[127.20848,38.09778],[127.20848,38.09786],[127.20841,38.09785]]]}},{"type":"Feature","properties":{"valleyId":"jijangsan","layer":"shadow","date":"2026-08-01","timeLocal":"17:00"},"geometry":{"type":"Polygon","coordinates":[[[127.21398,38.09657],[127.21401,38.09648],[127.21407,38.09648],[127.21405,38.09657],[127.21398,38.09657]]]}}]}
