{"type":"FeatureCollection","metadata":{"description":"수관 아래(CHM > 2 m) — 시각 무관. 구간 회랑 ±200 m 절단","source":"위성 기반 추정 — Copernicus GLO-30 지형(30 m) + Meta/WRI 수관 높이(1 m CHM, 2016~2018 촬영). 그늘 = 수관(CHM > 2 m) ∪ 나무·지형 그림자 ∪ 원거리 지형 마스크. 현장과 다를 수 있음.","datasetVersion":"2026-09-06.0","collectedAt":"2026-09-06","coordinateOrder":"[longitude, latitude]","crs":"EPSG:4326","representativeDate":"2026-08-01","hours":["10:00","11:00","12:00","13:00","14:00","15:00","16:00","17:00","18:00"],"chmAcquisition":["2016-07","2016-12","2018-03"],"assets":{"glo30":{"dataset":"Copernicus DEM GLO-30 (COG, s3://copernicus-dem-30m)","tiles":["Copernicus_DSM_COG_10_N37_00_E127_00_DEM","Copernicus_DSM_COG_10_N38_00_E127_00_DEM"]},"chm":{"dataset":"Meta/WRI Global Canopy Height Map v1 (alsgedi_global_v6_float, 1 m, CC-BY 4.0)","quadkeys":["132110303"],"acquisition":["2016-07","2016-12","2018-03"]}},"method":{"gridResM":2,"canopyThresholdM":2,"bufferHalfM":25,"corridorHalfM":200,"simplifyTolM":2,"minAreaM2":25,"coordDecimals":5},"generator":"scripts/shade 0.1.0","builtAt":"2026-09-06T05:55:27Z","layer":"canopy"},"features":[{"type":"Feature","properties":{"valleyId":"myeongji","layer":"canopy","date":"2026-08-01"},"geometry":{"type":"Polygon","coordinates":[[[127.44233,37.99128],[127.44201,37.99126],[127.44176,37.9912],[127.44128,37.99119],[127.44133,37.99105],[127.44132,37.99058],[127.44141,37.99055],[127.44141,37.9904],[127.44148,37.99033],[127.44168,37.99035],[127.44164,37.99017],[127.44176,37.99012],[127.44176,37.99005],[127.4419,37.99001],[127.44192,37.98998],[127.44203,37.98998],[127.4421,37.99003],[127.4421,37.99019],[127.44217,37.99023],[127.44219,37.9903],[127.44234,37.99038],[127.4423,37.99052],[127.44247,37.99067],[127.44245,37.99099],[127.44251,37.99105],[127.44279,37.99103],[127.44288,37.99111],[127.44287,37.99116],[127.44292,37.99116],[127.44292,37.9912],[127.44299,37.99123],[127.44299,37.99129],[127.44233,37.99128]]]}},{"type":"Feature","properties":{"valleyId":"myeongji","layer":"canopy","date":"2026-08-01"},"geometry":{"type":"Polygon","coordinates":[[[127.43598,37.98889],[127.43587,37.98874],[127.43587,37.98869],[127.43593,37.98869],[127.43596,37.98874],[127.43607,37.9888],[127.43604,37.98889],[127.43598,37.98889]]]}},{"type":"Feature","properties":{"valleyId":"myeongji","layer":"canopy","date":"2026-08-01"},"geometry":{"type":"Polygon","coordinates":[[[127.43582,37.98856],[127.43582,37.98851],[127.43596,37.98849],[127.43596,37.98854],[127.43582,37.98856]]]}},{"type":"Feature","properties":{"valleyId":"myeongji","layer":"canopy","date":"2026-08-01"},"geometry":{"type":"Polygon","coordinates":[[[127.4366,37.98936],[127.43627,37.98914],[127.4363,37.98889],[127.43637,37.98878],[127.43643,37.98877],[127.43644,37.98864],[127.43651,37.98857],[127.43649,37.98843],[127.43656,37.98843],[127.43655,37.98848],[127.4366,37.98848],[127.4366,37.98852],[127.43667,37.98852],[127.43673,37.98868],[127.43685,37.9887],[127.43684,37.98881],[127.43677,37.98886],[127.43675,37.98904],[127.43668,37.98906],[127.43668,37.9892],[127.43672,37.98924],[127.43672,37.98931],[127.43669,37.98937],[127.4366,37.98936]]]}},{"type":"Feature","properties":{"valleyId":"myeongji","layer":"canopy","date":"2026-08-01"},"geometry":{"type":"Polygon","coordinates":[[[127.43669,37.9885],[127.43669,37.98839],[127.43678,37.98839],[127.43678,37.9885],[127.43669,37.9885]]]}},{"type":"Feature","properties":{"valleyId":"myeongji","layer":"canopy","date":"2026-08-01"},"geometry":{"type":"Polygon","coordinates":[[[127.44049,37.99102],[127.44017,37.99087],[127.44004,37.99076],[127.43999,37.99076],[127.43972,37.99054],[127.43972,37.99045],[127.43979,37.99043],[127.43977,37.99022],[127.43959,37.99022],[127.43957,37.99027],[127.4395,37.99027],[127.43948,37.99018],[127.43957,37.99018],[127.43957,37.99011],[127.43946,37.99011],[127.43939,37.99016],[127.43932,37.99016],[127.43848,37.98995],[127.43766,37.98983],[127.43714,37.98964],[127.4372,37.98941],[127.43715,37.98941],[127.43713,37.98932],[127.43731,37.9893],[127.43733,37.98934],[127.4374,37.98934],[127.4374,37.98918],[127.4372,37.98917],[127.43718,37.98903],[127.43709,37.98899],[127.43709,37.9889],[127.43727,37.9889],[127.43738,37.98907],[127.43754,37.98909],[127.43752,37.98893],[127.43739,37.98882],[127.43739,37.98878],[127.43732,37.98876],[127.43733,37.98853],[127.43728,37.98853],[127.43726,37.98849],[127.43726,37.98842],[127.43731,37.98836],[127.43783,37.98837],[127.4379,37.98841],[127.43808,37.98841],[127.43819,37.98845],[127.43822,37.98848],[127.43831,37.98849],[127.43849,37.98863],[127.43862,37.98869],[127.43869,37.98874],[127.43871,37.98882],[127.43878,37.98882],[127.43883,37.98878],[127.43896,37.98878],[127.43903,37.98886],[127.43903,37.98891],[127.43912,37.98895],[127.43916,37.98909],[127.43941,37.98908],[127.43946,37.98915],[127.43961,37.98915],[127.43964,37.98919],[127.43973,37.98921],[127.43977,37.98928],[127.43982,37.98928],[127.43984,37.98932],[127.44004,37.98932],[127.4402,37.98938],[127.44025,37.98947],[127.44029,37.98949],[127.44054,37.98945],[127.44063,37.98938],[127.4407,37.98938],[127.44077,37.98944],[127.44104,37.98946],[127.44106,37.98959],[127.44126,37.98977],[127.44126,37.99],[127.44121,37.99002],[127.44121,37.99006],[127.44101,37.99011],[127.44098,37.9902],[127.44094,37.99023],[127.44075,37.99027],[127.44075,37.99039],[127.4408,37.99039],[127.44079,37.99045],[127.44068,37.99046],[127.44069,37.99093],[127.4406,37.99102],[127.44049,37.99102]],[[127.43973,37.99009],[127.43982,37.99009],[127.43994,37.99002],[127.4401,37.99002],[127.4401,37.98995],[127.43994,37.98995],[127.43992,37.98991],[127.43971,37.98989],[127.43964,37.98993],[127.4396,37.99007],[127.43973,37.99009]],[[127.44008,37.98961],[127.44022,37.98959],[127.44022,37.98954],[127.44006,37.98952],[127.44008,37.98961]]]}},{"type":"Feature","properties":{"valleyId":"myeongji","layer":"canopy","date":"2026-08-01"},"geometry":{"type":"Polygon","coordinates":[[[127.4364,37.98842],[127.43638,37.98833],[127.43631,37.9883],[127.43633,37.98823],[127.43647,37.98823],[127.43646,37.98843],[127.4364,37.98842]]]}},{"type":"Feature","properties":{"valleyId":"myeongji","layer":"canopy","date":"2026-08-01"},"geometry":{"type":"Polygon","coordinates":[[[127.43681,37.98836],[127.43677,37.98818],[127.43683,37.98814],[127.43695,37.98814],[127.4369,37.98834],[127.43681,37.98836]]]}},{"type":"Feature","properties":{"valleyId":"myeongji","layer":"canopy","date":"2026-08-01"},"geometry":{"type":"Polygon","coordinates":[[[127.44268,37.98854],[127.44257,37.98845],[127.44252,37.98845],[127.44248,37.98838],[127.44248,37.98816],[127.44253,37.98815],[127.44266,37.98816],[127.44286,37.98838],[127.44286,37.98855],[127.44268,37.98854]]]}},{"type":"Feature","properties":{"valleyId":"myeongji","layer":"canopy","date":"2026-08-01"},"geometry":{"type":"Polygon","coordinates":[[[127.4359,37.98815],[127.43588,37.98807],[127.43593,37.98804],[127.43606,37.98806],[127.43606,37.98811],[127.4359,37.98815]]]}},{"type":"Feature","properties":{"valleyId":"myeongji","layer":"canopy","date":"2026-08-01"},"geometry":{"type":"Polygon","coordinates":[[[127.45432,37.98821],[127.45432,37.98816],[127.45439,37.98816],[127.45439,37.98821],[127.45432,37.98821]]]}},{"type":"Feature","properties":{"valleyId":"myeongji","layer":"canopy","date":"2026-08-01"},"geometry":{"type":"Polygon","coordinates":[[[127.45433,37.98799],[127.45433,37.98792],[127.45442,37.98792],[127.45442,37.988],[127.45433,37.98799]]]}},{"type":"Feature","properties":{"valleyId":"myeongji","layer":"canopy","date":"2026-08-01"},"geometry":{"type":"Polygon","coordinates":[[[127.45585,37.98812],[127.45585,37.98803],[127.45592,37.98802],[127.45597,37.98789],[127.45611,37.98787],[127.45617,37.98795],[127.45615,37.98805],[127.45585,37.98812]]]}},{"type":"Feature","properties":{"valleyId":"myeongji","layer":"canopy","date":"2026-08-01"},"geometry":{"type":"Polygon","coordinates":[[[127.4541,37.98785],[127.45411,37.98774],[127.4542,37.98774],[127.4542,37.98783],[127.4541,37.98785]]]}},{"type":"Feature","properties":{"valleyId":"myeongji","layer":"canopy","date":"2026-08-01"},"geometry":{"type":"Polygon","coordinates":[[[127.45445,37.98773],[127.45445,37.98767],[127.45454,37.98767],[127.45454,37.98773],[127.45445,37.98773]]]}},{"type":"Feature","properties":{"valleyId":"myeongji","layer":"canopy","date":"2026-08-01"},"geometry":{"type":"Polygon","coordinates":[[[127.43717,37.98748],[127.43717,37.98741],[127.43724,37.98741],[127.43724,37.98748],[127.43717,37.98748]]]}},{"type":"Feature","properties":{"valleyId":"myeongji","layer":"canopy","date":"2026-08-01"},"geometry":{"type":"Polygon","coordinates":[[[127.45622,37.98779],[127.45618,37.98775],[127.45618,37.98766],[127.45636,37.98764],[127.45634,37.98779],[127.45622,37.98779]]]}},{"type":"Feature","properties":{"valleyId":"myeongji","layer":"canopy","date":"2026-08-01"},"geometry":{"type":"Polygon","coordinates":[[[127.45509,37.98757],[127.45502,37.98752],[127.45468,37.98749],[127.45466,37.98739],[127.45462,37.98735],[127.45462,37.9873],[127.45455,37.98726],[127.45455,37.9872],[127.4546,37.98717],[127.45503,37.98719],[127.45507,37.98721],[127.45507,37.98725],[127.45521,37.98729],[127.45523,37.98738],[127.4553,37.98739],[127.4553,37.98745],[127.45543,37.98745],[127.45541,37.98754],[127.45509,37.98757]]]}},{"type":"Feature","properties":{"valleyId":"myeongji","layer":"canopy","date":"2026-08-01"},"geometry":{"type":"Polygon","coordinates":[[[127.43745,37.98682],[127.43746,37.98671],[127.43753,37.98671],[127.43752,37.98682],[127.43745,37.98682]]]}},{"type":"Feature","properties":{"valleyId":"myeongji","layer":"canopy","date":"2026-08-01"},"geometry":{"type":"Polygon","coordinates":[[[127.43744,37.9866],[127.43744,37.98655],[127.43751,37.98655],[127.43751,37.9866],[127.43744,37.9866]]]}},{"type":"Feature","properties":{"valleyId":"myeongji","layer":"canopy","date":"2026-08-01"},"geometry":{"type":"Polygon","coordinates":[[[127.43545,37.98809],[127.43534,37.98789],[127.4351,37.98725],[127.435,37.98641],[127.43501,37.98597],[127.43513,37.98592],[127.43547,37.98596],[127.43554,37.98602],[127.43553,37.98609],[127.43579,37.98605],[127.4359,37.98618],[127.43599,37.98618],[127.43603,37.98613],[127.43615,37.98611],[127.43649,37.98614],[127.43649,37.98605],[127.43658,37.98605],[127.43672,37.98614],[127.43672,37.98619],[127.43678,37.98628],[127.43678,37.98643],[127.43671,37.98664],[127.43666,37.98668],[127.43666,37.98677],[127.43661,37.9868],[127.43659,37.98691],[127.43652,37.98695],[127.43647,37.98702],[127.43647,37.98707],[127.43652,37.98711],[127.43663,37.98711],[127.43663,37.98722],[127.43658,37.98724],[127.43651,37.98734],[127.43635,37.98736],[127.43633,37.98741],[127.43628,37.98741],[127.43628,37.98752],[127.43612,37.98759],[127.43609,37.98765],[127.43577,37.98768],[127.43582,37.9878],[127.4357,37.98789],[127.43572,37.98802],[127.43556,37.98802],[127.43556,37.98796],[127.43549,37.98796],[127.43551,37.98809],[127.43545,37.98809]],[[127.43583,37.98725],[127.4359,37.98725],[127.43588,37.98717],[127.43578,37.98717],[127.43578,37.98723],[127.43583,37.98725]]]}},{"type":"Feature","properties":{"valleyId":"myeongji","layer":"canopy","date":"2026-08-01"},"geometry":{"type":"Polygon","coordinates":[[[127.45799,37.98624],[127.45794,37.9862],[127.45794,37.98615],[127.4581,37.98619],[127.4581,37.98624],[127.45799,37.98624]]]}},{"type":"Feature","properties":{"valleyId":"myeongji","layer":"canopy","date":"2026-08-01"},"geometry":{"type":"Polygon","coordinates":[[[127.43513,37.98567],[127.43518,37.98549],[127.4353,37.98551],[127.43532,37.9856],[127.43522,37.98567],[127.43513,37.98567]]]}},{"type":"Feature","properties":{"valleyId":"myeongji","layer":"canopy","date":"2026-08-01"},"geometry":{"type":"Polygon","coordinates":[[[127.45069,37.98571],[127.4506,37.98567],[127.4506,37.98557],[127.45065,37.98551],[127.45081,37.9855],[127.45089,37.98559],[127.45087,37.98571],[127.45069,37.98571]]]}},{"type":"Feature","properties":{"valleyId":"myeongji","layer":"canopy","date":"2026-08-01"},"geometry":{"type":"Polygon","coordinates":[[[127.462,37.9902],[127.46148,37.99012],[127.46075,37.99008],[127.46066,37.99004],[127.46055,37.99004],[127.4605,37.99],[127.45996,37.98985],[127.45987,37.9898],[127.45967,37.98974],[127.45964,37.9897],[127.45951,37.98967],[127.45946,37.98961],[127.45933,37.98956],[127.45922,37.98945],[127.45915,37.98943],[127.45915,37.98939],[127.45897,37.98926],[127.45895,37.98921],[127.45881,37.98921],[127.45822,37.98909],[127.45818,37.98905],[127.45788,37.98898],[127.4577,37.98889],[127.45763,37.98888],[127.4575,37.98881],[127.45732,37.98883],[127.4573,37.98875],[127.45723,37.9887],[127.45723,37.98865],[127.45716,37.98863],[127.45716,37.98859],[127.45709,37.98855],[127.4571,37.9885],[127.45719,37.98846],[127.45719,37.98841],[127.45714,37.98839],[127.45711,37.98807],[127.45704,37.98801],[127.45702,37.98794],[127.45697,37.98794],[127.4569,37.98788],[127.45693,37.98776],[127.45688,37.98772],[127.45687,37.98751],[127.45698,37.98747],[127.45703,37.9874],[127.45721,37.9874],[127.45726,37.98735],[127.45744,37.98733],[127.45753,37.98726],[127.45765,37.98724],[127.45767,37.98717],[127.45763,37.98712],[127.45744,37.98712],[127.45728,37.98715],[127.45703,37.98713],[127.45699,37.987],[127.45699,37.98693],[127.45704,37.98691],[127.45704,37.98688],[127.45718,37.98682],[127.45736,37.98683],[127.45743,37.98685],[127.4574,37.98697],[127.45747,37.98697],[127.45752,37.9869],[127.45772,37.98689],[127.45773,37.98667],[127.45782,37.98656],[127.45805,37.98657],[127.45814,37.98658],[127.45814,37.98664],[127.45821,37.98666],[127.4582,37.98677],[127.45827,37.9868],[127.45834,37.98691],[127.4584,37.98691],[127.45843,37.9868],[127.45848,37.98679],[127.45855,37.98664],[127.45855,37.98641],[127.45871,37.98639],[127.45878,37.98645],[127.45898,37.98643],[127.45897,37.98618],[127.45901,37.98618],[127.45906,37.98613],[127.45906,37.98602],[127.45899,37.98593],[127.45898,37.98577],[127.45882,37.98564],[127.45848,37.98562],[127.45848,37.98554],[127.45855,37.98551],[127.45857,37.98544],[127.45869,37.98533],[127.45869,37.9852],[127.45901,37.98528],[127.45901,37.98533],[127.45894,37.98537],[127.45894,37.98542],[127.45889,37.98544],[127.45893,37.98559],[127.459,37.98559],[127.45907,37.98548],[127.45914,37.98546],[127.4591,37.98534],[127.45917,37.98534],[127.45919,37.98537],[127.45932,37.98541],[127.45957,37.98558],[127.46009,37.98558],[127.46096,37.98577],[127.46127,37.9859],[127.46129,37.98594],[127.46148,37.98602],[127.46152,37.98607],[127.46157,37.98607],[127.46188,37.98633],[127.46188,37.98636],[127.46199,37.98644],[127.46208,37.98656],[127.46249,37.98661],[127.4629,37.98652],[127.46331,37.98649],[127.46381,37.98653],[127.46408,37.98659],[127.46413,37.98663],[127.46426,37.98665],[127.46449,37.98674],[127.46494,37.98702],[127.46494,37.98709],[127.46485,37.98712],[127.46484,37.98718],[127.46493,37.98727],[127.46493,37.98736],[127.46498,37.98739],[127.465,37.9875],[127.46472,37.9875],[127.46463,37.98768],[127.46456,37.98773],[127.46453,37.98782],[127.46442,37.98786],[127.46415,37.98785],[127.46394,37.9879],[127.46362,37.9879],[127.46356,37.98783],[127.46361,37.98758],[127.46342,37.98755],[127.46338,37.98757],[127.46337,37.98784],[127.46328,37.98786],[127.46326,37.9879],[127.46301,37.98789],[127.46294,37.98795],[127.46294,37.98802],[127.46312,37.98804],[127.46319,37.98807],[127.46337,37.98808],[127.46337,37.98799],[127.46344,37.98799],[127.4635,37.98817],[127.46371,37.98819],[127.46384,37.9883],[127.46407,37.98839],[127.46429,37.9884],[127.46446,37.98833],[127.46448,37.98825],[127.46464,37.98822],[127.46473,37.98822],[127.46475,37.98826],[127.46482,37.98826],[127.46487,37.98831],[127.46493,37.98831],[127.46496,37.98835],[127.46505,37.98835],[127.46509,37.98839],[127.46534,37.98839],[127.46543,37.98836],[127.46559,37.98838],[127.46559,37.98856],[127.46552,37.98883],[127.46544,37.98899],[127.46537,37.98906],[127.46537,37.98911],[127.46528,37.9892],[127.46526,37.98927],[127.46521,37.98929],[127.46521,37.98933],[127.46516,37.98934],[127.46516,37.98938],[127.46498,37.98952],[127.46498,37.98956],[127.46463,37.98979],[127.4644,37.98987],[127.46438,37.98991],[127.46422,37.98994],[127.46412,37.99],[127.46406,37.99],[127.46401,37.99003],[127.46369,37.9901],[127.46291,37.9902],[127.46269,37.99018],[127.46266,37.99021],[127.462,37.9902]],[[127.46435,37.98915],[127.46442,37.98915],[127.46442,37.9891],[127.46437,37.98906],[127.46428,37.98906],[127.46428,37.98913],[127.46435,37.98915]],[[127.4578,37.9875],[127.45794,37.9875],[127.45794,37.98745],[127.4578,37.98745],[127.4578,37.9875]],[[127.46005,37.98751],[127.46046,37.9875],[127.46054,37.98739],[127.46054,37.98725],[127.46027,37.98723],[127.46004,37.98733],[127.45985,37.98733],[127.45985,37.98738],[127.45992,37.98744],[127.45999,37.98744],[127.46005,37.98751]],[[127.45796,37.98729],[127.45808,37.98729],[127.45808,37.98721],[127.45799,37.98721],[127.45796,37.98729]],[[127.46328,37.98676],[127.46337,37.98674],[127.46337,37.98665],[127.46331,37.98665],[127.46328,37.98676]]]}},{"type":"Feature","properties":{"valleyId":"myeongji","layer":"canopy","date":"2026-08-01"},"geometry":{"type":"Polygon","coordinates":[[[127.4539,37.98667],[127.45386,37.98662],[127.45386,37.98646],[127.45375,37.98636],[127.45368,37.98636],[127.45352,37.98624],[127.45349,37.98573],[127.45353,37.98569],[127.45354,37.98551],[127.45358,37.9855],[127.45358,37.98546],[127.45368,37.98544],[127.45368,37.98534],[127.4535,37.98526],[127.4535,37.98523],[127.45339,37.98515],[127.45339,37.9851],[127.45371,37.98512],[127.454,37.98518],[127.4542,37.98524],[127.45438,37.98533],[127.45445,37.98533],[127.45456,37.9854],[127.45493,37.98548],[127.45522,37.98561],[127.45531,37.98561],[127.4555,37.9855],[127.45582,37.98538],[127.45673,37.9852],[127.45742,37.98512],[127.45748,37.98519],[127.45755,37.98519],[127.4576,37.98523],[127.45768,37.98564],[127.45765,37.98586],[127.45779,37.98593],[127.45779,37.98599],[127.45767,37.98613],[127.45756,37.98613],[127.45753,37.98609],[127.45744,37.98607],[127.45729,37.98596],[127.45729,37.98589],[127.45736,37.98587],[127.45736,37.98569],[127.45725,37.9856],[127.45711,37.98562],[127.45713,37.9858],[127.45708,37.98583],[127.45708,37.98601],[127.45715,37.98608],[127.45715,37.98614],[127.4571,37.98621],[127.4571,37.98634],[127.45705,37.98637],[127.45689,37.98639],[127.45682,37.98642],[127.45648,37.9864],[127.45646,37.98636],[127.45639,37.98636],[127.45634,37.98633],[127.4563,37.9862],[127.45612,37.98609],[127.45601,37.98609],[127.45598,37.98614],[127.45589,37.98619],[127.45573,37.98619],[127.4556,37.98615],[127.45557,37.98612],[127.45544,37.98612],[127.45541,37.98615],[127.45535,37.98615],[127.45528,37.9862],[127.45514,37.98624],[127.45514,37.98629],[127.45505,37.98636],[127.45461,37.98645],[127.4545,37.98645],[127.45445,37.98652],[127.45429,37.98655],[127.45424,37.98661],[127.45411,37.98666],[127.4539,37.98667]]]}},{"type":"Feature","properties":{"valleyId":"myeongji","layer":"canopy","date":"2026-08-01"},"geometry":{"type":"Polygon","coordinates":[[[127.43784,37.98489],[127.43777,37.98486],[127.43777,37.98478],[127.43793,37.98477],[127.43793,37.98489],[127.43784,37.98489]]]}},{"type":"Feature","properties":{"valleyId":"myeongji","layer":"canopy","date":"2026-08-01"},"geometry":{"type":"Polygon","coordinates":[[[127.43898,37.98489],[127.43896,37.98478],[127.43907,37.98476],[127.43907,37.98487],[127.43898,37.98489]]]}},{"type":"Feature","properties":{"valleyId":"myeongji","layer":"canopy","date":"2026-08-01"},"geometry":{"type":"Polygon","coordinates":[[[127.43832,37.98461],[127.43832,37.98456],[127.43839,37.98456],[127.43839,37.98461],[127.43832,37.98461]]]}},{"type":"Feature","properties":{"valleyId":"myeongji","layer":"canopy","date":"2026-08-01"},"geometry":{"type":"Polygon","coordinates":[[[127.44356,37.9912],[127.44351,37.99113],[127.44331,37.99104],[127.44329,37.99095],[127.44311,37.9908],[127.44307,37.99066],[127.44314,37.99059],[127.44314,37.99053],[127.44305,37.99048],[127.44305,37.99037],[127.44294,37.99033],[127.44285,37.9902],[127.44276,37.99018],[127.44276,37.99004],[127.44267,37.98999],[127.44265,37.98982],[127.44297,37.98988],[127.44306,37.98997],[127.44322,37.98999],[127.44331,37.98999],[127.44331,37.9899],[127.44349,37.98982],[127.44372,37.98982],[127.44379,37.98987],[127.44393,37.98988],[127.44393,37.9898],[127.44404,37.9897],[127.44405,37.98957],[127.44412,37.98954],[127.44419,37.98943],[127.44432,37.98938],[127.44444,37.9892],[127.44444,37.98913],[127.44417,37.9891],[127.44413,37.98896],[127.44402,37.98887],[127.44402,37.9888],[127.44395,37.98876],[127.44395,37.98872],[127.44391,37.98872],[127.44391,37.98867],[127.44398,37.98863],[127.44398,37.98854],[127.44382,37.98845],[127.44382,37.98841],[127.4436,37.98825],[127.44357,37.9882],[127.44358,37.98812],[127.44362,37.98809],[127.44378,37.98807],[127.44392,37.98815],[127.44392,37.98818],[127.44401,37.98824],[127.44401,37.98829],[127.44405,37.98829],[127.44405,37.98833],[127.44414,37.98833],[127.44414,37.98826],[127.44419,37.98826],[127.44421,37.98813],[127.44409,37.98775],[127.44388,37.98777],[127.44381,37.98769],[127.4437,37.98767],[127.44366,37.9876],[127.44354,37.98756],[127.44354,37.98751],[127.44411,37.9875],[127.44411,37.98745],[127.4435,37.98742],[127.44339,37.9874],[127.44339,37.98735],[127.44369,37.98692],[127.44369,37.98686],[127.44383,37.98668],[127.44384,37.98663],[127.44402,37.98634],[127.44407,37.98633],[127.44416,37.98618],[127.44426,37.98613],[127.44426,37.9861],[127.44453,37.98588],[127.44458,37.98588],[127.44463,37.98583],[127.44467,37.98583],[127.44472,37.98578],[127.44488,37.98572],[127.4449,37.98569],[127.44513,37.98562],[127.44516,37.98558],[127.44543,37.98548],[127.44584,37.98538],[127.44593,37.98538],[127.44635,37.98528],[127.44685,37.98523],[127.4471,37.98514],[127.44724,37.98513],[127.44728,37.98509],[127.44738,37.98509],[127.4476,37.98502],[127.44792,37.98499],[127.44838,37.985],[127.44868,37.98487],[127.44875,37.98487],[127.44884,37.98482],[127.44898,37.98481],[127.44916,37.98474],[127.45019,37.98461],[127.45051,37.98459],[127.45049,37.98517],[127.45045,37.9852],[127.45022,37.98518],[127.45018,37.98509],[127.45009,37.98505],[127.45002,37.98495],[127.44984,37.98487],[127.44975,37.98476],[127.44966,37.98476],[127.44966,37.9848],[127.44954,37.9848],[127.4495,37.98483],[127.4495,37.9849],[127.44954,37.9849],[127.44972,37.98507],[127.4497,37.98521],[127.44974,37.98523],[127.44978,37.98536],[127.44992,37.98539],[127.44992,37.98545],[127.4501,37.98556],[127.45012,37.98569],[127.45016,37.98569],[127.45023,37.9858],[127.45037,37.98583],[127.45041,37.98591],[127.45041,37.98598],[127.45036,37.98603],[127.45013,37.98601],[127.44991,37.98581],[127.44984,37.98581],[127.44971,37.98573],[127.44962,37.98573],[127.44959,37.98577],[127.44945,37.98582],[127.4495,37.98598],[127.44949,37.98616],[127.44945,37.98622],[127.44938,37.98622],[127.44931,37.98627],[127.44901,37.98628],[127.4489,37.98623],[127.44881,37.98623],[127.44872,37.98617],[127.44838,37.98617],[127.44826,37.98626],[127.44812,37.98625],[127.44808,37.98629],[127.44776,37.98627],[127.44758,37.98621],[127.44758,37.98616],[127.44751,37.98608],[127.44752,37.98599],[127.44747,37.98596],[127.44747,37.9858],[127.44738,37.98574],[127.44737,37.98552],[127.44725,37.98545],[127.44709,37.98543],[127.44696,37.98554],[127.44677,37.98553],[127.44666,37.98562],[127.44661,37.98562],[127.44663,37.98589],[127.44667,37.98598],[127.44665,37.9862],[127.4466,37.9862],[127.44653,37.98625],[127.44635,37.98627],[127.4463,37.98632],[127.44621,37.98634],[127.44621,37.98637],[127.44612,37.98639],[127.44603,37.98646],[127.44591,37.98646],[127.44589,37.98642],[127.4458,37.98642],[127.44575,37.98639],[127.44548,37.9864],[127.44548,37.98645],[127.44555,37.98649],[127.44582,37.98648],[127.44596,37.98653],[127.44598,37.98657],[127.44625,37.98663],[127.44627,37.9867],[127.44634,37.98675],[127.44634,37.98684],[127.44615,37.98697],[127.44615,37.987],[127.44599,37.98706],[127.4459,37.98716],[127.44585,37.98716],[127.44574,37.98727],[127.44569,37.98727],[127.44566,37.98736],[127.44557,37.98741],[127.44555,37.98755],[127.44545,37.98759],[127.4455,37.9877],[127.44536,37.98773],[127.44536,37.9878],[127.44543,37.98782],[127.44543,37.98788],[127.44533,37.98791],[127.44531,37.98811],[127.44521,37.98818],[127.44521,37.98823],[127.44517,37.98825],[127.44517,37.98836],[127.44507,37.98845],[127.44509,37.98861],[127.44541,37.98858],[127.44546,37.98863],[127.44555,37.98864],[127.44559,37.98851],[127.44571,37.98851],[127.44573,37.98857],[127.44591,37.9886],[127.44593,37.98866],[127.44614,37.98868],[127.44614,37.98863],[127.44605,37.98853],[127.44605,37.98846],[127.44601,37.98844],[127.44601,37.98841],[127.44589,37.98837],[127.4459,37.98832],[127.44599,37.98826],[127.44599,37.98819],[127.4459,37.98815],[127.44592,37.98803],[127.44581,37.9879],[127.44581,37.98783],[127.44591,37.98774],[127.44591,37.98769],[127.446,37.98763],[127.44603,37.98749],[127.4461,37.98747],[127.4461,37.98744],[127.44623,37.98735],[127.44626,37.98729],[127.44635,37.98728],[127.44656,37.98714],[127.44674,37.98714],[127.44681,37.9871],[127.44713,37.98712],[127.44719,37.9872],[127.44719,37.98731],[127.44726,37.98731],[127.44731,37.98722],[127.44767,37.98728],[127.44779,37.98724],[127.44779,37.98721],[127.44783,37.98719],[127.44786,37.98694],[127.448,37.98696],[127.44799,37.98706],[127.44811,37.98707],[127.4482,37.98712],[127.44847,37.98714],[127.44854,37.98709],[127.44863,37.98709],[127.4487,37.98702],[127.44897,37.987],[127.44907,37.98695],[127.44907,37.9869],[127.44911,37.98686],[127.44927,37.98681],[127.44939,37.9867],[127.4495,37.98671],[127.44953,37.98674],[127.44959,37.98674],[127.44957,37.98662],[127.44967,37.9866],[127.44969,37.98656],[127.44985,37.98658],[127.44985,37.98667],[127.4498,37.98669],[127.4498,37.98684],[127.44987,37.98684],[127.44991,37.98689],[127.45005,37.98687],[127.45007,37.987],[127.45016,37.987],[127.45016,37.98691],[127.45023,37.9869],[127.45073,37.98694],[127.45077,37.98699],[127.45096,37.98698],[127.45093,37.98714],[127.451,37.98714],[127.45104,37.98718],[127.45123,37.98718],[127.45127,37.98722],[127.45141,37.98722],[127.45161,37.98731],[127.45161,37.98735],[127.45165,37.98735],[127.45161,37.98753],[127.45167,37.98754],[127.45179,37.98755],[127.45179,37.98747],[127.45188,37.98742],[127.45188,37.98731],[127.45195,37.98724],[127.45202,37.98724],[127.45209,37.9873],[127.45248,37.98729],[127.45257,37.98736],[127.45275,37.98734],[127.45281,37.9874],[127.45288,37.9874],[127.45295,37.98751],[127.45322,37.98751],[127.45327,37.98753],[127.45327,37.98758],[127.45322,37.98762],[127.45317,37.98776],[127.45326,37.98775],[127.45329,37.98766],[127.45338,37.98766],[127.4534,37.9878],[127.45344,37.98784],[127.45385,37.98788],[127.45385,37.98808],[127.45398,37.9881],[127.45399,37.98804],[127.45403,37.98801],[127.4541,37.98801],[127.45412,37.98808],[127.45405,37.9881],[127.45405,37.98815],[127.4541,37.98817],[127.45416,37.9883],[127.45437,37.98832],[127.45439,37.98827],[127.45444,37.98827],[127.45444,37.98819],[127.45453,37.98816],[127.45456,37.98802],[127.45451,37.98798],[127.45451,37.98792],[127.4546,37.98791],[127.45462,37.98796],[127.45476,37.988],[127.45479,37.98784],[127.45483,37.98782],[127.45492,37.98784],[127.45492,37.98788],[127.45499,37.98793],[127.45499,37.98802],[127.45508,37.98808],[127.45519,37.98808],[127.45524,37.98801],[127.45531,37.98801],[127.45535,37.98794],[127.45542,37.98794],[127.45549,37.98799],[127.45549,37.98808],[127.45542,37.98812],[127.45542,37.98821],[127.45548,37.98826],[127.45564,37.98823],[127.45567,37.98828],[127.4558,37.9883],[127.45583,37.98823],[127.45592,37.98821],[127.45585,37.98837],[127.45569,37.98843],[127.45566,37.98846],[127.45559,37.98846],[127.45559,37.98841],[127.45555,37.98837],[127.45541,37.98833],[127.45541,37.98841],[127.45548,37.98842],[127.45548,37.9885],[127.45552,37.98853],[127.45586,37.98857],[127.45587,37.98847],[127.45589,37.98843],[127.45594,37.98843],[127.45596,37.98834],[127.45601,37.98832],[127.45601,37.98825],[127.45608,37.98825],[127.45607,37.98843],[127.45603,37.98847],[127.45602,37.98858],[127.456,37.98861],[127.45586,37.98859],[127.45586,37.98865],[127.45595,37.98865],[127.45593,37.9889],[127.4559,37.98893],[127.45586,37.98893],[127.45581,37.98902],[127.45572,37.98904],[127.45572,37.98911],[127.45563,37.98913],[127.45562,37.98918],[127.45569,37.98924],[127.45574,37.98924],[127.45576,37.98933],[127.4558,37.98935],[127.4558,37.98942],[127.45548,37.98947],[127.45489,37.98946],[127.45414,37.98931],[127.45369,37.98916],[127.45367,37.98912],[127.45335,37.98899],[127.45331,37.98894],[127.45326,37.98894],[127.4531,37.98883],[127.4529,37.98879],[127.45258,37.98864],[127.4524,37.98864],[127.4524,37.98855],[127.45234,37.98855],[127.45231,37.9886],[127.45215,37.9886],[127.45211,37.98863],[127.45176,37.98861],[127.45133,37.9885],[127.45066,37.98822],[127.45036,37.98823],[127.44965,37.98847],[127.44956,37.98847],[127.44922,37.98856],[127.4491,37.98856],[127.44867,37.98864],[127.44828,37.98864],[127.44791,37.98874],[127.44762,37.98877],[127.44757,37.98879],[127.44717,37.98943],[127.44712,37.98945],[127.44712,37.98949],[127.44708,37.9895],[127.44708,37.98954],[127.4468,37.98982],[127.44673,37.98982],[127.44669,37.98964],[127.44657,37.98964],[127.44651,37.98953],[127.44639,37.98955],[127.44634,37.98976],[127.44643,37.98991],[127.44661,37.98993],[127.44661,37.98998],[127.44606,37.99041],[127.44601,37.99041],[127.44596,37.99046],[127.44592,37.99046],[127.44587,37.99051],[127.44583,37.99051],[127.44578,37.99057],[127.44573,37.99057],[127.44543,37.99074],[127.44509,37.99088],[127.44443,37.99105],[127.44356,37.9912]],[[127.44519,37.99038],[127.44537,37.99036],[127.44537,37.99031],[127.44535,37.99027],[127.44531,37.99027],[127.44531,37.99022],[127.44545,37.9902],[127.44551,37.99015],[127.4457,37.99015],[127.4457,37.9901],[127.44565,37.99004],[127.44566,37.98995],[127.44554,37.98986],[127.44552,37.98979],[127.44541,37.98977],[127.4453,37.98964],[127.44521,37.98964],[127.44512,37.9895],[127.44494,37.98947],[127.44494,37.98953],[127.445,37.9896],[127.445,37.98984],[127.44495,37.98989],[127.44497,37.99005],[127.44504,37.99009],[127.44508,37.99023],[127.44519,37.99027],[127.44519,37.99038]],[[127.44574,37.98896],[127.44581,37.98896],[127.44581,37.98889],[127.44572,37.98884],[127.44563,37.98884],[127.44563,37.98889],[127.44574,37.98896]],[[127.44719,37.98869],[127.44741,37.9887],[127.44742,37.98859],[127.44728,37.98857],[127.44717,37.98844],[127.44703,37.98844],[127.44703,37.98851],[127.44714,37.98855],[127.44714,37.98867],[127.44719,37.98869]],[[127.44787,37.9885],[127.44803,37.98851],[127.44801,37.98824],[127.44806,37.98822],[127.44806,37.98816],[127.44797,37.98813],[127.44793,37.988],[127.44784,37.98802],[127.44786,37.98816],[127.4477,37.98823],[127.44769,37.9883],[127.44778,37.98836],[127.44778,37.98839],[127.44783,37.98841],[127.44783,37.98849],[127.44787,37.9885]],[[127.45427,37.98844],[127.45436,37.98845],[127.45437,37.98839],[127.45427,37.98839],[127.45427,37.98844]],[[127.45478,37.98836],[127.45487,37.98834],[127.45487,37.98827],[127.45475,37.98829],[127.45478,37.98836]],[[127.4497,37.9882],[127.44979,37.98821],[127.44979,37.98813],[127.44966,37.9881],[127.44966,37.98817],[127.4497,37.9882]],[[127.44704,37.9881],[127.44713,37.9881],[127.4472,37.98804],[127.4472,37.98797],[127.44706,37.98799],[127.44704,37.9881]],[[127.44734,37.98783],[127.44743,37.98783],[127.44743,37.98778],[127.44734,37.98778],[127.44734,37.98783]],[[127.4519,37.98766],[127.45197,37.98766],[127.45197,37.9876],[127.45192,37.98755],[127.45186,37.98755],[127.4519,37.98766]],[[127.4474,37.98736],[127.44746,37.98736],[127.44746,37.98731],[127.4474,37.98731],[127.4474,37.98736]],[[127.44421,37.987],[127.44433,37.987],[127.44433,37.98687],[127.44415,37.98685],[127.44406,37.98687],[127.44403,37.9869],[127.44394,37.9869],[127.44394,37.98696],[127.44399,37.98697],[127.44421,37.987]],[[127.448,37.98573],[127.44809,37.98573],[127.44811,37.98564],[127.4483,37.98557],[127.44835,37.98543],[127.44831,37.98523],[127.44821,37.98523],[127.44821,37.98526],[127.44814,37.9853],[127.44794,37.98531],[127.44785,37.98537],[127.44771,37.98537],[127.44766,37.98538],[127.44766,37.98542],[127.44762,37.98542],[127.44764,37.98551],[127.44775,37.98558],[127.44777,37.98566],[127.44795,37.98569],[127.448,37.98573]]]}},{"type":"Feature","properties":{"valleyId":"myeongji","layer":"canopy","date":"2026-08-01"},"geometry":{"type":"Polygon","coordinates":[[[127.45216,37.98694],[127.45217,37.98687],[127.45171,37.98688],[127.45167,37.98684],[127.45167,37.98679],[127.4516,37.98677],[127.45158,37.98666],[127.45133,37.98664],[127.45128,37.98658],[127.4511,37.98658],[127.45108,37.98655],[127.45087,37.98653],[127.45088,37.98645],[127.45122,37.98648],[127.45122,37.98642],[127.45117,37.9864],[127.45097,37.9864],[127.45088,37.98634],[127.45079,37.98634],[127.45067,37.98641],[127.45058,37.98641],[127.45056,37.98652],[127.45042,37.98656],[127.45042,37.98659],[127.45033,37.98659],[127.45028,37.98655],[127.45017,37.98653],[127.45017,37.98643],[127.45031,37.98632],[127.45031,37.98621],[127.45036,37.98618],[127.45054,37.98618],[127.45056,37.98614],[127.45063,37.98614],[127.4507,37.98607],[127.45091,37.98609],[127.45095,37.986],[127.45116,37.98601],[127.45114,37.98577],[127.45107,37.98577],[127.45107,37.9857],[127.45098,37.98566],[127.45099,37.98559],[127.45103,37.98555],[127.45144,37.98554],[127.45144,37.98561],[127.45155,37.98561],[127.45156,37.98543],[127.45151,37.9854],[127.45154,37.98522],[127.45131,37.98523],[127.45118,37.9852],[127.45118,37.98511],[127.45104,37.98507],[127.451,37.98503],[127.451,37.98498],[127.45088,37.98498],[127.45082,37.98492],[127.45082,37.98487],[127.45073,37.98472],[127.4506,37.98465],[127.4506,37.98459],[127.45112,37.9846],[127.45189,37.98472],[127.45205,37.98492],[127.45211,37.98512],[127.45216,37.98514],[127.45213,37.98532],[127.45227,37.98528],[127.45229,37.98519],[127.45238,37.98516],[127.45239,37.98505],[127.45248,37.985],[127.4525,37.98494],[127.45257,37.98494],[127.4528,37.98504],[127.4528,37.98509],[127.45284,37.98511],[127.45284,37.98522],[127.4527,37.98547],[127.45271,37.98568],[127.4526,37.98586],[127.45259,37.98599],[127.45257,37.9861],[127.45252,37.98613],[127.4525,37.98633],[127.45263,37.98637],[127.4527,37.98642],[127.45272,37.98651],[127.45286,37.98657],[127.45288,37.9867],[127.45281,37.98675],[127.45269,37.98677],[127.4526,37.98682],[127.45235,37.98683],[127.45232,37.98689],[127.45228,37.98689],[127.45223,37.98694],[127.45216,37.98694]],[[127.45232,37.98624],[127.45243,37.98624],[127.45245,37.98611],[127.45218,37.98611],[127.45218,37.98616],[127.45223,37.98616],[127.45232,37.98624]],[[127.45125,37.98604],[127.45136,37.98604],[127.45139,37.98597],[127.45134,37.98594],[127.45127,37.98594],[127.45123,37.98597],[127.45125,37.98604]]]}},{"type":"Feature","properties":{"valleyId":"myeongji","layer":"canopy","date":"2026-08-01"},"geometry":{"type":"Polygon","coordinates":[[[127.44235,37.98791],[127.44206,37.98765],[127.44192,37.98761],[127.44193,37.98758],[127.44188,37.98756],[127.44191,37.98745],[127.44177,37.98745],[127.44177,37.98758],[127.44154,37.98756],[127.44149,37.98761],[127.4414,37.98761],[127.4414,37.98755],[127.44133,37.98755],[127.44122,37.98766],[127.44115,37.98766],[127.44115,37.98769],[127.4411,37.98769],[127.44103,37.98776],[127.44087,37.98773],[127.44081,37.98765],[127.44067,37.98763],[127.44065,37.9876],[127.44056,37.9876],[127.44037,37.98767],[127.43996,37.98766],[127.43992,37.9877],[127.43978,37.98771],[127.43973,37.98777],[127.43964,37.9878],[127.43921,37.98778],[127.4391,37.98783],[127.43889,37.98784],[127.43873,37.98784],[127.43869,37.98779],[127.43823,37.98766],[127.43817,37.9876],[127.43812,37.9876],[127.43803,37.98751],[127.43796,37.98751],[127.43797,37.98745],[127.4379,37.9874],[127.4379,37.98733],[127.43781,37.9872],[127.43781,37.98711],[127.43775,37.98704],[127.43778,37.98669],[127.43782,37.98659],[127.4378,37.98648],[127.43795,37.98625],[127.43797,37.98608],[127.43806,37.98607],[127.43809,37.98598],[127.43822,37.98598],[127.43823,37.98594],[127.43829,37.98591],[127.4383,37.98584],[127.43834,37.98584],[127.43843,37.98571],[127.4385,37.98568],[127.43851,37.98562],[127.43839,37.98553],[127.43819,37.98551],[127.43819,37.98546],[127.43824,37.98542],[127.43824,37.98537],[127.43828,37.98535],[127.43828,37.98528],[127.43835,37.98526],[127.43836,37.98503],[127.43852,37.98501],[127.43856,37.98505],[127.43863,37.98505],[127.43868,37.98501],[127.43868,37.98496],[127.43854,37.9849],[127.43855,37.98469],[127.43864,37.98469],[127.43864,37.98472],[127.43871,37.98474],[127.43873,37.9849],[127.43877,37.98496],[127.43888,37.98496],[127.439,37.98505],[127.43918,37.98504],[127.43927,37.985],[127.43925,37.9848],[127.43937,37.98479],[127.43941,37.98475],[127.43941,37.9847],[127.43934,37.9847],[127.43928,37.98461],[127.4393,37.98446],[127.43937,37.98439],[127.43949,37.98437],[127.43956,37.9843],[127.43974,37.98431],[127.43979,37.98425],[127.43999,37.98425],[127.44006,37.98415],[127.44022,37.98417],[127.44033,37.98424],[127.44049,37.98422],[127.44052,37.98417],[127.44061,37.98415],[127.44059,37.98401],[127.44073,37.98399],[127.44069,37.98441],[127.44062,37.98464],[127.4405,37.98484],[127.44048,37.98495],[127.44043,37.98498],[127.44019,37.98555],[127.4401,37.98568],[127.44007,37.98579],[127.43998,37.98591],[127.43984,37.98625],[127.43972,37.98641],[127.43972,37.98649],[127.44139,37.98687],[127.44146,37.98691],[127.44146,37.98694],[127.44159,37.98707],[127.44171,37.98709],[127.44173,37.98713],[127.44205,37.98713],[127.44207,37.98717],[127.44212,37.98717],[127.44214,37.9872],[127.44218,37.9872],[127.44221,37.98724],[127.44225,37.98724],[127.44243,37.98735],[127.44238,37.98751],[127.44247,37.98751],[127.44251,37.98782],[127.44244,37.98791],[127.44235,37.98791]],[[127.43842,37.98623],[127.43856,37.98624],[127.43859,37.98615],[127.43845,37.98616],[127.43842,37.98623]],[[127.43988,37.98526],[127.43999,37.98526],[127.44002,37.98523],[127.44011,37.98521],[127.44011,37.98516],[127.44006,37.98516],[127.44007,37.98507],[127.44011,37.98505],[127.44009,37.98494],[127.44002,37.98494],[127.44,37.98498],[127.43989,37.98497],[127.43982,37.98486],[127.43957,37.98483],[127.43957,37.98488],[127.4395,37.98491],[127.4395,37.98495],[127.43936,37.98498],[127.43936,37.98511],[127.43943,37.98517],[127.43952,37.98517],[127.43958,37.98524],[127.43967,37.98524],[127.4397,37.98512],[127.43977,37.98512],[127.43977,37.98519],[127.43981,37.98519],[127.43988,37.98526]]]}},{"type":"Feature","properties":{"valleyId":"myeongji","layer":"canopy","date":"2026-08-01"},"geometry":{"type":"Polygon","coordinates":[[[127.44064,37.98394],[127.44064,37.98388],[127.44071,37.98389],[127.4407,37.98394],[127.44064,37.98394]]]}},{"type":"Feature","properties":{"valleyId":"myeongji","layer":"canopy","date":"2026-08-01"},"geometry":{"type":"Polygon","coordinates":[[[127.43645,37.98585],[127.43632,37.98574],[127.43628,37.98538],[127.43612,37.98537],[127.43607,37.98546],[127.43591,37.98546],[127.43571,37.98541],[127.43571,37.98537],[127.43566,37.98537],[127.4356,37.98531],[127.43558,37.98519],[127.43569,37.98512],[127.43569,37.98506],[127.43565,37.98504],[127.43563,37.98486],[127.43568,37.98483],[127.43568,37.98472],[127.43572,37.98468],[127.43575,37.98458],[127.43589,37.98436],[127.43603,37.984],[127.43615,37.98401],[127.43619,37.98404],[127.43633,37.98406],[127.43651,37.98417],[127.43658,37.98417],[127.4366,37.98421],[127.4368,37.98423],[127.4368,37.98427],[127.43685,37.98427],[127.43689,37.98432],[127.43698,37.98434],[127.43705,37.9844],[127.43707,37.98447],[127.4373,37.98453],[127.4373,37.98443],[127.43725,37.98443],[127.43708,37.98418],[127.43708,37.98407],[127.43688,37.98392],[127.43683,37.98385],[127.43674,37.98381],[127.4367,37.98374],[127.43666,37.98347],[127.43653,37.98338],[127.43646,37.98318],[127.43658,37.98307],[127.43658,37.98304],[127.43665,37.983],[127.43665,37.98297],[127.43693,37.98274],[127.43697,37.98274],[127.43707,37.98265],[127.43711,37.98265],[127.43723,37.98256],[127.43732,37.98254],[127.43739,37.98249],[127.43746,37.98249],[127.43748,37.98256],[127.43754,37.98258],[127.43754,37.98264],[127.43784,37.98269],[127.438,37.9828],[127.43801,37.98311],[127.43808,37.98318],[127.4381,37.98333],[127.43834,37.98357],[127.43848,37.98362],[127.4385,37.98371],[127.43848,37.98375],[127.43829,37.98376],[127.43829,37.98384],[127.4382,37.98385],[127.43813,37.98391],[127.43803,37.98423],[127.43785,37.98423],[127.43785,37.9843],[127.43798,37.98441],[127.43798,37.98452],[127.43796,37.98457],[127.43789,37.98459],[127.43787,37.98464],[127.43773,37.98473],[127.43773,37.9848],[127.43766,37.98484],[127.43765,37.98491],[127.43777,37.98491],[127.43786,37.98497],[127.43778,37.98522],[127.43769,37.98523],[127.43763,37.98512],[127.43751,37.98514],[127.43753,37.9853],[127.43749,37.98534],[127.43742,37.98534],[127.43742,37.98546],[127.4373,37.98548],[127.43725,37.98573],[127.43716,37.98575],[127.43716,37.98586],[127.43691,37.98585],[127.43686,37.98578],[127.43673,37.98578],[127.4367,37.98581],[127.43661,37.98581],[127.43659,37.98585],[127.43645,37.98585]],[[127.43757,37.98368],[127.43764,37.98368],[127.43764,37.98363],[127.43759,37.98359],[127.43759,37.98354],[127.43743,37.98346],[127.43748,37.98334],[127.43744,37.9833],[127.43737,37.9833],[127.43737,37.98321],[127.43714,37.98323],[127.43707,37.9834],[127.43714,37.98344],[127.43737,37.98348],[127.43757,37.98368]]]}},{"type":"Feature","properties":{"valleyId":"myeongji","layer":"canopy","date":"2026-08-01"},"geometry":{"type":"Polygon","coordinates":[[[127.43956,37.98304],[127.43952,37.98302],[127.43952,37.98299],[127.4394,37.98297],[127.43915,37.983],[127.4389,37.98294],[127.43886,37.98289],[127.43877,37.98285],[127.43875,37.98274],[127.43857,37.9827],[127.43857,37.98263],[127.43852,37.98261],[127.43848,37.98249],[127.43841,37.98245],[127.43841,37.98241],[127.43823,37.98236],[127.43823,37.9823],[127.43858,37.98229],[127.43894,37.98233],[127.43944,37.98246],[127.43975,37.98261],[127.43984,37.98277],[127.43995,37.98281],[127.44002,37.98288],[127.44004,37.98299],[127.43997,37.98305],[127.43956,37.98304]]]}}]}
