{"type":"FeatureCollection","metadata":{"description":"개방지(CHM ≤ 2 m)에 드리운 나무·지형 그림자, 2026-08-01 17:00 KST. canopy 위에 겹쳐 그린다","source":"위성 기반 추정 — Copernicus GLO-30 지형(30 m) + Meta/WRI 수관 높이(1 m CHM, 2016~2018 촬영). 그늘 = 수관(CHM > 2 m) ∪ 나무·지형 그림자 ∪ 원거리 지형 마스크. 현장과 다를 수 있음.","datasetVersion":"2026-09-06.0","collectedAt":"2026-09-06","coordinateOrder":"[longitude, latitude]","crs":"EPSG:4326","representativeDate":"2026-08-01","hours":["10:00","11:00","12:00","13:00","14:00","15:00","16:00","17:00","18:00"],"chmAcquisition":["2016-07","2016-12","2018-03"],"assets":{"glo30":{"dataset":"Copernicus DEM GLO-30 (COG, s3://copernicus-dem-30m)","tiles":["Copernicus_DSM_COG_10_N37_00_E127_00_DEM","Copernicus_DSM_COG_10_N38_00_E127_00_DEM"]},"chm":{"dataset":"Meta/WRI Global Canopy Height Map v1 (alsgedi_global_v6_float, 1 m, CC-BY 4.0)","quadkeys":["132110303"],"acquisition":["2016-07","2016-12","2018-03"]}},"method":{"gridResM":2,"canopyThresholdM":2,"bufferHalfM":25,"corridorHalfM":200,"simplifyTolM":2,"minAreaM2":25,"coordDecimals":5},"generator":"scripts/shade 0.1.0","builtAt":"2026-09-06T05:55:27Z","layer":"shadow","timeLocal":"17:00"},"features":[{"type":"Feature","properties":{"valleyId":"myeongji","layer":"shadow","date":"2026-08-01","timeLocal":"17:00"},"geometry":{"type":"Polygon","coordinates":[[[127.44249,37.99103],[127.44245,37.99099],[127.44245,37.99085],[127.44252,37.99085],[127.44256,37.99096],[127.44256,37.99103],[127.44249,37.99103]]]}},{"type":"Feature","properties":{"valleyId":"myeongji","layer":"shadow","date":"2026-08-01","timeLocal":"17:00"},"geometry":{"type":"Polygon","coordinates":[[[127.43973,37.99009],[127.43969,37.99005],[127.43962,37.99005],[127.43962,37.99],[127.43967,37.98991],[127.43978,37.98989],[127.43983,37.98991],[127.43982,37.99009],[127.43973,37.99009]]]}},{"type":"Feature","properties":{"valleyId":"myeongji","layer":"shadow","date":"2026-08-01","timeLocal":"17:00"},"geometry":{"type":"Polygon","coordinates":[[[127.44078,37.99111],[127.4406,37.99106],[127.4406,37.991],[127.44069,37.99093],[127.44068,37.99046],[127.44075,37.99045],[127.44075,37.99027],[127.44094,37.99023],[127.44098,37.9902],[127.44101,37.99011],[127.44121,37.99006],[127.44121,37.99002],[127.44126,37.99],[127.44126,37.98977],[127.44111,37.98964],[127.44104,37.98951],[127.44104,37.98944],[127.44111,37.98944],[127.44113,37.98951],[127.44133,37.98972],[127.44156,37.98972],[127.44156,37.98999],[127.44137,37.98999],[127.44133,37.99006],[127.44121,37.99013],[127.44119,37.99107],[127.44085,37.99106],[127.44085,37.99111],[127.44078,37.99111]]]}},{"type":"Feature","properties":{"valleyId":"myeongji","layer":"shadow","date":"2026-08-01","timeLocal":"17:00"},"geometry":{"type":"Polygon","coordinates":[[[127.44025,37.98947],[127.44022,37.98938],[127.44029,37.98938],[127.44031,37.98947],[127.44025,37.98947]]]}},{"type":"Feature","properties":{"valleyId":"myeongji","layer":"shadow","date":"2026-08-01","timeLocal":"17:00"},"geometry":{"type":"Polygon","coordinates":[[[127.44077,37.98944],[127.44077,37.98938],[127.44084,37.98938],[127.44084,37.98944],[127.44077,37.98944]]]}},{"type":"Feature","properties":{"valleyId":"myeongji","layer":"shadow","date":"2026-08-01","timeLocal":"17:00"},"geometry":{"type":"Polygon","coordinates":[[[127.43984,37.98932],[127.43982,37.98928],[127.43977,37.98928],[127.43975,37.98919],[127.43982,37.98919],[127.43989,37.98923],[127.43989,37.98926],[127.43993,37.98926],[127.43993,37.98932],[127.43984,37.98932]]]}},{"type":"Feature","properties":{"valleyId":"myeongji","layer":"shadow","date":"2026-08-01","timeLocal":"17:00"},"geometry":{"type":"Polygon","coordinates":[[[127.43914,37.98915],[127.43914,37.98898],[127.43907,37.98891],[127.43903,37.98891],[127.43898,37.98878],[127.43905,37.98878],[127.43925,37.98897],[127.43923,37.98915],[127.43914,37.98915]]]}},{"type":"Feature","properties":{"valleyId":"myeongji","layer":"shadow","date":"2026-08-01","timeLocal":"17:00"},"geometry":{"type":"Polygon","coordinates":[[[127.43871,37.9888],[127.43867,37.98874],[127.43867,37.98869],[127.43874,37.98869],[127.43878,37.98873],[127.43878,37.9888],[127.43871,37.9888]]]}},{"type":"Feature","properties":{"valleyId":"myeongji","layer":"shadow","date":"2026-08-01","timeLocal":"17:00"},"geometry":{"type":"Polygon","coordinates":[[[127.43696,37.98874],[127.43698,37.98861],[127.43705,37.98861],[127.43703,37.98874],[127.43696,37.98874]]]}},{"type":"Feature","properties":{"valleyId":"myeongji","layer":"shadow","date":"2026-08-01","timeLocal":"17:00"},"geometry":{"type":"Polygon","coordinates":[[[127.45644,37.98925],[127.45647,37.98896],[127.45652,37.98892],[127.45661,37.98893],[127.45661,37.98884],[127.45695,37.98884],[127.45695,37.98907],[127.4569,37.98907],[127.45688,37.98911],[127.45656,37.98925],[127.45644,37.98925]]]}},{"type":"Feature","properties":{"valleyId":"myeongji","layer":"shadow","date":"2026-08-01","timeLocal":"17:00"},"geometry":{"type":"Polygon","coordinates":[[[127.45578,37.98935],[127.45574,37.98924],[127.45569,37.98924],[127.45569,37.98918],[127.45574,37.98918],[127.45572,37.98904],[127.45583,37.98901],[127.45586,37.98893],[127.4559,37.98893],[127.45593,37.9889],[127.45593,37.98883],[127.45602,37.98883],[127.45597,37.98895],[127.45593,37.98895],[127.45592,37.98904],[127.45585,37.98908],[127.45585,37.98935],[127.45578,37.98935]]]}},{"type":"Feature","properties":{"valleyId":"myeongji","layer":"shadow","date":"2026-08-01","timeLocal":"17:00"},"geometry":{"type":"Polygon","coordinates":[[[127.43842,37.98858],[127.43842,37.98852],[127.43849,37.98852],[127.43849,37.98858],[127.43842,37.98858]]]}},{"type":"Feature","properties":{"valleyId":"myeongji","layer":"shadow","date":"2026-08-01","timeLocal":"17:00"},"geometry":{"type":"Polygon","coordinates":[[[127.44512,37.98845],[127.44512,37.98838],[127.44519,37.98838],[127.44519,37.98845],[127.44512,37.98845]]]}},{"type":"Feature","properties":{"valleyId":"myeongji","layer":"shadow","date":"2026-08-01","timeLocal":"17:00"},"geometry":{"type":"Polygon","coordinates":[[[127.44787,37.9885],[127.44783,37.98849],[127.44778,37.98834],[127.4479,37.98836],[127.44794,37.98842],[127.44794,37.98851],[127.44787,37.9885]]]}},{"type":"Feature","properties":{"valleyId":"myeongji","layer":"shadow","date":"2026-08-01","timeLocal":"17:00"},"geometry":{"type":"Polygon","coordinates":[[[127.43731,37.9882],[127.43731,37.98813],[127.4374,37.98813],[127.4374,37.98819],[127.43731,37.9882]]]}},{"type":"Feature","properties":{"valleyId":"myeongji","layer":"shadow","date":"2026-08-01","timeLocal":"17:00"},"geometry":{"type":"Polygon","coordinates":[[[127.44286,37.98856],[127.44286,37.98838],[127.44273,37.98826],[127.44273,37.9882],[127.4428,37.9882],[127.44284,37.98828],[127.44296,37.98833],[127.44297,37.98857],[127.44286,37.98856]]]}},{"type":"Feature","properties":{"valleyId":"myeongji","layer":"shadow","date":"2026-08-01","timeLocal":"17:00"},"geometry":{"type":"Polygon","coordinates":[[[127.44772,37.98832],[127.4477,37.98823],[127.44779,37.98821],[127.44779,37.98832],[127.44772,37.98832]]]}},{"type":"Feature","properties":{"valleyId":"myeongji","layer":"shadow","date":"2026-08-01","timeLocal":"17:00"},"geometry":{"type":"Polygon","coordinates":[[[127.4426,37.98816],[127.4426,37.98811],[127.44267,37.98811],[127.44266,37.98816],[127.4426,37.98816]]]}},{"type":"Feature","properties":{"valleyId":"myeongji","layer":"shadow","date":"2026-08-01","timeLocal":"17:00"},"geometry":{"type":"Polygon","coordinates":[[[127.43547,37.98814],[127.43547,37.98809],[127.43551,37.98809],[127.43549,37.98796],[127.43556,37.98796],[127.43556,37.98802],[127.43565,37.98802],[127.43565,37.98807],[127.43563,37.98811],[127.43556,37.98811],[127.43556,37.98814],[127.43547,37.98814]]]}},{"type":"Feature","properties":{"valleyId":"myeongji","layer":"shadow","date":"2026-08-01","timeLocal":"17:00"},"geometry":{"type":"Polygon","coordinates":[[[127.44257,37.98809],[127.44258,37.98804],[127.44264,37.98804],[127.44264,37.98809],[127.44257,37.98809]]]}},{"type":"Feature","properties":{"valleyId":"myeongji","layer":"shadow","date":"2026-08-01","timeLocal":"17:00"},"geometry":{"type":"Polygon","coordinates":[[[127.44405,37.98833],[127.44405,37.98829],[127.44401,37.98829],[127.44401,37.98824],[127.44385,37.98811],[127.44385,37.98805],[127.44406,37.98809],[127.4441,37.98813],[127.4441,37.98818],[127.44414,37.98818],[127.44414,37.98833],[127.44405,37.98833]]]}},{"type":"Feature","properties":{"valleyId":"myeongji","layer":"shadow","date":"2026-08-01","timeLocal":"17:00"},"geometry":{"type":"Polygon","coordinates":[[[127.43572,37.98804],[127.4357,37.98789],[127.43577,37.98789],[127.43577,37.98795],[127.43579,37.98798],[127.43584,37.98798],[127.43583,37.98804],[127.43572,37.98804]]]}},{"type":"Feature","properties":{"valleyId":"myeongji","layer":"shadow","date":"2026-08-01","timeLocal":"17:00"},"geometry":{"type":"Polygon","coordinates":[[[127.45542,37.98821],[127.45542,37.98812],[127.45549,37.98812],[127.45549,37.98821],[127.45542,37.98821]]]}},{"type":"Feature","properties":{"valleyId":"myeongji","layer":"shadow","date":"2026-08-01","timeLocal":"17:00"},"geometry":{"type":"Polygon","coordinates":[[[127.43582,37.98784],[127.43582,37.98777],[127.43591,37.98777],[127.43591,37.98784],[127.43582,37.98784]]]}},{"type":"Feature","properties":{"valleyId":"myeongji","layer":"shadow","date":"2026-08-01","timeLocal":"17:00"},"geometry":{"type":"Polygon","coordinates":[[[127.43595,37.98777],[127.43596,37.98772],[127.43602,37.98772],[127.43602,37.98777],[127.43595,37.98777]]]}},{"type":"Feature","properties":{"valleyId":"myeongji","layer":"shadow","date":"2026-08-01","timeLocal":"17:00"},"geometry":{"type":"Polygon","coordinates":[[[127.45383,37.98806],[127.45385,37.98788],[127.45392,37.98788],[127.45392,37.98806],[127.45383,37.98806]]]}},{"type":"Feature","properties":{"valleyId":"myeongji","layer":"shadow","date":"2026-08-01","timeLocal":"17:00"},"geometry":{"type":"Polygon","coordinates":[[[127.44397,37.9878],[127.44397,37.98775],[127.44404,37.98775],[127.44404,37.9878],[127.44397,37.9878]]]}},{"type":"Feature","properties":{"valleyId":"myeongji","layer":"shadow","date":"2026-08-01","timeLocal":"17:00"},"geometry":{"type":"Polygon","coordinates":[[[127.4542,37.98779],[127.4542,37.98774],[127.45427,37.98774],[127.45426,37.9878],[127.4542,37.98779]]]}},{"type":"Feature","properties":{"valleyId":"myeongji","layer":"shadow","date":"2026-08-01","timeLocal":"17:00"},"geometry":{"type":"Polygon","coordinates":[[[127.45342,37.98782],[127.4534,37.98768],[127.45347,37.98768],[127.45349,37.98782],[127.45342,37.98782]]]}},{"type":"Feature","properties":{"valleyId":"myeongji","layer":"shadow","date":"2026-08-01","timeLocal":"17:00"},"geometry":{"type":"Polygon","coordinates":[[[127.44249,37.98789],[127.44251,37.98771],[127.44247,37.98764],[127.44247,37.98751],[127.44254,37.98751],[127.4426,37.98784],[127.44256,37.98784],[127.44256,37.98789],[127.44249,37.98789]]]}},{"type":"Feature","properties":{"valleyId":"myeongji","layer":"shadow","date":"2026-08-01","timeLocal":"17:00"},"geometry":{"type":"Polygon","coordinates":[[[127.45454,37.98773],[127.45454,37.98767],[127.45461,37.98767],[127.45461,37.98773],[127.45454,37.98773]]]}},{"type":"Feature","properties":{"valleyId":"myeongji","layer":"shadow","date":"2026-08-01","timeLocal":"17:00"},"geometry":{"type":"Polygon","coordinates":[[[127.44384,37.9875],[127.44384,37.98744],[127.44411,37.98745],[127.44411,37.9875],[127.44384,37.9875]]]}},{"type":"Feature","properties":{"valleyId":"myeongji","layer":"shadow","date":"2026-08-01","timeLocal":"17:00"},"geometry":{"type":"Polygon","coordinates":[[[127.45161,37.98751],[127.45161,37.98745],[127.4517,37.98744],[127.4517,37.98751],[127.45161,37.98751]]]}},{"type":"Feature","properties":{"valleyId":"myeongji","layer":"shadow","date":"2026-08-01","timeLocal":"17:00"},"geometry":{"type":"Polygon","coordinates":[[[127.45161,37.98735],[127.45161,37.98731],[127.45154,37.98729],[127.45154,37.98722],[127.45161,37.98722],[127.45163,37.98729],[127.4517,37.98729],[127.4517,37.98735],[127.45161,37.98735]]]}},{"type":"Feature","properties":{"valleyId":"myeongji","layer":"shadow","date":"2026-08-01","timeLocal":"17:00"},"geometry":{"type":"Polygon","coordinates":[[[127.44421,37.987],[127.44399,37.98697],[127.44394,37.98696],[127.44394,37.9869],[127.44403,37.9869],[127.44406,37.98687],[127.44415,37.98685],[127.44433,37.98687],[127.44433,37.987],[127.44421,37.987]]]}},{"type":"Feature","properties":{"valleyId":"myeongji","layer":"shadow","date":"2026-08-01","timeLocal":"17:00"},"geometry":{"type":"Polygon","coordinates":[[[127.44533,37.98802],[127.44533,37.98791],[127.44543,37.98788],[127.44543,37.98782],[127.44536,37.9878],[127.44536,37.98773],[127.4455,37.9877],[127.4455,37.98764],[127.44543,37.98762],[127.44543,37.98757],[127.44555,37.98755],[127.44557,37.98741],[127.44566,37.98736],[127.44567,37.98729],[127.44574,37.98727],[127.44585,37.98716],[127.4459,37.98716],[127.44599,37.98706],[127.44615,37.987],[127.44615,37.98697],[127.44634,37.98684],[127.44634,37.98675],[127.44627,37.9867],[127.44625,37.98663],[127.44598,37.98657],[127.44596,37.98653],[127.44582,37.98648],[127.44555,37.98649],[127.44548,37.98645],[127.44548,37.9864],[127.44575,37.98639],[127.4458,37.98642],[127.44589,37.98642],[127.44605,37.98653],[127.44641,37.98654],[127.4464,37.98708],[127.44617,37.98708],[127.44617,37.98722],[127.4461,37.98724],[127.44605,37.98733],[127.44605,37.98752],[127.446,37.98754],[127.446,37.98761],[127.44586,37.98761],[127.44577,37.98767],[127.44577,37.98772],[127.4457,37.98775],[127.4457,37.98788],[127.44556,37.98788],[127.44554,37.98795],[127.44549,37.98797],[127.44549,37.98802],[127.44533,37.98802]]]}},{"type":"Feature","properties":{"valleyId":"myeongji","layer":"shadow","date":"2026-08-01","timeLocal":"17:00"},"geometry":{"type":"Polygon","coordinates":[[[127.44931,37.98634],[127.44931,37.98625],[127.44945,37.98622],[127.44944,37.98629],[127.44938,37.98634],[127.44931,37.98634]]]}},{"type":"Feature","properties":{"valleyId":"myeongji","layer":"shadow","date":"2026-08-01","timeLocal":"17:00"},"geometry":{"type":"Polygon","coordinates":[[[127.43585,37.98613],[127.43585,37.98609],[127.43581,37.98609],[127.43581,37.98604],[127.43588,37.98604],[127.43588,37.98607],[127.43592,37.98607],[127.43592,37.98613],[127.43585,37.98613]]]}},{"type":"Feature","properties":{"valleyId":"myeongji","layer":"shadow","date":"2026-08-01","timeLocal":"17:00"},"geometry":{"type":"Polygon","coordinates":[[[127.44831,37.98629],[127.44831,37.9862],[127.4484,37.98619],[127.44837,37.98629],[127.44831,37.98629]]]}},{"type":"Feature","properties":{"valleyId":"myeongji","layer":"shadow","date":"2026-08-01","timeLocal":"17:00"},"geometry":{"type":"Polygon","coordinates":[[[127.43609,37.98768],[127.43612,37.98759],[127.43628,37.98752],[127.43628,37.98741],[127.43633,37.98741],[127.43635,37.98736],[127.43651,37.98734],[127.43658,37.98724],[127.43663,37.98722],[127.43663,37.98713],[127.43652,37.98711],[127.43647,37.98707],[127.43647,37.98702],[127.43661,37.98688],[127.43661,37.9868],[127.43666,37.98677],[127.43666,37.98668],[127.43671,37.98664],[127.43678,37.98643],[127.43676,37.98623],[127.43672,37.98619],[127.43672,37.98614],[127.43661,37.98607],[127.43661,37.98601],[127.4367,37.98601],[127.43674,37.98609],[127.43679,37.98609],[127.43683,37.98614],[127.4369,37.98616],[127.43692,37.98621],[127.43697,37.98621],[127.43697,37.98629],[127.43703,37.98632],[127.43703,37.98636],[127.43712,37.98642],[127.43719,37.98642],[127.43719,37.98651],[127.43726,37.98654],[127.43727,37.98683],[127.43718,37.98692],[127.43717,37.98723],[127.43692,37.98722],[127.43692,37.98726],[127.43681,37.98726],[127.43667,37.98738],[127.43649,37.98742],[127.43646,37.98752],[127.43632,37.98758],[127.43628,37.98765],[127.43609,37.98768]]]}},{"type":"Feature","properties":{"valleyId":"myeongji","layer":"shadow","date":"2026-08-01","timeLocal":"17:00"},"geometry":{"type":"Polygon","coordinates":[[[127.43554,37.98605],[127.43554,37.98598],[127.43561,37.98598],[127.4356,37.98605],[127.43554,37.98605]]]}},{"type":"Feature","properties":{"valleyId":"myeongji","layer":"shadow","date":"2026-08-01","timeLocal":"17:00"},"geometry":{"type":"Polygon","coordinates":[[[127.44947,37.98624],[127.44949,37.98611],[127.44959,37.98611],[127.44956,37.98624],[127.44947,37.98624]]]}},{"type":"Feature","properties":{"valleyId":"myeongji","layer":"shadow","date":"2026-08-01","timeLocal":"17:00"},"geometry":{"type":"Polygon","coordinates":[[[127.43659,37.98589],[127.43659,37.98583],[127.43668,37.98583],[127.43668,37.98589],[127.43659,37.98589]]]}},{"type":"Feature","properties":{"valleyId":"myeongji","layer":"shadow","date":"2026-08-01","timeLocal":"17:00"},"geometry":{"type":"Polygon","coordinates":[[[127.43716,37.98591],[127.43716,37.98582],[127.43723,37.98582],[127.43722,37.98591],[127.43716,37.98591]]]}},{"type":"Feature","properties":{"valleyId":"myeongji","layer":"shadow","date":"2026-08-01","timeLocal":"17:00"},"geometry":{"type":"Polygon","coordinates":[[[127.45039,37.98598],[127.45039,37.98585],[127.45046,37.98585],[127.45045,37.98598],[127.45039,37.98598]]]}},{"type":"Feature","properties":{"valleyId":"myeongji","layer":"shadow","date":"2026-08-01","timeLocal":"17:00"},"geometry":{"type":"Polygon","coordinates":[[[127.44961,37.98613],[127.44961,37.98595],[127.44957,37.98588],[127.44957,37.98577],[127.44966,37.98577],[127.44966,37.98593],[127.4497,37.98602],[127.44968,37.98613],[127.44961,37.98613]]]}},{"type":"Feature","properties":{"valleyId":"myeongji","layer":"shadow","date":"2026-08-01","timeLocal":"17:00"},"geometry":{"type":"Polygon","coordinates":[[[127.44667,37.98613],[127.44667,37.98598],[127.44663,37.98589],[127.44661,37.98566],[127.44668,37.98566],[127.44672,37.98582],[127.44677,37.98586],[127.44674,37.98613],[127.44667,37.98613]]]}},{"type":"Feature","properties":{"valleyId":"myeongji","layer":"shadow","date":"2026-08-01","timeLocal":"17:00"},"geometry":{"type":"Polygon","coordinates":[[[127.43525,37.98569],[127.43525,37.98563],[127.43532,37.9856],[127.43532,37.98553],[127.43525,37.98551],[127.43525,37.98545],[127.43534,37.98545],[127.43541,37.98555],[127.43541,37.98565],[127.43536,37.98569],[127.43525,37.98569]]]}},{"type":"Feature","properties":{"valleyId":"myeongji","layer":"shadow","date":"2026-08-01","timeLocal":"17:00"},"geometry":{"type":"Polygon","coordinates":[[[127.457,37.98668],[127.457,37.98664],[127.45684,37.9866],[127.45684,37.98641],[127.45705,37.98637],[127.4571,37.98634],[127.45715,37.98608],[127.45708,37.98601],[127.45708,37.98583],[127.45713,37.9858],[127.45713,37.98572],[127.45722,37.98573],[127.45722,37.9858],[127.45729,37.98587],[127.45729,37.98596],[127.45735,37.986],[127.45735,37.98609],[127.45744,37.98612],[127.45744,37.9862],[127.45751,37.9862],[127.45751,37.98632],[127.45734,37.98641],[127.45734,37.98668],[127.457,37.98668]]]}},{"type":"Feature","properties":{"valleyId":"myeongji","layer":"shadow","date":"2026-08-01","timeLocal":"17:00"},"geometry":{"type":"Polygon","coordinates":[[[127.43609,37.98546],[127.4361,37.98539],[127.43619,37.98538],[127.43619,37.98545],[127.43609,37.98546]]]}},{"type":"Feature","properties":{"valleyId":"myeongji","layer":"shadow","date":"2026-08-01","timeLocal":"17:00"},"geometry":{"type":"Polygon","coordinates":[[[127.45711,37.98567],[127.45711,37.98562],[127.45718,37.98562],[127.45718,37.98567],[127.45711,37.98567]]]}},{"type":"Feature","properties":{"valleyId":"myeongji","layer":"shadow","date":"2026-08-01","timeLocal":"17:00"},"geometry":{"type":"Polygon","coordinates":[[[127.44782,37.98567],[127.44777,37.98566],[127.44775,37.98558],[127.44766,37.98553],[127.44769,37.9854],[127.44778,37.9854],[127.44778,37.98551],[127.44782,37.98551],[127.44789,37.98562],[127.44789,37.98567],[127.44782,37.98567]]]}},{"type":"Feature","properties":{"valleyId":"myeongji","layer":"shadow","date":"2026-08-01","timeLocal":"17:00"},"geometry":{"type":"Polygon","coordinates":[[[127.43727,37.98577],[127.43728,37.98552],[127.4373,37.98548],[127.43742,37.98546],[127.43742,37.98534],[127.43749,37.98534],[127.43753,37.9853],[127.43751,37.98514],[127.43763,37.98512],[127.43767,37.98516],[127.43764,37.98539],[127.43771,37.9854],[127.43771,37.98545],[127.43758,37.98545],[127.43755,37.98561],[127.43748,37.98561],[127.43748,37.98564],[127.43743,37.98564],[127.43743,37.98575],[127.43727,37.98577]]]}},{"type":"Feature","properties":{"valleyId":"myeongji","layer":"shadow","date":"2026-08-01","timeLocal":"17:00"},"geometry":{"type":"Polygon","coordinates":[[[127.45893,37.98559],[127.45894,37.98537],[127.45898,37.98533],[127.45908,37.98534],[127.4591,37.98539],[127.45919,37.98539],[127.45919,37.98544],[127.45905,37.98544],[127.45905,37.98555],[127.459,37.98559],[127.45893,37.98559]]]}},{"type":"Feature","properties":{"valleyId":"myeongji","layer":"shadow","date":"2026-08-01","timeLocal":"17:00"},"geometry":{"type":"Polygon","coordinates":[[[127.4576,37.98528],[127.4576,37.98523],[127.45767,37.98523],[127.45766,37.98528],[127.4576,37.98528]]]}},{"type":"Feature","properties":{"valleyId":"myeongji","layer":"shadow","date":"2026-08-01","timeLocal":"17:00"},"geometry":{"type":"Polygon","coordinates":[[[127.43776,37.98527],[127.43776,37.98522],[127.43781,37.98518],[127.43781,37.98507],[127.43786,37.98504],[127.43786,37.98493],[127.43795,37.98493],[127.43797,37.98504],[127.43788,37.98511],[127.43788,37.98524],[127.43783,37.98527],[127.43776,37.98527]]]}},{"type":"Feature","properties":{"valleyId":"myeongji","layer":"shadow","date":"2026-08-01","timeLocal":"17:00"},"geometry":{"type":"Polygon","coordinates":[[[127.45748,37.98519],[127.45746,37.98512],[127.45755,37.98512],[127.45755,37.98519],[127.45748,37.98519]]]}},{"type":"Feature","properties":{"valleyId":"myeongji","layer":"shadow","date":"2026-08-01","timeLocal":"17:00"},"geometry":{"type":"Polygon","coordinates":[[[127.43765,37.98491],[127.43766,37.98484],[127.4377,37.9848],[127.43777,37.9848],[127.43779,37.98491],[127.43765,37.98491]]]}},{"type":"Feature","properties":{"valleyId":"myeongji","layer":"shadow","date":"2026-08-01","timeLocal":"17:00"},"geometry":{"type":"Polygon","coordinates":[[[127.45027,37.98581],[127.45016,37.98572],[127.45016,37.98569],[127.45012,37.98569],[127.4501,37.98556],[127.44992,37.98545],[127.44992,37.98539],[127.44978,37.98536],[127.44976,37.98527],[127.4497,37.98521],[127.44972,37.98507],[127.44965,37.98503],[127.44961,37.98494],[127.44956,37.98494],[127.44957,37.98489],[127.4497,37.98492],[127.4497,37.98487],[127.44977,37.98487],[127.44979,37.98496],[127.44986,37.98496],[127.44986,37.98502],[127.45004,37.98509],[127.45001,37.98522],[127.4502,37.98524],[127.45019,37.98551],[127.45026,37.98554],[127.45028,37.98569],[127.45037,37.98573],[127.45037,37.98582],[127.45027,37.98581]]]}},{"type":"Feature","properties":{"valleyId":"myeongji","layer":"shadow","date":"2026-08-01","timeLocal":"17:00"},"geometry":{"type":"Polygon","coordinates":[[[127.4505,37.98508],[127.45048,37.98474],[127.45055,37.98474],[127.45056,37.98508],[127.4505,37.98508]]]}},{"type":"Feature","properties":{"valleyId":"myeongji","layer":"shadow","date":"2026-08-01","timeLocal":"17:00"},"geometry":{"type":"Polygon","coordinates":[[[127.43839,37.98461],[127.43839,37.98456],[127.43846,37.98456],[127.43846,37.98461],[127.43839,37.98461]]]}},{"type":"Feature","properties":{"valleyId":"myeongji","layer":"shadow","date":"2026-08-01","timeLocal":"17:00"},"geometry":{"type":"Polygon","coordinates":[[[127.43723,37.98452],[127.43714,37.98447],[127.43707,37.98447],[127.43705,37.9844],[127.43698,37.98434],[127.43689,37.98432],[127.43685,37.98427],[127.4368,37.98427],[127.4368,37.98423],[127.4366,37.98421],[127.43658,37.98417],[127.43651,37.98417],[127.43633,37.98406],[127.43608,37.984],[127.43608,37.98391],[127.43618,37.9837],[127.43622,37.9837],[127.43623,37.98359],[127.43627,37.98356],[127.43632,37.98343],[127.43652,37.98347],[127.4365,37.98356],[127.43643,37.98356],[127.43643,37.98359],[127.43632,37.98363],[127.43629,37.9837],[127.43656,37.9837],[127.43653,37.98405],[127.43665,37.98407],[127.43669,37.9841],[127.43699,37.98412],[127.43699,37.98416],[127.43706,37.98416],[127.43705,37.98422],[127.43712,37.98422],[127.43717,37.98432],[127.43721,37.98434],[127.43725,37.98443],[127.4373,37.98443],[127.4373,37.98453],[127.43723,37.98452]]]}},{"type":"Feature","properties":{"valleyId":"myeongji","layer":"shadow","date":"2026-08-01","timeLocal":"17:00"},"geometry":{"type":"Polygon","coordinates":[[[127.43641,37.98338],[127.43641,37.98325],[127.43651,37.98325],[127.4365,37.98338],[127.43641,37.98338]]]}},{"type":"Feature","properties":{"valleyId":"myeongji","layer":"shadow","date":"2026-08-01","timeLocal":"17:00"},"geometry":{"type":"Polygon","coordinates":[[[127.43757,37.98368],[127.43737,37.98348],[127.43714,37.98344],[127.43707,37.9834],[127.43714,37.98323],[127.43735,37.98321],[127.43735,37.98326],[127.43728,37.98328],[127.43728,37.98334],[127.43746,37.98336],[127.43743,37.98346],[127.43757,37.98352],[127.43764,37.98363],[127.43764,37.98368],[127.43757,37.98368]]]}},{"type":"Feature","properties":{"valleyId":"myeongji","layer":"shadow","date":"2026-08-01","timeLocal":"17:00"},"geometry":{"type":"Polygon","coordinates":[[[127.43929,37.98304],[127.43929,37.98298],[127.43936,37.98298],[127.43936,37.98304],[127.43929,37.98304]]]}},{"type":"Feature","properties":{"valleyId":"myeongji","layer":"shadow","date":"2026-08-01","timeLocal":"17:00"},"geometry":{"type":"Polygon","coordinates":[[[127.43999,37.9831],[127.44004,37.98292],[127.43998,37.98287],[127.43998,37.98281],[127.44004,37.98281],[127.44018,37.98292],[127.44018,37.983],[127.44011,37.98308],[127.43999,37.9831]]]}},{"type":"Feature","properties":{"valleyId":"myeongji","layer":"shadow","date":"2026-08-01","timeLocal":"17:00"},"geometry":{"type":"Polygon","coordinates":[[[127.43991,37.98281],[127.43984,37.98277],[127.43984,37.98272],[127.43993,37.98272],[127.43998,37.98276],[127.43998,37.98281],[127.43991,37.98281]]]}},{"type":"Feature","properties":{"valleyId":"myeongji","layer":"shadow","date":"2026-08-01","timeLocal":"17:00"},"geometry":{"type":"Polygon","coordinates":[[[127.43793,37.98491],[127.43793,37.98477],[127.43773,37.98478],[127.43773,37.98473],[127.43787,37.98464],[127.43789,37.98459],[127.43796,37.98457],[127.43798,37.98452],[127.43798,37.98441],[127.43785,37.9843],[127.43785,37.98423],[127.43803,37.98423],[127.43813,37.98391],[127.4382,37.98385],[127.43829,37.98384],[127.43829,37.98376],[127.43848,37.98375],[127.4385,37.98366],[127.43843,37.98358],[127.43834,37.98357],[127.43828,37.98351],[127.43828,37.98347],[127.43819,37.98344],[127.43819,37.9834],[127.43812,37.98336],[127.43808,37.98318],[127.43801,37.98311],[127.438,37.9828],[127.43786,37.98273],[127.43786,37.98268],[127.43795,37.98268],[127.43795,37.98264],[127.43829,37.98265],[127.43829,37.98284],[127.43836,37.98286],[127.43838,37.98292],[127.43863,37.98292],[127.43862,37.98352],[127.43871,37.98355],[127.43873,37.98364],[127.4388,37.98366],[127.4388,37.98373],[127.43895,37.98374],[127.43895,37.98401],[127.43861,37.984],[127.4386,37.98427],[127.4384,37.98427],[127.4383,37.98432],[127.43825,37.98454],[127.43819,37.98454],[127.43809,37.98463],[127.438,37.98464],[127.43804,37.98488],[127.438,37.98491],[127.43793,37.98491]]]}},{"type":"Feature","properties":{"valleyId":"myeongji","layer":"shadow","date":"2026-08-01","timeLocal":"17:00"},"geometry":{"type":"Polygon","coordinates":[[[127.43777,37.98269],[127.43777,37.98264],[127.43784,37.98264],[127.43784,37.98269],[127.43777,37.98269]]]}},{"type":"Feature","properties":{"valleyId":"myeongji","layer":"shadow","date":"2026-08-01","timeLocal":"17:00"},"geometry":{"type":"Polygon","coordinates":[[[127.43752,37.98258],[127.43748,37.98256],[127.43748,37.98249],[127.43755,37.98249],[127.43759,37.98253],[127.43759,37.98258],[127.43752,37.98258]]]}},{"type":"Feature","properties":{"valleyId":"myeongji","layer":"shadow","date":"2026-08-01","timeLocal":"17:00"},"geometry":{"type":"Polygon","coordinates":[[[127.43782,37.98242],[127.43782,37.98237],[127.43789,37.98237],[127.43789,37.98242],[127.43782,37.98242]]]}}]}
