{"type":"FeatureCollection","metadata":{"description":"개방지(CHM ≤ 2 m)에 드리운 나무·지형 그림자, 2026-08-01 10:00 KST. canopy 위에 겹쳐 그린다","source":"위성 기반 추정 — Copernicus GLO-30 지형(30 m) + Meta/WRI 수관 높이(1 m CHM, 2016~2018 촬영). 그늘 = 수관(CHM > 2 m) ∪ 나무·지형 그림자 ∪ 원거리 지형 마스크. 현장과 다를 수 있음.","datasetVersion":"2026-09-06.0","collectedAt":"2026-09-06","coordinateOrder":"[longitude, latitude]","crs":"EPSG:4326","representativeDate":"2026-08-01","hours":["10:00","11:00","12:00","13:00","14:00","15:00","16:00","17:00","18:00"],"chmAcquisition":["2016-07","2016-12","2018-03"],"assets":{"glo30":{"dataset":"Copernicus DEM GLO-30 (COG, s3://copernicus-dem-30m)","tiles":["Copernicus_DSM_COG_10_N37_00_E127_00_DEM","Copernicus_DSM_COG_10_N38_00_E127_00_DEM"]},"chm":{"dataset":"Meta/WRI Global Canopy Height Map v1 (alsgedi_global_v6_float, 1 m, CC-BY 4.0)","quadkeys":["132110303"],"acquisition":["2016-07","2016-12","2018-03"]}},"method":{"gridResM":2,"canopyThresholdM":2,"bufferHalfM":25,"corridorHalfM":200,"simplifyTolM":2,"minAreaM2":25,"coordDecimals":5},"generator":"scripts/shade 0.1.0","builtAt":"2026-09-06T05:55:27Z","layer":"shadow","timeLocal":"10:00"},"features":[{"type":"Feature","properties":{"valleyId":"myeongji","layer":"shadow","date":"2026-08-01","timeLocal":"10:00"},"geometry":{"type":"Polygon","coordinates":[[[127.43964,37.98784],[127.43964,37.98778],[127.43973,37.98778],[127.43973,37.98784],[127.43964,37.98784]]]}},{"type":"Feature","properties":{"valleyId":"myeongji","layer":"shadow","date":"2026-08-01","timeLocal":"10:00"},"geometry":{"type":"Polygon","coordinates":[[[127.44231,37.98894],[127.44231,37.98888],[127.44224,37.98888],[127.44224,37.98883],[127.44217,37.98883],[127.44217,37.98879],[127.4414,37.98878],[127.4414,37.98854],[127.44134,37.98854],[127.44134,37.98851],[127.44106,37.9885],[127.44106,37.98841],[127.44102,37.98841],[127.44102,37.98836],[127.44095,37.98836],[127.44095,37.9883],[127.44089,37.9883],[127.44089,37.98825],[127.44055,37.98821],[127.44055,37.98817],[127.4405,37.98817],[127.4405,37.98812],[127.44043,37.98812],[127.44044,37.98796],[127.44076,37.98796],[127.44076,37.98769],[127.44085,37.98769],[127.44085,37.98773],[127.44099,37.98776],[127.44099,37.98782],[127.44092,37.98782],[127.44092,37.98787],[127.44099,37.98787],[127.44098,37.98793],[127.44108,37.98793],[127.44108,37.98784],[127.44103,37.98784],[127.44103,37.98778],[127.44108,37.98778],[127.44108,37.98771],[127.44128,37.98773],[127.44129,37.9877],[127.44138,37.9877],[127.44138,37.98775],[127.44144,37.98775],[127.44144,37.98781],[127.44151,37.98781],[127.44151,37.98784],[127.44156,37.98784],[127.44155,37.9879],[127.44162,37.9879],[127.44162,37.98795],[127.44176,37.98797],[127.44175,37.98824],[127.44207,37.98825],[127.44206,37.98863],[127.44213,37.98863],[127.44213,37.98868],[127.4422,37.98868],[127.4422,37.98874],[127.44227,37.98874],[127.44226,37.98879],[127.4424,37.98879],[127.4424,37.98894],[127.44231,37.98894]]]}},{"type":"Feature","properties":{"valleyId":"myeongji","layer":"shadow","date":"2026-08-01","timeLocal":"10:00"},"geometry":{"type":"Polygon","coordinates":[[[127.44133,37.98764],[127.44133,37.98755],[127.4414,37.98755],[127.4414,37.98764],[127.44133,37.98764]]]}},{"type":"Feature","properties":{"valleyId":"myeongji","layer":"shadow","date":"2026-08-01","timeLocal":"10:00"},"geometry":{"type":"Polygon","coordinates":[[[127.4377,37.98709],[127.4377,37.98704],[127.43777,37.98704],[127.43777,37.98709],[127.4377,37.98709]]]}},{"type":"Feature","properties":{"valleyId":"myeongji","layer":"shadow","date":"2026-08-01","timeLocal":"10:00"},"geometry":{"type":"Polygon","coordinates":[[[127.44751,37.98626],[127.44751,37.98621],[127.4476,37.98621],[127.4476,37.98627],[127.44751,37.98626]]]}},{"type":"Feature","properties":{"valleyId":"myeongji","layer":"shadow","date":"2026-08-01","timeLocal":"10:00"},"geometry":{"type":"Polygon","coordinates":[[[127.45302,37.98526],[127.45302,37.9852],[127.45309,37.9852],[127.45309,37.98526],[127.45302,37.98526]]]}}]}
