{"type":"FeatureCollection","metadata":{"description":"개방지(CHM ≤ 2 m)에 드리운 나무·지형 그림자, 2026-08-01 18:00 KST. canopy 위에 겹쳐 그린다","source":"위성 기반 추정 — Copernicus GLO-30 지형(30 m) + Meta/WRI 수관 높이(1 m CHM, 2016~2018 촬영). 그늘 = 수관(CHM > 2 m) ∪ 나무·지형 그림자 ∪ 원거리 지형 마스크. 현장과 다를 수 있음.","datasetVersion":"2026-09-06.0","collectedAt":"2026-09-06","coordinateOrder":"[longitude, latitude]","crs":"EPSG:4326","representativeDate":"2026-08-01","hours":["10:00","11:00","12:00","13:00","14:00","15:00","16:00","17:00","18:00"],"chmAcquisition":["2016-07","2016-12","2018-03"],"assets":{"glo30":{"dataset":"Copernicus DEM GLO-30 (COG, s3://copernicus-dem-30m)","tiles":["Copernicus_DSM_COG_10_N37_00_E127_00_DEM","Copernicus_DSM_COG_10_N38_00_E127_00_DEM"]},"chm":{"dataset":"Meta/WRI Global Canopy Height Map v1 (alsgedi_global_v6_float, 1 m, CC-BY 4.0)","quadkeys":["132110303"],"acquisition":["2016-07","2016-12","2018-03"]}},"method":{"gridResM":2,"canopyThresholdM":2,"bufferHalfM":25,"corridorHalfM":200,"simplifyTolM":2,"minAreaM2":25,"coordDecimals":5},"generator":"scripts/shade 0.1.0","builtAt":"2026-09-06T05:55:27Z","layer":"shadow","timeLocal":"18:00"},"features":[{"type":"Feature","properties":{"valleyId":"myeongji","layer":"shadow","date":"2026-08-01","timeLocal":"18:00"},"geometry":{"type":"Polygon","coordinates":[[[127.44301,37.99129],[127.44301,37.99125],[127.44292,37.9912],[127.44292,37.99116],[127.44287,37.99116],[127.44288,37.99111],[127.44279,37.99103],[127.44251,37.99105],[127.44245,37.99099],[127.44247,37.99067],[127.4423,37.99052],[127.4423,37.99047],[127.44237,37.99043],[127.44237,37.9904],[127.44243,37.9904],[127.44243,37.99047],[127.4425,37.99052],[127.44254,37.99063],[127.44261,37.99065],[127.44266,37.99072],[127.44275,37.99073],[127.44274,37.99082],[127.4429,37.99082],[127.4429,37.99102],[127.44304,37.99102],[127.44308,37.99109],[127.44324,37.99109],[127.44324,37.99125],[127.44301,37.99129]]]}},{"type":"Feature","properties":{"valleyId":"myeongji","layer":"shadow","date":"2026-08-01","timeLocal":"18:00"},"geometry":{"type":"Polygon","coordinates":[[[127.43965,37.99047],[127.43966,37.99043],[127.43959,37.9904],[127.43954,37.99032],[127.43959,37.99022],[127.43966,37.99022],[127.43968,37.99036],[127.43977,37.99036],[127.43977,37.99045],[127.43965,37.99047]]]}},{"type":"Feature","properties":{"valleyId":"myeongji","layer":"shadow","date":"2026-08-01","timeLocal":"18:00"},"geometry":{"type":"Polygon","coordinates":[[[127.44219,37.9903],[127.44214,37.99023],[127.44214,37.99018],[127.44221,37.99018],[127.44226,37.99025],[127.44225,37.9903],[127.44219,37.9903]]]}},{"type":"Feature","properties":{"valleyId":"myeongji","layer":"shadow","date":"2026-08-01","timeLocal":"18:00"},"geometry":{"type":"Polygon","coordinates":[[[127.43941,37.99018],[127.43941,37.99012],[127.43957,37.99011],[127.43957,37.99018],[127.43941,37.99018]]]}},{"type":"Feature","properties":{"valleyId":"myeongji","layer":"shadow","date":"2026-08-01","timeLocal":"18:00"},"geometry":{"type":"Polygon","coordinates":[[[127.43973,37.99009],[127.4396,37.99007],[127.43967,37.98991],[127.43983,37.98989],[127.43992,37.98991],[127.43994,37.98995],[127.4401,37.98995],[127.4401,37.99002],[127.43996,37.99],[127.43994,37.99004],[127.43987,37.99004],[127.43987,37.99007],[127.43973,37.99009]]]}},{"type":"Feature","properties":{"valleyId":"myeongji","layer":"shadow","date":"2026-08-01","timeLocal":"18:00"},"geometry":{"type":"Polygon","coordinates":[[[127.44304,37.98995],[127.44302,37.98988],[127.44308,37.98988],[127.4431,37.98996],[127.44304,37.98995]]]}},{"type":"Feature","properties":{"valleyId":"myeongji","layer":"shadow","date":"2026-08-01","timeLocal":"18:00"},"geometry":{"type":"Polygon","coordinates":[[[127.4421,37.98987],[127.44211,37.98978],[127.4422,37.98978],[127.44217,37.98987],[127.4421,37.98987]]]}},{"type":"Feature","properties":{"valleyId":"myeongji","layer":"shadow","date":"2026-08-01","timeLocal":"18:00"},"geometry":{"type":"Polygon","coordinates":[[[127.44008,37.98961],[127.44006,37.98952],[127.44022,37.98954],[127.44022,37.98959],[127.44008,37.98961]]]}},{"type":"Feature","properties":{"valleyId":"myeongji","layer":"shadow","date":"2026-08-01","timeLocal":"18:00"},"geometry":{"type":"Polygon","coordinates":[[[127.43609,37.989],[127.43607,37.98892],[127.43616,37.98893],[127.43616,37.989],[127.43609,37.989]]]}},{"type":"Feature","properties":{"valleyId":"myeongji","layer":"shadow","date":"2026-08-01","timeLocal":"18:00"},"geometry":{"type":"Polygon","coordinates":[[[127.43716,37.98879],[127.43716,37.98872],[127.43723,37.98872],[127.43723,37.9888],[127.43716,37.98879]]]}},{"type":"Feature","properties":{"valleyId":"myeongji","layer":"shadow","date":"2026-08-01","timeLocal":"18:00"},"geometry":{"type":"Polygon","coordinates":[[[127.44734,37.9887],[127.4473,37.98868],[127.4473,37.98859],[127.44737,37.98859],[127.44741,37.98864],[127.44741,37.9887],[127.44734,37.9887]]]}},{"type":"Feature","properties":{"valleyId":"myeongji","layer":"shadow","date":"2026-08-01","timeLocal":"18:00"},"geometry":{"type":"Polygon","coordinates":[[[127.44384,37.98863],[127.44382,37.98847],[127.44389,37.98847],[127.44391,37.98852],[127.44395,37.98852],[127.44395,37.9886],[127.44393,37.98863],[127.44384,37.98863]]]}},{"type":"Feature","properties":{"valleyId":"myeongji","layer":"shadow","date":"2026-08-01","timeLocal":"18:00"},"geometry":{"type":"Polygon","coordinates":[[[127.45215,37.98865],[127.45215,37.9886],[127.45231,37.9886],[127.45234,37.98855],[127.4524,37.98855],[127.45238,37.98865],[127.45215,37.98865]]]}},{"type":"Feature","properties":{"valleyId":"myeongji","layer":"shadow","date":"2026-08-01","timeLocal":"18:00"},"geometry":{"type":"Polygon","coordinates":[[[127.43651,37.98835],[127.43651,37.9883],[127.43647,37.9883],[127.43647,37.98823],[127.43658,37.98825],[127.43658,37.98835],[127.43651,37.98835]]]}},{"type":"Feature","properties":{"valleyId":"myeongji","layer":"shadow","date":"2026-08-01","timeLocal":"18:00"},"geometry":{"type":"Polygon","coordinates":[[[127.44119,37.99119],[127.44085,37.99113],[127.4406,37.99106],[127.4406,37.991],[127.44069,37.99093],[127.44068,37.99046],[127.44075,37.99045],[127.44075,37.99027],[127.44094,37.99023],[127.44098,37.9902],[127.44101,37.99011],[127.44121,37.99006],[127.44121,37.99002],[127.44126,37.99],[127.44126,37.98977],[127.44106,37.98959],[127.44104,37.98946],[127.44077,37.98944],[127.44075,37.9894],[127.44063,37.98938],[127.44054,37.98945],[127.44029,37.98949],[127.44025,37.98947],[127.4402,37.98938],[127.44004,37.98932],[127.43984,37.98932],[127.43982,37.98928],[127.43977,37.98928],[127.43973,37.98921],[127.43964,37.98919],[127.43961,37.98915],[127.43946,37.98915],[127.43941,37.98908],[127.43923,37.98907],[127.43923,37.98915],[127.43914,37.98915],[127.43914,37.98898],[127.43907,37.98891],[127.43903,37.98891],[127.43903,37.98886],[127.43896,37.98878],[127.43883,37.98878],[127.43878,37.98882],[127.43871,37.98882],[127.43869,37.98874],[127.43853,37.98863],[127.43849,37.98863],[127.43831,37.98849],[127.43822,37.98848],[127.43815,37.98843],[127.4379,37.98841],[127.43783,37.98837],[127.4376,37.98839],[127.43765,37.98828],[127.43777,37.98828],[127.43777,37.98821],[127.43786,37.98819],[127.43795,37.98821],[127.43795,37.98828],[127.43786,37.98828],[127.43786,37.98834],[127.43886,37.98833],[127.43885,37.98847],[127.43908,37.9885],[127.43938,37.98861],[127.43988,37.98861],[127.43987,37.98878],[127.43994,37.9888],[127.43996,37.98885],[127.44001,37.98885],[127.44003,37.98889],[127.44055,37.98889],[127.44055,37.98907],[127.44066,37.98908],[127.44069,37.98913],[127.44078,37.98917],[127.44077,37.98929],[127.44084,37.98935],[127.44139,37.98936],[127.4415,37.98939],[127.44154,37.98945],[127.44191,37.98945],[127.4419,37.98999],[127.44178,37.98999],[127.44171,37.99015],[127.44164,37.99017],[127.44168,37.99035],[127.44148,37.99033],[127.44141,37.9904],[127.44141,37.99055],[127.44132,37.99058],[127.44133,37.99105],[127.44128,37.99119],[127.44119,37.99119]]]}},{"type":"Feature","properties":{"valleyId":"myeongji","layer":"shadow","date":"2026-08-01","timeLocal":"18:00"},"geometry":{"type":"Polygon","coordinates":[[[127.45571,37.98857],[127.45573,37.98841],[127.45582,37.98841],[127.45582,37.98857],[127.45571,37.98857]]]}},{"type":"Feature","properties":{"valleyId":"myeongji","layer":"shadow","date":"2026-08-01","timeLocal":"18:00"},"geometry":{"type":"Polygon","coordinates":[[[127.45427,37.98844],[127.45427,37.98839],[127.45434,37.98839],[127.45434,37.98845],[127.45427,37.98844]]]}},{"type":"Feature","properties":{"valleyId":"myeongji","layer":"shadow","date":"2026-08-01","timeLocal":"18:00"},"geometry":{"type":"Polygon","coordinates":[[[127.45552,37.98853],[127.45548,37.9885],[127.45548,37.98842],[127.45541,37.98841],[127.45541,37.98833],[127.45548,37.98833],[127.45555,37.98839],[127.45557,37.98848],[127.45566,37.98848],[127.45566,37.98853],[127.45552,37.98853]]]}},{"type":"Feature","properties":{"valleyId":"myeongji","layer":"shadow","date":"2026-08-01","timeLocal":"18:00"},"geometry":{"type":"Polygon","coordinates":[[[127.45585,37.98837],[127.45585,37.98832],[127.45592,37.98832],[127.45591,37.98838],[127.45585,37.98837]]]}},{"type":"Feature","properties":{"valleyId":"myeongji","layer":"shadow","date":"2026-08-01","timeLocal":"18:00"},"geometry":{"type":"Polygon","coordinates":[[[127.43672,37.98942],[127.43668,37.98906],[127.43675,37.98904],[127.43677,37.98886],[127.43684,37.98881],[127.43685,37.98868],[127.43691,37.98868],[127.43692,37.98856],[127.4368,37.98856],[127.43682,37.9887],[127.43673,37.9887],[127.43671,37.98857],[127.43664,37.98854],[127.43665,37.98848],[127.43678,37.98848],[127.43679,37.98829],[127.43692,37.98827],[127.43693,37.98809],[127.43709,37.98809],[127.43709,37.98805],[127.43716,37.98806],[127.43715,37.98813],[127.43756,37.9881],[127.43756,37.98815],[127.43752,37.98817],[127.43751,37.98829],[127.43758,37.98831],[127.43758,37.98837],[127.43735,37.98835],[127.43729,37.98838],[127.43726,37.98849],[127.43728,37.98853],[127.43733,37.98853],[127.43733,37.98858],[127.43717,37.9886],[127.43714,37.9887],[127.43705,37.9887],[127.43705,37.98874],[127.437,37.98874],[127.437,37.98881],[127.43696,37.98883],[127.43697,37.98906],[127.43693,37.9891],[127.43692,37.98935],[127.43683,37.98935],[127.43681,37.98942],[127.43672,37.98942]],[[127.43699,37.9885],[127.43708,37.98851],[127.43708,37.98825],[127.43699,37.98825],[127.43699,37.9885]]]}},{"type":"Feature","properties":{"valleyId":"myeongji","layer":"shadow","date":"2026-08-01","timeLocal":"18:00"},"geometry":{"type":"Polygon","coordinates":[[[127.45478,37.98836],[127.45475,37.98829],[127.45485,37.98827],[127.45484,37.98836],[127.45478,37.98836]]]}},{"type":"Feature","properties":{"valleyId":"myeongji","layer":"shadow","date":"2026-08-01","timeLocal":"18:00"},"geometry":{"type":"Polygon","coordinates":[[[127.43732,37.98802],[127.43732,37.98797],[127.43738,37.98797],[127.43738,37.98802],[127.43732,37.98802]]]}},{"type":"Feature","properties":{"valleyId":"myeongji","layer":"shadow","date":"2026-08-01","timeLocal":"18:00"},"geometry":{"type":"Polygon","coordinates":[[[127.45571,37.9883],[127.45567,37.98828],[127.45565,37.98819],[127.45576,37.98819],[127.45576,37.98823],[127.4558,37.98823],[127.4558,37.9883],[127.45571,37.9883]]]}},{"type":"Feature","properties":{"valleyId":"myeongji","layer":"shadow","date":"2026-08-01","timeLocal":"18:00"},"geometry":{"type":"Polygon","coordinates":[[[127.4497,37.9882],[127.44966,37.98817],[127.44966,37.9881],[127.44979,37.98813],[127.44979,37.98821],[127.4497,37.9882]]]}},{"type":"Feature","properties":{"valleyId":"myeongji","layer":"shadow","date":"2026-08-01","timeLocal":"18:00"},"geometry":{"type":"Polygon","coordinates":[[[127.45439,37.98819],[127.45439,37.98814],[127.45448,37.98814],[127.45448,37.98819],[127.45439,37.98819]]]}},{"type":"Feature","properties":{"valleyId":"myeongji","layer":"shadow","date":"2026-08-01","timeLocal":"18:00"},"geometry":{"type":"Polygon","coordinates":[[[127.44787,37.9885],[127.44783,37.98849],[127.44783,37.98841],[127.44778,37.98839],[127.44778,37.98836],[127.44769,37.9883],[127.4477,37.98823],[127.44786,37.98816],[127.44784,37.98802],[127.44793,37.988],[127.44797,37.98816],[127.44804,37.98818],[127.44803,37.98851],[127.44787,37.9885]]]}},{"type":"Feature","properties":{"valleyId":"myeongji","layer":"shadow","date":"2026-08-01","timeLocal":"18:00"},"geometry":{"type":"Polygon","coordinates":[[[127.4559,37.98821],[127.4559,37.98812],[127.45594,37.98812],[127.45594,37.98809],[127.45606,37.98809],[127.45606,37.98814],[127.45596,37.98814],[127.45596,37.98821],[127.4559,37.98821]]]}},{"type":"Feature","properties":{"valleyId":"myeongji","layer":"shadow","date":"2026-08-01","timeLocal":"18:00"},"geometry":{"type":"Polygon","coordinates":[[[127.44405,37.98833],[127.44405,37.98829],[127.44401,37.98829],[127.44401,37.98824],[127.44392,37.98818],[127.44392,37.98815],[127.44378,37.98809],[127.44378,37.98804],[127.44383,37.98804],[127.44383,37.98777],[127.44409,37.98775],[127.44413,37.98782],[127.44413,37.98793],[127.44419,37.98804],[127.44421,37.9882],[127.44419,37.98826],[127.44414,37.98826],[127.44414,37.98833],[127.44405,37.98833]]]}},{"type":"Feature","properties":{"valleyId":"myeongji","layer":"shadow","date":"2026-08-01","timeLocal":"18:00"},"geometry":{"type":"Polygon","coordinates":[[[127.45467,37.98798],[127.45467,37.98794],[127.4546,37.98794],[127.4546,37.98789],[127.45467,37.98789],[127.45467,37.98793],[127.45479,37.98793],[127.45478,37.98798],[127.45467,37.98798]]]}},{"type":"Feature","properties":{"valleyId":"myeongji","layer":"shadow","date":"2026-08-01","timeLocal":"18:00"},"geometry":{"type":"Polygon","coordinates":[[[127.44734,37.98783],[127.44734,37.98778],[127.44743,37.98778],[127.44743,37.98783],[127.44734,37.98783]]]}},{"type":"Feature","properties":{"valleyId":"myeongji","layer":"shadow","date":"2026-08-01","timeLocal":"18:00"},"geometry":{"type":"Polygon","coordinates":[[[127.43668,37.98769],[127.43669,37.98762],[127.43675,37.98762],[127.43675,37.98769],[127.43668,37.98769]]]}},{"type":"Feature","properties":{"valleyId":"myeongji","layer":"shadow","date":"2026-08-01","timeLocal":"18:00"},"geometry":{"type":"Polygon","coordinates":[[[127.45548,37.98826],[127.45542,37.98821],[127.45542,37.98812],[127.45549,37.98808],[127.45549,37.98799],[127.45542,37.98794],[127.45533,37.98794],[127.45533,37.98786],[127.45565,37.98789],[127.45567,37.9881],[127.45562,37.98814],[127.45562,37.98823],[127.45548,37.98826]]]}},{"type":"Feature","properties":{"valleyId":"myeongji","layer":"shadow","date":"2026-08-01","timeLocal":"18:00"},"geometry":{"type":"Polygon","coordinates":[[[127.45582,37.98938],[127.45576,37.98933],[127.45574,37.98924],[127.45569,37.98924],[127.45562,37.98918],[127.45563,37.98911],[127.45572,37.98911],[127.45572,37.98904],[127.45581,37.98902],[127.45586,37.98893],[127.4559,37.98893],[127.45593,37.9889],[127.45595,37.9887],[127.45589,37.98868],[127.45586,37.98859],[127.456,37.98861],[127.45602,37.98858],[127.45603,37.98847],[127.45607,37.98843],[127.45605,37.9882],[127.45615,37.9882],[127.45613,37.98805],[127.45617,37.98802],[127.45617,37.98795],[127.45613,37.98793],[127.45613,37.98787],[127.45634,37.98786],[127.45633,37.98815],[127.45622,37.98815],[127.45621,37.9882],[127.45623,37.98836],[127.45632,37.98836],[127.45634,37.98858],[127.45623,37.98858],[127.45623,37.98867],[127.45634,37.98867],[127.45639,37.98872],[127.45645,37.98873],[127.45647,37.98804],[127.45654,37.98804],[127.45654,37.9881],[127.4566,37.9881],[127.45661,37.98802],[127.45697,37.98803],[127.45696,37.98835],[127.45705,37.98837],[127.45712,37.98843],[127.45709,37.98855],[127.45716,37.98859],[127.45716,37.98863],[127.45723,37.98865],[127.45732,37.98886],[127.45711,37.98899],[127.45706,37.98899],[127.45702,37.98904],[127.45697,37.98904],[127.45695,37.98907],[127.4569,37.98907],[127.45688,37.98911],[127.45656,37.98925],[127.45617,37.98935],[127.45582,37.98938]]]}},{"type":"Feature","properties":{"valleyId":"myeongji","layer":"shadow","date":"2026-08-01","timeLocal":"18:00"},"geometry":{"type":"Polygon","coordinates":[[[127.45606,37.98787],[127.45606,37.98782],[127.45613,37.98782],[127.45613,37.98787],[127.45606,37.98787]]]}},{"type":"Feature","properties":{"valleyId":"myeongji","layer":"shadow","date":"2026-08-01","timeLocal":"18:00"},"geometry":{"type":"Polygon","coordinates":[[[127.45508,37.98808],[127.45499,37.98802],[127.45499,37.98793],[127.45492,37.98788],[127.4549,37.98779],[127.45497,37.98779],[127.45501,37.98786],[127.45522,37.98786],[127.45522,37.98806],[127.45508,37.98808]],[[127.45508,37.98799],[127.45515,37.98799],[127.45515,37.98792],[127.45508,37.98791],[127.45508,37.98799]]]}},{"type":"Feature","properties":{"valleyId":"myeongji","layer":"shadow","date":"2026-08-01","timeLocal":"18:00"},"geometry":{"type":"Polygon","coordinates":[[[127.45317,37.98776],[127.45317,37.98771],[127.45326,37.98769],[127.45326,37.98775],[127.45317,37.98776]]]}},{"type":"Feature","properties":{"valleyId":"myeongji","layer":"shadow","date":"2026-08-01","timeLocal":"18:00"},"geometry":{"type":"Polygon","coordinates":[[[127.45454,37.98774],[127.45456,37.98762],[127.45463,37.98762],[127.45463,37.98766],[127.45468,37.98766],[127.45468,37.98771],[127.45463,37.98771],[127.45463,37.98775],[127.45454,37.98774]]]}},{"type":"Feature","properties":{"valleyId":"myeongji","layer":"shadow","date":"2026-08-01","timeLocal":"18:00"},"geometry":{"type":"Polygon","coordinates":[[[127.44295,37.98862],[127.44284,37.9886],[127.44284,37.98835],[127.44266,37.98816],[127.4426,37.98816],[127.4426,37.98813],[127.44255,37.98813],[127.44258,37.98802],[127.44253,37.98798],[127.44253,37.98791],[127.44246,37.98791],[127.44247,37.98786],[127.44251,37.98786],[127.44247,37.98751],[127.44238,37.98751],[127.44238,37.98746],[127.44254,37.98748],[127.44265,37.98755],[127.44265,37.98793],[127.44269,37.98797],[127.44269,37.98806],[127.44264,37.98806],[127.44264,37.98811],[127.44278,37.98813],[127.44285,37.98819],[127.44291,37.98819],[127.44314,37.98828],[127.44314,37.98842],[127.44307,37.98842],[127.44302,37.98862],[127.44295,37.98862]]]}},{"type":"Feature","properties":{"valleyId":"myeongji","layer":"shadow","date":"2026-08-01","timeLocal":"18:00"},"geometry":{"type":"Polygon","coordinates":[[[127.45634,37.98782],[127.45636,37.98762],[127.45652,37.98763],[127.45647,37.98781],[127.45634,37.98782]]]}},{"type":"Feature","properties":{"valleyId":"myeongji","layer":"shadow","date":"2026-08-01","timeLocal":"18:00"},"geometry":{"type":"Polygon","coordinates":[[[127.4519,37.98766],[127.4519,37.98762],[127.45185,37.9876],[127.45186,37.98755],[127.45192,37.98755],[127.45197,37.9876],[127.45197,37.98766],[127.4519,37.98766]]]}},{"type":"Feature","properties":{"valleyId":"myeongji","layer":"shadow","date":"2026-08-01","timeLocal":"18:00"},"geometry":{"type":"Polygon","coordinates":[[[127.4435,37.98751],[127.44352,37.98742],[127.44411,37.98745],[127.44411,37.9875],[127.4435,37.98751]]]}},{"type":"Feature","properties":{"valleyId":"myeongji","layer":"shadow","date":"2026-08-01","timeLocal":"18:00"},"geometry":{"type":"Polygon","coordinates":[[[127.46337,37.98775],[127.46338,37.98763],[127.46345,37.98763],[127.46344,37.98775],[127.46337,37.98775]]]}},{"type":"Feature","properties":{"valleyId":"myeongji","layer":"shadow","date":"2026-08-01","timeLocal":"18:00"},"geometry":{"type":"Polygon","coordinates":[[[127.46456,37.98782],[127.46456,37.98773],[127.4646,37.98773],[127.46468,37.98755],[127.46475,37.98755],[127.46465,37.98781],[127.46456,37.98782]]]}},{"type":"Feature","properties":{"valleyId":"myeongji","layer":"shadow","date":"2026-08-01","timeLocal":"18:00"},"geometry":{"type":"Polygon","coordinates":[[[127.43583,37.98725],[127.43578,37.98723],[127.43578,37.98717],[127.4359,37.98719],[127.4359,37.98725],[127.43583,37.98725]]]}},{"type":"Feature","properties":{"valleyId":"myeongji","layer":"shadow","date":"2026-08-01","timeLocal":"18:00"},"geometry":{"type":"Polygon","coordinates":[[[127.4474,37.98736],[127.4474,37.98731],[127.44746,37.98731],[127.44746,37.98736],[127.4474,37.98736]]]}},{"type":"Feature","properties":{"valleyId":"myeongji","layer":"shadow","date":"2026-08-01","timeLocal":"18:00"},"geometry":{"type":"Polygon","coordinates":[[[127.4578,37.9875],[127.4578,37.98745],[127.45789,37.98745],[127.45789,37.9875],[127.4578,37.9875]]]}},{"type":"Feature","properties":{"valleyId":"myeongji","layer":"shadow","date":"2026-08-01","timeLocal":"18:00"},"geometry":{"type":"Polygon","coordinates":[[[127.45257,37.98736],[127.45254,37.98729],[127.45266,37.98729],[127.45266,37.98736],[127.45257,37.98736]]]}},{"type":"Feature","properties":{"valleyId":"myeongji","layer":"shadow","date":"2026-08-01","timeLocal":"18:00"},"geometry":{"type":"Polygon","coordinates":[[[127.45428,37.98832],[127.45416,37.9883],[127.4541,37.98817],[127.45405,37.98815],[127.45405,37.9881],[127.45412,37.98808],[127.4541,37.98801],[127.45401,37.98803],[127.45401,37.98812],[127.45392,37.98812],[127.45383,37.98806],[127.45385,37.98788],[127.45344,37.98784],[127.4534,37.9878],[127.45338,37.98766],[127.45322,37.98767],[127.45327,37.98753],[127.45295,37.98751],[127.45288,37.9874],[127.45275,37.98736],[127.45275,37.98727],[127.45293,37.98729],[127.45295,37.98736],[127.45307,37.98738],[127.45311,37.98746],[127.45391,37.98745],[127.45393,37.98756],[127.45409,37.98758],[127.4541,37.98785],[127.4542,37.98783],[127.45418,37.98765],[127.45427,37.98765],[127.45427,37.98771],[127.45443,37.98771],[127.45442,37.98774],[127.45449,37.98774],[127.45449,37.98805],[127.45442,37.98805],[127.45442,37.98792],[127.45431,37.98792],[127.45426,37.98796],[127.45426,37.98801],[127.45437,37.98801],[127.45437,37.98816],[127.45428,37.98817],[127.45428,37.98823],[127.45437,37.98823],[127.45437,37.98832],[127.45428,37.98832]]]}},{"type":"Feature","properties":{"valleyId":"myeongji","layer":"shadow","date":"2026-08-01","timeLocal":"18:00"},"geometry":{"type":"Polygon","coordinates":[[[127.44751,37.98726],[127.44751,37.9872],[127.44758,37.9872],[127.44758,37.98726],[127.44751,37.98726]]]}},{"type":"Feature","properties":{"valleyId":"myeongji","layer":"shadow","date":"2026-08-01","timeLocal":"18:00"},"geometry":{"type":"Polygon","coordinates":[[[127.45329,37.98733],[127.4533,37.98726],[127.45336,37.98726],[127.45336,37.98733],[127.45329,37.98733]]]}},{"type":"Feature","properties":{"valleyId":"myeongji","layer":"shadow","date":"2026-08-01","timeLocal":"18:00"},"geometry":{"type":"Polygon","coordinates":[[[127.45209,37.9873],[127.45207,37.98726],[127.45202,37.98726],[127.45202,37.98721],[127.45223,37.98725],[127.45222,37.9873],[127.45209,37.9873]]]}},{"type":"Feature","properties":{"valleyId":"myeongji","layer":"shadow","date":"2026-08-01","timeLocal":"18:00"},"geometry":{"type":"Polygon","coordinates":[[[127.45796,37.98729],[127.45799,37.98721],[127.45808,37.98721],[127.45808,37.98729],[127.45796,37.98729]]]}},{"type":"Feature","properties":{"valleyId":"myeongji","layer":"shadow","date":"2026-08-01","timeLocal":"18:00"},"geometry":{"type":"Polygon","coordinates":[[[127.45167,37.98754],[127.45158,37.98753],[127.45158,37.98747],[127.45165,37.98744],[127.45165,37.98735],[127.45161,37.98735],[127.45161,37.98731],[127.45145,37.98724],[127.45134,37.98723],[127.45123,37.98718],[127.45104,37.98718],[127.451,37.98714],[127.45093,37.98714],[127.45096,37.98696],[127.45112,37.98696],[127.45112,37.987],[127.45123,37.987],[127.45127,37.98714],[127.45134,37.98714],[127.45134,37.98705],[127.45141,37.98705],[127.45143,37.98715],[127.45193,37.98717],[127.45188,37.98742],[127.45179,37.98747],[127.45179,37.98755],[127.45167,37.98754]]]}},{"type":"Feature","properties":{"valleyId":"myeongji","layer":"shadow","date":"2026-08-01","timeLocal":"18:00"},"geometry":{"type":"Polygon","coordinates":[[[127.44421,37.987],[127.44399,37.98697],[127.44394,37.98696],[127.44394,37.9869],[127.44403,37.9869],[127.44406,37.98687],[127.44415,37.98685],[127.44433,37.98687],[127.44433,37.987],[127.44421,37.987]]]}},{"type":"Feature","properties":{"valleyId":"myeongji","layer":"shadow","date":"2026-08-01","timeLocal":"18:00"},"geometry":{"type":"Polygon","coordinates":[[[127.44799,37.98705],[127.448,37.98696],[127.44795,37.98696],[127.44795,37.9869],[127.44804,37.9869],[127.44804,37.98694],[127.44811,37.98694],[127.44811,37.98705],[127.44799,37.98705]]]}},{"type":"Feature","properties":{"valleyId":"myeongji","layer":"shadow","date":"2026-08-01","timeLocal":"18:00"},"geometry":{"type":"Polygon","coordinates":[[[127.45075,37.98697],[127.45073,37.9869],[127.45082,37.9869],[127.45084,37.98698],[127.45075,37.98697]]]}},{"type":"Feature","properties":{"valleyId":"myeongji","layer":"shadow","date":"2026-08-01","timeLocal":"18:00"},"geometry":{"type":"Polygon","coordinates":[[[127.45007,37.987],[127.45005,37.98682],[127.45014,37.98682],[127.45014,37.987],[127.45007,37.987]]]}},{"type":"Feature","properties":{"valleyId":"myeongji","layer":"shadow","date":"2026-08-01","timeLocal":"18:00"},"geometry":{"type":"Polygon","coordinates":[[[127.45234,37.98703],[127.45235,37.98696],[127.45225,37.98696],[127.45226,37.9869],[127.45232,37.98689],[127.45233,37.98685],[127.45239,37.98685],[127.45244,37.98703],[127.45234,37.98703]]]}},{"type":"Feature","properties":{"valleyId":"myeongji","layer":"shadow","date":"2026-08-01","timeLocal":"18:00"},"geometry":{"type":"Polygon","coordinates":[[[127.44991,37.98689],[127.44987,37.98684],[127.4498,37.98684],[127.44985,37.98655],[127.44994,37.98655],[127.44994,37.98667],[127.44989,37.98669],[127.44989,37.98678],[127.44998,37.9868],[127.44998,37.98689],[127.44991,37.98689]]]}},{"type":"Feature","properties":{"valleyId":"myeongji","layer":"shadow","date":"2026-08-01","timeLocal":"18:00"},"geometry":{"type":"Polygon","coordinates":[[[127.45825,37.98666],[127.45825,37.9866],[127.45832,37.9866],[127.45832,37.98666],[127.45825,37.98666]]]}},{"type":"Feature","properties":{"valleyId":"myeongji","layer":"shadow","date":"2026-08-01","timeLocal":"18:00"},"geometry":{"type":"Polygon","coordinates":[[[127.45056,37.98654],[127.45056,37.98645],[127.45067,37.98645],[127.45065,37.98654],[127.45056,37.98654]]]}},{"type":"Feature","properties":{"valleyId":"myeongji","layer":"shadow","date":"2026-08-01","timeLocal":"18:00"},"geometry":{"type":"Polygon","coordinates":[[[127.43633,37.98613],[127.43633,37.98608],[127.43645,37.98608],[127.43644,37.98614],[127.43633,37.98613]]]}},{"type":"Feature","properties":{"valleyId":"myeongji","layer":"shadow","date":"2026-08-01","timeLocal":"18:00"},"geometry":{"type":"Polygon","coordinates":[[[127.44831,37.98629],[127.44833,37.98619],[127.44851,37.98617],[127.44851,37.98624],[127.44838,37.98624],[127.44837,37.98629],[127.44831,37.98629]]]}},{"type":"Feature","properties":{"valleyId":"myeongji","layer":"shadow","date":"2026-08-01","timeLocal":"18:00"},"geometry":{"type":"Polygon","coordinates":[[[127.45591,37.98621],[127.45592,37.98616],[127.45598,37.98616],[127.45598,37.98621],[127.45591,37.98621]]]}},{"type":"Feature","properties":{"valleyId":"myeongji","layer":"shadow","date":"2026-08-01","timeLocal":"18:00"},"geometry":{"type":"Polygon","coordinates":[[[127.4359,37.98618],[127.43579,37.98605],[127.43553,37.98609],[127.43554,37.98602],[127.43547,37.98596],[127.43536,37.98596],[127.43536,37.98591],[127.43549,37.98591],[127.43549,37.98585],[127.43584,37.98586],[127.43583,37.98597],[127.43615,37.98601],[127.43617,37.98604],[127.43631,37.98604],[127.43631,37.98612],[127.43603,37.98613],[127.43599,37.98618],[127.4359,37.98618]]]}},{"type":"Feature","properties":{"valleyId":"myeongji","layer":"shadow","date":"2026-08-01","timeLocal":"18:00"},"geometry":{"type":"Polygon","coordinates":[[[127.45598,37.98616],[127.45598,37.98611],[127.45605,37.98611],[127.45605,37.98616],[127.45598,37.98616]]]}},{"type":"Feature","properties":{"valleyId":"myeongji","layer":"shadow","date":"2026-08-01","timeLocal":"18:00"},"geometry":{"type":"Polygon","coordinates":[[[127.44931,37.98636],[127.44931,37.98625],[127.44945,37.98624],[127.44949,37.98616],[127.4495,37.98595],[127.44959,37.98595],[127.44959,37.98588],[127.44945,37.98588],[127.44945,37.98582],[127.44955,37.9858],[127.44955,37.98577],[127.44959,37.98575],[127.44966,37.98575],[127.44966,37.98599],[127.44982,37.98601],[127.44981,37.98608],[127.4497,37.9861],[127.44965,37.98613],[127.44965,37.98627],[127.44951,37.98627],[127.44951,37.98631],[127.44938,37.98631],[127.44938,37.98636],[127.44931,37.98636]]]}},{"type":"Feature","properties":{"valleyId":"myeongji","layer":"shadow","date":"2026-08-01","timeLocal":"18:00"},"geometry":{"type":"Polygon","coordinates":[[[127.44509,37.98861],[127.44507,37.98845],[127.44517,37.98836],[127.44517,37.98825],[127.44521,37.98823],[127.44521,37.98818],[127.44531,37.98811],[127.44533,37.98791],[127.44543,37.98788],[127.44543,37.98782],[127.44536,37.9878],[127.44536,37.98773],[127.4455,37.9877],[127.4455,37.98764],[127.44543,37.98762],[127.44543,37.98757],[127.44555,37.98755],[127.44557,37.98741],[127.44566,37.98736],[127.44567,37.98729],[127.44574,37.98727],[127.44585,37.98716],[127.4459,37.98716],[127.44599,37.98706],[127.44615,37.987],[127.44615,37.98697],[127.44634,37.98684],[127.44634,37.98675],[127.44627,37.9867],[127.44625,37.98663],[127.44598,37.98657],[127.44596,37.98653],[127.44582,37.98648],[127.44555,37.98649],[127.44548,37.98645],[127.44548,37.9864],[127.44575,37.98639],[127.4458,37.98642],[127.44589,37.98642],[127.44591,37.98646],[127.44603,37.98646],[127.44612,37.98639],[127.44621,37.98637],[127.44621,37.98634],[127.4463,37.98632],[127.44635,37.98627],[127.44658,37.98627],[127.44658,37.98622],[127.44667,37.98616],[127.44661,37.98562],[127.4467,37.98562],[127.44672,37.9857],[127.44677,37.9857],[127.44681,37.98577],[127.44681,37.98582],[127.4469,37.98586],[127.4469,37.98595],[127.44681,37.98598],[127.44681,37.98611],[127.44676,37.98613],[127.44674,37.9862],[127.44676,37.98638],[127.4468,37.98638],[127.44685,37.98645],[127.44694,37.98647],[127.44703,37.98655],[127.44709,37.98655],[127.44709,37.98658],[127.44716,37.9866],[127.44716,37.98664],[127.44721,37.98664],[127.44725,37.98669],[127.44734,37.98671],[127.44736,37.98677],[127.44743,37.9868],[127.44743,37.98686],[127.4475,37.98688],[127.44749,37.98699],[127.44743,37.987],[127.44742,37.98709],[127.44726,37.98718],[127.44726,37.98729],[127.44719,37.98729],[127.44719,37.9872],[127.44713,37.98712],[127.44681,37.9871],[127.44674,37.98714],[127.44656,37.98714],[127.44635,37.98728],[127.44626,37.98729],[127.44623,37.98735],[127.4461,37.98744],[127.4461,37.98747],[127.44605,37.98747],[127.44605,37.98752],[127.446,37.98754],[127.446,37.98763],[127.44591,37.98769],[127.44591,37.98774],[127.44581,37.98783],[127.44586,37.98799],[127.44583,37.98803],[127.44579,37.98803],[127.44579,37.98808],[127.4457,37.98808],[127.44569,37.98815],[127.44558,37.98817],[127.44553,37.98828],[127.44535,37.98829],[127.44535,37.98842],[127.4453,37.98842],[127.44525,37.98849],[127.44519,37.9885],[127.44516,37.98861],[127.44509,37.98861]]]}},{"type":"Feature","properties":{"valleyId":"myeongji","layer":"shadow","date":"2026-08-01","timeLocal":"18:00"},"geometry":{"type":"Polygon","coordinates":[[[127.4589,37.98611],[127.45891,37.98577],[127.45898,37.98577],[127.45897,37.98593],[127.45902,37.98593],[127.45904,37.98597],[127.45904,37.98611],[127.4589,37.98611]]]}},{"type":"Feature","properties":{"valleyId":"myeongji","layer":"shadow","date":"2026-08-01","timeLocal":"18:00"},"geometry":{"type":"Polygon","coordinates":[[[127.43531,37.98576],[127.43531,37.98572],[127.43522,37.98572],[127.43523,37.98565],[127.43532,37.9856],[127.43532,37.98553],[127.43521,37.98549],[127.43525,37.98536],[127.43535,37.98536],[127.43539,37.9854],[127.43539,37.98545],[127.43543,37.98546],[127.43546,37.98549],[127.43543,37.98567],[127.43538,37.98569],[127.43538,37.98576],[127.43531,37.98576]]]}},{"type":"Feature","properties":{"valleyId":"myeongji","layer":"shadow","date":"2026-08-01","timeLocal":"18:00"},"geometry":{"type":"Polygon","coordinates":[[[127.43609,37.98545],[127.43612,37.98537],[127.43623,37.98539],[127.43623,37.98545],[127.43609,37.98545]]]}},{"type":"Feature","properties":{"valleyId":"myeongji","layer":"shadow","date":"2026-08-01","timeLocal":"18:00"},"geometry":{"type":"Polygon","coordinates":[[[127.45768,37.98573],[127.45768,37.98562],[127.45777,37.98562],[127.45779,37.9857],[127.45775,37.98573],[127.45768,37.98573]]]}},{"type":"Feature","properties":{"valleyId":"myeongji","layer":"shadow","date":"2026-08-01","timeLocal":"18:00"},"geometry":{"type":"Polygon","coordinates":[[[127.45702,37.98686],[127.45686,37.98684],[127.45684,37.98677],[127.45677,37.98676],[127.45677,37.98682],[127.4567,37.98682],[127.4567,37.98676],[127.45663,37.98676],[127.45663,37.98682],[127.45656,37.98682],[127.45653,37.9864],[127.45682,37.98642],[127.45689,37.98639],[127.45705,37.98637],[127.4571,37.98634],[127.4571,37.98621],[127.45715,37.98614],[127.45715,37.98608],[127.45708,37.98601],[127.45708,37.98583],[127.45713,37.9858],[127.45711,37.98562],[127.45725,37.9856],[127.45736,37.98569],[127.45736,37.98587],[127.45729,37.98589],[127.45729,37.98596],[127.45756,37.98613],[127.45772,37.98611],[127.45776,37.98598],[127.45783,37.98599],[127.45783,37.98611],[127.45774,37.98611],[127.45776,37.98622],[127.45769,37.98624],[127.45769,37.98642],[127.45757,37.98641],[127.45757,37.98649],[127.45748,37.98652],[127.45748,37.98658],[127.45734,37.98659],[127.45734,37.98668],[127.4572,37.98668],[127.4572,37.98681],[127.45713,37.98681],[127.45713,37.98684],[127.45702,37.98686]]]}},{"type":"Feature","properties":{"valleyId":"myeongji","layer":"shadow","date":"2026-08-01","timeLocal":"18:00"},"geometry":{"type":"Polygon","coordinates":[[[127.45142,37.98561],[127.45142,37.9855],[127.45149,37.98551],[127.45151,37.9856],[127.45142,37.98561]]]}},{"type":"Feature","properties":{"valleyId":"myeongji","layer":"shadow","date":"2026-08-01","timeLocal":"18:00"},"geometry":{"type":"Polygon","coordinates":[[[127.44789,37.98569],[127.44777,37.98566],[127.44775,37.98558],[127.44764,37.98551],[127.44762,37.98542],[127.44766,37.98542],[127.44766,37.98538],[127.44778,37.98538],[127.44782,37.98557],[127.44791,37.98558],[127.44791,37.98562],[127.44796,37.98564],[127.44795,37.98569],[127.44789,37.98569]]]}},{"type":"Feature","properties":{"valleyId":"myeongji","layer":"shadow","date":"2026-08-01","timeLocal":"18:00"},"geometry":{"type":"Polygon","coordinates":[[[127.44789,37.98542],[127.44785,37.9854],[127.44785,37.98535],[127.44796,37.98533],[127.44796,37.98542],[127.44789,37.98542]]]}},{"type":"Feature","properties":{"valleyId":"myeongji","layer":"shadow","date":"2026-08-01","timeLocal":"18:00"},"geometry":{"type":"Polygon","coordinates":[[[127.45893,37.98559],[127.45889,37.98551],[127.45894,37.98537],[127.45898,37.98533],[127.45908,37.98534],[127.4591,37.98539],[127.45919,37.98539],[127.45919,37.98544],[127.45907,37.98548],[127.459,37.98559],[127.45893,37.98559]]]}},{"type":"Feature","properties":{"valleyId":"myeongji","layer":"shadow","date":"2026-08-01","timeLocal":"18:00"},"geometry":{"type":"Polygon","coordinates":[[[127.45768,37.98555],[127.4576,37.98523],[127.45746,37.98517],[127.45746,37.98512],[127.45751,37.9851],[127.45771,37.9851],[127.45776,37.98517],[127.45771,37.98528],[127.45775,37.98555],[127.45768,37.98555]]]}},{"type":"Feature","properties":{"valleyId":"myeongji","layer":"shadow","date":"2026-08-01","timeLocal":"18:00"},"geometry":{"type":"Polygon","coordinates":[[[127.45041,37.98607],[127.45037,37.98583],[127.45023,37.9858],[127.45016,37.98569],[127.45012,37.98569],[127.4501,37.98556],[127.44992,37.98545],[127.44992,37.98539],[127.44978,37.98536],[127.44976,37.98527],[127.4497,37.98521],[127.44972,37.98507],[127.44954,37.9849],[127.4495,37.9849],[127.4495,37.98483],[127.44954,37.9848],[127.44975,37.98476],[127.44984,37.98487],[127.45002,37.98495],[127.45009,37.98505],[127.45013,37.98506],[127.45026,37.9852],[127.45045,37.9852],[127.45047,37.98517],[127.45054,37.98517],[127.45053,37.98582],[127.45057,37.98582],[127.45057,37.98593],[127.45052,37.98593],[127.4505,37.98605],[127.45041,37.98607]]]}},{"type":"Feature","properties":{"valleyId":"myeongji","layer":"shadow","date":"2026-08-01","timeLocal":"18:00"},"geometry":{"type":"Polygon","coordinates":[[[127.45049,37.9851],[127.45048,37.98474],[127.45051,37.98461],[127.45057,37.98461],[127.45057,37.9847],[127.45062,37.98472],[127.45064,37.98479],[127.45063,37.98494],[127.45056,37.9851],[127.45049,37.9851]]]}},{"type":"Feature","properties":{"valleyId":"myeongji","layer":"shadow","date":"2026-08-01","timeLocal":"18:00"},"geometry":{"type":"Polygon","coordinates":[[[127.43723,37.98452],[127.43714,37.98447],[127.43707,37.98447],[127.43705,37.9844],[127.43698,37.98434],[127.43689,37.98432],[127.43685,37.98427],[127.4368,37.98427],[127.4368,37.98423],[127.4366,37.98421],[127.43658,37.98417],[127.43651,37.98417],[127.43633,37.98406],[127.43608,37.984],[127.43608,37.98391],[127.43641,37.98325],[127.43651,37.98325],[127.43653,37.98338],[127.43666,37.98347],[127.4367,37.98374],[127.43674,37.98381],[127.43683,37.98385],[127.43688,37.98392],[127.43708,37.98407],[127.43708,37.98418],[127.43725,37.98443],[127.4373,37.98443],[127.4373,37.98453],[127.43723,37.98452]]]}},{"type":"Feature","properties":{"valleyId":"myeongji","layer":"shadow","date":"2026-08-01","timeLocal":"18:00"},"geometry":{"type":"Polygon","coordinates":[[[127.43757,37.98368],[127.43737,37.98348],[127.43714,37.98344],[127.43707,37.9834],[127.43714,37.98323],[127.43737,37.98321],[127.43737,37.9833],[127.43744,37.9833],[127.43748,37.98334],[127.43743,37.98346],[127.43757,37.98352],[127.43764,37.98363],[127.43764,37.98368],[127.43757,37.98368]]]}},{"type":"Feature","properties":{"valleyId":"myeongji","layer":"shadow","date":"2026-08-01","timeLocal":"18:00"},"geometry":{"type":"Polygon","coordinates":[[[127.43991,37.98281],[127.43984,37.98277],[127.43984,37.98272],[127.43993,37.98272],[127.43998,37.98276],[127.43998,37.98281],[127.43991,37.98281]]]}},{"type":"Feature","properties":{"valleyId":"myeongji","layer":"shadow","date":"2026-08-01","timeLocal":"18:00"},"geometry":{"type":"Polygon","coordinates":[[[127.43732,37.9826],[127.43732,37.98254],[127.43741,37.98254],[127.43741,37.9826],[127.43732,37.9826]]]}},{"type":"Feature","properties":{"valleyId":"myeongji","layer":"shadow","date":"2026-08-01","timeLocal":"18:00"},"geometry":{"type":"Polygon","coordinates":[[[127.43558,37.98829],[127.43547,37.98814],[127.43547,37.98809],[127.43551,37.98809],[127.43549,37.98796],[127.43556,37.98796],[127.43556,37.98802],[127.43572,37.98802],[127.4357,37.98789],[127.43582,37.9878],[127.43577,37.98768],[127.43609,37.98765],[127.43612,37.98759],[127.43628,37.98752],[127.43628,37.98741],[127.43633,37.98741],[127.43635,37.98736],[127.43651,37.98734],[127.43658,37.98724],[127.43663,37.98722],[127.43663,37.98713],[127.43652,37.98711],[127.43647,37.98707],[127.43647,37.98702],[127.43652,37.98695],[127.43659,37.98691],[127.43661,37.9868],[127.43666,37.98677],[127.43666,37.98668],[127.43671,37.98664],[127.43678,37.98643],[127.43678,37.98628],[127.43672,37.98619],[127.43672,37.98614],[127.43656,37.98605],[127.43656,37.98599],[127.43674,37.986],[127.43675,37.98592],[127.43663,37.98592],[127.43663,37.98589],[127.43659,37.98589],[127.43659,37.98583],[127.43672,37.98582],[127.43673,37.98578],[127.43686,37.98578],[127.43691,37.98585],[127.43716,37.98586],[127.43716,37.98575],[127.43725,37.98573],[127.4373,37.98548],[127.43742,37.98546],[127.43742,37.98534],[127.43749,37.98534],[127.43753,37.9853],[127.43751,37.98514],[127.43763,37.98512],[127.43769,37.98523],[127.43778,37.98522],[127.43786,37.98497],[127.43777,37.98491],[127.43765,37.98491],[127.43766,37.98484],[127.4377,37.9848],[127.43777,37.9848],[127.43779,37.98487],[127.43793,37.98489],[127.43793,37.98477],[127.43773,37.98478],[127.43773,37.98473],[127.43787,37.98464],[127.43789,37.98459],[127.43796,37.98457],[127.43798,37.98452],[127.43798,37.98441],[127.43785,37.9843],[127.43785,37.98423],[127.43803,37.98423],[127.43813,37.98391],[127.4382,37.98385],[127.43829,37.98384],[127.43829,37.98376],[127.43848,37.98375],[127.4385,37.98371],[127.43848,37.98362],[127.43834,37.98357],[127.4381,37.98333],[127.4381,37.98324],[127.43801,37.98311],[127.438,37.9828],[127.43784,37.98269],[127.43754,37.98264],[127.43754,37.98258],[127.43745,37.98256],[127.43746,37.98247],[127.43791,37.98233],[127.43832,37.98238],[127.43841,37.98241],[127.43841,37.98245],[127.43848,37.98249],[127.43852,37.98261],[127.43859,37.98265],[127.43859,37.9827],[127.43866,37.9827],[127.43877,37.98276],[127.43877,37.98285],[127.43881,37.98289],[127.43886,37.98289],[127.43895,37.98296],[127.43906,37.98296],[127.43915,37.983],[127.4394,37.98297],[127.43952,37.98299],[127.43952,37.98302],[127.43956,37.98304],[127.43997,37.98305],[127.44004,37.98299],[127.44004,37.98292],[127.43998,37.98287],[127.43998,37.98281],[127.44004,37.98281],[127.44031,37.98305],[127.44042,37.98323],[127.44047,37.98325],[127.44051,37.98338],[127.44042,37.98339],[127.44033,37.98345],[127.44033,37.98348],[127.44026,37.98348],[127.44021,37.98354],[127.44017,37.98354],[127.44017,37.98357],[127.44,37.98366],[127.43998,37.98375],[127.43991,37.98375],[127.43986,37.98386],[127.43979,37.98387],[127.43963,37.984],[127.43963,37.98429],[127.4394,37.98428],[127.43928,37.98437],[127.43928,37.98455],[127.43905,37.98455],[127.43894,37.98464],[127.43893,37.98482],[127.4388,37.98482],[127.43879,37.98491],[127.43873,37.9849],[127.43871,37.98474],[127.43864,37.98472],[127.43864,37.98469],[127.43855,37.98469],[127.43852,37.98479],[127.43854,37.9849],[127.43859,37.98492],[127.43859,37.98503],[127.43836,37.98503],[127.43835,37.98522],[127.43829,37.98526],[127.43824,37.98537],[127.43819,37.98537],[127.43817,37.98542],[127.43812,37.98542],[127.43812,37.98547],[127.43803,37.98551],[127.43803,37.98556],[127.43791,37.98556],[127.43789,37.98561],[127.43771,37.98567],[127.43768,37.98572],[127.43757,37.98572],[127.43754,37.98588],[127.43741,37.98588],[127.4372,37.98593],[127.4372,37.98598],[127.43729,37.986],[127.43731,37.98604],[127.43765,37.98608],[127.43765,37.98612],[127.43772,37.98612],[127.43774,37.98615],[127.43788,37.98615],[127.4379,37.98621],[127.4379,37.98634],[127.4378,37.98648],[127.43782,37.98659],[127.43778,37.98669],[127.43777,37.98695],[127.43772,37.98702],[127.43768,37.98702],[127.43768,37.98705],[127.43763,37.98705],[127.43759,37.98712],[127.43752,37.98716],[127.43751,37.98723],[127.43738,37.98725],[127.43733,37.98739],[127.4374,37.98739],[127.43742,37.98746],[127.43726,37.98746],[127.43724,37.98739],[127.43717,37.98739],[127.43717,37.9875],[127.43687,37.98749],[127.4368,37.98755],[127.43671,37.98755],[127.43671,37.9876],[127.43653,37.9876],[127.43648,37.98763],[127.43648,37.98776],[127.43623,37.98776],[127.43625,37.9879],[127.43613,37.98793],[127.43613,37.98804],[127.43618,37.98804],[127.43615,37.98811],[127.43606,37.98811],[127.43606,37.98806],[127.4359,37.98804],[127.43588,37.98807],[127.43581,37.98807],[127.43581,37.98815],[127.43586,37.98815],[127.43585,37.9882],[127.43579,37.98822],[127.43578,37.98829],[127.43558,37.98829]],[[127.43745,37.98682],[127.43752,37.98682],[127.43753,37.98671],[127.43746,37.98671],[127.43745,37.98682]],[[127.43744,37.9866],[127.43751,37.9866],[127.43751,37.98655],[127.43744,37.98655],[127.43744,37.9866]],[[127.43832,37.98461],[127.43839,37.98461],[127.43839,37.98456],[127.43832,37.98456],[127.43832,37.98461]]]}}]}
