{"type":"FeatureCollection","metadata":{"description":"개방지(CHM ≤ 2 m)에 드리운 나무·지형 그림자, 2026-08-01 16:00 KST. canopy 위에 겹쳐 그린다","source":"위성 기반 추정 — Copernicus GLO-30 지형(30 m) + Meta/WRI 수관 높이(1 m CHM, 2016~2018 촬영). 그늘 = 수관(CHM > 2 m) ∪ 나무·지형 그림자 ∪ 원거리 지형 마스크. 현장과 다를 수 있음.","datasetVersion":"2026-09-06.0","collectedAt":"2026-09-06","coordinateOrder":"[longitude, latitude]","crs":"EPSG:4326","representativeDate":"2026-08-01","hours":["10:00","11:00","12:00","13:00","14:00","15:00","16:00","17:00","18:00"],"chmAcquisition":["2016-07","2016-12","2018-03"],"assets":{"glo30":{"dataset":"Copernicus DEM GLO-30 (COG, s3://copernicus-dem-30m)","tiles":["Copernicus_DSM_COG_10_N37_00_E127_00_DEM","Copernicus_DSM_COG_10_N38_00_E127_00_DEM"]},"chm":{"dataset":"Meta/WRI Global Canopy Height Map v1 (alsgedi_global_v6_float, 1 m, CC-BY 4.0)","quadkeys":["132110303"],"acquisition":["2016-07","2016-12","2018-03"]}},"method":{"gridResM":2,"canopyThresholdM":2,"bufferHalfM":25,"corridorHalfM":200,"simplifyTolM":2,"minAreaM2":25,"coordDecimals":5},"generator":"scripts/shade 0.1.0","builtAt":"2026-09-06T05:55:27Z","layer":"shadow","timeLocal":"16:00"},"features":[{"type":"Feature","properties":{"valleyId":"myeongji","layer":"shadow","date":"2026-08-01","timeLocal":"16:00"},"geometry":{"type":"Polygon","coordinates":[[[127.44067,37.99073],[127.44068,37.99055],[127.44075,37.99055],[127.44074,37.99073],[127.44067,37.99073]]]}},{"type":"Feature","properties":{"valleyId":"myeongji","layer":"shadow","date":"2026-08-01","timeLocal":"16:00"},"geometry":{"type":"Polygon","coordinates":[[[127.44075,37.99045],[127.44075,37.99039],[127.44082,37.99039],[127.44082,37.99045],[127.44075,37.99045]]]}},{"type":"Feature","properties":{"valleyId":"myeongji","layer":"shadow","date":"2026-08-01","timeLocal":"16:00"},"geometry":{"type":"Polygon","coordinates":[[[127.44075,37.99034],[127.44075,37.99027],[127.44098,37.99023],[127.44098,37.99029],[127.44089,37.99029],[127.44084,37.9903],[127.44084,37.99034],[127.44075,37.99034]]]}},{"type":"Feature","properties":{"valleyId":"myeongji","layer":"shadow","date":"2026-08-01","timeLocal":"16:00"},"geometry":{"type":"Polygon","coordinates":[[[127.44395,37.9878],[127.44395,37.98775],[127.44402,37.98775],[127.44402,37.9878],[127.44395,37.9878]]]}},{"type":"Feature","properties":{"valleyId":"myeongji","layer":"shadow","date":"2026-08-01","timeLocal":"16:00"},"geometry":{"type":"Polygon","coordinates":[[[127.44247,37.98764],[127.44247,37.98759],[127.44254,37.98759],[127.44254,37.98764],[127.44247,37.98764]]]}},{"type":"Feature","properties":{"valleyId":"myeongji","layer":"shadow","date":"2026-08-01","timeLocal":"16:00"},"geometry":{"type":"Polygon","coordinates":[[[127.44395,37.9875],[127.44395,37.98744],[127.44402,37.98744],[127.44402,37.9875],[127.44395,37.9875]]]}},{"type":"Feature","properties":{"valleyId":"myeongji","layer":"shadow","date":"2026-08-01","timeLocal":"16:00"},"geometry":{"type":"Polygon","coordinates":[[[127.43653,37.98734],[127.43653,37.98729],[127.43658,37.98729],[127.43658,37.98724],[127.43663,37.98722],[127.43663,37.98711],[127.4367,37.98711],[127.43667,37.98729],[127.4366,37.98731],[127.4366,37.98735],[127.43653,37.98734]]]}},{"type":"Feature","properties":{"valleyId":"myeongji","layer":"shadow","date":"2026-08-01","timeLocal":"16:00"},"geometry":{"type":"Polygon","coordinates":[[[127.44399,37.98697],[127.44394,37.98696],[127.44394,37.9869],[127.44417,37.98687],[127.44417,37.98694],[127.44399,37.98697]]]}},{"type":"Feature","properties":{"valleyId":"myeongji","layer":"shadow","date":"2026-08-01","timeLocal":"16:00"},"geometry":{"type":"Polygon","coordinates":[[[127.43647,37.98707],[127.43652,37.98695],[127.43661,37.98688],[127.43676,37.98643],[127.43685,37.98643],[127.43679,37.9869],[127.43675,37.98691],[127.43675,37.98697],[127.4367,37.987],[127.43661,37.987],[127.43658,37.98707],[127.43647,37.98707]]]}},{"type":"Feature","properties":{"valleyId":"myeongji","layer":"shadow","date":"2026-08-01","timeLocal":"16:00"},"geometry":{"type":"Polygon","coordinates":[[[127.45688,37.98662],[127.45689,37.98655],[127.45695,37.98655],[127.45695,37.98662],[127.45688,37.98662]]]}},{"type":"Feature","properties":{"valleyId":"myeongji","layer":"shadow","date":"2026-08-01","timeLocal":"16:00"},"geometry":{"type":"Polygon","coordinates":[[[127.44663,37.98589],[127.44663,37.9858],[127.4467,37.9858],[127.4467,37.98589],[127.44663,37.98589]]]}},{"type":"Feature","properties":{"valleyId":"myeongji","layer":"shadow","date":"2026-08-01","timeLocal":"16:00"},"geometry":{"type":"Polygon","coordinates":[[[127.45684,37.98646],[127.45684,37.98641],[127.45705,37.98637],[127.4571,37.98634],[127.45715,37.98608],[127.45708,37.98601],[127.45708,37.98583],[127.4572,37.98583],[127.45719,37.98609],[127.45725,37.98639],[127.45718,37.98645],[127.45684,37.98646]]]}},{"type":"Feature","properties":{"valleyId":"myeongji","layer":"shadow","date":"2026-08-01","timeLocal":"16:00"},"geometry":{"type":"Polygon","coordinates":[[[127.44661,37.98575],[127.44661,37.98564],[127.44668,37.98564],[127.44668,37.98575],[127.44661,37.98575]]]}},{"type":"Feature","properties":{"valleyId":"myeongji","layer":"shadow","date":"2026-08-01","timeLocal":"16:00"},"geometry":{"type":"Polygon","coordinates":[[[127.43728,37.98557],[127.43728,37.98552],[127.43735,37.98552],[127.43734,37.98557],[127.43728,37.98557]]]}},{"type":"Feature","properties":{"valleyId":"myeongji","layer":"shadow","date":"2026-08-01","timeLocal":"16:00"},"geometry":{"type":"Polygon","coordinates":[[[127.45891,37.98548],[127.45894,37.98537],[127.45903,37.98535],[127.45903,37.98544],[127.45898,37.98548],[127.45891,37.98548]]]}},{"type":"Feature","properties":{"valleyId":"myeongji","layer":"shadow","date":"2026-08-01","timeLocal":"16:00"},"geometry":{"type":"Polygon","coordinates":[[[127.44992,37.98545],[127.44992,37.98538],[127.44983,37.98538],[127.44985,37.98521],[127.45001,37.98522],[127.45001,37.98529],[127.44992,37.98529],[127.44992,37.98536],[127.45003,37.98536],[127.45003,37.98545],[127.44992,37.98545]]]}},{"type":"Feature","properties":{"valleyId":"myeongji","layer":"shadow","date":"2026-08-01","timeLocal":"16:00"},"geometry":{"type":"Polygon","coordinates":[[[127.44972,37.98523],[127.44972,37.98514],[127.44979,37.98514],[127.44979,37.98523],[127.44972,37.98523]]]}},{"type":"Feature","properties":{"valleyId":"myeongji","layer":"shadow","date":"2026-08-01","timeLocal":"16:00"},"geometry":{"type":"Polygon","coordinates":[[[127.45048,37.98488],[127.45048,37.98474],[127.45055,37.98474],[127.45054,37.98488],[127.45048,37.98488]]]}},{"type":"Feature","properties":{"valleyId":"myeongji","layer":"shadow","date":"2026-08-01","timeLocal":"16:00"},"geometry":{"type":"Polygon","coordinates":[[[127.43707,37.98447],[127.43707,37.98441],[127.43714,37.98441],[127.43714,37.98447],[127.43707,37.98447]]]}},{"type":"Feature","properties":{"valleyId":"myeongji","layer":"shadow","date":"2026-08-01","timeLocal":"16:00"},"geometry":{"type":"Polygon","coordinates":[[[127.43701,37.98438],[127.43701,37.98432],[127.43708,37.98432],[127.43707,37.98438],[127.43701,37.98438]]]}},{"type":"Feature","properties":{"valleyId":"myeongji","layer":"shadow","date":"2026-08-01","timeLocal":"16:00"},"geometry":{"type":"Polygon","coordinates":[[[127.43794,37.98437],[127.43794,37.98432],[127.43801,37.98432],[127.43801,37.98437],[127.43794,37.98437]]]}},{"type":"Feature","properties":{"valleyId":"myeongji","layer":"shadow","date":"2026-08-01","timeLocal":"16:00"},"geometry":{"type":"Polygon","coordinates":[[[127.43785,37.9843],[127.43785,37.98423],[127.43792,37.98423],[127.43792,37.9843],[127.43785,37.9843]]]}},{"type":"Feature","properties":{"valleyId":"myeongji","layer":"shadow","date":"2026-08-01","timeLocal":"16:00"},"geometry":{"type":"Polygon","coordinates":[[[127.43803,37.98425],[127.43803,37.98419],[127.4381,37.98419],[127.4381,37.98425],[127.43803,37.98425]]]}},{"type":"Feature","properties":{"valleyId":"myeongji","layer":"shadow","date":"2026-08-01","timeLocal":"16:00"},"geometry":{"type":"Polygon","coordinates":[[[127.43808,37.98416],[127.43811,37.98394],[127.43813,37.98391],[127.4382,37.98391],[127.43819,37.98416],[127.43808,37.98416]]]}},{"type":"Feature","properties":{"valleyId":"myeongji","layer":"shadow","date":"2026-08-01","timeLocal":"16:00"},"geometry":{"type":"Polygon","coordinates":[[[127.4385,37.98371],[127.4385,37.98366],[127.43857,37.98366],[127.43857,37.98371],[127.4385,37.98371]]]}},{"type":"Feature","properties":{"valleyId":"myeongji","layer":"shadow","date":"2026-08-01","timeLocal":"16:00"},"geometry":{"type":"Polygon","coordinates":[[[127.43757,37.98368],[127.43746,37.98357],[127.43746,37.98352],[127.43755,37.98352],[127.43759,37.98356],[127.43764,37.98368],[127.43757,37.98368]]]}},{"type":"Feature","properties":{"valleyId":"myeongji","layer":"shadow","date":"2026-08-01","timeLocal":"16:00"},"geometry":{"type":"Polygon","coordinates":[[[127.43714,37.98344],[127.43707,37.9834],[127.4371,37.98333],[127.4373,37.98334],[127.43728,37.98344],[127.43714,37.98344]]]}},{"type":"Feature","properties":{"valleyId":"myeongji","layer":"shadow","date":"2026-08-01","timeLocal":"16:00"},"geometry":{"type":"Polygon","coordinates":[[[127.44004,37.98301],[127.44004,37.98294],[127.44011,37.98294],[127.44011,37.98301],[127.44004,37.98301]]]}},{"type":"Feature","properties":{"valleyId":"myeongji","layer":"shadow","date":"2026-08-01","timeLocal":"16:00"},"geometry":{"type":"Polygon","coordinates":[[[127.43819,37.98344],[127.43819,37.9834],[127.4381,37.98333],[127.4381,37.98324],[127.43801,37.98311],[127.438,37.98282],[127.43806,37.98282],[127.43813,37.9829],[127.43815,37.98318],[127.43821,37.98335],[127.43826,37.98337],[127.43826,37.98344],[127.43819,37.98344]]]}}]}
