{
  "$schema": "../.schema/valleys.schema.json",
  "type": "FeatureCollection",
  "metadata": {
    "description": "안골계곡(의정부시) — 구간 1개. OSM 하천 중심선(백석천, way 845545935·574295172·38578646·38578657) 을 계곡 점 기준 상류 2 km·하류 1 km 로 자른 2333 m. 데스크 검수 — 수심·바닥·금지·요금은 manual.csv 로 채운다.",
    "source": "OSM 하천 중심선(© OpenStreetMap contributors, ODbL) + 브이월드 표준유역 코드 + Terrarium 표고 · 데스크 검수(현장 미확인)",
    "sourceFile": "scripts/seed/build.mts (pnpm seed:build)",
    "datasetVersion": "2026-09-06.0",
    "collectedAt": "2026-09-06",
    "coordinateOrder": "[longitude, latitude]",
    "crs": "EPSG:4326",
    "filter": "계곡 점 (127.02054772606576, 37.73170329099102) [vworld-search] · 중심선 오프셋 13 m · 표고 350→35 m · 구간 분할 근거 none",
    "verified": "desk",
    "sources": [
      "https://www.openstreetmap.org/copyright",
      "https://registry.opendata.aws/terrain-tiles/",
      "https://www.vworld.kr/ (표준유역 lt_c_wkmsbsn 코드 조회 — 기하 저장 없음)"
    ]
  },
  "features": [
    {
      "type": "Feature",
      "geometry": {
        "type": "LineString",
        "coordinates": [
          [127.015732, 37.722242],
          [127.016016, 37.722547],
          [127.016147, 37.722895],
          [127.0163, 37.723003],
          [127.016797, 37.723254],
          [127.016885, 37.723347],
          [127.01696, 37.723546],
          [127.017183, 37.723928],
          [127.017448, 37.7242],
          [127.017762, 37.724295],
          [127.017891, 37.72444],
          [127.018135, 37.724715],
          [127.018674, 37.725068],
          [127.019143, 37.725435],
          [127.019353, 37.725602],
          [127.01961, 37.725808],
          [127.019792, 37.726052],
          [127.019906, 37.726329],
          [127.019985, 37.72682],
          [127.019893, 37.727093],
          [127.019894, 37.727277],
          [127.019952, 37.727478],
          [127.02007, 37.727622],
          [127.02038, 37.727808],
          [127.020486, 37.728062],
          [127.020549, 37.72808],
          [127.020588, 37.728353],
          [127.020481, 37.729143],
          [127.020744, 37.729618],
          [127.021428, 37.729905],
          [127.021418, 37.730144],
          [127.02109, 37.730446],
          [127.020847, 37.730723],
          [127.020345, 37.730898],
          [127.020193, 37.731303],
          [127.020412, 37.731781],
          [127.020734, 37.731889],
          [127.021417, 37.732014],
          [127.022404, 37.732263],
          [127.023434, 37.732204],
          [127.02419, 37.732724],
          [127.024288, 37.732884],
          [127.024347, 37.733168],
          [127.024321, 37.733612],
          [127.024552, 37.734102],
          [127.025272, 37.734411],
          [127.0257, 37.734936],
          [127.025918, 37.735364],
          [127.025978, 37.735708],
          [127.026044, 37.735922],
          [127.026207, 37.736143],
          [127.026335, 37.736285],
          [127.026694, 37.736631],
          [127.026894, 37.736787],
          [127.027056, 37.737029],
          [127.027108, 37.737268],
          [127.027179, 37.737471],
          [127.027385, 37.737648]
        ]
      },
      "properties": {
        "id": "angol-whole",
        "valleyId": "angol",
        "valleyName": "안골계곡",
        "segment": "whole",
        "order": 0,
        "splitBasis": "none",
        "shadeByHour": [0.663, 0.658, 0.657, 0.656, 0.656, 0.657, 0.664, 0.701, 0.882],
        "canopyCover": 0.656,
        "shadeRatio": 0.657,
        "accessDistanceM": 738,
        "accessGradePct": 19.8,
        "basinCode": "101808",
        "mapIconTier": 0,
        "mapLabelTier": 0,
        "mapImportance": 10,
        "elevationM": 169
      }
    }
  ]
}
