{
  "$schema": "../.schema/valleys.schema.json",
  "type": "FeatureCollection",
  "metadata": {
    "description": "백둔리계곡(가평군) — 구간 1개. OSM 하천 중심선(가평천, way 1412145065·438607049) 을 계곡 점 기준 상류 2 km·하류 1 km 로 자른 3000 m. 데스크 검수 — 수심·바닥·금지·요금은 manual.csv 로 채운다.",
    "source": "OSM 하천 중심선(© OpenStreetMap contributors, ODbL) + 브이월드 표준유역 코드 + Terrarium 표고 · 데스크 검수(현장 미확인)",
    "sourceFile": "scripts/seed/build.mts (pnpm seed:build)",
    "datasetVersion": "2026-09-26.0",
    "collectedAt": "2026-09-26",
    "coordinateOrder": "[longitude, latitude]",
    "crs": "EPSG:4326",
    "filter": "계곡 점 (127.49418703994928, 37.89721024586811) [vworld-search] · 중심선 오프셋 20 m · 표고 496→52.6 m · 구간 분할 근거 none",
    "verified": "desk",
    "sources": [
      "https://www.openstreetmap.org/copyright",
      "https://registry.opendata.aws/terrain-tiles/",
      "https://www.vworld.kr/ (표준유역 lt_c_wkmsbsn 코드 조회 — 기하 저장 없음)"
    ]
  },
  "features": [
    {
      "type": "Feature",
      "geometry": {
        "type": "LineString",
        "coordinates": [
          [127.476386, 37.904262],
          [127.476425, 37.904249],
          [127.476645, 37.904114],
          [127.477141, 37.904042],
          [127.477517, 37.903894],
          [127.47793, 37.903619],
          [127.478541, 37.903102],
          [127.479105, 37.902425],
          [127.479606, 37.902044],
          [127.480221, 37.901834],
          [127.481065, 37.9012],
          [127.48168, 37.900897],
          [127.481846, 37.900819],
          [127.482337, 37.900738],
          [127.483571, 37.900689],
          [127.484161, 37.900565],
          [127.484815, 37.900334],
          [127.48522, 37.900342],
          [127.485977, 37.900351],
          [127.486805, 37.90037],
          [127.487235, 37.900287],
          [127.487817, 37.900072],
          [127.488007, 37.899858],
          [127.488235, 37.89957],
          [127.488581, 37.899072],
          [127.488914, 37.898672],
          [127.489257, 37.898148],
          [127.489638, 37.897458],
          [127.489694, 37.897392],
          [127.490147, 37.896869],
          [127.490609, 37.896484],
          [127.491295, 37.896243],
          [127.491902, 37.896124],
          [127.492315, 37.89609],
          [127.492776, 37.896213],
          [127.493087, 37.896365],
          [127.493516, 37.896759],
          [127.493801, 37.896928],
          [127.494299, 37.897047],
          [127.494782, 37.897339],
          [127.495265, 37.897551],
          [127.495614, 37.897606],
          [127.495936, 37.897614],
          [127.49674, 37.898046],
          [127.497245, 37.898245],
          [127.498452, 37.898486],
          [127.498913, 37.898605],
          [127.499326, 37.898711],
          [127.499857, 37.898838],
          [127.500892, 37.899032],
          [127.502035, 37.899066],
          [127.502641, 37.898998],
          [127.503215, 37.898859],
          [127.503671, 37.89868],
          [127.503876, 37.897647]
        ]
      },
      "properties": {
        "id": "baekdunri-whole",
        "valleyId": "baekdunri",
        "valleyName": "백둔리계곡",
        "segment": "whole",
        "order": 0,
        "splitBasis": "none",
        "depth": "mixed",
        "shadeByHour": [0.273, 0.267, 0.265, 0.265, 0.265, 0.274, 0.296, 0.354, 0.563],
        "canopyCover": 0.265,
        "shadeRatio": 0.265,
        "swimBanned": false,
        "riskNote": "물놀이관리지역(관리) 백둔교 아래 — 최대 수심 2 m·평균 1 m",
        "basinCode": "101305",
        "campingAllowed": true,
        "mapIconTier": 0,
        "mapLabelTier": 0,
        "mapImportance": 10,
        "elevationM": 165
      }
    }
  ]
}
