{
  "$schema": "../.schema/valleys.schema.json",
  "type": "FeatureCollection",
  "metadata": {
    "description": "청학동계곡(포천시) — 구간 1개. OSM 하천 중심선(이름 없음, way 1324902313·471368136) 을 계곡 점 기준 상류 2 km·하류 1 km 로 자른 3000 m. 데스크 검수 — 수심·바닥·금지·요금은 manual.csv 로 채운다.",
    "source": "OSM 하천 중심선(© OpenStreetMap contributors, ODbL) + 브이월드 표준유역 코드 + Terrarium 표고 · 데스크 검수(현장 미확인)",
    "sourceFile": "scripts/seed/build.mts (pnpm seed:build)",
    "datasetVersion": "2026-09-06.0",
    "collectedAt": "2026-09-06",
    "coordinateOrder": "[longitude, latitude]",
    "crs": "EPSG:4326",
    "filter": "계곡 점 (127.301, 37.944) [manual] · 중심선 오프셋 554 m · 표고 167→102 m · 구간 분할 근거 none",
    "verified": "desk",
    "sources": [
      "https://www.openstreetmap.org/copyright",
      "https://registry.opendata.aws/terrain-tiles/",
      "https://www.vworld.kr/ (표준유역 lt_c_wkmsbsn 코드 조회 — 기하 저장 없음)"
    ]
  },
  "features": [
    {
      "type": "Feature",
      "geometry": {
        "type": "LineString",
        "coordinates": [
          [127.299318, 37.923633],
          [127.299053, 37.924187],
          [127.299177, 37.924371],
          [127.299222, 37.924697],
          [127.299319, 37.925275],
          [127.299416, 37.925738],
          [127.299646, 37.925952],
          [127.299928, 37.92607],
          [127.300239, 37.926265],
          [127.300357, 37.926654],
          [127.300673, 37.927293],
          [127.300818, 37.927758],
          [127.300995, 37.928327],
          [127.301156, 37.928791],
          [127.301744, 37.929707],
          [127.302251, 37.930174],
          [127.302795, 37.930661],
          [127.30287, 37.93082],
          [127.302784, 37.930985],
          [127.302347, 37.931433],
          [127.302004, 37.931968],
          [127.301883, 37.932673],
          [127.301926, 37.933174],
          [127.301977, 37.933479],
          [127.302087, 37.933729],
          [127.30243, 37.934177],
          [127.303146, 37.934888],
          [127.303519, 37.935419],
          [127.303844, 37.936024],
          [127.304032, 37.936479],
          [127.303999, 37.937063],
          [127.303699, 37.937441],
          [127.303535, 37.93827],
          [127.303476, 37.938835],
          [127.303619, 37.939265],
          [127.303881, 37.939504],
          [127.304045, 37.939635],
          [127.304949, 37.940062],
          [127.306196, 37.940688],
          [127.306505, 37.940919],
          [127.307505, 37.941232],
          [127.308468, 37.941678],
          [127.30887, 37.941966],
          [127.309321, 37.942319],
          [127.309466, 37.942539],
          [127.309758, 37.942924],
          [127.309863, 37.943212],
          [127.310101, 37.943802],
          [127.310549, 37.944678],
          [127.310922, 37.945625],
          [127.310897, 37.94626]
        ]
      },
      "properties": {
        "id": "cheonghakdong-whole",
        "valleyId": "cheonghakdong",
        "valleyName": "청학동계곡",
        "segment": "whole",
        "order": 0,
        "splitBasis": "none",
        "shadeByHour": [0.057, 0.056, 0.056, 0.056, 0.056, 0.058, 0.065, 0.08, 0.164],
        "canopyCover": 0.056,
        "shadeRatio": 0.056,
        "basinCode": "102207",
        "mapIconTier": 0,
        "mapLabelTier": 0,
        "mapImportance": 10
      }
    }
  ]
}
