{
  "$schema": "../.schema/valleys.schema.json",
  "type": "FeatureCollection",
  "metadata": {
    "description": "동막골계곡(연천군) — 구간 1개. OSM 하천 중심선(아미천, way 108344916) 을 계곡 점 기준 상류 2 km·하류 1 km 로 자른 3000 m. 데스크 검수 — 수심·바닥·금지·요금은 manual.csv 로 채운다.",
    "source": "OSM 하천 중심선(© OpenStreetMap contributors, ODbL) + 브이월드 표준유역 코드 + Terrarium 표고 · 데스크 검수(현장 미확인)",
    "sourceFile": "scripts/seed/build.mts (pnpm seed:build)",
    "datasetVersion": "2026-09-06.0",
    "collectedAt": "2026-09-06",
    "coordinateOrder": "[longitude, latitude]",
    "crs": "EPSG:4326",
    "filter": "계곡 점 (127.11133813375149, 38.09822503020022) [vworld-search] · 중심선 오프셋 81 m · 표고 139→54 m · 구간 분할 근거 none",
    "verified": "desk",
    "sources": [
      "https://www.openstreetmap.org/copyright",
      "https://registry.opendata.aws/terrain-tiles/",
      "https://www.vworld.kr/ (표준유역 lt_c_wkmsbsn 코드 조회 — 기하 저장 없음)"
    ]
  },
  "features": [
    {
      "type": "Feature",
      "geometry": {
        "type": "LineString",
        "coordinates": [
          [127.120015, 38.108649],
          [127.119208, 38.109461],
          [127.118274, 38.10968],
          [127.117234, 38.109444],
          [127.116268, 38.108811],
          [127.115013, 38.106903],
          [127.11423, 38.104463],
          [127.113318, 38.102977],
          [127.112541, 38.102497],
          [127.111788, 38.102325],
          [127.11081, 38.102054],
          [127.109733, 38.10159],
          [127.109181, 38.101201],
          [127.108666, 38.10054],
          [127.108436, 38.099677],
          [127.108549, 38.099294],
          [127.109485, 38.098766],
          [127.110345, 38.098059],
          [127.111, 38.097377],
          [127.110485, 38.096267],
          [127.109918, 38.095491],
          [127.108511, 38.095074],
          [127.107084, 38.094466],
          [127.106623, 38.093842],
          [127.106516, 38.093166],
          [127.107052, 38.092237],
          [127.108602, 38.091336]
        ]
      },
      "properties": {
        "id": "dongmak-whole",
        "valleyId": "dongmak",
        "valleyName": "동막골계곡",
        "segment": "whole",
        "order": 0,
        "splitBasis": "none",
        "depth": "mixed",
        "shadeByHour": [0.058, 0.057, 0.057, 0.057, 0.057, 0.058, 0.067, 0.136, 0.43],
        "canopyCover": 0.057,
        "shadeRatio": 0.057,
        "swimBanned": false,
        "riskNote": "물놀이관리지역(일반) 동막리유원지 — 최대 수심 2 m·평균 1 m",
        "basinCode": "102214",
        "mapIconTier": 0,
        "mapLabelTier": 0,
        "mapImportance": 10,
        "elevationM": 87
      }
    }
  ]
}
