{
  "$schema": "../.schema/valleys.schema.json",
  "type": "FeatureCollection",
  "metadata": {
    "description": "어비계곡(가평군) — 구간 1개. OSM 하천 중심선(벽계천, way 694778836) 을 계곡 점 기준 상류 2 km·하류 1 km 로 자른 3000 m. 데스크 검수 — 수심·바닥·금지·요금은 manual.csv 로 채운다.",
    "source": "OSM 하천 중심선(© OpenStreetMap contributors, ODbL) + 브이월드 표준유역 코드 + Terrarium 표고 · 데스크 검수(현장 미확인)",
    "sourceFile": "scripts/seed/build.mts (pnpm seed:build)",
    "datasetVersion": "2026-09-06.0",
    "collectedAt": "2026-09-06",
    "coordinateOrder": "[longitude, latitude]",
    "crs": "EPSG:4326",
    "filter": "계곡 점 (127.49520830283143, 37.60044114847045) [vworld-search] · 중심선 오프셋 1 m · 표고 430→28.9 m · 구간 분할 근거 none",
    "verified": "desk",
    "sources": [
      "https://www.openstreetmap.org/copyright",
      "https://registry.opendata.aws/terrain-tiles/",
      "https://www.vworld.kr/ (표준유역 lt_c_wkmsbsn 코드 조회 — 기하 저장 없음)"
    ]
  },
  "features": [
    {
      "type": "Feature",
      "geometry": {
        "type": "LineString",
        "coordinates": [
          [127.494044, 37.586429],
          [127.494108, 37.586578],
          [127.493964, 37.586831],
          [127.493468, 37.587049],
          [127.492923, 37.587518],
          [127.492467, 37.587901],
          [127.492325, 37.5882],
          [127.492112, 37.588552],
          [127.491953, 37.588735],
          [127.491624, 37.588835],
          [127.491313, 37.588885],
          [127.490831, 37.589065],
          [127.490861, 37.589556],
          [127.491053, 37.589915],
          [127.491193, 37.590234],
          [127.490936, 37.590426],
          [127.490784, 37.590624],
          [127.490696, 37.591056],
          [127.490423, 37.591662],
          [127.490247, 37.592098],
          [127.489782, 37.592918],
          [127.48967, 37.593245],
          [127.489724, 37.593603],
          [127.490013, 37.594057],
          [127.490698, 37.594377],
          [127.491021, 37.594598],
          [127.491275, 37.595037],
          [127.491458, 37.595412],
          [127.491294, 37.596127],
          [127.491275, 37.596705],
          [127.491397, 37.597279],
          [127.49184, 37.598152],
          [127.492237, 37.598224],
          [127.493011, 37.598207],
          [127.493545, 37.598287],
          [127.494022, 37.598469],
          [127.494315, 37.598692],
          [127.494363, 37.59879],
          [127.494887, 37.599869],
          [127.495336, 37.600631],
          [127.495619, 37.601185],
          [127.495601, 37.601595],
          [127.495402, 37.602152],
          [127.495055, 37.602423],
          [127.494442, 37.602621],
          [127.494116, 37.602953],
          [127.493748, 37.60381],
          [127.493657, 37.604897],
          [127.493757, 37.605342],
          [127.493829, 37.605784],
          [127.493714, 37.606051],
          [127.493196, 37.606759],
          [127.49279, 37.607335],
          [127.492461, 37.607717],
          [127.491984, 37.60836]
        ]
      },
      "properties": {
        "id": "eobi-whole",
        "valleyId": "eobi",
        "valleyName": "어비계곡",
        "segment": "whole",
        "order": 0,
        "splitBasis": "none",
        "depth": "waist",
        "bed": "mixed",
        "shadeByHour": [0.522, 0.491, 0.483, 0.482, 0.483, 0.501, 0.538, 0.602, 0.774],
        "canopyCover": 0.481,
        "shadeRatio": 0.483,
        "accessDistanceM": 618,
        "accessGradePct": 12.6,
        "swimBanned": false,
        "riskNote": "물놀이관리지역(일반) 벽계천 — 최대 수심 1 m·평균 1 m",
        "basinCode": "101507",
        "freeAccess": true,
        "mapIconTier": 0,
        "mapLabelTier": 0,
        "mapImportance": 10,
        "elevationM": 279
      }
    }
  ]
}
