{
  "$schema": "../.schema/valleys.schema.json",
  "type": "FeatureCollection",
  "metadata": {
    "description": "감악산 운계폭포 계곡(파주시) — 구간 1개. OSM 하천 중심선(설마천, way 397130742) 을 계곡 점 기준 상류 2 km·하류 1 km 로 자른 3000 m. 데스크 검수 — 수심·바닥·금지·요금은 manual.csv 로 채운다.",
    "source": "OSM 하천 중심선(© OpenStreetMap contributors, ODbL) + 브이월드 표준유역 코드 + Terrarium 표고 · 데스크 검수(현장 미확인)",
    "sourceFile": "scripts/seed/build.mts (pnpm seed:build)",
    "datasetVersion": "2026-09-07.0",
    "collectedAt": "2026-09-07",
    "coordinateOrder": "[longitude, latitude]",
    "crs": "EPSG:4326",
    "filter": "계곡 점 (126.962, 37.937) [manual] · 중심선 오프셋 1229 m · 표고 188→0 m · 구간 분할 근거 none",
    "verified": "desk",
    "sources": [
      "https://www.openstreetmap.org/copyright",
      "https://registry.opendata.aws/terrain-tiles/",
      "https://www.vworld.kr/ (표준유역 lt_c_wkmsbsn 코드 조회 — 기하 저장 없음)"
    ]
  },
  "features": [
    {
      "type": "Feature",
      "geometry": {
        "type": "LineString",
        "coordinates": [
          [126.951484, 37.924449],
          [126.951307, 37.924367],
          [126.95109, 37.924343],
          [126.950843, 37.924399],
          [126.950107, 37.924389],
          [126.949819, 37.924421],
          [126.949611, 37.924549],
          [126.949323, 37.924637],
          [126.948673, 37.924681],
          [126.948389, 37.924691],
          [126.948214, 37.92479],
          [126.947842, 37.925146],
          [126.947581, 37.925269],
          [126.947122, 37.925256],
          [126.946463, 37.92542],
          [126.946058, 37.925548],
          [126.945427, 37.925598],
          [126.945241, 37.925649],
          [126.944917, 37.925734],
          [126.944675, 37.925984],
          [126.944624, 37.926246],
          [126.944654, 37.926432],
          [126.94484, 37.926638],
          [126.945702, 37.927089],
          [126.946039, 37.927444],
          [126.946254, 37.927773],
          [126.946326, 37.927999],
          [126.946219, 37.928304],
          [126.946147, 37.928471],
          [126.945392, 37.928858],
          [126.945238, 37.929178],
          [126.945134, 37.929773],
          [126.945134, 37.929955],
          [126.945243, 37.930236],
          [126.945537, 37.93059],
          [126.946242, 37.931158],
          [126.946559, 37.931382],
          [126.946976, 37.931571],
          [126.947036, 37.931989],
          [126.947057, 37.932374],
          [126.946499, 37.933354],
          [126.946196, 37.9338],
          [126.946065, 37.934036],
          [126.946081, 37.934182],
          [126.94622, 37.934269],
          [126.946511, 37.934266],
          [126.946856, 37.93423],
          [126.94711, 37.934107],
          [126.947618, 37.934059],
          [126.947962, 37.934116],
          [126.948164, 37.934269],
          [126.948345, 37.934558],
          [126.948299, 37.934722],
          [126.948164, 37.935043],
          [126.947772, 37.935287],
          [126.947381, 37.93551],
          [126.947208, 37.935583],
          [126.946799, 37.935606],
          [126.946425, 37.935708],
          [126.946306, 37.935846],
          [126.946217, 37.936183],
          [126.946059, 37.936604],
          [126.946035, 37.936891],
          [126.946055, 37.937013],
          [126.946328, 37.937173],
          [126.946379, 37.937289],
          [126.946385, 37.937449],
          [126.946579, 37.937648],
          [126.947009, 37.938054],
          [126.947159, 37.938305],
          [126.947236, 37.93844],
          [126.947218, 37.938515],
          [126.94704, 37.938589],
          [126.946753, 37.938762],
          [126.946676, 37.938871],
          [126.946399, 37.93955],
          [126.946195, 37.939834],
          [126.945756, 37.939906],
          [126.94541, 37.940073],
          [126.944817, 37.940011],
          [126.944618, 37.93983],
          [126.944253, 37.939675],
          [126.943665, 37.939553]
        ]
      },
      "properties": {
        "id": "gamaksan-whole",
        "valleyId": "gamaksan",
        "valleyName": "감악산 운계폭포 계곡",
        "segment": "whole",
        "order": 0,
        "splitBasis": "none",
        "shadeByHour": [0.221, 0.216, 0.216, 0.216, 0.217, 0.219, 0.233, 0.37, 0.703],
        "canopyCover": 0.216,
        "shadeRatio": 0.216,
        "accessDistanceM": 2557,
        "accessGradePct": 17.8,
        "swimBanned": true,
        "riskNote": "파주시: 산불예방 입산통제 2.1~5.15·11.1~12.15, 출렁다리는 악천후 시 운영 중단",
        "basinCode": "102303",
        "freeAccess": true,
        "mapIconTier": 0,
        "mapLabelTier": 0,
        "mapImportance": 10,
        "elevationM": 160
      }
    }
  ]
}
