{
  "$schema": "../.schema/valleys.schema.json",
  "type": "FeatureCollection",
  "metadata": {
    "description": "긴고랑계곡(서울 광진구/경기 구리시 경계) — 구간 1개. 아차산·용마산 사이 골짜기, 긴고랑천 상당 구간이 복개돼 긴고랑로가 됐다. OSM 에 실제 계곡 하천·등산로가 남아 있지 않아(SD3), 계곡 입구(VWorld 검색 확정점)와 용마산 정상(OSM natural=peak) 사이를 Terrarium DEM 최소비용경로(오르막을 최대한 피하는 경로, A*)로 이어 근사했다. 데스크 검수 — 수심·바닥·금지·요금은 manual.csv 로 채운다.",
    "source": "Terrarium DEM 최소비용경로(계곡 입구 VWorld 확정점 ↔ 용마산 정상 OSM 확인점) + 브이월드 표준유역 코드 · 데스크 검수(현장 미확인)",
    "sourceFile": "scripts/research/gingorang/trace.mts (SD3, pnpm seed:build 의 OSM 중심선을 대체)",
    "datasetVersion": "2026-09-08.1",
    "collectedAt": "2026-09-08",
    "coordinateOrder": "[longitude, latitude]",
    "crs": "EPSG:4326",
    "filter": "계곡 점 (127.09618647364996, 37.56267150314907) [vworld-search] · 용마산 정상 (127.0957102, 37.5711684) [OSM node 2493496155] · DEM 최소비용경로 982 m · 구간 분할 근거 none. 정밀도 한계: Terrarium 는 z15 에서도 실제 소하천 폭보다 성긴 지형자료라 미세한 굴곡은 반영 못 했을 수 있다 — 현장 GPS 트랙으로 교체 대상(SD3)",
    "verified": "desk",
    "sources": [
      "https://www.openstreetmap.org/copyright",
      "https://registry.opendata.aws/terrain-tiles/",
      "https://www.vworld.kr/ (표준유역 lt_c_wkmsbsn 코드 조회 — 기하 저장 없음)"
    ]
  },
  "features": [
    {
      "type": "Feature",
      "geometry": {
        "type": "LineString",
        "coordinates": [
          [
            127.095723,
            37.571181
          ],
          [
            127.095723,
            37.571045
          ],
          [
            127.095723,
            37.570909
          ],
          [
            127.095723,
            37.570773
          ],
          [
            127.095723,
            37.570637
          ],
          [
            127.095723,
            37.570501
          ],
          [
            127.095723,
            37.570365
          ],
          [
            127.095723,
            37.570229
          ],
          [
            127.095723,
            37.570093
          ],
          [
            127.095723,
            37.569957
          ],
          [
            127.095723,
            37.569821
          ],
          [
            127.095723,
            37.569685
          ],
          [
            127.095723,
            37.569549
          ],
          [
            127.095723,
            37.569413
          ],
          [
            127.095723,
            37.569277
          ],
          [
            127.095766,
            37.569175
          ],
          [
            127.095766,
            37.569039
          ],
          [
            127.095766,
            37.568902
          ],
          [
            127.095766,
            37.568766
          ],
          [
            127.095766,
            37.56863
          ],
          [
            127.095766,
            37.568494
          ],
          [
            127.095766,
            37.568358
          ],
          [
            127.095766,
            37.568222
          ],
          [
            127.095766,
            37.568086
          ],
          [
            127.095766,
            37.56795
          ],
          [
            127.095766,
            37.567814
          ],
          [
            127.095766,
            37.567678
          ],
          [
            127.095766,
            37.567542
          ],
          [
            127.095766,
            37.567406
          ],
          [
            127.095766,
            37.56727
          ],
          [
            127.095895,
            37.567134
          ],
          [
            127.095938,
            37.566998
          ],
          [
            127.095938,
            37.566861
          ],
          [
            127.095938,
            37.566725
          ],
          [
            127.095938,
            37.566589
          ],
          [
            127.095938,
            37.566453
          ],
          [
            127.095938,
            37.566317
          ],
          [
            127.095938,
            37.566181
          ],
          [
            127.095938,
            37.566045
          ],
          [
            127.095938,
            37.565909
          ],
          [
            127.095938,
            37.565773
          ],
          [
            127.095938,
            37.565637
          ],
          [
            127.095938,
            37.565501
          ],
          [
            127.095938,
            37.565365
          ],
          [
            127.095938,
            37.565229
          ],
          [
            127.095938,
            37.565093
          ],
          [
            127.095938,
            37.564957
          ],
          [
            127.095938,
            37.56482
          ],
          [
            127.095938,
            37.564684
          ],
          [
            127.095938,
            37.564548
          ],
          [
            127.095938,
            37.564412
          ],
          [
            127.095938,
            37.564276
          ],
          [
            127.095938,
            37.56414
          ],
          [
            127.095938,
            37.564004
          ],
          [
            127.095938,
            37.563868
          ],
          [
            127.095938,
            37.563732
          ],
          [
            127.095938,
            37.563596
          ],
          [
            127.095938,
            37.56346
          ],
          [
            127.095938,
            37.563324
          ],
          [
            127.095895,
            37.563188
          ],
          [
            127.095895,
            37.563052
          ],
          [
            127.095895,
            37.562915
          ],
          [
            127.095895,
            37.562779
          ],
          [
            127.095981,
            37.562711
          ],
          [
            127.096152,
            37.562711
          ],
          [
            127.096195,
            37.562677
          ]
        ]
      },
      "properties": {
        "id": "gingorang-whole",
        "valleyId": "gingorang",
        "valleyName": "긴고랑계곡",
        "segment": "whole",
        "order": 0,
        "splitBasis": "none",
        "basinCode": "101810",
        "mapIconTier": 0,
        "mapLabelTier": 0,
        "mapImportance": 10,
        "riskNote": "추정 구간 · 현장 미확인. 지도 선은 지형 데이터로 추정한 경로이며 실제 물길·보행로와 다를 수 있습니다. 그늘은 8월 1일 기준 위성·지형 추정값입니다. 시설은 공공데이터 제공 좌표이며 수심·입수 가능 여부는 미확인입니다.",
        "shadeByHour": [
          0.871,
          0.871,
          0.871,
          0.871,
          0.871,
          0.871,
          0.876,
          0.897,
          0.97
        ],
        "canopyCover": 0.871,
        "shadeRatio": 0.871
      }
    }
  ]
}
