{
  "$schema": "../.schema/valleys.schema.json",
  "type": "FeatureCollection",
  "metadata": {
    "description": "구곡폭포 계곡(춘천시) — 구간 1개. OSM 하천 중심선(이름 없음, way 1213203338) 을 계곡 점 기준 상류 2 km·하류 1 km 로 자른 467 m. 데스크 검수 — 수심·바닥·금지·요금은 manual.csv 로 채운다.",
    "source": "OSM 하천 중심선(© OpenStreetMap contributors, ODbL) + 브이월드 표준유역 코드 + Terrarium 표고 · 데스크 검수(현장 미확인)",
    "sourceFile": "scripts/seed/build.mts (pnpm seed:build)",
    "datasetVersion": "2026-09-06.0",
    "collectedAt": "2026-09-06",
    "coordinateOrder": "[longitude, latitude]",
    "crs": "EPSG:4326",
    "filter": "계곡 점 (127.60990879967372, 37.792490311332855) [vworld-search] · 중심선 오프셋 0 m · 표고 285→187 m · 구간 분할 근거 none",
    "verified": "desk",
    "sources": [
      "https://www.openstreetmap.org/copyright",
      "https://registry.opendata.aws/terrain-tiles/",
      "https://www.vworld.kr/ (표준유역 lt_c_wkmsbsn 코드 조회 — 기하 저장 없음)"
    ]
  },
  "features": [
    {
      "type": "Feature",
      "geometry": {
        "type": "LineString",
        "coordinates": [
          [127.608846, 37.790057],
          [127.609313, 37.790557],
          [127.609549, 37.791019],
          [127.60971, 37.791291],
          [127.60994, 37.791613],
          [127.60997, 37.792085],
          [127.60997, 37.792301],
          [127.609924, 37.792452],
          [127.609766, 37.792749],
          [127.609656, 37.792946],
          [127.609511, 37.793145],
          [127.609154, 37.793889]
        ]
      },
      "properties": {
        "id": "gugok-whole",
        "valleyId": "gugok",
        "valleyName": "구곡폭포 계곡",
        "segment": "whole",
        "order": 0,
        "splitBasis": "none",
        "shadeByHour": [0.942, 0.933, 0.927, 0.925, 0.926, 0.932, 0.942, 0.968, 0.98],
        "canopyCover": 0.924,
        "shadeRatio": 0.927,
        "accessDistanceM": 1113,
        "accessGradePct": 13.5,
        "basinCode": "101304",
        "freeAccess": false,
        "mapIconTier": 0,
        "mapLabelTier": 0,
        "mapImportance": 10,
        "elevationM": 278
      }
    }
  ]
}
