{
  "$schema": "../.schema/valleys.schema.json",
  "type": "FeatureCollection",
  "metadata": {
    "description": "광덕계곡(화천군) — 구간 1개. OSM 하천 중심선(지촌천, way 395685302) 을 계곡 점 기준 상류 2 km·하류 1 km 로 자른 1000 m. 데스크 검수 — 수심·바닥·금지·요금은 manual.csv 로 채운다.",
    "source": "OSM 하천 중심선(© OpenStreetMap contributors, ODbL) + 브이월드 표준유역 코드 + Terrarium 표고 · 데스크 검수(현장 미확인)",
    "sourceFile": "scripts/seed/build.mts (pnpm seed:build)",
    "datasetVersion": "2026-09-06.0",
    "collectedAt": "2026-09-06",
    "coordinateOrder": "[longitude, latitude]",
    "crs": "EPSG:4326",
    "filter": "계곡 점 (127.44642199976035, 38.094990203200794) [vworld-search] · 중심선 오프셋 140 m · 표고 559→123 m · 구간 분할 근거 none",
    "verified": "desk",
    "sources": [
      "https://www.openstreetmap.org/copyright",
      "https://registry.opendata.aws/terrain-tiles/",
      "https://www.vworld.kr/ (표준유역 lt_c_wkmsbsn 코드 조회 — 기하 저장 없음)"
    ]
  },
  "features": [
    {
      "type": "Feature",
      "geometry": {
        "type": "LineString",
        "coordinates": [
          [127.447916, 38.094535],
          [127.44838, 38.094157],
          [127.448958, 38.093634],
          [127.449116, 38.093241],
          [127.449072, 38.092666],
          [127.449029, 38.092143],
          [127.449104, 38.091895],
          [127.449497, 38.091678],
          [127.449855, 38.091288],
          [127.450114, 38.090772],
          [127.450468, 38.09045],
          [127.45105, 38.090026],
          [127.451271, 38.089769],
          [127.451573, 38.089298],
          [127.45175, 38.089184],
          [127.452022, 38.089119],
          [127.452179, 38.089171],
          [127.452328, 38.089691],
          [127.452431, 38.089852],
          [127.452615, 38.089852],
          [127.452902, 38.089722],
          [127.45326, 38.089438],
          [127.453488, 38.089342],
          [127.45405, 38.08939]
        ]
      },
      "properties": {
        "id": "gwangdeok-whole",
        "valleyId": "gwangdeok",
        "valleyName": "광덕계곡",
        "segment": "whole",
        "order": 0,
        "splitBasis": "none",
        "shadeByHour": [0.073, 0.073, 0.073, 0.073, 0.073, 0.073, 0.087, 0.193, 0.903],
        "canopyCover": 0.073,
        "shadeRatio": 0.073,
        "basinCode": "101010",
        "mapIconTier": 0,
        "mapLabelTier": 0,
        "mapImportance": 10
      }
    }
  ]
}
