{
  "$schema": "../.schema/valleys.schema.json",
  "type": "FeatureCollection",
  "metadata": {
    "description": "관악산계곡(서울 관악구) — 구간 1개. OSM 하천 중심선(도림천, way 548790283·389628716·389628717) 을 계곡 점 기준 상류 2 km·하류 1 km 로 자른 3000 m. 데스크 검수 — 수심·바닥·금지·요금은 manual.csv 로 채운다.",
    "source": "OSM 하천 중심선(© OpenStreetMap contributors, ODbL) + 브이월드 표준유역 코드 + Terrarium 표고 · 데스크 검수(현장 미확인)",
    "sourceFile": "scripts/seed/build.mts (pnpm seed:build)",
    "datasetVersion": "2026-09-24.0",
    "collectedAt": "2026-09-24",
    "coordinateOrder": "[longitude, latitude]",
    "crs": "EPSG:4326",
    "filter": "계곡 점 (126.9472, 37.462) [manual] · 중심선 오프셋 146 m · 표고 215→23 m · 구간 분할 근거 none",
    "verified": "desk",
    "sources": [
      "https://www.openstreetmap.org/copyright",
      "https://registry.opendata.aws/terrain-tiles/",
      "https://www.vworld.kr/ (표준유역 lt_c_wkmsbsn 코드 조회 — 기하 저장 없음)"
    ]
  },
  "features": [
    {
      "type": "Feature",
      "geometry": {
        "type": "LineString",
        "coordinates": [
          [126.947129, 37.446442],
          [126.947138, 37.446808],
          [126.94683, 37.446979],
          [126.946747, 37.447055],
          [126.946815, 37.447172],
          [126.946888, 37.447336],
          [126.946858, 37.447447],
          [126.94685, 37.447474],
          [126.946749, 37.447615],
          [126.946725, 37.447745],
          [126.946763, 37.447802],
          [126.946842, 37.4479],
          [126.946922, 37.447999],
          [126.946944, 37.448159],
          [126.946905, 37.448388],
          [126.946954, 37.448541],
          [126.947131, 37.448727],
          [126.947276, 37.448851],
          [126.947358, 37.448981],
          [126.947447, 37.449403],
          [126.947641, 37.449612],
          [126.947951, 37.449762],
          [126.948123, 37.449877],
          [126.948265, 37.449921],
          [126.948549, 37.450146],
          [126.949245, 37.450547],
          [126.949331, 37.450598],
          [126.949405, 37.450659],
          [126.949411, 37.450769],
          [126.949374, 37.450916],
          [126.949433, 37.451021],
          [126.949465, 37.451267],
          [126.949456, 37.451505],
          [126.94933, 37.45165],
          [126.949302, 37.451744],
          [126.94939, 37.451974],
          [126.94951, 37.452211],
          [126.949554, 37.452311],
          [126.949668, 37.452432],
          [126.949734, 37.452554],
          [126.949741, 37.452655],
          [126.949727, 37.452763],
          [126.949717, 37.452886],
          [126.949704, 37.452943],
          [126.949688, 37.452986],
          [126.949644, 37.453084],
          [126.949555, 37.453311],
          [126.949471, 37.453619],
          [126.949448, 37.453876],
          [126.949492, 37.454069],
          [126.949423, 37.454305],
          [126.949456, 37.454395],
          [126.949403, 37.454599],
          [126.94925, 37.454855],
          [126.949154, 37.455008],
          [126.949045, 37.455154],
          [126.948777, 37.455496],
          [126.948582, 37.455751],
          [126.948522, 37.455799],
          [126.948428, 37.455894],
          [126.948359, 37.455969],
          [126.94823, 37.456199],
          [126.948134, 37.456377],
          [126.948036, 37.456529],
          [126.947926, 37.456689],
          [126.947867, 37.456797],
          [126.947754, 37.456908],
          [126.947674, 37.457057],
          [126.947675, 37.457391],
          [126.947678, 37.458004],
          [126.947465, 37.458847],
          [126.947359, 37.459276],
          [126.947387, 37.459545],
          [126.947596, 37.459896],
          [126.947732, 37.460007],
          [126.948256, 37.460487],
          [126.948643, 37.460867],
          [126.948827, 37.461073],
          [126.948939, 37.461282],
          [126.948968, 37.461575],
          [126.948929, 37.461871],
          [126.948879, 37.46206],
          [126.948851, 37.462168],
          [126.948793, 37.462355],
          [126.948674, 37.462741],
          [126.94855, 37.463053],
          [126.948355, 37.463283],
          [126.948147, 37.464193],
          [126.948214, 37.465038],
          [126.948189, 37.465201],
          [126.947863, 37.465825],
          [126.947464, 37.46706],
          [126.947214, 37.4678],
          [126.946907, 37.468109],
          [126.946568, 37.468376],
          [126.944276, 37.470123]
        ]
      },
      "properties": {
        "id": "gwanaksan-whole",
        "valleyId": "gwanaksan",
        "valleyName": "관악산계곡",
        "segment": "whole",
        "order": 0,
        "splitBasis": "none",
        "accessDistanceM": 433,
        "accessGradePct": 8.3,
        "basinCode": "101816",
        "mapIconTier": 0,
        "mapLabelTier": 0,
        "mapImportance": 10,
        "shadeByHour": [0.379, 0.37, 0.368, 0.367, 0.368, 0.376, 0.407, 0.486, 0.671],
        "canopyCover": 0.367,
        "shadeRatio": 0.368,
        "elevationM": 120
      }
    }
  ]
}
