{
  "$schema": "../.schema/valleys.schema.json",
  "type": "FeatureCollection",
  "metadata": {
    "description": "장흥계곡(양주시) — 구간 1개. OSM 하천 중심선(석현천·공릉천, way 477506476·66662161) 을 계곡 점 기준 상류 2 km·하류 1 km 로 자른 2745 m. 데스크 검수 — 수심·바닥·금지·요금은 manual.csv 로 채운다.",
    "source": "OSM 하천 중심선(© OpenStreetMap contributors, ODbL) + 브이월드 표준유역 코드 + Terrarium 표고 · 데스크 검수(현장 미확인)",
    "sourceFile": "scripts/seed/build.mts (pnpm seed:build)",
    "datasetVersion": "2026-09-06.0",
    "collectedAt": "2026-09-06",
    "coordinateOrder": "[longitude, latitude]",
    "crs": "EPSG:4326",
    "filter": "계곡 점 (126.94968939311008, 37.73022047473116) [vworld-search] · 중심선 오프셋 14 m · 표고 151→1 m · 구간 분할 근거 none",
    "verified": "desk",
    "sources": [
      "https://www.openstreetmap.org/copyright",
      "https://registry.opendata.aws/terrain-tiles/",
      "https://www.vworld.kr/ (표준유역 lt_c_wkmsbsn 코드 조회 — 기하 저장 없음)"
    ]
  },
  "features": [
    {
      "type": "Feature",
      "geometry": {
        "type": "LineString",
        "coordinates": [
          [126.956494, 37.740815],
          [126.956601, 37.739835],
          [126.95644, 37.739123],
          [126.956118, 37.738843],
          [126.955929, 37.738793],
          [126.955442, 37.738664],
          [126.954498, 37.738724],
          [126.953661, 37.73863],
          [126.9532, 37.738444],
          [126.951601, 37.73712],
          [126.950582, 37.736068],
          [126.950421, 37.735746],
          [126.950593, 37.735075],
          [126.951279, 37.733841],
          [126.951322, 37.733137],
          [126.951054, 37.73295],
          [126.948372, 37.732029],
          [126.948115, 37.731754],
          [126.948137, 37.731453],
          [126.948404, 37.731249],
          [126.94891, 37.730767],
          [126.949584, 37.730124],
          [126.949981, 37.729352],
          [126.950604, 37.728966],
          [126.950646, 37.726289],
          [126.951108, 37.724787],
          [126.951042, 37.724186],
          [126.951033, 37.724099],
          [126.950961, 37.724031],
          [126.950271, 37.723374],
          [126.948774, 37.722667],
          [126.948544, 37.722457]
        ]
      },
      "properties": {
        "id": "jangheung-whole",
        "valleyId": "jangheung",
        "valleyName": "장흥계곡",
        "segment": "whole",
        "order": 0,
        "splitBasis": "none",
        "shadeByHour": [0.127, 0.123, 0.123, 0.123, 0.123, 0.123, 0.129, 0.161, 0.476],
        "canopyCover": 0.123,
        "shadeRatio": 0.123,
        "accessDistanceM": 664,
        "accessGradePct": 3.6,
        "basinCode": "101904",
        "freeAccess": true,
        "campingAllowed": false,
        "mapIconTier": 0,
        "mapLabelTier": 0,
        "mapImportance": 10
      }
    }
  ]
}
