{
  "$schema": "../.schema/valleys.schema.json",
  "type": "FeatureCollection",
  "metadata": {
    "description": "증심사계곡(광주 동구) — 구간 1개. OSM 하천 중심선(증심천, way 485774898·485774888) 을 계곡 점 기준 상류 2 km·하류 1 km 로 자른 1000 m. 데스크 검수 — 수심·바닥·금지·요금은 manual.csv 로 채운다.",
    "source": "OSM 하천 중심선(© OpenStreetMap contributors, ODbL) + 브이월드 표준유역 코드 + Terrarium 표고 · 데스크 검수(현장 미확인)",
    "sourceFile": "scripts/seed/build.mts (pnpm seed:build)",
    "datasetVersion": "2026-09-09.0",
    "collectedAt": "2026-09-09",
    "coordinateOrder": "[longitude, latitude]",
    "crs": "EPSG:4326",
    "filter": "계곡 점 (126.9702, 35.129) [manual] · 중심선 오프셋 407 m · 표고 212→61 m · 구간 분할 근거 none",
    "verified": "desk",
    "sources": [
      "https://www.openstreetmap.org/copyright",
      "https://registry.opendata.aws/terrain-tiles/",
      "https://www.vworld.kr/ (표준유역 lt_c_wkmsbsn 코드 조회 — 기하 저장 없음)"
    ]
  },
  "features": [
    {
      "type": "Feature",
      "geometry": {
        "type": "LineString",
        "coordinates": [
          [126.967696, 35.132025],
          [126.967342, 35.132128],
          [126.966854, 35.13224],
          [126.966548, 35.132172],
          [126.966113, 35.132202],
          [126.965754, 35.132198],
          [126.965582, 35.132029],
          [126.9654, 35.131873],
          [126.965086, 35.131803],
          [126.964752, 35.131616],
          [126.964543, 35.131591],
          [126.964358, 35.131507],
          [126.963706, 35.131366],
          [126.963492, 35.131288],
          [126.963304, 35.13127],
          [126.962795, 35.131454],
          [126.96244, 35.131751],
          [126.961987, 35.131987],
          [126.9615, 35.132168],
          [126.960969, 35.13223],
          [126.96062, 35.132234],
          [126.960405, 35.132287],
          [126.959971, 35.132624],
          [126.959724, 35.132822],
          [126.959402, 35.133111],
          [126.959209, 35.133265],
          [126.959048, 35.133331],
          [126.958898, 35.133335],
          [126.958743, 35.133322],
          [126.958287, 35.133239],
          [126.957977, 35.133157]
        ]
      },
      "properties": {
        "id": "jeungsimsa-whole",
        "valleyId": "jeungsimsa",
        "valleyName": "증심사계곡",
        "segment": "whole",
        "order": 0,
        "splitBasis": "none",
        "accessDistanceM": 665,
        "accessGradePct": 10.4,
        "basinCode": "500107",
        "mapIconTier": 0,
        "mapLabelTier": 0,
        "mapImportance": 10,
        "shadeByHour": [0.402, 0.399, 0.398, 0.399, 0.399, 0.404, 0.41, 0.416, 0.485],
        "canopyCover": 0.398,
        "shadeRatio": 0.398,
        "elevationM": 149
      }
    }
  ]
}
