{
  "$schema": "../.schema/valleys.schema.json",
  "type": "FeatureCollection",
  "metadata": {
    "description": "조무락골(가평군) — 구간 1개. OSM 하천 중심선(도마천, way 1338497584·1289915314) 을 계곡 점 기준 상류 2 km·하류 1 km 로 자른 2204 m. 데스크 검수 — 수심·바닥·금지·요금은 manual.csv 로 채운다.",
    "source": "OSM 하천 중심선(© OpenStreetMap contributors, ODbL) + 브이월드 표준유역 코드 + Terrarium 표고 · 데스크 검수(현장 미확인)",
    "sourceFile": "scripts/seed/build.mts (pnpm seed:build)",
    "datasetVersion": "2026-09-26.0",
    "collectedAt": "2026-09-26",
    "coordinateOrder": "[longitude, latitude]",
    "crs": "EPSG:4326",
    "filter": "계곡 점 (127.46046490047452, 37.98746958402888) [vworld-search] · 중심선 오프셋 25 m · 표고 574→262 m · 구간 분할 근거 none",
    "verified": "desk",
    "sources": [
      "https://www.openstreetmap.org/copyright",
      "https://registry.opendata.aws/terrain-tiles/",
      "https://www.vworld.kr/ (표준유역 lt_c_wkmsbsn 코드 조회 — 기하 저장 없음)"
    ]
  },
  "features": [
    {
      "type": "Feature",
      "geometry": {
        "type": "LineString",
        "coordinates": [
          [127.470551, 37.992261],
          [127.470401, 37.991956],
          [127.470004, 37.991534],
          [127.469671, 37.991326],
          [127.469323, 37.991238],
          [127.469044, 37.991284],
          [127.468995, 37.991052],
          [127.468733, 37.990751],
          [127.468534, 37.990612],
          [127.468175, 37.990443],
          [127.467831, 37.990265],
          [127.467445, 37.990121],
          [127.467161, 37.990151],
          [127.467005, 37.98991],
          [127.467049, 37.989707],
          [127.467091, 37.989627],
          [127.46707, 37.989365],
          [127.466898, 37.988988],
          [127.466759, 37.988807],
          [127.466415, 37.988498],
          [127.466029, 37.988392],
          [127.465562, 37.988401],
          [127.46501, 37.988312],
          [127.46428, 37.988367],
          [127.463771, 37.988215],
          [127.463529, 37.988236],
          [127.46325, 37.988325],
          [127.462639, 37.988401],
          [127.462328, 37.988413],
          [127.461855, 37.98835],
          [127.461222, 37.988308],
          [127.460793, 37.988164],
          [127.460536, 37.98791],
          [127.46008, 37.987449],
          [127.459742, 37.987369],
          [127.459281, 37.987437],
          [127.458969, 37.987378],
          [127.458471, 37.987192],
          [127.458074, 37.986929],
          [127.457655, 37.986904],
          [127.457108, 37.986984],
          [127.456639, 37.987073],
          [127.456054, 37.987365],
          [127.455622, 37.987595],
          [127.455206, 37.987671],
          [127.454796, 37.987572],
          [127.454587, 37.987464],
          [127.454262, 37.987238],
          [127.454058, 37.987154],
          [127.453786, 37.987115],
          [127.453321, 37.986906],
          [127.45302, 37.986866],
          [127.452489, 37.986822],
          [127.452275, 37.986845],
          [127.451894, 37.986695],
          [127.451628, 37.986598],
          [127.451298, 37.986466],
          [127.451102, 37.986424],
          [127.450837, 37.986395],
          [127.45052, 37.986397],
          [127.450016, 37.986454],
          [127.449772, 37.986483]
        ]
      },
      "properties": {
        "id": "jomurak-whole",
        "valleyId": "jomurak",
        "valleyName": "조무락골",
        "segment": "whole",
        "order": 0,
        "splitBasis": "none",
        "depth": "mixed",
        "shadeByHour": [0.612, 0.611, 0.611, 0.611, 0.611, 0.611, 0.614, 0.615, 0.636],
        "canopyCover": 0.611,
        "shadeRatio": 0.611,
        "swimBanned": false,
        "riskNote": "물놀이관리지역(관리) 토마토펜션 앞 — 최대 수심 3 m·평균 1 m",
        "basinCode": "101305",
        "freeAccess": true,
        "mapIconTier": 0,
        "mapLabelTier": 0,
        "mapImportance": 10,
        "elevationM": 463
      }
    }
  ]
}
