{
  "$schema": "../.schema/valleys.schema.json",
  "type": "FeatureCollection",
  "metadata": {
    "description": "명지계곡(가평군) — 구간 1개. OSM 하천 중심선(도마천, way 1338497584·1289915314) 을 계곡 점 기준 상류 2 km·하류 1 km 로 자른 3000 m. 데스크 검수 — 수심·바닥·금지·요금은 manual.csv 로 채운다.",
    "source": "OSM 하천 중심선(© OpenStreetMap contributors, ODbL) + 브이월드 표준유역 코드 + Terrarium 표고 · 데스크 검수(현장 미확인)",
    "sourceFile": "scripts/seed/build.mts (pnpm seed:build)",
    "datasetVersion": "2026-09-07.0",
    "collectedAt": "2026-09-07",
    "coordinateOrder": "[longitude, latitude]",
    "crs": "EPSG:4326",
    "filter": "계곡 점 (127.44297349997287, 37.9880644039668) [vworld-search] · 중심선 오프셋 152 m · 표고 574→262 m · 구간 분할 근거 none",
    "verified": "desk",
    "sources": [
      "https://www.openstreetmap.org/copyright",
      "https://registry.opendata.aws/terrain-tiles/",
      "https://www.vworld.kr/ (표준유역 lt_c_wkmsbsn 코드 조회 — 기하 저장 없음)"
    ]
  },
  "features": [
    {
      "type": "Feature",
      "geometry": {
        "type": "LineString",
        "coordinates": [
          [127.463327, 37.9883],
          [127.46325, 37.988325],
          [127.462639, 37.988401],
          [127.462328, 37.988413],
          [127.461855, 37.98835],
          [127.461222, 37.988308],
          [127.460793, 37.988164],
          [127.460536, 37.98791],
          [127.46008, 37.987449],
          [127.459742, 37.987369],
          [127.459281, 37.987437],
          [127.458969, 37.987378],
          [127.458471, 37.987192],
          [127.458074, 37.986929],
          [127.457655, 37.986904],
          [127.457108, 37.986984],
          [127.456639, 37.987073],
          [127.456054, 37.987365],
          [127.455622, 37.987595],
          [127.455206, 37.987671],
          [127.454796, 37.987572],
          [127.454587, 37.987464],
          [127.454262, 37.987238],
          [127.454058, 37.987154],
          [127.453786, 37.987115],
          [127.453321, 37.986906],
          [127.45302, 37.986866],
          [127.452489, 37.986822],
          [127.452275, 37.986845],
          [127.451894, 37.986695],
          [127.451628, 37.986598],
          [127.451298, 37.986466],
          [127.451102, 37.986424],
          [127.450837, 37.986395],
          [127.45052, 37.986397],
          [127.450016, 37.986454],
          [127.449753, 37.986485],
          [127.448935, 37.986752],
          [127.448399, 37.986843],
          [127.448061, 37.986796],
          [127.447683, 37.986902],
          [127.447286, 37.986997],
          [127.446771, 37.987052],
          [127.446288, 37.987162],
          [127.445977, 37.987291],
          [127.445746, 37.987671],
          [127.445245, 37.988449],
          [127.445057, 37.988657],
          [127.4447, 37.988946],
          [127.44451, 37.989058],
          [127.444209, 37.989212],
          [127.443922, 37.989286],
          [127.443144, 37.989434],
          [127.442823, 37.989489],
          [127.442334, 37.989464],
          [127.44187, 37.989375],
          [127.441503, 37.9894],
          [127.441462, 37.989231],
          [127.441151, 37.988846],
          [127.440688, 37.988587],
          [127.439024, 37.988203],
          [127.438311, 37.988092],
          [127.437842, 37.987843],
          [127.437513, 37.987324],
          [127.437348, 37.986916],
          [127.437281, 37.986214],
          [127.437397, 37.985969],
          [127.437696, 37.985604],
          [127.438098, 37.984817],
          [127.438427, 37.984106],
          [127.438442, 37.984095]
        ]
      },
      "properties": {
        "id": "myeongji-whole",
        "valleyId": "myeongji",
        "valleyName": "명지계곡",
        "segment": "whole",
        "order": 0,
        "splitBasis": "none",
        "depth": "mixed",
        "shadeByHour": [0.32, 0.319, 0.319, 0.319, 0.319, 0.319, 0.325, 0.376, 0.513],
        "canopyCover": 0.318,
        "shadeRatio": 0.319,
        "swimBanned": false,
        "riskNote": "물놀이관리지역(일반) 도마천 — 최대 수심 3 m·평균 1 m. 인근 적목리 용소폭포는 위험지역(수심 10 m)",
        "basinCode": "101305",
        "freeAccess": true,
        "mapIconTier": 0,
        "mapLabelTier": 0,
        "mapImportance": 10
      }
    }
  ]
}
