{
  "$schema": "../.schema/valleys.schema.json",
  "type": "FeatureCollection",
  "metadata": {
    "description": "사나사계곡(양평군) — 구간 1개. OSM 하천 중심선(사기막천·원암골, way 1160972803·1201060209) 을 계곡 점 기준 상류 2 km·하류 1 km 로 자른 3000 m. 데스크 검수 — 수심·바닥·금지·요금은 manual.csv 로 채운다.",
    "source": "OSM 하천 중심선(© OpenStreetMap contributors, ODbL) + 브이월드 표준유역 코드 + Terrarium 표고 · 데스크 검수(현장 미확인)",
    "sourceFile": "scripts/seed/build.mts (pnpm seed:build)",
    "datasetVersion": "2026-09-07.0",
    "collectedAt": "2026-09-07",
    "coordinateOrder": "[longitude, latitude]",
    "crs": "EPSG:4326",
    "filter": "계곡 점 (127.5430936960196, 37.58099430080427) [vworld-search] · 중심선 오프셋 51 m · 표고 874→266 m · 구간 분할 근거 none",
    "verified": "desk",
    "sources": [
      "https://www.openstreetmap.org/copyright",
      "https://registry.opendata.aws/terrain-tiles/",
      "https://www.vworld.kr/ (표준유역 lt_c_wkmsbsn 코드 조회 — 기하 저장 없음)"
    ]
  },
  "features": [
    {
      "type": "Feature",
      "geometry": {
        "type": "LineString",
        "coordinates": [
          [127.556299, 37.569254],
          [127.556158, 37.569389],
          [127.555969, 37.569602],
          [127.555676, 37.569821],
          [127.555281, 37.570122],
          [127.555066, 37.570287],
          [127.555016, 37.570402],
          [127.555043, 37.570922],
          [127.555084, 37.571234],
          [127.555095, 37.571598],
          [127.555079, 37.571877],
          [127.555194, 37.572141],
          [127.55525, 37.572323],
          [127.555262, 37.572469],
          [127.555256, 37.572578],
          [127.555229, 37.572646],
          [127.555208, 37.572712],
          [127.555208, 37.572802],
          [127.555205, 37.572889],
          [127.555178, 37.572922],
          [127.55516, 37.572991],
          [127.555148, 37.573029],
          [127.555123, 37.573063],
          [127.555049, 37.573083],
          [127.554967, 37.573123],
          [127.554931, 37.573152],
          [127.55489, 37.573202],
          [127.554823, 37.573239],
          [127.554769, 37.573277],
          [127.554567, 37.573382],
          [127.554414, 37.573507],
          [127.554306, 37.573557],
          [127.55422, 37.573594],
          [127.554092, 37.573616],
          [127.553977, 37.573655],
          [127.553856, 37.573705],
          [127.553778, 37.573738],
          [127.553699, 37.573787],
          [127.553611, 37.573835],
          [127.553515, 37.573891],
          [127.553478, 37.573943],
          [127.553428, 37.573997],
          [127.553357, 37.57405],
          [127.553265, 37.574097],
          [127.55313, 37.574111],
          [127.553034, 37.574145],
          [127.552927, 37.574177],
          [127.552739, 37.574256],
          [127.552599, 37.574303],
          [127.552515, 37.574349],
          [127.552494, 37.574444],
          [127.552482, 37.574547],
          [127.552441, 37.574638],
          [127.552342, 37.574692],
          [127.552252, 37.574757],
          [127.552159, 37.574804],
          [127.552045, 37.574842],
          [127.551953, 37.574863],
          [127.551848, 37.574895],
          [127.551737, 37.574902],
          [127.55165, 37.574928],
          [127.551562, 37.575002],
          [127.551466, 37.575093],
          [127.55141, 37.575181],
          [127.551349, 37.575305],
          [127.55121, 37.575457],
          [127.55099, 37.57552],
          [127.550891, 37.575625],
          [127.550845, 37.575727],
          [127.550935, 37.575873],
          [127.550897, 37.57592],
          [127.550749, 37.576023],
          [127.550524, 37.576157],
          [127.550346, 37.576231],
          [127.550008, 37.576227],
          [127.549764, 37.576186],
          [127.549541, 37.576208],
          [127.549344, 37.576164],
          [127.549242, 37.576158],
          [127.549138, 37.576184],
          [127.549033, 37.576265],
          [127.548964, 37.576328],
          [127.548861, 37.576453],
          [127.548777, 37.576555],
          [127.548639, 37.57659],
          [127.548461, 37.576625],
          [127.548347, 37.576664],
          [127.54814, 37.576703],
          [127.547997, 37.576753],
          [127.547866, 37.576883],
          [127.547747, 37.577064],
          [127.547631, 37.577176],
          [127.547499, 37.577297],
          [127.547432, 37.577539],
          [127.547373, 37.577754],
          [127.547307, 37.577964],
          [127.547108, 37.578111],
          [127.546823, 37.578216],
          [127.546538, 37.578389],
          [127.5463, 37.578473],
          [127.546251, 37.578608],
          [127.545994, 37.579019],
          [127.545793, 37.579163],
          [127.545316, 37.579491],
          [127.54516, 37.579569],
          [127.54511, 37.579786],
          [127.545105, 37.580023],
          [127.545092, 37.580212],
          [127.545045, 37.580329],
          [127.545002, 37.580449],
          [127.544931, 37.58059],
          [127.544857, 37.580713],
          [127.544784, 37.580794],
          [127.544605, 37.58082],
          [127.544538, 37.58088],
          [127.544466, 37.580952],
          [127.544388, 37.581039],
          [127.544315, 37.581102],
          [127.544246, 37.581137],
          [127.544134, 37.581136],
          [127.544033, 37.581177],
          [127.543795, 37.581245],
          [127.543652, 37.581286],
          [127.543496, 37.581332],
          [127.54328, 37.581452],
          [127.543123, 37.581501],
          [127.543027, 37.581493],
          [127.542804, 37.581403],
          [127.542472, 37.581311],
          [127.542075, 37.581288],
          [127.541463, 37.581423],
          [127.540844, 37.581521],
          [127.539966, 37.581541],
          [127.53907, 37.581344],
          [127.538897, 37.581372],
          [127.538745, 37.581521],
          [127.538522, 37.581793],
          [127.538363, 37.5819],
          [127.538125, 37.581933],
          [127.537726, 37.581992],
          [127.537262, 37.582015],
          [127.535846, 37.581961],
          [127.535545, 37.582012],
          [127.535372, 37.582118],
          [127.535117, 37.582393],
          [127.534969, 37.58252],
          [127.534675, 37.582652],
          [127.534516, 37.582652],
          [127.534296, 37.582593],
          [127.533932, 37.582396],
          [127.533285, 37.582177],
          [127.533072, 37.582166]
        ]
      },
      "properties": {
        "id": "sanasa-whole",
        "valleyId": "sanasa",
        "valleyName": "사나사계곡",
        "segment": "whole",
        "order": 0,
        "splitBasis": "none",
        "shadeByHour": [0.74, 0.733, 0.73, 0.729, 0.73, 0.735, 0.744, 0.758, 0.799],
        "canopyCover": 0.728,
        "shadeRatio": 0.73,
        "basinCode": "101507",
        "mapIconTier": 0,
        "mapLabelTier": 0,
        "mapImportance": 10
      }
    }
  ]
}
