{
  "$schema": "../.schema/valleys.schema.json",
  "type": "FeatureCollection",
  "metadata": {
    "description": "송추계곡(양주시) — 구간 1개. OSM 하천 중심선(공릉천, way 1104856586·66662161) 을 계곡 점 기준 상류 2 km·하류 1 km 로 자른 3000 m. 데스크 검수 — 수심·바닥·금지·요금은 manual.csv 로 채운다.",
    "source": "OSM 하천 중심선(© OpenStreetMap contributors, ODbL) + 브이월드 표준유역 코드 + Terrarium 표고 · 데스크 검수(현장 미확인)",
    "sourceFile": "scripts/seed/build.mts (pnpm seed:build)",
    "datasetVersion": "2026-09-06.0",
    "collectedAt": "2026-09-06",
    "coordinateOrder": "[longitude, latitude]",
    "crs": "EPSG:4326",
    "filter": "계곡 점 (126.9846682034491, 37.712115166255) [vworld-search] · 중심선 오프셋 5 m · 표고 446→1 m · 구간 분할 근거 none",
    "verified": "desk",
    "sources": [
      "https://www.openstreetmap.org/copyright",
      "https://registry.opendata.aws/terrain-tiles/",
      "https://www.vworld.kr/ (표준유역 lt_c_wkmsbsn 코드 조회 — 기하 저장 없음)"
    ]
  },
  "features": [
    {
      "type": "Feature",
      "geometry": {
        "type": "LineString",
        "coordinates": [
          [127.0022, 37.710671],
          [127.002181, 37.710739],
          [127.00203, 37.711061],
          [127.00187, 37.711249],
          [127.001705, 37.71132],
          [127.001428, 37.711411],
          [127.001029, 37.71145],
          [127.000842, 37.71154],
          [127.000414, 37.711701],
          [126.999976, 37.711781],
          [126.999719, 37.711814],
          [126.999537, 37.711749],
          [126.999334, 37.711659],
          [126.999183, 37.71145],
          [126.998822, 37.711093],
          [126.998561, 37.71089],
          [126.998126, 37.710771],
          [126.99787, 37.710745],
          [126.997691, 37.710684],
          [126.997362, 37.710462],
          [126.997122, 37.710353],
          [126.99687, 37.710308],
          [126.996545, 37.710407],
          [126.996045, 37.7106],
          [126.995289, 37.711064],
          [126.994939, 37.711334],
          [126.994789, 37.711459],
          [126.994398, 37.711588],
          [126.994118, 37.711485],
          [126.993902, 37.711253],
          [126.993658, 37.711035],
          [126.992882, 37.710784],
          [126.992292, 37.710668],
          [126.992024, 37.710568],
          [126.99163, 37.710272],
          [126.991174, 37.710186],
          [126.990825, 37.710379],
          [126.990496, 37.710565],
          [126.990187, 37.710832],
          [126.989857, 37.71108],
          [126.98916, 37.711326],
          [126.988634, 37.711366],
          [126.988194, 37.711292],
          [126.987723, 37.711115],
          [126.98732, 37.710813],
          [126.987097, 37.710375],
          [126.986906, 37.710198],
          [126.986548, 37.710224],
          [126.986365, 37.710282],
          [126.986182, 37.710526],
          [126.986255, 37.710829],
          [126.986239, 37.711273],
          [126.986117, 37.711446],
          [126.985893, 37.711649],
          [126.985633, 37.711778],
          [126.984971, 37.712086],
          [126.984552, 37.712186],
          [126.984162, 37.712408],
          [126.983812, 37.712701],
          [126.983442, 37.713],
          [126.983117, 37.713363],
          [126.982543, 37.713929],
          [126.9821, 37.714064],
          [126.981698, 37.714077],
          [126.981389, 37.71418],
          [126.980966, 37.71436],
          [126.980599, 37.71457],
          [126.980349, 37.714876],
          [126.980127, 37.715275],
          [126.979998, 37.715637],
          [126.979783, 37.716119],
          [126.979445, 37.716372],
          [126.978777, 37.716486],
          [126.978437, 37.716386],
          [126.978228, 37.716359],
          [126.977874, 37.716473],
          [126.97757, 37.716596],
          [126.977455, 37.71666],
          [126.976921, 37.717019],
          [126.976771, 37.717193],
          [126.976488, 37.717415]
        ]
      },
      "properties": {
        "id": "songchu-whole",
        "valleyId": "songchu",
        "valleyName": "송추계곡",
        "segment": "whole",
        "order": 0,
        "splitBasis": "none",
        "shadeByHour": [0.308, 0.303, 0.303, 0.302, 0.302, 0.304, 0.312, 0.342, 0.444],
        "canopyCover": 0.302,
        "shadeRatio": 0.303,
        "accessDistanceM": 1951,
        "accessGradePct": 7.9,
        "basinCode": "101904",
        "mapIconTier": 0,
        "mapLabelTier": 0,
        "mapImportance": 10,
        "elevationM": 165
      }
    }
  ]
}
