{
  "$schema": "../.schema/valleys.schema.json",
  "type": "FeatureCollection",
  "metadata": {
    "description": "소요산계곡(동두천시) — 구간 1개. OSM 하천 중심선(신천, way 475038266) 을 계곡 점 기준 상류 2 km·하류 1 km 로 자른 3000 m. 데스크 검수 — 수심·바닥·금지·요금은 manual.csv 로 채운다.",
    "source": "OSM 하천 중심선(© OpenStreetMap contributors, ODbL) + 브이월드 표준유역 코드 + Terrarium 표고 · 데스크 검수(현장 미확인)",
    "sourceFile": "scripts/seed/build.mts (pnpm seed:build)",
    "datasetVersion": "2026-09-06.0",
    "collectedAt": "2026-09-06",
    "coordinateOrder": "[longitude, latitude]",
    "crs": "EPSG:4326",
    "filter": "계곡 점 (127.0583344955521, 37.949255872977304) [vworld-search] · 중심선 오프셋 102 m · 표고 71→24 m · 구간 분할 근거 none",
    "verified": "desk",
    "sources": [
      "https://www.openstreetmap.org/copyright",
      "https://registry.opendata.aws/terrain-tiles/",
      "https://www.vworld.kr/ (표준유역 lt_c_wkmsbsn 코드 조회 — 기하 저장 없음)"
    ]
  },
  "features": [
    {
      "type": "Feature",
      "geometry": {
        "type": "LineString",
        "coordinates": [
          [127.04842, 37.934283],
          [127.04842, 37.934484],
          [127.04843, 37.935025],
          [127.048473, 37.935592],
          [127.048522, 37.935935],
          [127.048613, 37.936202],
          [127.048752, 37.936498],
          [127.048924, 37.936735],
          [127.04908, 37.93695],
          [127.049691, 37.937813],
          [127.050233, 37.938419],
          [127.050576, 37.938757],
          [127.050855, 37.939011],
          [127.051043, 37.93915],
          [127.051252, 37.939273],
          [127.051467, 37.939442],
          [127.051644, 37.93959],
          [127.051805, 37.939734],
          [127.052116, 37.940077],
          [127.052347, 37.940339],
          [127.052668, 37.940695],
          [127.053022, 37.941059],
          [127.05343, 37.941397],
          [127.054203, 37.942082],
          [127.055619, 37.943182],
          [127.056391, 37.943758],
          [127.057486, 37.944612],
          [127.057872, 37.944934],
          [127.058354, 37.945321],
          [127.058709, 37.945701],
          [127.058968, 37.946072],
          [127.059126, 37.946382],
          [127.059271, 37.946879],
          [127.059288, 37.947133],
          [127.059342, 37.94754],
          [127.059395, 37.948174],
          [127.059449, 37.948707],
          [127.059503, 37.949232],
          [127.059535, 37.949722],
          [127.059578, 37.950196],
          [127.059588, 37.950585],
          [127.059588, 37.951169],
          [127.059599, 37.951541],
          [127.059578, 37.951981],
          [127.059621, 37.952379],
          [127.059685, 37.952743],
          [127.059792, 37.953072],
          [127.059814, 37.953318],
          [127.059782, 37.953529],
          [127.059728, 37.953749],
          [127.059599, 37.953978],
          [127.059503, 37.954121],
          [127.059428, 37.954384],
          [127.059449, 37.954697],
          [127.059497, 37.955052],
          [127.059599, 37.955479],
          [127.059749, 37.956038],
          [127.059873, 37.956444],
          [127.060039, 37.956909],
          [127.060162, 37.95729],
          [127.060285, 37.957618],
          [127.060447, 37.958005]
        ]
      },
      "properties": {
        "id": "soyosan-whole",
        "valleyId": "soyosan",
        "valleyName": "소요산계곡",
        "segment": "whole",
        "order": 0,
        "splitBasis": "none",
        "shadeByHour": [0, 0, 0, 0, 0, 0, 0, 0, 0.023],
        "canopyCover": 0,
        "shadeRatio": 0,
        "accessDistanceM": 722,
        "accessGradePct": 2.6,
        "basinCode": "102213",
        "mapIconTier": 0,
        "mapLabelTier": 0,
        "mapImportance": 10,
        "elevationM": 51
      }
    }
  ]
}
