{
  "$schema": "../.schema/valleys.schema.json",
  "type": "FeatureCollection",
  "metadata": {
    "description": "수동계곡(남양주시) — 구간 1개. OSM 하천 중심선(구운천, way 469420829) 을 계곡 점 기준 상류 2 km·하류 1 km 로 자른 3000 m. 데스크 검수 — 수심·바닥·금지·요금은 manual.csv 로 채운다.",
    "source": "OSM 하천 중심선(© OpenStreetMap contributors, ODbL) + 브이월드 표준유역 코드 + Terrarium 표고 · 데스크 검수(현장 미확인)",
    "sourceFile": "scripts/seed/build.mts (pnpm seed:build)",
    "datasetVersion": "2026-09-06.0",
    "collectedAt": "2026-09-06",
    "coordinateOrder": "[longitude, latitude]",
    "crs": "EPSG:4326",
    "filter": "계곡 점 (127.27307311782788, 37.74988389141767) [vworld-search] · 중심선 오프셋 11 m · 표고 239→28.8 m · 구간 분할 근거 none",
    "verified": "desk",
    "sources": [
      "https://www.openstreetmap.org/copyright",
      "https://registry.opendata.aws/terrain-tiles/",
      "https://www.vworld.kr/ (표준유역 lt_c_wkmsbsn 코드 조회 — 기하 저장 없음)"
    ]
  },
  "features": [
    {
      "type": "Feature",
      "geometry": {
        "type": "LineString",
        "coordinates": [
          [127.282458, 37.763679],
          [127.281598, 37.762811],
          [127.281332, 37.762657],
          [127.281064, 37.762337],
          [127.280944, 37.762181],
          [127.280791, 37.761848],
          [127.280784, 37.761578],
          [127.280658, 37.761226],
          [127.280508, 37.761068],
          [127.28028, 37.760961],
          [127.280022, 37.760942],
          [127.279784, 37.760844],
          [127.279203, 37.760157],
          [127.278744, 37.759527],
          [127.278422, 37.759297],
          [127.277813, 37.759316],
          [127.277488, 37.759163],
          [127.27718, 37.758878],
          [127.276864, 37.758499],
          [127.276585, 37.758036],
          [127.27622, 37.757275],
          [127.275477, 37.756718],
          [127.275297, 37.756584],
          [127.274978, 37.756237],
          [127.274588, 37.756024],
          [127.273973, 37.756073],
          [127.273493, 37.756063],
          [127.272941, 37.75585],
          [127.272632, 37.75558],
          [127.272413, 37.755194],
          [127.272345, 37.754124],
          [127.272199, 37.753368],
          [127.272325, 37.752942],
          [127.272902, 37.751604],
          [127.273119, 37.751258],
          [127.273232, 37.750801],
          [127.273085, 37.750364],
          [127.272879, 37.749684],
          [127.272839, 37.749044],
          [127.273162, 37.748912],
          [127.274523, 37.74928],
          [127.274871, 37.749304],
          [127.275194, 37.74918],
          [127.275385, 37.748373],
          [127.275875, 37.74808],
          [127.27657, 37.747832],
          [127.277585, 37.747358],
          [127.279141, 37.746266],
          [127.280115, 37.745614],
          [127.280542, 37.745069]
        ]
      },
      "properties": {
        "id": "sudong-whole",
        "valleyId": "sudong",
        "valleyName": "수동계곡",
        "segment": "whole",
        "order": 0,
        "splitBasis": "none",
        "shadeByHour": [0.312, 0.298, 0.295, 0.294, 0.295, 0.303, 0.329, 0.404, 0.677],
        "canopyCover": 0.294,
        "shadeRatio": 0.295,
        "accessDistanceM": 949,
        "accessGradePct": 2.2,
        "basinCode": "101505",
        "campingAllowed": true,
        "mapIconTier": 0,
        "mapLabelTier": 0,
        "mapImportance": 10
      }
    }
  ]
}
