{
  "$schema": "../.schema/valleys.schema.json",
  "type": "FeatureCollection",
  "metadata": {
    "description": "수락산계곡(청학리)(남양주시) — 구간 1개. OSM 하천 중심선(청학천·용암천, way 416086224·567190971·425391669·425391670·416086223·280963375) 을 계곡 점 기준 상류 2 km·하류 1 km 로 자른 3000 m. 데스크 검수 — 수심·바닥·금지·요금은 manual.csv 로 채운다.",
    "source": "OSM 하천 중심선(© OpenStreetMap contributors, ODbL) + 브이월드 표준유역 코드 + Terrarium 표고 · 데스크 검수(현장 미확인)",
    "sourceFile": "scripts/seed/build.mts (pnpm seed:build)",
    "datasetVersion": "2026-09-07.0",
    "collectedAt": "2026-09-07",
    "coordinateOrder": "[longitude, latitude]",
    "crs": "EPSG:4326",
    "filter": "계곡 점 (127.1189829255341, 37.707155262607166) [vworld-search] · 중심선 오프셋 96 m · 표고 330→32 m · 구간 분할 근거 none",
    "verified": "desk",
    "sources": [
      "https://www.openstreetmap.org/copyright",
      "https://registry.opendata.aws/terrain-tiles/",
      "https://www.vworld.kr/ (표준유역 lt_c_wkmsbsn 코드 조회 — 기하 저장 없음)"
    ]
  },
  "features": [
    {
      "type": "Feature",
      "geometry": {
        "type": "LineString",
        "coordinates": [
          [127.101017, 37.701287],
          [127.101225, 37.701367],
          [127.101422, 37.701438],
          [127.101607, 37.701516],
          [127.101782, 37.701633],
          [127.101927, 37.701677],
          [127.102129, 37.701697],
          [127.102254, 37.701684],
          [127.102338, 37.701673],
          [127.102525, 37.701648],
          [127.102589, 37.701677],
          [127.102632, 37.701727],
          [127.102623, 37.701813],
          [127.102567, 37.701935],
          [127.10254, 37.702067],
          [127.102577, 37.702123],
          [127.102657, 37.702174],
          [127.102934, 37.702247],
          [127.103301, 37.70235],
          [127.10364, 37.702425],
          [127.103822, 37.702486],
          [127.10401, 37.702572],
          [127.104367, 37.702718],
          [127.104534, 37.702813],
          [127.104774, 37.702915],
          [127.104986, 37.703028],
          [127.105077, 37.703092],
          [127.105239, 37.703206],
          [127.105489, 37.703433],
          [127.105618, 37.703583],
          [127.105757, 37.703869],
          [127.105779, 37.703912],
          [127.10595, 37.704613],
          [127.105998, 37.705122],
          [127.10602, 37.705191],
          [127.106082, 37.705281],
          [127.106319, 37.705408],
          [127.106814, 37.705457],
          [127.107554, 37.705785],
          [127.10853, 37.706013],
          [127.109807, 37.706315],
          [127.110279, 37.706849],
          [127.110784, 37.707274],
          [127.111529, 37.707473],
          [127.112291, 37.707553],
          [127.112782, 37.707496],
          [127.112918, 37.707295],
          [127.113396, 37.707035],
          [127.113863, 37.707104],
          [127.115177, 37.707545],
          [127.11589, 37.707651],
          [127.116545, 37.707456],
          [127.118551, 37.706327],
          [127.119179, 37.706272],
          [127.120643, 37.70606],
          [127.121293, 37.705816],
          [127.121842, 37.705753],
          [127.122051, 37.7058],
          [127.122502, 37.705774],
          [127.123047, 37.705725],
          [127.123355, 37.705585],
          [127.123618, 37.705406],
          [127.123676, 37.705309],
          [127.123846, 37.70502],
          [127.123867, 37.704587],
          [127.12288, 37.703382],
          [127.122773, 37.703017],
          [127.122773, 37.70255],
          [127.122891, 37.70221],
          [127.123103, 37.701861],
          [127.123457, 37.701522],
          [127.124191, 37.701095]
        ]
      },
      "properties": {
        "id": "suraksan-whole",
        "valleyId": "suraksan",
        "valleyName": "수락산계곡(청학리)",
        "segment": "whole",
        "order": 0,
        "splitBasis": "none",
        "bed": "sand",
        "shadeByHour": [0.068, 0.067, 0.067, 0.066, 0.067, 0.067, 0.069, 0.078, 0.212],
        "canopyCover": 0.066,
        "shadeRatio": 0.067,
        "accessDistanceM": 402,
        "accessGradePct": 5.5,
        "basinCode": "101803",
        "freeAccess": true,
        "mapIconTier": 0,
        "mapLabelTier": 0,
        "mapImportance": 10
      }
    }
  ]
}
