{
  "$schema": "../.schema/valleys.schema.json",
  "type": "FeatureCollection",
  "metadata": {
    "description": "용추계곡(가평군) — 구간 1개. OSM 하천 중심선(승안천, way 438646847) 을 계곡 점 기준 상류 2 km·하류 1 km 로 자른 3000 m. 데스크 검수 — 수심·바닥·금지·요금은 manual.csv 로 채운다.",
    "source": "OSM 하천 중심선(© OpenStreetMap contributors, ODbL) + 브이월드 표준유역 코드 + Terrarium 표고 · 데스크 검수(현장 미확인)",
    "sourceFile": "scripts/seed/build.mts (pnpm seed:build)",
    "datasetVersion": "2026-09-26.0",
    "collectedAt": "2026-09-26",
    "coordinateOrder": "[longitude, latitude]",
    "crs": "EPSG:4326",
    "filter": "계곡 점 (127.480533500044, 37.859473752148475) [vworld-search] · 중심선 오프셋 11 m · 표고 476→61 m · 구간 분할 근거 none",
    "verified": "desk",
    "sources": [
      "https://www.openstreetmap.org/copyright",
      "https://registry.opendata.aws/terrain-tiles/",
      "https://www.vworld.kr/ (표준유역 lt_c_wkmsbsn 코드 조회 — 기하 저장 없음)"
    ]
  },
  "features": [
    {
      "type": "Feature",
      "geometry": {
        "type": "LineString",
        "coordinates": [
          [127.46652, 37.860656],
          [127.466517, 37.860631],
          [127.466414, 37.860141],
          [127.466306, 37.859693],
          [127.465932, 37.859186],
          [127.465878, 37.858913],
          [127.465868, 37.858695],
          [127.466034, 37.85846],
          [127.46621, 37.858278],
          [127.466399, 37.858206],
          [127.466639, 37.858177],
          [127.46676, 37.858193],
          [127.467308, 37.858884],
          [127.46773, 37.859242],
          [127.46798, 37.859418],
          [127.468291, 37.8595],
          [127.468998, 37.859559],
          [127.469383, 37.859572],
          [127.470622, 37.859511],
          [127.470884, 37.859513],
          [127.471113, 37.859554],
          [127.471451, 37.859638],
          [127.471614, 37.859726],
          [127.472086, 37.860135],
          [127.472894, 37.860512],
          [127.47332, 37.860557],
          [127.473688, 37.860573],
          [127.473884, 37.860512],
          [127.474185, 37.860314],
          [127.47446, 37.860127],
          [127.474605, 37.859855],
          [127.474611, 37.859754],
          [127.474432, 37.859607],
          [127.47434, 37.859325],
          [127.474262, 37.859053],
          [127.474268, 37.858822],
          [127.474332, 37.858604],
          [127.474753, 37.857927],
          [127.47481, 37.857868],
          [127.474908, 37.857831],
          [127.475043, 37.857825],
          [127.475164, 37.857801],
          [127.47529, 37.857803],
          [127.475968, 37.858012],
          [127.476271, 37.858216],
          [127.476798, 37.858433],
          [127.477309, 37.858833],
          [127.477627, 37.859108],
          [127.477954, 37.859415],
          [127.478629, 37.859789],
          [127.479061, 37.859887],
          [127.4792, 37.859885],
          [127.479301, 37.859869],
          [127.479987, 37.859588],
          [127.481048, 37.859154],
          [127.481782, 37.858804],
          [127.482682, 37.858165],
          [127.482779, 37.857753],
          [127.482571, 37.857431],
          [127.482349, 37.857155],
          [127.481799, 37.856859],
          [127.481363, 37.856517],
          [127.481109, 37.856181],
          [127.480988, 37.855821],
          [127.481004, 37.855399],
          [127.481378, 37.854945],
          [127.481321, 37.854584],
          [127.481515, 37.854372],
          [127.48164, 37.854316],
          [127.481886, 37.854231],
          [127.482208, 37.854026],
          [127.482066, 37.853415],
          [127.481758, 37.852798],
          [127.481526, 37.852391]
        ]
      },
      "properties": {
        "id": "yongchu-gapyeong-whole",
        "valleyId": "yongchu-gapyeong",
        "valleyName": "용추계곡",
        "segment": "whole",
        "order": 0,
        "splitBasis": "none",
        "depth": "mixed",
        "shadeByHour": [0.301, 0.284, 0.28, 0.279, 0.28, 0.29, 0.324, 0.476, 0.904],
        "canopyCover": 0.279,
        "shadeRatio": 0.28,
        "accessDistanceM": 641,
        "accessGradePct": 5.1,
        "swimBanned": false,
        "riskNote": "물놀이관리지역(관리) 용추쉼터 — 최대 수심 2 m·평균 1 m. 인근 254 m 에 위험 구역(수심 5 m)",
        "basinCode": "101306",
        "freeAccess": true,
        "mapIconTier": 0,
        "mapLabelTier": 0,
        "mapImportance": 10,
        "elevationM": 160
      }
    }
  ]
}
