{
  "$schema": "../.schema/valleys.schema.json",
  "type": "FeatureCollection",
  "metadata": {
    "description": "용문산계곡(양평군) — 구간 1개. OSM 하천 중심선(용각골·용문천, way 1115690395·456147869) 을 계곡 점 기준 상류 2 km·하류 1 km 로 자른 3000 m. 데스크 검수 — 수심·바닥·금지·요금은 manual.csv 로 채운다.",
    "source": "OSM 하천 중심선(© OpenStreetMap contributors, ODbL) + 브이월드 표준유역 코드 + Terrarium 표고 · 데스크 검수(현장 미확인)",
    "sourceFile": "scripts/seed/build.mts (pnpm seed:build)",
    "datasetVersion": "2026-09-23.0",
    "collectedAt": "2026-09-23",
    "coordinateOrder": "[longitude, latitude]",
    "crs": "EPSG:4326",
    "filter": "계곡 점 (127.57228428678687, 37.549814634459366) [vworld-search] · 중심선 오프셋 73 m · 표고 771→67 m · 구간 분할 근거 none",
    "verified": "desk",
    "sources": [
      "https://www.openstreetmap.org/copyright",
      "https://registry.opendata.aws/terrain-tiles/",
      "https://www.vworld.kr/ (표준유역 lt_c_wkmsbsn 코드 조회 — 기하 저장 없음)"
    ]
  },
  "features": [
    {
      "type": "Feature",
      "geometry": {
        "type": "LineString",
        "coordinates": [
          [127.558819, 37.562463],
          [127.558826, 37.56244],
          [127.558844, 37.562375],
          [127.558864, 37.562281],
          [127.558887, 37.562249],
          [127.558912, 37.562186],
          [127.558944, 37.562098],
          [127.559052, 37.56192],
          [127.559108, 37.561847],
          [127.559181, 37.561753],
          [127.559206, 37.561722],
          [127.559327, 37.561653],
          [127.559379, 37.561577],
          [127.559444, 37.561509],
          [127.559528, 37.561426],
          [127.559613, 37.561324],
          [127.559676, 37.561282],
          [127.559727, 37.56125],
          [127.559762, 37.561213],
          [127.55981, 37.561168],
          [127.559839, 37.561136],
          [127.559857, 37.561104],
          [127.559875, 37.561076],
          [127.559953, 37.56102],
          [127.560031, 37.560979],
          [127.560131, 37.560954],
          [127.560192, 37.560892],
          [127.560221, 37.560868],
          [127.560295, 37.56081],
          [127.56037, 37.560744],
          [127.560442, 37.56065],
          [127.560512, 37.560569],
          [127.560617, 37.560529],
          [127.560638, 37.560462],
          [127.56069, 37.560384],
          [127.560781, 37.56032],
          [127.560857, 37.560266],
          [127.56089, 37.56025],
          [127.560926, 37.560214],
          [127.560934, 37.560144],
          [127.561008, 37.560075],
          [127.56102, 37.56007],
          [127.561115, 37.56003],
          [127.561162, 37.559931],
          [127.561244, 37.559808],
          [127.561332, 37.559707],
          [127.561458, 37.559597],
          [127.561522, 37.559469],
          [127.561642, 37.559375],
          [127.561934, 37.559259],
          [127.562147, 37.559141],
          [127.562258, 37.559041],
          [127.562311, 37.558993],
          [127.562614, 37.558874],
          [127.562714, 37.558831],
          [127.562791, 37.55876],
          [127.562944, 37.558665],
          [127.562979, 37.5586],
          [127.562965, 37.558558],
          [127.562934, 37.558465],
          [127.562952, 37.558338],
          [127.563046, 37.558196],
          [127.563058, 37.558042],
          [127.563048, 37.55782],
          [127.563112, 37.557672],
          [127.563139, 37.557611],
          [127.563221, 37.55748],
          [127.563256, 37.557443],
          [127.563291, 37.557426],
          [127.563377, 37.557413],
          [127.563467, 37.557378],
          [127.563632, 37.557285],
          [127.563717, 37.557236],
          [127.563876, 37.557134],
          [127.563942, 37.557059],
          [127.564024, 37.557008],
          [127.564101, 37.556951],
          [127.56422, 37.556897],
          [127.564423, 37.556872],
          [127.564685, 37.556869],
          [127.564916, 37.556844],
          [127.565098, 37.556783],
          [127.56528, 37.556682],
          [127.565458, 37.556602],
          [127.565591, 37.55655],
          [127.565712, 37.556458],
          [127.565827, 37.556387],
          [127.565925, 37.556288],
          [127.566075, 37.556166],
          [127.566151, 37.556008],
          [127.566242, 37.555882],
          [127.566323, 37.555726],
          [127.566328, 37.555519],
          [127.566373, 37.555416],
          [127.566397, 37.555351],
          [127.566336, 37.555271],
          [127.566401, 37.555128],
          [127.566433, 37.554976],
          [127.566548, 37.554893],
          [127.566646, 37.554833],
          [127.566673, 37.554793],
          [127.566771, 37.554661],
          [127.566882, 37.554569],
          [127.566954, 37.554425],
          [127.56699, 37.554312],
          [127.567157, 37.554277],
          [127.567224, 37.554153],
          [127.567283, 37.554102],
          [127.567366, 37.553998],
          [127.567418, 37.553963],
          [127.567483, 37.553904],
          [127.567565, 37.553841],
          [127.567639, 37.553786],
          [127.567732, 37.553776],
          [127.567756, 37.553684],
          [127.567805, 37.553595],
          [127.567903, 37.553532],
          [127.567957, 37.553474],
          [127.568035, 37.553398],
          [127.568149, 37.553362],
          [127.56824, 37.553315],
          [127.568261, 37.553261],
          [127.568348, 37.553217],
          [127.568393, 37.55292],
          [127.568482, 37.552834],
          [127.568521, 37.55276],
          [127.568584, 37.552729],
          [127.568653, 37.552629],
          [127.568694, 37.552494],
          [127.568695, 37.552377],
          [127.56869, 37.552281],
          [127.568738, 37.552217],
          [127.568834, 37.552122],
          [127.568888, 37.552101],
          [127.569083, 37.552036],
          [127.56925, 37.55196],
          [127.569364, 37.551698],
          [127.569405, 37.551479],
          [127.569481, 37.551301],
          [127.56965, 37.551266],
          [127.56993, 37.551178],
          [127.57004, 37.551081],
          [127.570134, 37.550931],
          [127.570209, 37.550788],
          [127.570299, 37.55062],
          [127.570306, 37.550496],
          [127.570335, 37.550379],
          [127.570365, 37.55026],
          [127.570374, 37.55015],
          [127.57042, 37.550006],
          [127.570475, 37.549898],
          [127.570544, 37.549796],
          [127.570653, 37.549741],
          [127.570769, 37.549683],
          [127.570957, 37.549665],
          [127.571185, 37.549639],
          [127.57134, 37.549578],
          [127.571465, 37.549537],
          [127.57164, 37.5494],
          [127.571723, 37.54929],
          [127.571759, 37.549222],
          [127.571931, 37.549071],
          [127.571987, 37.549018],
          [127.572119, 37.548948],
          [127.572426, 37.548838],
          [127.572558, 37.548801],
          [127.57267, 37.548793],
          [127.572937, 37.54878],
          [127.573212, 37.54878],
          [127.573394, 37.548875],
          [127.573557, 37.548927],
          [127.573785, 37.548901],
          [127.574052, 37.548797],
          [127.574259, 37.548725],
          [127.574431, 37.548778],
          [127.574577, 37.54885],
          [127.57481, 37.548901],
          [127.575061, 37.548885],
          [127.575291, 37.548875],
          [127.575568, 37.548866],
          [127.575857, 37.54888],
          [127.575959, 37.548919],
          [127.576139, 37.548963],
          [127.576399, 37.548963],
          [127.576574, 37.548956],
          [127.576754, 37.548954],
          [127.576938, 37.548942],
          [127.577084, 37.548778],
          [127.577133, 37.548651],
          [127.57718, 37.548485],
          [127.57725, 37.548311],
          [127.577349, 37.548205],
          [127.57746, 37.54811],
          [127.577573, 37.547981],
          [127.577658, 37.547861],
          [127.577725, 37.547785],
          [127.57774, 37.547678],
          [127.577777, 37.547514],
          [127.577821, 37.547355],
          [127.577877, 37.547272],
          [127.577979, 37.547202],
          [127.578116, 37.547179],
          [127.578232, 37.547209],
          [127.578325, 37.547265],
          [127.57848, 37.547375],
          [127.578573, 37.547406],
          [127.578745, 37.547486],
          [127.578917, 37.54754],
          [127.579042, 37.547567],
          [127.579174, 37.54753],
          [127.579343, 37.547466],
          [127.579649, 37.547403],
          [127.580217, 37.547333],
          [127.580335, 37.547322],
          [127.580453, 37.547302],
          [127.580544, 37.547244],
          [127.580664, 37.547033]
        ]
      },
      "properties": {
        "id": "yongmunsan-whole",
        "valleyId": "yongmunsan",
        "valleyName": "용문산계곡",
        "segment": "whole",
        "order": 0,
        "splitBasis": "none",
        "shadeByHour": [0.943, 0.94, 0.938, 0.938, 0.939, 0.947, 0.96, 0.976, 0.994],
        "canopyCover": 0.938,
        "shadeRatio": 0.938,
        "accessDistanceM": 1222,
        "accessGradePct": 32,
        "basinCode": "100717",
        "mapIconTier": 0,
        "mapLabelTier": 0,
        "mapImportance": 10,
        "elevationM": 385
      }
    }
  ]
}
