{
  "$schema": "../.schema/valleys.schema.json",
  "type": "FeatureCollection",
  "metadata": {
    "description": "유명산계곡(가평군) — 구간 1개. OSM 하천 중심선(벽계천, way 694778836) 을 계곡 점 기준 상류 2 km·하류 1 km 로 자른 1414 m. 데스크 검수 — 수심·바닥·금지·요금은 manual.csv 로 채운다.",
    "source": "OSM 하천 중심선(© OpenStreetMap contributors, ODbL) + 브이월드 표준유역 코드 + Terrarium 표고 · 데스크 검수(현장 미확인)",
    "sourceFile": "scripts/seed/build.mts (pnpm seed:build)",
    "datasetVersion": "2026-09-06.0",
    "collectedAt": "2026-09-06",
    "coordinateOrder": "[longitude, latitude]",
    "crs": "EPSG:4326",
    "filter": "계곡 점 (127.49566799952447, 37.58268953037403) [vworld-search] · 중심선 오프셋 46 m · 표고 430→28.9 m · 구간 분할 근거 none",
    "verified": "desk",
    "sources": [
      "https://www.openstreetmap.org/copyright",
      "https://registry.opendata.aws/terrain-tiles/",
      "https://www.vworld.kr/ (표준유역 lt_c_wkmsbsn 코드 조회 — 기하 저장 없음)"
    ]
  },
  "features": [
    {
      "type": "Feature",
      "geometry": {
        "type": "LineString",
        "coordinates": [
          [127.499026, 37.580192],
          [127.498791, 37.580581],
          [127.498691, 37.580722],
          [127.498485, 37.580907],
          [127.498185, 37.581149],
          [127.498077, 37.581368],
          [127.497894, 37.581589],
          [127.497466, 37.581931],
          [127.496707, 37.582214],
          [127.496267, 37.582765],
          [127.495955, 37.583066],
          [127.495779, 37.583417],
          [127.495603, 37.583744],
          [127.495545, 37.584019],
          [127.495151, 37.584578],
          [127.494984, 37.584746],
          [127.494431, 37.584914],
          [127.493954, 37.585282],
          [127.493841, 37.58545],
          [127.493756, 37.585793],
          [127.493925, 37.586151],
          [127.494108, 37.586578],
          [127.493964, 37.586831],
          [127.493468, 37.587049],
          [127.492923, 37.587518],
          [127.492467, 37.587901],
          [127.492325, 37.5882],
          [127.492112, 37.588552],
          [127.491953, 37.588735],
          [127.491624, 37.588835],
          [127.491313, 37.588885],
          [127.490831, 37.589065],
          [127.490861, 37.589556],
          [127.49103, 37.589872]
        ]
      },
      "properties": {
        "id": "yumyeongsan-whole",
        "valleyId": "yumyeongsan",
        "valleyName": "유명산계곡",
        "segment": "whole",
        "order": 0,
        "splitBasis": "none",
        "depth": "waist",
        "shadeByHour": [0.947, 0.941, 0.938, 0.937, 0.937, 0.943, 0.955, 0.971, 0.992],
        "canopyCover": 0.937,
        "shadeRatio": 0.938,
        "accessDistanceM": 1439,
        "accessGradePct": 9.3,
        "swimBanned": false,
        "riskNote": "물놀이관리지역(일반) 벽계천 — 최대 수심 1 m·평균 1 m",
        "basinCode": "101507",
        "freeAccess": false,
        "campingAllowed": true,
        "petAllowed": false,
        "mapIconTier": 0,
        "mapLabelTier": 0,
        "mapImportance": 10,
        "elevationM": 370
      }
    }
  ]
}
