{"type":"FeatureCollection","metadata":{"description":"개방지(CHM ≤ 2 m)에 드리운 나무·지형 그림자, 2026-08-01 15:00 KST. canopy 위에 겹쳐 그린다","source":"위성 기반 추정 — Copernicus GLO-30 지형(30 m) + Meta/WRI 수관 높이(1 m CHM, 2016 촬영). 그늘 = 수관(CHM > 2 m) ∪ 나무·지형 그림자 ∪ 원거리 지형 마스크. 현장과 다를 수 있음.","datasetVersion":"2026-09-06.0","collectedAt":"2026-09-06","coordinateOrder":"[longitude, latitude]","crs":"EPSG:4326","representativeDate":"2026-08-01","hours":["10:00","11:00","12:00","13:00","14:00","15:00","16:00","17:00","18:00"],"chmAcquisition":["2016-06"],"assets":{"glo30":{"dataset":"Copernicus DEM GLO-30 (COG, s3://copernicus-dem-30m)","tiles":["Copernicus_DSM_COG_10_N37_00_E127_00_DEM"]},"chm":{"dataset":"Meta/WRI Global Canopy Height Map v1 (alsgedi_global_v6_float, 1 m, CC-BY 4.0)","quadkeys":["132110321"],"acquisition":["2016-06"]}},"method":{"gridResM":2,"canopyThresholdM":2,"bufferHalfM":25,"corridorHalfM":200,"simplifyTolM":2,"minAreaM2":25,"coordDecimals":5},"generator":"scripts/shade 0.1.0","builtAt":"2026-09-06T06:09:52Z","layer":"shadow","timeLocal":"15:00"},"features":[{"type":"Feature","properties":{"valleyId":"yongmunsan","layer":"shadow","date":"2026-08-01","timeLocal":"15:00"},"geometry":{"type":"Polygon","coordinates":[[[127.55986,37.55994],[127.55986,37.55989],[127.56008,37.55987],[127.56008,37.55993],[127.55986,37.55994]]]}},{"type":"Feature","properties":{"valleyId":"yongmunsan","layer":"shadow","date":"2026-08-01","timeLocal":"15:00"},"geometry":{"type":"Polygon","coordinates":[[[127.56013,37.55989],[127.56013,37.55982],[127.5602,37.55982],[127.5602,37.55989],[127.56013,37.55989]]]}},{"type":"Feature","properties":{"valleyId":"yongmunsan","layer":"shadow","date":"2026-08-01","timeLocal":"15:00"},"geometry":{"type":"Polygon","coordinates":[[[127.55889,37.55979],[127.55889,37.55973],[127.55896,37.55973],[127.55895,37.55979],[127.55889,37.55979]]]}},{"type":"Feature","properties":{"valleyId":"yongmunsan","layer":"shadow","date":"2026-08-01","timeLocal":"15:00"},"geometry":{"type":"Polygon","coordinates":[[[127.55988,37.55899],[127.55988,37.55893],[127.55997,37.55893],[127.55997,37.55899],[127.55988,37.55899]]]}},{"type":"Feature","properties":{"valleyId":"yongmunsan","layer":"shadow","date":"2026-08-01","timeLocal":"15:00"},"geometry":{"type":"Polygon","coordinates":[[[127.5594,37.55884],[127.5594,37.55878],[127.55947,37.55878],[127.55947,37.55884],[127.5594,37.55884]]]}},{"type":"Feature","properties":{"valleyId":"yongmunsan","layer":"shadow","date":"2026-08-01","timeLocal":"15:00"},"geometry":{"type":"Polygon","coordinates":[[[127.56361,37.5568],[127.56361,37.55674],[127.56366,37.55671],[127.56377,37.55669],[127.56377,37.55674],[127.5637,37.55676],[127.5637,37.5568],[127.56361,37.5568]]]}},{"type":"Feature","properties":{"valleyId":"yongmunsan","layer":"shadow","date":"2026-08-01","timeLocal":"15:00"},"geometry":{"type":"Polygon","coordinates":[[[127.56563,37.55637],[127.56563,37.5563],[127.5657,37.5563],[127.5657,37.55637],[127.56563,37.55637]]]}},{"type":"Feature","properties":{"valleyId":"yongmunsan","layer":"shadow","date":"2026-08-01","timeLocal":"15:00"},"geometry":{"type":"Polygon","coordinates":[[[127.56473,37.5551],[127.56473,37.55504],[127.56482,37.55503],[127.56484,37.55499],[127.56491,37.55499],[127.56491,37.55506],[127.56473,37.5551]]]}},{"type":"Feature","properties":{"valleyId":"yongmunsan","layer":"shadow","date":"2026-08-01","timeLocal":"15:00"},"geometry":{"type":"Polygon","coordinates":[[[127.56511,37.55499],[127.56512,37.55494],[127.56516,37.55494],[127.56518,37.55489],[127.56537,37.55487],[127.56536,37.55494],[127.56527,37.55496],[127.56525,37.555],[127.56511,37.55499]]]}},{"type":"Feature","properties":{"valleyId":"yongmunsan","layer":"shadow","date":"2026-08-01","timeLocal":"15:00"},"geometry":{"type":"Polygon","coordinates":[[[127.56708,37.55379],[127.56709,37.55374],[127.56715,37.55374],[127.56715,37.55379],[127.56708,37.55379]]]}},{"type":"Feature","properties":{"valleyId":"yongmunsan","layer":"shadow","date":"2026-08-01","timeLocal":"15:00"},"geometry":{"type":"Polygon","coordinates":[[[127.56725,37.55365],[127.56725,37.5536],[127.56731,37.5536],[127.56731,37.55365],[127.56725,37.55365]]]}},{"type":"Feature","properties":{"valleyId":"yongmunsan","layer":"shadow","date":"2026-08-01","timeLocal":"15:00"},"geometry":{"type":"Polygon","coordinates":[[[127.56766,37.55347],[127.56766,37.55342],[127.56773,37.55342],[127.56772,37.55348],[127.56766,37.55347]]]}},{"type":"Feature","properties":{"valleyId":"yongmunsan","layer":"shadow","date":"2026-08-01","timeLocal":"15:00"},"geometry":{"type":"Polygon","coordinates":[[[127.57321,37.54858],[127.57319,37.54844],[127.57323,37.54839],[127.57335,37.54837],[127.57335,37.54844],[127.57328,37.54846],[127.57327,37.54859],[127.57321,37.54858]]]}},{"type":"Feature","properties":{"valleyId":"yongmunsan","layer":"shadow","date":"2026-08-01","timeLocal":"15:00"},"geometry":{"type":"Polygon","coordinates":[[[127.56977,37.54818],[127.5698,37.54809],[127.56987,37.54809],[127.56989,37.54817],[127.56977,37.54818]]]}},{"type":"Feature","properties":{"valleyId":"yongmunsan","layer":"shadow","date":"2026-08-01","timeLocal":"15:00"},"geometry":{"type":"Polygon","coordinates":[[[127.57615,37.54617],[127.57615,37.54611],[127.57622,37.54612],[127.57622,37.54617],[127.57615,37.54617]]]}},{"type":"Feature","properties":{"valleyId":"yongmunsan","layer":"shadow","date":"2026-08-01","timeLocal":"15:00"},"geometry":{"type":"Polygon","coordinates":[[[127.57973,37.54583],[127.57973,37.54578],[127.5798,37.54578],[127.5798,37.54583],[127.57973,37.54583]]]}},{"type":"Feature","properties":{"valleyId":"yongmunsan","layer":"shadow","date":"2026-08-01","timeLocal":"15:00"},"geometry":{"type":"Polygon","coordinates":[[[127.58542,37.54585],[127.58542,37.54579],[127.58548,37.54579],[127.58548,37.54585],[127.58542,37.54585]]]}},{"type":"Feature","properties":{"valleyId":"yongmunsan","layer":"shadow","date":"2026-08-01","timeLocal":"15:00"},"geometry":{"type":"Polygon","coordinates":[[[127.58283,37.54475],[127.58288,37.54459],[127.58295,37.54459],[127.5829,37.54475],[127.58283,37.54475]]]}},{"type":"Feature","properties":{"valleyId":"yongmunsan","layer":"shadow","date":"2026-08-01","timeLocal":"15:00"},"geometry":{"type":"Polygon","coordinates":[[[127.58649,37.54395],[127.58649,37.54388],[127.58656,37.54388],[127.58656,37.54395],[127.58649,37.54395]]]}},{"type":"Feature","properties":{"valleyId":"yongmunsan","layer":"shadow","date":"2026-08-01","timeLocal":"15:00"},"geometry":{"type":"Polygon","coordinates":[[[127.58312,37.54377],[127.58312,37.54371],[127.58319,37.54371],[127.58319,37.54377],[127.58312,37.54377]]]}},{"type":"Feature","properties":{"valleyId":"yongmunsan","layer":"shadow","date":"2026-08-01","timeLocal":"15:00"},"geometry":{"type":"Polygon","coordinates":[[[127.58317,37.54368],[127.58317,37.54362],[127.58324,37.54362],[127.58324,37.54368],[127.58317,37.54368]]]}}]}
