{"type":"FeatureCollection","metadata":{"description":"개방지(CHM ≤ 2 m)에 드리운 나무·지형 그림자, 2026-08-01 18:00 KST. canopy 위에 겹쳐 그린다","source":"위성 기반 추정 — Copernicus GLO-30 지형(30 m) + Meta/WRI 수관 높이(1 m CHM, 2016 촬영). 그늘 = 수관(CHM > 2 m) ∪ 나무·지형 그림자 ∪ 원거리 지형 마스크. 현장과 다를 수 있음.","datasetVersion":"2026-09-06.0","collectedAt":"2026-09-06","coordinateOrder":"[longitude, latitude]","crs":"EPSG:4326","representativeDate":"2026-08-01","hours":["10:00","11:00","12:00","13:00","14:00","15:00","16:00","17:00","18:00"],"chmAcquisition":["2016-06"],"assets":{"glo30":{"dataset":"Copernicus DEM GLO-30 (COG, s3://copernicus-dem-30m)","tiles":["Copernicus_DSM_COG_10_N37_00_E127_00_DEM"]},"chm":{"dataset":"Meta/WRI Global Canopy Height Map v1 (alsgedi_global_v6_float, 1 m, CC-BY 4.0)","quadkeys":["132110321"],"acquisition":["2016-06"]}},"method":{"gridResM":2,"canopyThresholdM":2,"bufferHalfM":25,"corridorHalfM":200,"simplifyTolM":2,"minAreaM2":25,"coordDecimals":5},"generator":"scripts/shade 0.1.0","builtAt":"2026-09-06T06:09:52Z","layer":"shadow","timeLocal":"18:00"},"features":[{"type":"Feature","properties":{"valleyId":"yongmunsan","layer":"shadow","date":"2026-08-01","timeLocal":"18:00"},"geometry":{"type":"Polygon","coordinates":[[[127.55966,37.56199],[127.55966,37.56194],[127.55973,37.56194],[127.55973,37.56199],[127.55966,37.56199]]]}},{"type":"Feature","properties":{"valleyId":"yongmunsan","layer":"shadow","date":"2026-08-01","timeLocal":"18:00"},"geometry":{"type":"Polygon","coordinates":[[[127.56093,37.56194],[127.56091,37.56181],[127.561,37.56181],[127.56109,37.56189],[127.56109,37.56194],[127.56093,37.56194]]]}},{"type":"Feature","properties":{"valleyId":"yongmunsan","layer":"shadow","date":"2026-08-01","timeLocal":"18:00"},"geometry":{"type":"Polygon","coordinates":[[[127.56082,37.56179],[127.5608,37.56165],[127.56087,37.56165],[127.56089,37.56179],[127.56082,37.56179]]]}},{"type":"Feature","properties":{"valleyId":"yongmunsan","layer":"shadow","date":"2026-08-01","timeLocal":"18:00"},"geometry":{"type":"Polygon","coordinates":[[[127.5604,37.56114],[127.5604,37.56107],[127.56047,37.56107],[127.56047,37.56114],[127.5604,37.56114]]]}},{"type":"Feature","properties":{"valleyId":"yongmunsan","layer":"shadow","date":"2026-08-01","timeLocal":"18:00"},"geometry":{"type":"Polygon","coordinates":[[[127.56273,37.56118],[127.56276,37.561],[127.5628,37.56097],[127.56294,37.56097],[127.56298,37.56101],[127.56294,37.56111],[127.56287,37.56111],[127.56287,37.56119],[127.56273,37.56118]]]}},{"type":"Feature","properties":{"valleyId":"yongmunsan","layer":"shadow","date":"2026-08-01","timeLocal":"18:00"},"geometry":{"type":"Polygon","coordinates":[[[127.56295,37.56063],[127.56295,37.56056],[127.56304,37.56056],[127.56304,37.56061],[127.56295,37.56063]]]}},{"type":"Feature","properties":{"valleyId":"yongmunsan","layer":"shadow","date":"2026-08-01","timeLocal":"18:00"},"geometry":{"type":"Polygon","coordinates":[[[127.563,37.56038],[127.563,37.5603],[127.56307,37.5603],[127.56306,37.56038],[127.563,37.56038]]]}},{"type":"Feature","properties":{"valleyId":"yongmunsan","layer":"shadow","date":"2026-08-01","timeLocal":"18:00"},"geometry":{"type":"Polygon","coordinates":[[[127.55988,37.55996],[127.55986,37.55989],[127.56008,37.55987],[127.56006,37.55994],[127.55988,37.55996]]]}},{"type":"Feature","properties":{"valleyId":"yongmunsan","layer":"shadow","date":"2026-08-01","timeLocal":"18:00"},"geometry":{"type":"Polygon","coordinates":[[[127.56126,37.55998],[127.56117,37.55994],[127.56117,37.55989],[127.56131,37.55987],[127.56135,37.55991],[127.56135,37.55996],[127.56126,37.55998]]]}},{"type":"Feature","properties":{"valleyId":"yongmunsan","layer":"shadow","date":"2026-08-01","timeLocal":"18:00"},"geometry":{"type":"Polygon","coordinates":[[[127.56013,37.55989],[127.56013,37.55982],[127.5602,37.55982],[127.56022,37.55989],[127.56013,37.55989]]]}},{"type":"Feature","properties":{"valleyId":"yongmunsan","layer":"shadow","date":"2026-08-01","timeLocal":"18:00"},"geometry":{"type":"Polygon","coordinates":[[[127.559,37.55986],[127.55895,37.55979],[127.55889,37.55979],[127.55889,37.55973],[127.55896,37.55973],[127.55895,37.55977],[127.55907,37.55979],[127.55907,37.55986],[127.559,37.55986]]]}},{"type":"Feature","properties":{"valleyId":"yongmunsan","layer":"shadow","date":"2026-08-01","timeLocal":"18:00"},"geometry":{"type":"Polygon","coordinates":[[[127.55994,37.55902],[127.55992,37.55899],[127.55988,37.55899],[127.55988,37.55893],[127.56006,37.55895],[127.56006,37.55902],[127.55994,37.55902]]]}},{"type":"Feature","properties":{"valleyId":"yongmunsan","layer":"shadow","date":"2026-08-01","timeLocal":"18:00"},"geometry":{"type":"Polygon","coordinates":[[[127.55945,37.55891],[127.55945,37.55887],[127.5594,37.55885],[127.5594,37.55878],[127.55961,37.55884],[127.55958,37.55891],[127.55945,37.55891]]]}},{"type":"Feature","properties":{"valleyId":"yongmunsan","layer":"shadow","date":"2026-08-01","timeLocal":"18:00"},"geometry":{"type":"Polygon","coordinates":[[[127.56521,37.5584],[127.56521,37.55835],[127.56532,37.55835],[127.56532,37.5584],[127.56521,37.5584]]]}},{"type":"Feature","properties":{"valleyId":"yongmunsan","layer":"shadow","date":"2026-08-01","timeLocal":"18:00"},"geometry":{"type":"Polygon","coordinates":[[[127.56317,37.55825],[127.56317,37.55818],[127.56326,37.55816],[127.56326,37.55825],[127.56317,37.55825]]]}},{"type":"Feature","properties":{"valleyId":"yongmunsan","layer":"shadow","date":"2026-08-01","timeLocal":"18:00"},"geometry":{"type":"Polygon","coordinates":[[[127.56546,37.55799],[127.56547,37.55794],[127.56556,37.55794],[127.56556,37.55799],[127.56546,37.55799]]]}},{"type":"Feature","properties":{"valleyId":"yongmunsan","layer":"shadow","date":"2026-08-01","timeLocal":"18:00"},"geometry":{"type":"Polygon","coordinates":[[[127.56583,37.55798],[127.56581,37.5579],[127.56587,37.55791],[127.5659,37.55798],[127.56583,37.55798]]]}},{"type":"Feature","properties":{"valleyId":"yongmunsan","layer":"shadow","date":"2026-08-01","timeLocal":"18:00"},"geometry":{"type":"Polygon","coordinates":[[[127.5606,37.55784],[127.5606,37.55779],[127.56069,37.55779],[127.56069,37.55784],[127.5606,37.55784]]]}},{"type":"Feature","properties":{"valleyId":"yongmunsan","layer":"shadow","date":"2026-08-01","timeLocal":"18:00"},"geometry":{"type":"Polygon","coordinates":[[[127.56323,37.55739],[127.56324,37.55733],[127.5633,37.55733],[127.5633,37.55739],[127.56323,37.55739]]]}},{"type":"Feature","properties":{"valleyId":"yongmunsan","layer":"shadow","date":"2026-08-01","timeLocal":"18:00"},"geometry":{"type":"Polygon","coordinates":[[[127.56668,37.55727],[127.56668,37.55719],[127.56675,37.5572],[127.56675,37.55727],[127.56668,37.55727]]]}},{"type":"Feature","properties":{"valleyId":"yongmunsan","layer":"shadow","date":"2026-08-01","timeLocal":"18:00"},"geometry":{"type":"Polygon","coordinates":[[[127.56344,37.55712],[127.56344,37.55706],[127.56351,37.55707],[127.56351,37.55712],[127.56344,37.55712]]]}},{"type":"Feature","properties":{"valleyId":"yongmunsan","layer":"shadow","date":"2026-08-01","timeLocal":"18:00"},"geometry":{"type":"Polygon","coordinates":[[[127.5644,37.55702],[127.5644,37.55697],[127.56447,37.55697],[127.56446,37.55702],[127.5644,37.55702]]]}},{"type":"Feature","properties":{"valleyId":"yongmunsan","layer":"shadow","date":"2026-08-01","timeLocal":"18:00"},"geometry":{"type":"Polygon","coordinates":[[[127.56333,37.55696],[127.56334,37.55687],[127.5634,37.55687],[127.5634,37.55696],[127.56333,37.55696]]]}},{"type":"Feature","properties":{"valleyId":"yongmunsan","layer":"shadow","date":"2026-08-01","timeLocal":"18:00"},"geometry":{"type":"Polygon","coordinates":[[[127.56426,37.55693],[127.56424,37.55689],[127.5642,37.55689],[127.5642,37.55684],[127.56431,37.55684],[127.5644,37.55688],[127.5644,37.55693],[127.56426,37.55693]]]}},{"type":"Feature","properties":{"valleyId":"yongmunsan","layer":"shadow","date":"2026-08-01","timeLocal":"18:00"},"geometry":{"type":"Polygon","coordinates":[[[127.563,37.55681],[127.563,37.55675],[127.56307,37.55675],[127.56306,37.55681],[127.563,37.55681]]]}},{"type":"Feature","properties":{"valleyId":"yongmunsan","layer":"shadow","date":"2026-08-01","timeLocal":"18:00"},"geometry":{"type":"Polygon","coordinates":[[[127.56544,37.55689],[127.56544,37.55682],[127.56533,37.55682],[127.56535,37.55675],[127.56542,37.55675],[127.56544,37.5568],[127.56551,37.5568],[127.56551,37.55689],[127.56544,37.55689]]]}},{"type":"Feature","properties":{"valleyId":"yongmunsan","layer":"shadow","date":"2026-08-01","timeLocal":"18:00"},"geometry":{"type":"Polygon","coordinates":[[[127.56381,37.55689],[127.56377,37.55683],[127.56356,37.55683],[127.56356,37.55678],[127.5637,37.55669],[127.56384,37.55669],[127.56395,37.55676],[127.56408,37.55678],[127.56408,37.55684],[127.56397,37.55684],[127.56388,37.55689],[127.56381,37.55689]]]}},{"type":"Feature","properties":{"valleyId":"yongmunsan","layer":"shadow","date":"2026-08-01","timeLocal":"18:00"},"geometry":{"type":"Polygon","coordinates":[[[127.56563,37.55637],[127.56563,37.5563],[127.5657,37.5563],[127.5657,37.55637],[127.56563,37.55637]]]}},{"type":"Feature","properties":{"valleyId":"yongmunsan","layer":"shadow","date":"2026-08-01","timeLocal":"18:00"},"geometry":{"type":"Polygon","coordinates":[[[127.56666,37.55608],[127.56666,37.55602],[127.56679,37.55602],[127.56679,37.55608],[127.56666,37.55608]]]}},{"type":"Feature","properties":{"valleyId":"yongmunsan","layer":"shadow","date":"2026-08-01","timeLocal":"18:00"},"geometry":{"type":"Polygon","coordinates":[[[127.56628,37.55578],[127.56626,37.55569],[127.56635,37.55569],[127.56639,37.55573],[127.56639,37.55578],[127.56628,37.55578]]]}},{"type":"Feature","properties":{"valleyId":"yongmunsan","layer":"shadow","date":"2026-08-01","timeLocal":"18:00"},"geometry":{"type":"Polygon","coordinates":[[[127.56288,37.55589],[127.56279,37.5557],[127.56275,37.55567],[127.56259,37.55567],[127.56259,37.55561],[127.56273,37.55551],[127.56277,37.55551],[127.56293,37.5554],[127.563,37.5554],[127.563,37.55547],[127.56304,37.55553],[127.56302,37.55576],[127.56297,37.55576],[127.56299,37.55587],[127.56288,37.55589]],[[127.56291,37.55562],[127.56297,37.55562],[127.56298,37.55556],[127.56291,37.55556],[127.56291,37.55562]]]}},{"type":"Feature","properties":{"valleyId":"yongmunsan","layer":"shadow","date":"2026-08-01","timeLocal":"18:00"},"geometry":{"type":"Polygon","coordinates":[[[127.56419,37.55505],[127.56419,37.555],[127.56425,37.555],[127.56425,37.55506],[127.56419,37.55505]]]}},{"type":"Feature","properties":{"valleyId":"yongmunsan","layer":"shadow","date":"2026-08-01","timeLocal":"18:00"},"geometry":{"type":"Polygon","coordinates":[[[127.56477,37.55519],[127.56468,37.55513],[127.56468,37.55506],[127.56482,37.55503],[127.56487,37.55497],[127.56507,37.55499],[127.56505,37.55507],[127.56489,37.55508],[127.56486,37.55517],[127.56477,37.55519]]]}},{"type":"Feature","properties":{"valleyId":"yongmunsan","layer":"shadow","date":"2026-08-01","timeLocal":"18:00"},"geometry":{"type":"Polygon","coordinates":[[[127.56511,37.55499],[127.56512,37.55494],[127.56516,37.55494],[127.56518,37.55489],[127.56528,37.55489],[127.56532,37.55485],[127.56568,37.55486],[127.56568,37.55493],[127.56564,37.55496],[127.56546,37.55494],[127.56539,37.555],[127.56511,37.55499]]]}},{"type":"Feature","properties":{"valleyId":"yongmunsan","layer":"shadow","date":"2026-08-01","timeLocal":"18:00"},"geometry":{"type":"Polygon","coordinates":[[[127.56616,37.55488],[127.56605,37.55486],[127.56605,37.55481],[127.56627,37.55481],[127.56625,37.55488],[127.56616,37.55488]]]}},{"type":"Feature","properties":{"valleyId":"yongmunsan","layer":"shadow","date":"2026-08-01","timeLocal":"18:00"},"geometry":{"type":"Polygon","coordinates":[[[127.56639,37.55478],[127.56639,37.55472],[127.56646,37.55472],[127.56645,37.55478],[127.56639,37.55478]]]}},{"type":"Feature","properties":{"valleyId":"yongmunsan","layer":"shadow","date":"2026-08-01","timeLocal":"18:00"},"geometry":{"type":"Polygon","coordinates":[[[127.56497,37.55447],[127.56497,37.55442],[127.56504,37.55442],[127.56503,37.55447],[127.56497,37.55447]]]}},{"type":"Feature","properties":{"valleyId":"yongmunsan","layer":"shadow","date":"2026-08-01","timeLocal":"18:00"},"geometry":{"type":"Polygon","coordinates":[[[127.56581,37.55392],[127.56582,37.55385],[127.56588,37.5538],[127.56591,37.55372],[127.56604,37.55373],[127.56613,37.55376],[127.56622,37.55387],[127.56634,37.55387],[127.56633,37.55393],[127.56581,37.55392]]]}},{"type":"Feature","properties":{"valleyId":"yongmunsan","layer":"shadow","date":"2026-08-01","timeLocal":"18:00"},"geometry":{"type":"Polygon","coordinates":[[[127.56706,37.55381],[127.56706,37.55376],[127.56715,37.55374],[127.56715,37.55379],[127.56706,37.55381]]]}},{"type":"Feature","properties":{"valleyId":"yongmunsan","layer":"shadow","date":"2026-08-01","timeLocal":"18:00"},"geometry":{"type":"Polygon","coordinates":[[[127.56725,37.55367],[127.56725,37.5536],[127.56734,37.5536],[127.56734,37.55367],[127.56725,37.55367]]]}},{"type":"Feature","properties":{"valleyId":"yongmunsan","layer":"shadow","date":"2026-08-01","timeLocal":"18:00"},"geometry":{"type":"Polygon","coordinates":[[[127.56704,37.55365],[127.56704,37.55359],[127.56713,37.55359],[127.56713,37.55365],[127.56704,37.55365]]]}},{"type":"Feature","properties":{"valleyId":"yongmunsan","layer":"shadow","date":"2026-08-01","timeLocal":"18:00"},"geometry":{"type":"Polygon","coordinates":[[[127.56766,37.55351],[127.56766,37.55342],[127.56775,37.5534],[127.56772,37.55351],[127.56766,37.55351]]]}},{"type":"Feature","properties":{"valleyId":"yongmunsan","layer":"shadow","date":"2026-08-01","timeLocal":"18:00"},"geometry":{"type":"Polygon","coordinates":[[[127.56732,37.55358],[127.56732,37.5534],[127.56736,37.55336],[127.56746,37.55336],[127.5675,37.55351],[127.56741,37.55353],[127.56738,37.55358],[127.56732,37.55358]]]}},{"type":"Feature","properties":{"valleyId":"yongmunsan","layer":"shadow","date":"2026-08-01","timeLocal":"18:00"},"geometry":{"type":"Polygon","coordinates":[[[127.56828,37.55298],[127.56828,37.55289],[127.56835,37.55289],[127.56835,37.55298],[127.56828,37.55298]]]}},{"type":"Feature","properties":{"valleyId":"yongmunsan","layer":"shadow","date":"2026-08-01","timeLocal":"18:00"},"geometry":{"type":"Polygon","coordinates":[[[127.56837,37.55273],[127.56837,37.55265],[127.56844,37.55266],[127.56844,37.55273],[127.56837,37.55273]]]}},{"type":"Feature","properties":{"valleyId":"yongmunsan","layer":"shadow","date":"2026-08-01","timeLocal":"18:00"},"geometry":{"type":"Polygon","coordinates":[[[127.56865,37.55259],[127.56865,37.55253],[127.56872,37.55253],[127.56872,37.55259],[127.56865,37.55259]]]}},{"type":"Feature","properties":{"valleyId":"yongmunsan","layer":"shadow","date":"2026-08-01","timeLocal":"18:00"},"geometry":{"type":"Polygon","coordinates":[[[127.56845,37.5524],[127.56847,37.55231],[127.56858,37.55233],[127.56858,37.55239],[127.56845,37.5524]]]}},{"type":"Feature","properties":{"valleyId":"yongmunsan","layer":"shadow","date":"2026-08-01","timeLocal":"18:00"},"geometry":{"type":"Polygon","coordinates":[[[127.56658,37.55188],[127.56658,37.55182],[127.56674,37.55182],[127.56674,37.55188],[127.56658,37.55188]]]}},{"type":"Feature","properties":{"valleyId":"yongmunsan","layer":"shadow","date":"2026-08-01","timeLocal":"18:00"},"geometry":{"type":"Polygon","coordinates":[[[127.56932,37.55184],[127.56932,37.55176],[127.56939,37.55177],[127.56939,37.55184],[127.56932,37.55184]]]}},{"type":"Feature","properties":{"valleyId":"yongmunsan","layer":"shadow","date":"2026-08-01","timeLocal":"18:00"},"geometry":{"type":"Polygon","coordinates":[[[127.57289,37.55071],[127.5729,37.55065],[127.57294,37.55062],[127.57303,37.55062],[127.57301,37.55069],[127.57289,37.55071]]]}},{"type":"Feature","properties":{"valleyId":"yongmunsan","layer":"shadow","date":"2026-08-01","timeLocal":"18:00"},"geometry":{"type":"Polygon","coordinates":[[[127.57274,37.5504],[127.57274,37.55035],[127.57281,37.55035],[127.57281,37.5504],[127.57274,37.5504]]]}},{"type":"Feature","properties":{"valleyId":"yongmunsan","layer":"shadow","date":"2026-08-01","timeLocal":"18:00"},"geometry":{"type":"Polygon","coordinates":[[[127.57302,37.55008],[127.57302,37.55002],[127.57309,37.55003],[127.57309,37.55008],[127.57302,37.55008]]]}},{"type":"Feature","properties":{"valleyId":"yongmunsan","layer":"shadow","date":"2026-08-01","timeLocal":"18:00"},"geometry":{"type":"Polygon","coordinates":[[[127.5727,37.55033],[127.57263,37.55027],[127.57263,37.5502],[127.57247,37.5502],[127.57245,37.55011],[127.57241,37.55009],[127.57241,37.55005],[127.57234,37.55003],[127.57237,37.54991],[127.57243,37.54991],[127.57243,37.55004],[127.57263,37.55009],[127.57263,37.55018],[127.57279,37.55017],[127.57293,37.55019],[127.57293,37.55022],[127.57297,37.55022],[127.57297,37.55028],[127.57279,37.55024],[127.57277,37.55033],[127.5727,37.55033]]]}},{"type":"Feature","properties":{"valleyId":"yongmunsan","layer":"shadow","date":"2026-08-01","timeLocal":"18:00"},"geometry":{"type":"Polygon","coordinates":[[[127.57323,37.54997],[127.57323,37.54988],[127.57332,37.54987],[127.57332,37.54996],[127.57323,37.54997]]]}},{"type":"Feature","properties":{"valleyId":"yongmunsan","layer":"shadow","date":"2026-08-01","timeLocal":"18:00"},"geometry":{"type":"Polygon","coordinates":[[[127.57873,37.54981],[127.57862,37.54977],[127.57862,37.54971],[127.5788,37.54972],[127.57882,37.54981],[127.57873,37.54981]]]}},{"type":"Feature","properties":{"valleyId":"yongmunsan","layer":"shadow","date":"2026-08-01","timeLocal":"18:00"},"geometry":{"type":"Polygon","coordinates":[[[127.57846,37.54977],[127.57846,37.54968],[127.57855,37.54968],[127.57855,37.54975],[127.57846,37.54977]]]}},{"type":"Feature","properties":{"valleyId":"yongmunsan","layer":"shadow","date":"2026-08-01","timeLocal":"18:00"},"geometry":{"type":"Polygon","coordinates":[[[127.57049,37.55073],[127.57045,37.5507],[127.5705,37.55046],[127.57045,37.55043],[127.57039,37.55043],[127.57039,37.55048],[127.57032,37.55048],[127.57025,37.55037],[127.57025,37.55032],[127.5703,37.5503],[127.5703,37.55024],[127.57025,37.55024],[127.57026,37.5501],[127.57033,37.55006],[127.57033,37.55003],[127.5706,37.55],[127.57065,37.54989],[127.57076,37.54984],[127.57085,37.54984],[127.57087,37.54991],[127.57099,37.54991],[127.57108,37.54977],[127.57117,37.54977],[127.57124,37.54984],[127.57137,37.54984],[127.57142,37.54981],[127.57142,37.54972],[127.5714,37.54968],[127.57135,37.54968],[127.57135,37.54961],[127.57176,37.54961],[127.57176,37.54956],[127.57169,37.54956],[127.5717,37.54938],[127.57174,37.54938],[127.5719,37.54925],[127.57195,37.54925],[127.57213,37.54909],[127.57222,37.5491],[127.5722,37.54922],[127.57224,37.54924],[127.57224,37.54937],[127.57229,37.54942],[127.57253,37.54942],[127.57258,37.54935],[127.57267,37.54935],[127.57272,37.54939],[127.5729,37.54939],[127.57303,37.54936],[127.57303,37.54941],[127.57299,37.54945],[127.57285,37.54945],[127.5728,37.54948],[127.57273,37.54962],[127.57273,37.54973],[127.57269,37.54975],[127.57268,37.54986],[127.57246,37.54989],[127.57248,37.54977],[127.5723,37.54975],[127.5723,37.54982],[127.57214,37.54982],[127.57216,37.54996],[127.57209,37.54996],[127.57205,37.54983],[127.57192,37.54981],[127.57191,37.54989],[127.57196,37.5499],[127.57196,37.54996],[127.57202,37.55001],[127.57204,37.55014],[127.57195,37.55016],[127.57184,37.55024],[127.57184,37.55028],[127.57177,37.5503],[127.57177,37.55035],[127.57161,37.55039],[127.57161,37.55049],[127.5712,37.55047],[127.57118,37.55042],[127.57095,37.55041],[127.57091,37.55043],[127.57091,37.55052],[127.57086,37.55056],[127.57088,37.5507],[127.57074,37.5507],[127.57068,37.55065],[127.57061,37.55064],[127.57056,37.55068],[127.57056,37.55073],[127.57049,37.55073]],[[127.57167,37.54985],[127.57176,37.54983],[127.57174,37.54976],[127.57164,37.54977],[127.57167,37.54985]],[[127.57208,37.54954],[127.57217,37.54955],[127.57219,37.54947],[127.5721,37.54945],[127.57208,37.54954]]]}},{"type":"Feature","properties":{"valleyId":"yongmunsan","layer":"shadow","date":"2026-08-01","timeLocal":"18:00"},"geometry":{"type":"Polygon","coordinates":[[[127.5789,37.54912],[127.57888,37.54898],[127.579,37.54889],[127.57913,37.54889],[127.57918,37.549],[127.57915,37.54909],[127.57911,37.54909],[127.57908,37.54912],[127.5789,37.54912]]]}},{"type":"Feature","properties":{"valleyId":"yongmunsan","layer":"shadow","date":"2026-08-01","timeLocal":"18:00"},"geometry":{"type":"Polygon","coordinates":[[[127.57619,37.5488],[127.57619,37.54875],[127.57628,37.54875],[127.57628,37.5488],[127.57619,37.5488]]]}},{"type":"Feature","properties":{"valleyId":"yongmunsan","layer":"shadow","date":"2026-08-01","timeLocal":"18:00"},"geometry":{"type":"Polygon","coordinates":[[[127.57597,37.54876],[127.57597,37.54871],[127.57603,37.54871],[127.57603,37.54876],[127.57597,37.54876]]]}},{"type":"Feature","properties":{"valleyId":"yongmunsan","layer":"shadow","date":"2026-08-01","timeLocal":"18:00"},"geometry":{"type":"Polygon","coordinates":[[[127.57944,37.54927],[127.57944,37.54916],[127.57958,37.54906],[127.57958,37.54899],[127.57963,37.54893],[127.57963,37.54879],[127.5797,37.5487],[127.5797,37.54865],[127.57982,37.54863],[127.57988,37.5487],[127.58011,37.54869],[127.58015,37.54876],[127.58013,37.54894],[127.58024,37.54896],[127.58024,37.54901],[127.58015,37.54901],[127.58006,37.54894],[127.57981,37.54895],[127.57965,37.54908],[127.57965,37.54915],[127.5796,37.54917],[127.57956,37.54926],[127.57944,37.54927]]]}},{"type":"Feature","properties":{"valleyId":"yongmunsan","layer":"shadow","date":"2026-08-01","timeLocal":"18:00"},"geometry":{"type":"Polygon","coordinates":[[[127.58135,37.54894],[127.58133,37.54881],[127.58138,37.54874],[127.58151,37.54867],[127.58154,37.5486],[127.58172,37.5486],[127.58201,37.54855],[127.58201,37.54862],[127.58192,37.54869],[127.58188,37.54869],[127.58183,37.54874],[127.58178,37.54874],[127.5816,37.54887],[127.58142,37.54894],[127.58135,37.54894]]]}},{"type":"Feature","properties":{"valleyId":"yongmunsan","layer":"shadow","date":"2026-08-01","timeLocal":"18:00"},"geometry":{"type":"Polygon","coordinates":[[[127.57393,37.54852],[127.57391,37.54845],[127.57402,37.54847],[127.57402,37.54852],[127.57393,37.54852]]]}},{"type":"Feature","properties":{"valleyId":"yongmunsan","layer":"shadow","date":"2026-08-01","timeLocal":"18:00"},"geometry":{"type":"Polygon","coordinates":[[[127.57321,37.54858],[127.57319,37.54844],[127.57323,37.54839],[127.57332,37.54835],[127.57351,37.54835],[127.57362,37.54828],[127.5738,37.5483],[127.57382,37.54843],[127.57366,37.54846],[127.57366,37.54852],[127.57357,37.54852],[127.57352,37.54855],[127.5733,37.54855],[127.57327,37.54859],[127.57321,37.54858]]]}},{"type":"Feature","properties":{"valleyId":"yongmunsan","layer":"shadow","date":"2026-08-01","timeLocal":"18:00"},"geometry":{"type":"Polygon","coordinates":[[[127.57025,37.54824],[127.57018,37.54819],[127.57018,37.54813],[127.57025,37.54813],[127.57032,37.54819],[127.57036,37.54819],[127.57036,37.54824],[127.57025,37.54824]]]}},{"type":"Feature","properties":{"valleyId":"yongmunsan","layer":"shadow","date":"2026-08-01","timeLocal":"18:00"},"geometry":{"type":"Polygon","coordinates":[[[127.56997,37.54837],[127.56988,37.54831],[127.56986,37.54826],[127.56961,37.54827],[127.56961,37.54833],[127.56954,37.54832],[127.56948,37.54827],[127.56943,37.54827],[127.56943,37.54821],[127.56955,37.54818],[127.56957,37.54814],[127.56977,37.54816],[127.5698,37.54809],[127.56987,37.54809],[127.56991,37.54815],[127.57005,37.54813],[127.57004,37.5482],[127.57013,37.54826],[127.57013,37.54833],[127.57009,37.54837],[127.56997,37.54837]]]}},{"type":"Feature","properties":{"valleyId":"yongmunsan","layer":"shadow","date":"2026-08-01","timeLocal":"18:00"},"geometry":{"type":"Polygon","coordinates":[[[127.58163,37.54825],[127.58164,37.5482],[127.5817,37.5482],[127.5817,37.54825],[127.58163,37.54825]]]}},{"type":"Feature","properties":{"valleyId":"yongmunsan","layer":"shadow","date":"2026-08-01","timeLocal":"18:00"},"geometry":{"type":"Polygon","coordinates":[[[127.58208,37.54851],[127.58208,37.54844],[127.58204,37.54844],[127.58199,37.54838],[127.58181,37.54836],[127.58182,37.54829],[127.58189,37.54818],[127.58186,37.54808],[127.58196,37.54808],[127.58204,37.54813],[127.582,37.54831],[127.58206,37.54831],[127.58211,37.54839],[127.5822,37.5484],[127.5822,37.54848],[127.58215,37.54851],[127.58208,37.54851]]]}},{"type":"Feature","properties":{"valleyId":"yongmunsan","layer":"shadow","date":"2026-08-01","timeLocal":"18:00"},"geometry":{"type":"Polygon","coordinates":[[[127.5818,37.54791],[127.5818,37.54781],[127.58194,37.54781],[127.58194,37.54788],[127.5818,37.54791]]]}},{"type":"Feature","properties":{"valleyId":"yongmunsan","layer":"shadow","date":"2026-08-01","timeLocal":"18:00"},"geometry":{"type":"Polygon","coordinates":[[[127.5795,37.54758],[127.5795,37.54753],[127.57959,37.54751],[127.57959,37.54758],[127.5795,37.54758]]]}},{"type":"Feature","properties":{"valleyId":"yongmunsan","layer":"shadow","date":"2026-08-01","timeLocal":"18:00"},"geometry":{"type":"Polygon","coordinates":[[[127.58002,37.54757],[127.58002,37.54751],[127.58029,37.54752],[127.58029,37.54757],[127.58002,37.54757]]]}},{"type":"Feature","properties":{"valleyId":"yongmunsan","layer":"shadow","date":"2026-08-01","timeLocal":"18:00"},"geometry":{"type":"Polygon","coordinates":[[[127.58169,37.54752],[127.58165,37.54744],[127.58165,37.54739],[127.58176,37.54741],[127.58179,37.54746],[127.58178,37.54752],[127.58169,37.54752]]]}},{"type":"Feature","properties":{"valleyId":"yongmunsan","layer":"shadow","date":"2026-08-01","timeLocal":"18:00"},"geometry":{"type":"Polygon","coordinates":[[[127.5783,37.5474],[127.5783,37.54731],[127.57837,37.54731],[127.57837,37.5474],[127.5783,37.5474]]]}},{"type":"Feature","properties":{"valleyId":"yongmunsan","layer":"shadow","date":"2026-08-01","timeLocal":"18:00"},"geometry":{"type":"Polygon","coordinates":[[[127.58043,37.54873],[127.58041,37.54864],[127.58032,37.54858],[127.58034,37.54844],[127.58041,37.54837],[127.58046,37.54837],[127.58053,37.54826],[127.58068,37.54822],[127.58066,37.5481],[127.58078,37.5481],[127.5808,37.54817],[127.58089,37.54819],[127.58089,37.5483],[127.58095,37.5483],[127.58096,37.54825],[127.58116,37.54825],[127.58118,37.54821],[127.58118,37.54814],[127.58112,37.5481],[127.58098,37.5481],[127.58094,37.54807],[127.58094,37.54798],[127.58085,37.54794],[127.58085,37.5479],[127.58076,37.54785],[127.58076,37.54776],[127.58069,37.5477],[127.58068,37.54752],[127.58052,37.5475],[127.5805,37.54736],[127.58052,37.54729],[127.58059,37.54729],[127.58063,37.5473],[127.58063,37.54739],[127.58088,37.5474],[127.58086,37.54751],[127.58092,37.54754],[127.58092,37.5476],[127.58099,37.54762],[127.58103,37.54767],[127.5811,37.54767],[127.58112,37.54776],[127.58117,37.5478],[127.58124,37.5478],[127.58128,37.54784],[127.58128,37.54789],[127.58142,37.54791],[127.58148,37.548],[127.58148,37.54805],[127.58141,37.54807],[127.58141,37.54816],[127.58136,37.54816],[127.58134,37.54821],[127.58127,37.54823],[127.58127,37.54832],[127.58111,37.54832],[127.58098,37.54835],[127.58095,37.54841],[127.58084,37.54841],[127.58082,37.54848],[127.58075,37.54848],[127.58072,37.54855],[127.58068,37.54855],[127.58068,37.54866],[127.58052,37.54873],[127.58043,37.54873]]]}},{"type":"Feature","properties":{"valleyId":"yongmunsan","layer":"shadow","date":"2026-08-01","timeLocal":"18:00"},"geometry":{"type":"Polygon","coordinates":[[[127.57941,37.54731],[127.57941,37.54722],[127.57955,37.54724],[127.57952,37.54731],[127.57941,37.54731]]]}},{"type":"Feature","properties":{"valleyId":"yongmunsan","layer":"shadow","date":"2026-08-01","timeLocal":"18:00"},"geometry":{"type":"Polygon","coordinates":[[[127.58075,37.54732],[127.58077,37.54722],[127.58082,37.54718],[127.58091,37.54718],[127.58091,37.54724],[127.58084,37.54725],[127.58084,37.54731],[127.58075,37.54732]]]}},{"type":"Feature","properties":{"valleyId":"yongmunsan","layer":"shadow","date":"2026-08-01","timeLocal":"18:00"},"geometry":{"type":"Polygon","coordinates":[[[127.58206,37.54725],[127.58206,37.5472],[127.58215,37.5472],[127.58215,37.54725],[127.58206,37.54725]]]}},{"type":"Feature","properties":{"valleyId":"yongmunsan","layer":"shadow","date":"2026-08-01","timeLocal":"18:00"},"geometry":{"type":"Polygon","coordinates":[[[127.58159,37.54717],[127.58159,37.54712],[127.58166,37.54712],[127.58166,37.54717],[127.58159,37.54717]]]}},{"type":"Feature","properties":{"valleyId":"yongmunsan","layer":"shadow","date":"2026-08-01","timeLocal":"18:00"},"geometry":{"type":"Polygon","coordinates":[[[127.58229,37.54718],[127.58229,37.54714],[127.58215,37.54714],[127.58216,37.54703],[127.58222,37.54704],[127.58225,37.54707],[127.58236,37.54711],[127.58236,37.54718],[127.58229,37.54718]]]}},{"type":"Feature","properties":{"valleyId":"yongmunsan","layer":"shadow","date":"2026-08-01","timeLocal":"18:00"},"geometry":{"type":"Polygon","coordinates":[[[127.58319,37.54725],[127.58318,37.54699],[127.58324,37.54699],[127.58333,37.54703],[127.58335,37.54716],[127.58326,37.54719],[127.58326,37.54725],[127.58319,37.54725]]]}},{"type":"Feature","properties":{"valleyId":"yongmunsan","layer":"shadow","date":"2026-08-01","timeLocal":"18:00"},"geometry":{"type":"Polygon","coordinates":[[[127.58236,37.54704],[127.58236,37.54698],[127.58243,37.54698],[127.58243,37.54704],[127.58236,37.54704]]]}},{"type":"Feature","properties":{"valleyId":"yongmunsan","layer":"shadow","date":"2026-08-01","timeLocal":"18:00"},"geometry":{"type":"Polygon","coordinates":[[[127.58247,37.54697],[127.58248,37.54691],[127.58254,37.54691],[127.58254,37.54697],[127.58247,37.54697]]]}},{"type":"Feature","properties":{"valleyId":"yongmunsan","layer":"shadow","date":"2026-08-01","timeLocal":"18:00"},"geometry":{"type":"Polygon","coordinates":[[[127.58272,37.54701],[127.5827,37.5469],[127.58277,37.5469],[127.58279,37.54701],[127.58272,37.54701]]]}},{"type":"Feature","properties":{"valleyId":"yongmunsan","layer":"shadow","date":"2026-08-01","timeLocal":"18:00"},"geometry":{"type":"Polygon","coordinates":[[[127.581,37.54718],[127.58098,37.54706],[127.58105,37.54706],[127.58105,37.54693],[127.58112,37.54693],[127.58112,37.54688],[127.58123,37.54686],[127.58123,37.54697],[127.58114,37.54702],[127.58114,37.54715],[127.58109,37.54715],[127.58109,37.54718],[127.581,37.54718]]]}},{"type":"Feature","properties":{"valleyId":"yongmunsan","layer":"shadow","date":"2026-08-01","timeLocal":"18:00"},"geometry":{"type":"Polygon","coordinates":[[[127.58168,37.54694],[127.58168,37.54685],[127.58184,37.54683],[127.58184,37.54689],[127.58177,37.54694],[127.58168,37.54694]]]}},{"type":"Feature","properties":{"valleyId":"yongmunsan","layer":"shadow","date":"2026-08-01","timeLocal":"18:00"},"geometry":{"type":"Polygon","coordinates":[[[127.58209,37.547],[127.58209,37.54694],[127.58205,37.54683],[127.58211,37.54684],[127.58211,37.54689],[127.58216,37.54691],[127.58216,37.547],[127.58209,37.547]]]}},{"type":"Feature","properties":{"valleyId":"yongmunsan","layer":"shadow","date":"2026-08-01","timeLocal":"18:00"},"geometry":{"type":"Polygon","coordinates":[[[127.58227,37.54695],[127.5823,37.54678],[127.58241,37.5468],[127.58236,37.54695],[127.58227,37.54695]]]}},{"type":"Feature","properties":{"valleyId":"yongmunsan","layer":"shadow","date":"2026-08-01","timeLocal":"18:00"},"geometry":{"type":"Polygon","coordinates":[[[127.58463,37.54687],[127.58463,37.54678],[127.58476,37.54678],[127.58476,37.54683],[127.58463,37.54687]]]}},{"type":"Feature","properties":{"valleyId":"yongmunsan","layer":"shadow","date":"2026-08-01","timeLocal":"18:00"},"geometry":{"type":"Polygon","coordinates":[[[127.58431,37.54686],[127.58431,37.54675],[127.58447,37.54676],[127.58447,37.54683],[127.58442,37.54683],[127.5844,37.54686],[127.58431,37.54686]]]}},{"type":"Feature","properties":{"valleyId":"yongmunsan","layer":"shadow","date":"2026-08-01","timeLocal":"18:00"},"geometry":{"type":"Polygon","coordinates":[[[127.5825,37.54679],[127.5825,37.54671],[127.58257,37.54671],[127.58257,37.54679],[127.5825,37.54679]]]}},{"type":"Feature","properties":{"valleyId":"yongmunsan","layer":"shadow","date":"2026-08-01","timeLocal":"18:00"},"geometry":{"type":"Polygon","coordinates":[[[127.58189,37.5468],[127.58189,37.54665],[127.58203,37.54665],[127.58205,37.54674],[127.58196,37.5468],[127.58189,37.5468]]]}},{"type":"Feature","properties":{"valleyId":"yongmunsan","layer":"shadow","date":"2026-08-01","timeLocal":"18:00"},"geometry":{"type":"Polygon","coordinates":[[[127.58232,37.54673],[127.58232,37.54664],[127.58239,37.54664],[127.58241,37.54671],[127.58232,37.54673]]]}},{"type":"Feature","properties":{"valleyId":"yongmunsan","layer":"shadow","date":"2026-08-01","timeLocal":"18:00"},"geometry":{"type":"Polygon","coordinates":[[[127.58166,37.54669],[127.58167,37.54663],[127.5818,37.54663],[127.5818,37.54669],[127.58166,37.54669]]]}},{"type":"Feature","properties":{"valleyId":"yongmunsan","layer":"shadow","date":"2026-08-01","timeLocal":"18:00"},"geometry":{"type":"Polygon","coordinates":[[[127.58472,37.54672],[127.58472,37.54665],[127.58459,37.54665],[127.58456,37.54658],[127.58508,37.54662],[127.58508,37.54667],[127.58472,37.54672]]]}},{"type":"Feature","properties":{"valleyId":"yongmunsan","layer":"shadow","date":"2026-08-01","timeLocal":"18:00"},"geometry":{"type":"Polygon","coordinates":[[[127.58293,37.54676],[127.58293,37.54665],[127.58287,37.54665],[127.58287,37.54654],[127.58294,37.54654],[127.583,37.54663],[127.583,37.54676],[127.58293,37.54676]]]}},{"type":"Feature","properties":{"valleyId":"yongmunsan","layer":"shadow","date":"2026-08-01","timeLocal":"18:00"},"geometry":{"type":"Polygon","coordinates":[[[127.58049,37.5466],[127.58047,37.54649],[127.58058,37.54649],[127.58058,37.5466],[127.58049,37.5466]]]}},{"type":"Feature","properties":{"valleyId":"yongmunsan","layer":"shadow","date":"2026-08-01","timeLocal":"18:00"},"geometry":{"type":"Polygon","coordinates":[[[127.58056,37.54646],[127.58056,37.54635],[127.58065,37.54635],[127.58067,37.54646],[127.58056,37.54646]]]}},{"type":"Feature","properties":{"valleyId":"yongmunsan","layer":"shadow","date":"2026-08-01","timeLocal":"18:00"},"geometry":{"type":"Polygon","coordinates":[[[127.57649,37.54628],[127.57649,37.54623],[127.57656,37.54623],[127.57656,37.54628],[127.57649,37.54628]]]}},{"type":"Feature","properties":{"valleyId":"yongmunsan","layer":"shadow","date":"2026-08-01","timeLocal":"18:00"},"geometry":{"type":"Polygon","coordinates":[[[127.5813,37.54684],[127.58132,37.54674],[127.58139,37.54668],[127.58139,37.54659],[127.58144,37.54658],[127.58144,37.5465],[127.5814,37.54647],[127.58133,37.54647],[127.58133,37.54641],[127.5814,37.54639],[127.5814,37.54634],[127.58133,37.54634],[127.58133,37.54629],[127.58156,37.54629],[127.58156,37.54636],[127.58153,37.5464],[127.58149,37.5464],[127.58149,37.54645],[127.5816,37.54647],[127.5816,37.54652],[127.58155,37.54654],[127.58157,37.54665],[127.58151,37.54665],[127.58144,37.54679],[127.58139,37.54679],[127.58137,37.54684],[127.5813,37.54684]]]}},{"type":"Feature","properties":{"valleyId":"yongmunsan","layer":"shadow","date":"2026-08-01","timeLocal":"18:00"},"geometry":{"type":"Polygon","coordinates":[[[127.58187,37.54654],[127.58187,37.54647],[127.58196,37.5464],[127.58197,37.54628],[127.58222,37.5463],[127.58217,37.54644],[127.58212,37.54644],[127.58205,37.54651],[127.58187,37.54654]]]}},{"type":"Feature","properties":{"valleyId":"yongmunsan","layer":"shadow","date":"2026-08-01","timeLocal":"18:00"},"geometry":{"type":"Polygon","coordinates":[[[127.58124,37.54632],[127.58124,37.54627],[127.58131,37.54627],[127.58131,37.54632],[127.58124,37.54632]]]}},{"type":"Feature","properties":{"valleyId":"yongmunsan","layer":"shadow","date":"2026-08-01","timeLocal":"18:00"},"geometry":{"type":"Polygon","coordinates":[[[127.58253,37.54637],[127.58249,37.54634],[127.58249,37.54628],[127.5826,37.5463],[127.5826,37.54637],[127.58253,37.54637]]]}},{"type":"Feature","properties":{"valleyId":"yongmunsan","layer":"shadow","date":"2026-08-01","timeLocal":"18:00"},"geometry":{"type":"Polygon","coordinates":[[[127.58036,37.54633],[127.58036,37.5462],[127.58052,37.5462],[127.58052,37.54629],[127.58036,37.54633]]]}},{"type":"Feature","properties":{"valleyId":"yongmunsan","layer":"shadow","date":"2026-08-01","timeLocal":"18:00"},"geometry":{"type":"Polygon","coordinates":[[[127.57798,37.54623],[127.57798,37.54617],[127.57807,37.54617],[127.57807,37.54623],[127.57798,37.54623]]]}},{"type":"Feature","properties":{"valleyId":"yongmunsan","layer":"shadow","date":"2026-08-01","timeLocal":"18:00"},"geometry":{"type":"Polygon","coordinates":[[[127.5766,37.54621],[127.5766,37.54616],[127.57669,37.54614],[127.57669,37.54621],[127.5766,37.54621]]]}},{"type":"Feature","properties":{"valleyId":"yongmunsan","layer":"shadow","date":"2026-08-01","timeLocal":"18:00"},"geometry":{"type":"Polygon","coordinates":[[[127.57585,37.54651],[127.57585,37.54645],[127.5759,37.54638],[127.57597,37.54635],[127.57601,37.54624],[127.57622,37.54624],[127.57622,37.54619],[127.57615,37.54617],[127.57615,37.54611],[127.57624,37.54612],[127.57631,37.54621],[127.5764,37.54621],[127.57635,37.54639],[127.57617,37.54637],[127.57617,37.54642],[127.57603,37.54642],[127.57599,37.54646],[127.57599,37.54651],[127.57585,37.54651]]]}},{"type":"Feature","properties":{"valleyId":"yongmunsan","layer":"shadow","date":"2026-08-01","timeLocal":"18:00"},"geometry":{"type":"Polygon","coordinates":[[[127.5821,37.54624],[127.5821,37.54619],[127.58217,37.54619],[127.58217,37.54624],[127.5821,37.54624]]]}},{"type":"Feature","properties":{"valleyId":"yongmunsan","layer":"shadow","date":"2026-08-01","timeLocal":"18:00"},"geometry":{"type":"Polygon","coordinates":[[[127.58563,37.54632],[127.58566,37.54616],[127.58588,37.5462],[127.58591,37.5463],[127.58572,37.54627],[127.58572,37.54632],[127.58563,37.54632]]]}},{"type":"Feature","properties":{"valleyId":"yongmunsan","layer":"shadow","date":"2026-08-01","timeLocal":"18:00"},"geometry":{"type":"Polygon","coordinates":[[[127.58224,37.5463],[127.58222,37.54617],[127.58231,37.54617],[127.58233,37.54608],[127.5824,37.54608],[127.58238,37.54621],[127.58242,37.54621],[127.58242,37.54626],[127.58237,37.54626],[127.58237,37.5463],[127.58224,37.5463]]]}},{"type":"Feature","properties":{"valleyId":"yongmunsan","layer":"shadow","date":"2026-08-01","timeLocal":"18:00"},"geometry":{"type":"Polygon","coordinates":[[[127.58192,37.54617],[127.58192,37.54613],[127.58186,37.54611],[127.58186,37.54606],[127.58204,37.54608],[127.58206,37.54617],[127.58192,37.54617]]]}},{"type":"Feature","properties":{"valleyId":"yongmunsan","layer":"shadow","date":"2026-08-01","timeLocal":"18:00"},"geometry":{"type":"Polygon","coordinates":[[[127.5764,37.54603],[127.5764,37.54597],[127.57647,37.54597],[127.57647,37.54603],[127.5764,37.54603]]]}},{"type":"Feature","properties":{"valleyId":"yongmunsan","layer":"shadow","date":"2026-08-01","timeLocal":"18:00"},"geometry":{"type":"Polygon","coordinates":[[[127.57842,37.54605],[127.5784,37.54598],[127.57846,37.54598],[127.57848,37.54605],[127.57842,37.54605]]]}},{"type":"Feature","properties":{"valleyId":"yongmunsan","layer":"shadow","date":"2026-08-01","timeLocal":"18:00"},"geometry":{"type":"Polygon","coordinates":[[[127.5798,37.54603],[127.5798,37.54598],[127.57987,37.54598],[127.57987,37.54603],[127.5798,37.54603]]]}},{"type":"Feature","properties":{"valleyId":"yongmunsan","layer":"shadow","date":"2026-08-01","timeLocal":"18:00"},"geometry":{"type":"Polygon","coordinates":[[[127.58163,37.54625],[127.58163,37.54611],[127.58145,37.54609],[127.58143,37.546],[127.58161,37.54604],[127.58161,37.54595],[127.58179,37.54595],[127.58181,37.54607],[127.58177,37.54607],[127.58177,37.54613],[127.58183,37.54617],[127.58183,37.54626],[127.58163,37.54625]]]}},{"type":"Feature","properties":{"valleyId":"yongmunsan","layer":"shadow","date":"2026-08-01","timeLocal":"18:00"},"geometry":{"type":"Polygon","coordinates":[[[127.58258,37.54608],[127.58258,37.54598],[127.58265,37.54598],[127.58265,37.54592],[127.58274,37.54592],[127.58274,37.54601],[127.58279,37.54601],[127.58279,37.54607],[127.58258,37.54608]]]}},{"type":"Feature","properties":{"valleyId":"yongmunsan","layer":"shadow","date":"2026-08-01","timeLocal":"18:00"},"geometry":{"type":"Polygon","coordinates":[[[127.58575,37.54603],[127.58578,37.54596],[127.58589,37.54596],[127.58589,37.54602],[127.58575,37.54603]]]}},{"type":"Feature","properties":{"valleyId":"yongmunsan","layer":"shadow","date":"2026-08-01","timeLocal":"18:00"},"geometry":{"type":"Polygon","coordinates":[[[127.58609,37.546],[127.58609,37.54595],[127.58616,37.54595],[127.58616,37.546],[127.58609,37.546]]]}},{"type":"Feature","properties":{"valleyId":"yongmunsan","layer":"shadow","date":"2026-08-01","timeLocal":"18:00"},"geometry":{"type":"Polygon","coordinates":[[[127.5788,37.54604],[127.57871,37.54593],[127.57871,37.54584],[127.5789,37.54581],[127.57898,37.54595],[127.57898,37.54604],[127.5788,37.54604]]]}},{"type":"Feature","properties":{"valleyId":"yongmunsan","layer":"shadow","date":"2026-08-01","timeLocal":"18:00"},"geometry":{"type":"Polygon","coordinates":[[[127.57939,37.54587],[127.57939,37.54581],[127.57953,37.54581],[127.57953,37.54587],[127.57939,37.54587]]]}},{"type":"Feature","properties":{"valleyId":"yongmunsan","layer":"shadow","date":"2026-08-01","timeLocal":"18:00"},"geometry":{"type":"Polygon","coordinates":[[[127.57979,37.54753],[127.57966,37.54751],[127.57966,37.54746],[127.5797,37.54742],[127.57977,37.54742],[127.5798,37.54737],[127.5798,37.5472],[127.57969,37.54718],[127.57973,37.54704],[127.57972,37.54682],[127.57976,37.54675],[127.57976,37.54663],[127.57963,37.54657],[127.57961,37.54654],[127.57936,37.54655],[127.57934,37.54651],[127.57927,37.54651],[127.57922,37.54646],[127.57895,37.54642],[127.57884,37.54629],[127.57848,37.54627],[127.57844,37.54621],[127.57819,37.54619],[127.57817,37.54605],[127.57824,37.54605],[127.57826,37.5461],[127.57846,37.54611],[127.57846,37.54618],[127.5786,37.54618],[127.57859,37.54622],[127.57882,37.54624],[127.57902,37.54624],[127.57905,37.54611],[127.57916,37.5461],[127.57918,37.54617],[127.57912,37.54617],[127.57911,37.54624],[127.57925,37.54624],[127.57925,37.5463],[127.57936,37.5463],[127.57941,37.54633],[127.57948,37.54634],[127.57952,37.54639],[127.57959,37.54639],[127.57961,37.5463],[127.57954,37.54628],[127.57954,37.54625],[127.57943,37.54624],[127.57943,37.5461],[127.57952,37.5461],[127.57957,37.54603],[127.57971,37.54603],[127.57971,37.54612],[127.57975,37.54612],[127.57977,37.54621],[127.57972,37.5463],[127.57972,37.54643],[127.57968,37.54643],[127.57968,37.54648],[127.57986,37.54652],[127.57988,37.54656],[127.57999,37.54656],[127.57999,37.54649],[127.5799,37.54645],[127.57989,37.54607],[127.57998,37.54607],[127.57998,37.54589],[127.58007,37.54582],[127.58019,37.54579],[127.5803,37.5458],[127.5803,37.54595],[127.58018,37.54597],[127.58014,37.54602],[127.58005,37.54602],[127.58005,37.54607],[127.58016,37.54611],[127.58016,37.5462],[127.58013,37.54624],[127.58,37.54625],[127.58,37.54631],[127.58011,37.54632],[127.58013,37.54643],[127.5802,37.54645],[127.5802,37.54651],[127.58013,37.54652],[127.58013,37.54658],[127.58017,37.54658],[127.58017,37.54661],[127.58024,37.54667],[127.58044,37.54671],[127.58042,37.54685],[127.58028,37.54687],[127.58024,37.54685],[127.58024,37.54678],[127.5801,37.54679],[127.5801,37.54687],[127.58019,37.54688],[127.58019,37.54699],[127.5801,37.54701],[127.5801,37.54705],[127.57996,37.5471],[127.57996,37.54715],[127.58007,37.54723],[127.58007,37.54728],[127.58002,37.54728],[127.58002,37.54732],[127.57993,37.54735],[127.57993,37.5474],[127.57986,37.54742],[127.57991,37.54753],[127.57979,37.54753]]]}},{"type":"Feature","properties":{"valleyId":"yongmunsan","layer":"shadow","date":"2026-08-01","timeLocal":"18:00"},"geometry":{"type":"Polygon","coordinates":[[[127.58236,37.54596],[127.58236,37.54581],[127.58256,37.54583],[127.58256,37.54592],[127.58249,37.54592],[127.58247,37.54596],[127.58236,37.54596]]]}},{"type":"Feature","properties":{"valleyId":"yongmunsan","layer":"shadow","date":"2026-08-01","timeLocal":"18:00"},"geometry":{"type":"Polygon","coordinates":[[[127.5798,37.54589],[127.57973,37.54587],[127.57973,37.54578],[127.57987,37.54582],[127.57987,37.54589],[127.5798,37.54589]]]}},{"type":"Feature","properties":{"valleyId":"yongmunsan","layer":"shadow","date":"2026-08-01","timeLocal":"18:00"},"geometry":{"type":"Polygon","coordinates":[[[127.58007,37.54742],[127.58009,37.54728],[127.58027,37.5473],[127.58032,37.54723],[127.5805,37.54719],[127.58052,37.5471],[127.58046,37.54709],[127.58046,37.54701],[127.5805,37.547],[127.58053,37.54676],[127.5806,37.54675],[127.58062,37.5466],[127.58069,37.54658],[127.5807,37.54644],[127.58088,37.54644],[127.58088,37.54635],[127.58077,37.54633],[127.58077,37.54626],[127.58086,37.54623],[127.58086,37.54615],[127.58095,37.54615],[127.581,37.54608],[127.58113,37.54605],[127.58116,37.54596],[127.5813,37.54585],[127.5813,37.5458],[127.58134,37.54576],[127.58141,37.54576],[127.58138,37.54602],[127.58129,37.54601],[127.58129,37.54607],[127.58125,37.5461],[127.58115,37.5461],[127.58113,37.54621],[127.58093,37.54623],[127.58092,37.54632],[127.58104,37.54632],[127.58106,37.54641],[127.5809,37.54644],[127.5809,37.54655],[127.58085,37.54655],[127.58083,37.54669],[127.58071,37.54673],[127.58071,37.5468],[127.58067,37.54682],[127.58066,37.54687],[127.58071,37.54687],[127.58071,37.54702],[127.58078,37.54702],[127.58073,37.54716],[127.58064,37.54718],[127.58057,37.54723],[127.58057,37.54727],[127.58045,37.54727],[127.58043,37.54734],[127.58027,37.54735],[127.58025,37.54741],[127.58007,37.54742]]]}},{"type":"Feature","properties":{"valleyId":"yongmunsan","layer":"shadow","date":"2026-08-01","timeLocal":"18:00"},"geometry":{"type":"Polygon","coordinates":[[[127.58392,37.547],[127.58388,37.54695],[127.58388,37.54687],[127.58384,37.54684],[127.58377,37.54684],[127.58377,37.54689],[127.5837,37.54689],[127.58375,37.54671],[127.5837,37.54667],[127.58368,37.54655],[127.58391,37.54651],[127.584,37.5463],[127.58407,37.5463],[127.5841,37.54625],[127.58416,37.54623],[127.58421,37.54609],[127.58417,37.54605],[127.58396,37.54606],[127.5839,37.54599],[127.5839,37.54588],[127.58385,37.54585],[127.58385,37.54579],[127.58399,37.54581],[127.58406,37.54594],[127.5841,37.54594],[127.58412,37.54599],[127.58437,37.54602],[127.58437,37.54605],[127.58444,37.54605],[127.58444,37.54602],[127.58453,37.54602],[127.58453,37.54616],[127.58446,37.54621],[127.58452,37.54643],[127.5843,37.54645],[127.58429,37.54675],[127.5842,37.54675],[127.58422,37.54691],[127.58413,37.54691],[127.58401,37.547],[127.58392,37.547]]]}},{"type":"Feature","properties":{"valleyId":"yongmunsan","layer":"shadow","date":"2026-08-01","timeLocal":"18:00"},"geometry":{"type":"Polygon","coordinates":[[[127.57926,37.54583],[127.57921,37.54579],[127.57922,37.54572],[127.57928,37.54572],[127.57928,37.54576],[127.57933,37.54577],[127.57933,37.54583],[127.57926,37.54583]]]}},{"type":"Feature","properties":{"valleyId":"yongmunsan","layer":"shadow","date":"2026-08-01","timeLocal":"18:00"},"geometry":{"type":"Polygon","coordinates":[[[127.58274,37.54589],[127.5827,37.54576],[127.58263,37.54576],[127.58263,37.54569],[127.58272,37.54569],[127.58277,37.54562],[127.58284,37.54562],[127.58284,37.54571],[127.58279,37.54573],[127.58279,37.54578],[127.58288,37.54582],[127.58288,37.54587],[127.58274,37.54589]]]}},{"type":"Feature","properties":{"valleyId":"yongmunsan","layer":"shadow","date":"2026-08-01","timeLocal":"18:00"},"geometry":{"type":"Polygon","coordinates":[[[127.58141,37.54575],[127.58141,37.54562],[127.58157,37.54562],[127.58157,37.54559],[127.58166,37.54559],[127.58166,37.54569],[127.58159,37.54569],[127.5815,37.54575],[127.58141,37.54575]]]}},{"type":"Feature","properties":{"valleyId":"yongmunsan","layer":"shadow","date":"2026-08-01","timeLocal":"18:00"},"geometry":{"type":"Polygon","coordinates":[[[127.58612,37.54568],[127.58612,37.5456],[127.58624,37.54561],[127.58623,37.54566],[127.58612,37.54568]]]}},{"type":"Feature","properties":{"valleyId":"yongmunsan","layer":"shadow","date":"2026-08-01","timeLocal":"18:00"},"geometry":{"type":"Polygon","coordinates":[[[127.58275,37.54556],[127.58275,37.54551],[127.58282,37.54551],[127.58282,37.54556],[127.58275,37.54556]]]}},{"type":"Feature","properties":{"valleyId":"yongmunsan","layer":"shadow","date":"2026-08-01","timeLocal":"18:00"},"geometry":{"type":"Polygon","coordinates":[[[127.58304,37.54571],[127.58304,37.54558],[127.58316,37.54559],[127.58316,37.5455],[127.58334,37.54548],[127.58331,37.54566],[127.58304,37.54571]]]}},{"type":"Feature","properties":{"valleyId":"yongmunsan","layer":"shadow","date":"2026-08-01","timeLocal":"18:00"},"geometry":{"type":"Polygon","coordinates":[[[127.58544,37.54565],[127.58544,37.5456],[127.58528,37.54561],[127.58529,37.5455],[127.58554,37.54552],[127.58551,37.54565],[127.58544,37.54565]]]}},{"type":"Feature","properties":{"valleyId":"yongmunsan","layer":"shadow","date":"2026-08-01","timeLocal":"18:00"},"geometry":{"type":"Polygon","coordinates":[[[127.58295,37.54557],[127.58295,37.54551],[127.583,37.54548],[127.58307,37.54548],[127.58307,37.54557],[127.58295,37.54557]]]}},{"type":"Feature","properties":{"valleyId":"yongmunsan","layer":"shadow","date":"2026-08-01","timeLocal":"18:00"},"geometry":{"type":"Polygon","coordinates":[[[127.58431,37.54555],[127.58431,37.54546],[127.58443,37.54548],[127.5844,37.54555],[127.58431,37.54555]]]}},{"type":"Feature","properties":{"valleyId":"yongmunsan","layer":"shadow","date":"2026-08-01","timeLocal":"18:00"},"geometry":{"type":"Polygon","coordinates":[[[127.58309,37.5455],[127.58309,37.54544],[127.58316,37.54544],[127.58316,37.5455],[127.58309,37.5455]]]}},{"type":"Feature","properties":{"valleyId":"yongmunsan","layer":"shadow","date":"2026-08-01","timeLocal":"18:00"},"geometry":{"type":"Polygon","coordinates":[[[127.58685,37.5455],[127.58685,37.54545],[127.58694,37.54545],[127.58694,37.54551],[127.58685,37.5455]]]}},{"type":"Feature","properties":{"valleyId":"yongmunsan","layer":"shadow","date":"2026-08-01","timeLocal":"18:00"},"geometry":{"type":"Polygon","coordinates":[[[127.58537,37.5459],[127.58537,37.54585],[127.58542,37.54583],[127.58542,37.54569],[127.58558,37.54571],[127.5856,37.54562],[127.58569,37.5456],[127.58567,37.54538],[127.58588,37.54538],[127.58583,37.54549],[127.58592,37.54551],[127.5859,37.54562],[127.58596,37.54562],[127.58596,37.54567],[127.58585,37.54569],[127.58585,37.54564],[127.58578,37.54564],[127.58578,37.54574],[127.58569,37.5458],[127.5856,37.5458],[127.5856,37.54587],[127.58555,37.54587],[127.58553,37.5459],[127.58537,37.5459]]]}},{"type":"Feature","properties":{"valleyId":"yongmunsan","layer":"shadow","date":"2026-08-01","timeLocal":"18:00"},"geometry":{"type":"Polygon","coordinates":[[[127.58341,37.54545],[127.58341,37.54539],[127.58348,37.54534],[127.58355,37.54534],[127.58355,37.54541],[127.58341,37.54545]]]}},{"type":"Feature","properties":{"valleyId":"yongmunsan","layer":"shadow","date":"2026-08-01","timeLocal":"18:00"},"geometry":{"type":"Polygon","coordinates":[[[127.58526,37.54545],[127.58524,37.54532],[127.58556,37.54533],[127.58556,37.5454],[127.58542,37.54542],[127.5854,37.54545],[127.58526,37.54545]]]}},{"type":"Feature","properties":{"valleyId":"yongmunsan","layer":"shadow","date":"2026-08-01","timeLocal":"18:00"},"geometry":{"type":"Polygon","coordinates":[[[127.5833,37.54535],[127.58328,37.54521],[127.58341,37.54521],[127.58341,37.5453],[127.58337,37.54532],[127.58337,37.54535],[127.5833,37.54535]]]}},{"type":"Feature","properties":{"valleyId":"yongmunsan","layer":"shadow","date":"2026-08-01","timeLocal":"18:00"},"geometry":{"type":"Polygon","coordinates":[[[127.58059,37.54592],[127.58059,37.54584],[127.58066,37.54579],[127.58067,37.54566],[127.58062,37.54563],[127.58046,37.54561],[127.5804,37.54535],[127.58035,37.54532],[127.58036,37.54525],[127.58051,37.54523],[127.58052,37.54516],[127.58058,37.54516],[127.58065,37.54529],[127.58085,37.54541],[127.58085,37.54558],[127.58091,37.54563],[127.58096,37.54563],[127.58096,37.54569],[127.58089,37.54569],[127.58078,37.54577],[127.58077,37.54588],[127.58073,37.54588],[127.58071,37.54592],[127.58059,37.54592]]]}},{"type":"Feature","properties":{"valleyId":"yongmunsan","layer":"shadow","date":"2026-08-01","timeLocal":"18:00"},"geometry":{"type":"Polygon","coordinates":[[[127.58368,37.54536],[127.58368,37.54527],[127.58362,37.54525],[127.58362,37.5452],[127.58384,37.54522],[127.58384,37.54529],[127.58391,37.54529],[127.58391,37.54534],[127.58382,37.54534],[127.58382,37.54531],[127.58375,37.54531],[127.58375,37.54536],[127.58368,37.54536]]]}},{"type":"Feature","properties":{"valleyId":"yongmunsan","layer":"shadow","date":"2026-08-01","timeLocal":"18:00"},"geometry":{"type":"Polygon","coordinates":[[[127.58642,37.54519],[127.58643,37.54514],[127.58654,37.54514],[127.58654,37.54519],[127.58642,37.54519]]]}},{"type":"Feature","properties":{"valleyId":"yongmunsan","layer":"shadow","date":"2026-08-01","timeLocal":"18:00"},"geometry":{"type":"Polygon","coordinates":[[[127.58561,37.54511],[127.58561,37.54502],[127.58573,37.54502],[127.58572,37.54509],[127.58561,37.54511]]]}},{"type":"Feature","properties":{"valleyId":"yongmunsan","layer":"shadow","date":"2026-08-01","timeLocal":"18:00"},"geometry":{"type":"Polygon","coordinates":[[[127.58391,37.54518],[127.58391,37.54511],[127.58396,37.54509],[127.58396,37.54498],[127.58407,37.54498],[127.58407,37.54506],[127.58403,37.54507],[127.584,37.54518],[127.58391,37.54518]]]}},{"type":"Feature","properties":{"valleyId":"yongmunsan","layer":"shadow","date":"2026-08-01","timeLocal":"18:00"},"geometry":{"type":"Polygon","coordinates":[[[127.5868,37.54543],[127.58683,37.54532],[127.5869,37.54529],[127.58692,37.54523],[127.58692,37.54514],[127.58697,37.54515],[127.58697,37.54507],[127.58688,37.54505],[127.58688,37.54511],[127.58683,37.54513],[127.58663,37.54512],[127.58661,37.545],[127.58706,37.54498],[127.58706,37.54502],[127.58711,37.54502],[127.58713,37.54506],[127.5871,37.54533],[127.58696,37.54536],[127.58694,37.5454],[127.5869,37.5454],[127.5869,37.54543],[127.5868,37.54543]]]}},{"type":"Feature","properties":{"valleyId":"yongmunsan","layer":"shadow","date":"2026-08-01","timeLocal":"18:00"},"geometry":{"type":"Polygon","coordinates":[[[127.58414,37.54517],[127.58414,37.54504],[127.58419,37.54502],[127.58419,37.54484],[127.58433,37.54484],[127.58432,37.54492],[127.58441,37.54493],[127.58439,37.5451],[127.58432,37.54511],[127.58432,37.54515],[127.58414,37.54517]]]}},{"type":"Feature","properties":{"valleyId":"yongmunsan","layer":"shadow","date":"2026-08-01","timeLocal":"18:00"},"geometry":{"type":"Polygon","coordinates":[[[127.58616,37.54496],[127.58618,37.54485],[127.58627,37.54483],[127.58625,37.54494],[127.58616,37.54496]]]}},{"type":"Feature","properties":{"valleyId":"yongmunsan","layer":"shadow","date":"2026-08-01","timeLocal":"18:00"},"geometry":{"type":"Polygon","coordinates":[[[127.58706,37.54495],[127.58706,37.54486],[127.58716,37.54484],[127.58716,37.54481],[127.58722,37.54481],[127.58722,37.54491],[127.58706,37.54495]]]}},{"type":"Feature","properties":{"valleyId":"yongmunsan","layer":"shadow","date":"2026-08-01","timeLocal":"18:00"},"geometry":{"type":"Polygon","coordinates":[[[127.58433,37.54484],[127.58433,37.54474],[127.58442,37.54474],[127.58444,37.54481],[127.58439,37.54481],[127.58439,37.54484],[127.58433,37.54484]]]}},{"type":"Feature","properties":{"valleyId":"yongmunsan","layer":"shadow","date":"2026-08-01","timeLocal":"18:00"},"geometry":{"type":"Polygon","coordinates":[[[127.58652,37.54482],[127.58652,37.54476],[127.58659,37.54476],[127.58659,37.54471],[127.58668,37.54473],[127.58668,37.54482],[127.58652,37.54482]]]}},{"type":"Feature","properties":{"valleyId":"yongmunsan","layer":"shadow","date":"2026-08-01","timeLocal":"18:00"},"geometry":{"type":"Polygon","coordinates":[[[127.58773,37.54456],[127.58773,37.54449],[127.5878,37.54449],[127.58779,37.54456],[127.58773,37.54456]]]}},{"type":"Feature","properties":{"valleyId":"yongmunsan","layer":"shadow","date":"2026-08-01","timeLocal":"18:00"},"geometry":{"type":"Polygon","coordinates":[[[127.58634,37.54485],[127.58634,37.54465],[127.58623,37.54461],[127.58621,37.54442],[127.58633,37.54442],[127.58632,37.54449],[127.58642,37.54449],[127.58637,37.5446],[127.58646,37.5446],[127.58653,37.54464],[127.5865,37.54478],[127.58645,37.54478],[127.58641,37.54485],[127.58634,37.54485]]]}},{"type":"Feature","properties":{"valleyId":"yongmunsan","layer":"shadow","date":"2026-08-01","timeLocal":"18:00"},"geometry":{"type":"Polygon","coordinates":[[[127.58583,37.54446],[127.58583,37.54439],[127.58592,37.54439],[127.58592,37.54445],[127.58583,37.54446]]]}},{"type":"Feature","properties":{"valleyId":"yongmunsan","layer":"shadow","date":"2026-08-01","timeLocal":"18:00"},"geometry":{"type":"Polygon","coordinates":[[[127.58517,37.54446],[127.58517,37.54437],[127.58551,37.54435],[127.58551,37.54441],[127.58544,37.54441],[127.58542,37.54444],[127.58517,37.54446]]]}},{"type":"Feature","properties":{"valleyId":"yongmunsan","layer":"shadow","date":"2026-08-01","timeLocal":"18:00"},"geometry":{"type":"Polygon","coordinates":[[[127.58603,37.54449],[127.58603,37.54441],[127.58596,37.54441],[127.58597,37.54432],[127.58606,37.54432],[127.58605,37.54441],[127.58612,37.54441],[127.58612,37.54449],[127.58603,37.54449]]]}},{"type":"Feature","properties":{"valleyId":"yongmunsan","layer":"shadow","date":"2026-08-01","timeLocal":"18:00"},"geometry":{"type":"Polygon","coordinates":[[[127.58578,37.54437],[127.58578,37.54432],[127.58585,37.54432],[127.58585,37.54437],[127.58578,37.54437]]]}},{"type":"Feature","properties":{"valleyId":"yongmunsan","layer":"shadow","date":"2026-08-01","timeLocal":"18:00"},"geometry":{"type":"Polygon","coordinates":[[[127.5844,37.54468],[127.58442,37.54457],[127.58456,37.54458],[127.58456,37.54452],[127.58447,37.5445],[127.58447,37.54445],[127.58438,37.54439],[127.58424,37.54443],[127.58424,37.54437],[127.58431,37.54437],[127.58429,37.54427],[127.58454,37.54427],[127.58452,37.54438],[127.58476,37.54438],[127.58474,37.54449],[127.58481,37.54449],[127.58481,37.54454],[127.58463,37.54456],[127.58458,37.54458],[127.58458,37.54465],[127.58447,37.54465],[127.58446,37.54468],[127.5844,37.54468]]]}},{"type":"Feature","properties":{"valleyId":"yongmunsan","layer":"shadow","date":"2026-08-01","timeLocal":"18:00"},"geometry":{"type":"Polygon","coordinates":[[[127.58728,37.54437],[127.58726,37.54428],[127.58739,37.54432],[127.58739,37.54438],[127.58728,37.54437]]]}},{"type":"Feature","properties":{"valleyId":"yongmunsan","layer":"shadow","date":"2026-08-01","timeLocal":"18:00"},"geometry":{"type":"Polygon","coordinates":[[[127.58671,37.54437],[127.58671,37.54426],[127.58699,37.54426],[127.58696,37.54433],[127.58683,37.54433],[127.5868,37.54437],[127.58671,37.54437]]]}},{"type":"Feature","properties":{"valleyId":"yongmunsan","layer":"shadow","date":"2026-08-01","timeLocal":"18:00"},"geometry":{"type":"Polygon","coordinates":[[[127.582,37.54555],[127.582,37.5455],[127.58205,37.54546],[127.58219,37.54545],[127.58228,37.54531],[127.58253,37.54525],[127.58258,37.54515],[127.58255,37.54511],[127.58249,37.54511],[127.58249,37.54502],[127.58267,37.54504],[127.58269,37.54493],[127.58274,37.5449],[127.58274,37.54481],[127.58281,37.54479],[127.58288,37.54459],[127.58297,37.54457],[127.58297,37.54445],[127.58307,37.54443],[127.58307,37.5444],[127.58318,37.54434],[127.58327,37.54434],[127.58332,37.54425],[127.58339,37.54424],[127.58343,37.54413],[127.58371,37.54413],[127.58366,37.54431],[127.58341,37.54433],[127.58341,37.54438],[127.58345,37.54438],[127.58345,37.54442],[127.58354,37.54446],[127.58363,37.54446],[127.58366,37.54435],[127.58375,37.54435],[127.58388,37.54437],[127.58388,37.54444],[127.58381,37.54446],[127.58374,37.54453],[127.5837,37.54453],[127.58363,37.54464],[127.58358,37.54464],[127.58349,37.54471],[127.58349,37.54474],[127.58344,37.54474],[127.58344,37.54478],[127.58335,37.54481],[127.58333,37.54487],[127.58328,37.54487],[127.58315,37.54497],[127.5831,37.54497],[127.58308,37.54503],[127.58299,37.54504],[127.58294,37.54515],[127.58289,37.54519],[127.58282,37.54519],[127.5828,37.54524],[127.58266,37.54529],[127.58262,37.54538],[127.5825,37.54538],[127.5825,37.54542],[127.58241,37.54542],[127.58232,37.54547],[127.58225,37.54547],[127.58218,37.54552],[127.582,37.54555]],[[127.5829,37.54492],[127.58297,37.54492],[127.58297,37.54488],[127.58306,37.54483],[127.58308,37.54463],[127.58322,37.54463],[127.58324,37.54458],[127.58331,37.54458],[127.58329,37.54449],[127.58318,37.54449],[127.58309,37.54454],[127.58308,37.54461],[127.58299,37.54461],[127.5829,37.54492]]]}},{"type":"Feature","properties":{"valleyId":"yongmunsan","layer":"shadow","date":"2026-08-01","timeLocal":"18:00"},"geometry":{"type":"Polygon","coordinates":[[[127.58565,37.54416],[127.58565,37.54405],[127.58597,37.54405],[127.58597,37.54411],[127.58586,37.5441],[127.58583,37.54414],[127.58565,37.54416]]]}},{"type":"Feature","properties":{"valleyId":"yongmunsan","layer":"shadow","date":"2026-08-01","timeLocal":"18:00"},"geometry":{"type":"Polygon","coordinates":[[[127.58701,37.54412],[127.58704,37.54396],[127.5871,37.54394],[127.58731,37.54392],[127.58738,37.54396],[127.58737,37.54401],[127.58749,37.54403],[127.58746,37.54411],[127.58733,37.5441],[127.58733,37.54403],[127.58719,37.54403],[127.58713,37.54405],[127.58708,37.54412],[127.58701,37.54412]]]}},{"type":"Feature","properties":{"valleyId":"yongmunsan","layer":"shadow","date":"2026-08-01","timeLocal":"18:00"},"geometry":{"type":"Polygon","coordinates":[[[127.58393,37.54437],[127.58393,37.54415],[127.58382,37.54415],[127.58382,37.5441],[127.58389,37.54408],[127.58391,37.54401],[127.58407,37.54399],[127.58403,37.54385],[127.58416,37.54383],[127.58418,37.54401],[127.58411,37.54401],[127.58411,37.54417],[127.58416,37.54423],[127.58422,37.54423],[127.58422,37.54434],[127.58409,37.5443],[127.58402,37.54437],[127.58393,37.54437]]]}},{"type":"Feature","properties":{"valleyId":"yongmunsan","layer":"shadow","date":"2026-08-01","timeLocal":"18:00"},"geometry":{"type":"Polygon","coordinates":[[[127.58631,37.54395],[127.58631,37.54384],[127.58638,37.54384],[127.58638,37.54395],[127.58631,37.54395]]]}},{"type":"Feature","properties":{"valleyId":"yongmunsan","layer":"shadow","date":"2026-08-01","timeLocal":"18:00"},"geometry":{"type":"Polygon","coordinates":[[[127.58482,37.54389],[127.58482,37.54382],[127.58491,37.54382],[127.58491,37.54388],[127.58482,37.54389]]]}},{"type":"Feature","properties":{"valleyId":"yongmunsan","layer":"shadow","date":"2026-08-01","timeLocal":"18:00"},"geometry":{"type":"Polygon","coordinates":[[[127.58785,37.544],[127.5879,37.54384],[127.58797,37.54384],[127.58794,37.544],[127.58785,37.544]]]}},{"type":"Feature","properties":{"valleyId":"yongmunsan","layer":"shadow","date":"2026-08-01","timeLocal":"18:00"},"geometry":{"type":"Polygon","coordinates":[[[127.58649,37.54395],[127.5865,37.54382],[127.58697,37.54381],[127.58697,37.54388],[127.58656,37.54391],[127.58656,37.54395],[127.58649,37.54395]]]}},{"type":"Feature","properties":{"valleyId":"yongmunsan","layer":"shadow","date":"2026-08-01","timeLocal":"18:00"},"geometry":{"type":"Polygon","coordinates":[[[127.58452,37.54405],[127.58455,37.54393],[127.58437,37.54392],[127.58437,37.54387],[127.58446,37.54378],[127.58466,37.54377],[127.58466,37.54382],[127.58462,37.54382],[127.58461,37.54391],[127.58475,37.54388],[127.58473,37.544],[127.58464,37.54402],[127.58461,37.54405],[127.58452,37.54405]]]}},{"type":"Feature","properties":{"valleyId":"yongmunsan","layer":"shadow","date":"2026-08-01","timeLocal":"18:00"},"geometry":{"type":"Polygon","coordinates":[[[127.58496,37.54384],[127.58496,37.54373],[127.58514,37.54374],[127.58514,37.54381],[127.58496,37.54384]]]}},{"type":"Feature","properties":{"valleyId":"yongmunsan","layer":"shadow","date":"2026-08-01","timeLocal":"18:00"},"geometry":{"type":"Polygon","coordinates":[[[127.58403,37.54376],[127.58403,37.5437],[127.5841,37.5437],[127.5841,37.54376],[127.58403,37.54376]]]}},{"type":"Feature","properties":{"valleyId":"yongmunsan","layer":"shadow","date":"2026-08-01","timeLocal":"18:00"},"geometry":{"type":"Polygon","coordinates":[[[127.58469,37.54378],[127.58471,37.54366],[127.58498,37.54364],[127.58498,37.54372],[127.58489,37.54371],[127.58489,37.54375],[127.58475,37.54375],[127.58475,37.54378],[127.58469,37.54378]]]}},{"type":"Feature","properties":{"valleyId":"yongmunsan","layer":"shadow","date":"2026-08-01","timeLocal":"18:00"},"geometry":{"type":"Polygon","coordinates":[[[127.58229,37.54367],[127.58229,37.54361],[127.58236,37.54361],[127.58236,37.54367],[127.58229,37.54367]]]}},{"type":"Feature","properties":{"valleyId":"yongmunsan","layer":"shadow","date":"2026-08-01","timeLocal":"18:00"},"geometry":{"type":"Polygon","coordinates":[[[127.58765,37.54371],[127.58765,37.54366],[127.58772,37.54366],[127.58772,37.54371],[127.58765,37.54371]]]}},{"type":"Feature","properties":{"valleyId":"yongmunsan","layer":"shadow","date":"2026-08-01","timeLocal":"18:00"},"geometry":{"type":"Polygon","coordinates":[[[127.58564,37.54381],[127.58564,37.54372],[127.58575,37.54372],[127.58575,37.5436],[127.58593,37.5436],[127.58593,37.54365],[127.58586,37.54367],[127.58584,37.5438],[127.58564,37.54381]]]}},{"type":"Feature","properties":{"valleyId":"yongmunsan","layer":"shadow","date":"2026-08-01","timeLocal":"18:00"},"geometry":{"type":"Polygon","coordinates":[[[127.58272,37.54374],[127.58265,37.54369],[127.58265,37.54365],[127.58254,37.54361],[127.5824,37.54361],[127.5824,37.54356],[127.58252,37.54354],[127.58261,37.5436],[127.58267,37.5436],[127.58267,37.54363],[127.58281,37.54369],[127.58281,37.54374],[127.58272,37.54374]]]}},{"type":"Feature","properties":{"valleyId":"yongmunsan","layer":"shadow","date":"2026-08-01","timeLocal":"18:00"},"geometry":{"type":"Polygon","coordinates":[[[127.58736,37.54356],[127.58736,37.54344],[127.58748,37.54344],[127.58752,37.54348],[127.58752,37.54355],[127.58736,37.54356]]]}},{"type":"Feature","properties":{"valleyId":"yongmunsan","layer":"shadow","date":"2026-08-01","timeLocal":"18:00"},"geometry":{"type":"Polygon","coordinates":[[[127.58601,37.54339],[127.58601,37.54333],[127.5861,37.54333],[127.5861,37.54339],[127.58601,37.54339]]]}},{"type":"Feature","properties":{"valleyId":"yongmunsan","layer":"shadow","date":"2026-08-01","timeLocal":"18:00"},"geometry":{"type":"Polygon","coordinates":[[[127.58625,37.54348],[127.58628,37.54333],[127.58623,37.54332],[127.58623,37.54324],[127.58633,37.54324],[127.58632,37.54328],[127.58637,37.54328],[127.58637,37.54337],[127.58641,37.54337],[127.58641,37.54346],[127.58625,37.54348]]]}},{"type":"Feature","properties":{"valleyId":"yongmunsan","layer":"shadow","date":"2026-08-01","timeLocal":"18:00"},"geometry":{"type":"Polygon","coordinates":[[[127.58342,37.54386],[127.58339,37.54382],[127.58312,37.54382],[127.58317,37.54353],[127.58299,37.54346],[127.58293,37.5434],[127.58293,37.54331],[127.58279,37.54326],[127.58284,37.54315],[127.58295,37.54317],[127.58295,37.5432],[127.583,37.54322],[127.58302,37.54335],[127.58331,37.54337],[127.5834,37.54343],[127.58351,37.54372],[127.58362,37.54377],[127.58362,37.54383],[127.58355,37.54382],[127.58353,37.54386],[127.58342,37.54386]]]}},{"type":"Feature","properties":{"valleyId":"yongmunsan","layer":"shadow","date":"2026-08-01","timeLocal":"18:00"},"geometry":{"type":"Polygon","coordinates":[[[127.58763,37.54357],[127.58763,37.54351],[127.58759,37.54349],[127.58761,37.54335],[127.58755,37.54333],[127.58753,37.54317],[127.58771,37.54319],[127.58768,37.54332],[127.5878,37.54333],[127.58779,37.54339],[127.5877,37.54342],[127.58775,37.54357],[127.58763,37.54357]]]}},{"type":"Feature","properties":{"valleyId":"yongmunsan","layer":"shadow","date":"2026-08-01","timeLocal":"18:00"},"geometry":{"type":"Polygon","coordinates":[[[127.58654,37.54361],[127.58657,37.54348],[127.58664,37.54348],[127.58664,37.54343],[127.58653,37.54341],[127.5865,37.54337],[127.58651,37.5433],[127.58646,37.54326],[127.58646,37.54312],[127.5866,37.54314],[127.58662,37.5431],[127.58671,37.54311],[127.58671,37.54318],[127.58662,37.54319],[127.58662,37.54328],[127.58669,37.5433],[127.58673,37.54348],[127.58682,37.5435],[127.58684,37.5434],[127.58702,37.5434],[127.58702,37.54345],[127.58693,37.54347],[127.58698,37.54358],[127.58677,37.54361],[127.58675,37.54354],[127.58664,37.54354],[127.58661,37.54361],[127.58654,37.54361]]]}},{"type":"Feature","properties":{"valleyId":"yongmunsan","layer":"shadow","date":"2026-08-01","timeLocal":"18:00"},"geometry":{"type":"Polygon","coordinates":[[[127.58685,37.54309],[127.58685,37.54298],[127.58712,37.54298],[127.58712,37.54306],[127.58685,37.54309]]]}},{"type":"Feature","properties":{"valleyId":"yongmunsan","layer":"shadow","date":"2026-08-01","timeLocal":"18:00"},"geometry":{"type":"Polygon","coordinates":[[[127.58751,37.54302],[127.58751,37.54297],[127.58758,37.54297],[127.58757,37.54303],[127.58751,37.54302]]]}},{"type":"Feature","properties":{"valleyId":"yongmunsan","layer":"shadow","date":"2026-08-01","timeLocal":"18:00"},"geometry":{"type":"Polygon","coordinates":[[[127.58676,37.54296],[127.58676,37.54291],[127.58685,37.54291],[127.58685,37.54296],[127.58676,37.54296]]]}},{"type":"Feature","properties":{"valleyId":"yongmunsan","layer":"shadow","date":"2026-08-01","timeLocal":"18:00"},"geometry":{"type":"Polygon","coordinates":[[[127.5871,37.54297],[127.5871,37.54288],[127.58701,37.54282],[127.58692,37.54282],[127.58692,37.54277],[127.58708,37.54268],[127.58717,37.54268],[127.58715,37.5428],[127.58724,37.54284],[127.58726,37.54295],[127.5871,37.54297]]]}},{"type":"Feature","properties":{"valleyId":"yongmunsan","layer":"shadow","date":"2026-08-01","timeLocal":"18:00"},"geometry":{"type":"Polygon","coordinates":[[[127.5865,37.54256],[127.58648,37.54238],[127.58666,37.54238],[127.58666,37.54251],[127.58659,37.54253],[127.58659,37.54256],[127.5865,37.54256]]]}},{"type":"Feature","properties":{"valleyId":"yongmunsan","layer":"shadow","date":"2026-08-01","timeLocal":"18:00"},"geometry":{"type":"Polygon","coordinates":[[[127.58527,37.54377],[127.58523,37.54366],[127.58514,37.54366],[127.58512,37.54357],[127.58526,37.54352],[127.5853,37.54341],[127.58537,37.54341],[127.58536,37.54293],[127.5854,37.54289],[127.58541,37.54264],[127.58548,37.54262],[127.58555,37.54255],[127.58571,37.54252],[127.58573,37.54243],[127.5858,37.54239],[127.58585,37.54228],[127.58594,37.54221],[127.58614,37.54222],[127.58641,37.54227],[127.58641,37.54233],[127.58648,37.54233],[127.58648,37.54238],[127.58641,37.54238],[127.58641,37.54249],[127.58632,37.54249],[127.58629,37.54256],[127.58647,37.54256],[127.58647,37.54262],[127.58656,37.54265],[127.58654,37.54276],[127.58642,37.54278],[127.58638,37.54283],[127.58631,37.54283],[127.58624,37.54288],[127.58608,37.54288],[127.58604,37.54284],[127.58602,37.54274],[127.58591,37.54272],[127.58586,37.54273],[127.58586,37.54277],[127.58581,37.54277],[127.58581,37.54293],[127.5862,37.54294],[127.58624,37.54297],[127.58635,37.54297],[127.58651,37.54292],[127.58654,37.54289],[127.5866,37.54289],[127.5866,37.54294],[127.58653,37.54296],[127.58653,37.54301],[127.5866,37.54301],[127.5866,37.54307],[127.58637,37.54303],[127.58628,37.54308],[127.58628,37.54312],[127.58617,37.54313],[127.58615,37.54319],[127.58605,37.54319],[127.58606,37.5431],[127.58608,37.54306],[127.58615,37.54306],[127.58615,37.54301],[127.58604,37.54301],[127.58603,37.54304],[127.58585,37.54304],[127.58581,37.543],[127.5857,37.54302],[127.58567,37.54309],[127.58581,37.54309],[127.58581,37.54315],[127.58565,37.54315],[127.58562,37.54327],[127.58574,37.54327],[127.58576,37.54324],[127.58594,37.54324],[127.58594,37.54329],[127.58587,37.54329],[127.58585,37.54333],[127.58571,37.54336],[127.58571,37.54353],[127.58546,37.54352],[127.58546,37.54356],[127.58532,37.54358],[127.58532,37.54363],[127.5855,37.54365],[127.58552,37.54369],[127.58559,37.54369],[127.58559,37.54374],[127.58527,37.54377]],[[127.58565,37.54279],[127.58572,37.54279],[127.58572,37.54273],[127.58566,37.54273],[127.58565,37.54279]],[[127.58595,37.54259],[127.58604,37.54259],[127.58604,37.54254],[127.58593,37.54252],[127.58595,37.54259]]]}}]}
