{"type":"FeatureCollection","metadata":{"description":"개방지(CHM ≤ 2 m)에 드리운 나무·지형 그림자, 2026-08-01 16:00 KST. canopy 위에 겹쳐 그린다","source":"위성 기반 추정 — Copernicus GLO-30 지형(30 m) + Meta/WRI 수관 높이(1 m CHM, 2016 촬영). 그늘 = 수관(CHM > 2 m) ∪ 나무·지형 그림자 ∪ 원거리 지형 마스크. 현장과 다를 수 있음.","datasetVersion":"2026-09-06.0","collectedAt":"2026-09-06","coordinateOrder":"[longitude, latitude]","crs":"EPSG:4326","representativeDate":"2026-08-01","hours":["10:00","11:00","12:00","13:00","14:00","15:00","16:00","17:00","18:00"],"chmAcquisition":["2016-06"],"assets":{"glo30":{"dataset":"Copernicus DEM GLO-30 (COG, s3://copernicus-dem-30m)","tiles":["Copernicus_DSM_COG_10_N37_00_E127_00_DEM"]},"chm":{"dataset":"Meta/WRI Global Canopy Height Map v1 (alsgedi_global_v6_float, 1 m, CC-BY 4.0)","quadkeys":["132110321"],"acquisition":["2016-06"]}},"method":{"gridResM":2,"canopyThresholdM":2,"bufferHalfM":25,"corridorHalfM":200,"simplifyTolM":2,"minAreaM2":25,"coordDecimals":5},"generator":"scripts/shade 0.1.0","builtAt":"2026-09-06T06:09:52Z","layer":"shadow","timeLocal":"16:00"},"features":[{"type":"Feature","properties":{"valleyId":"yongmunsan","layer":"shadow","date":"2026-08-01","timeLocal":"16:00"},"geometry":{"type":"Polygon","coordinates":[[[127.56273,37.56109],[127.56278,37.56099],[127.56289,37.56099],[127.56289,37.56104],[127.56282,37.56104],[127.5628,37.56109],[127.56273,37.56109]]]}},{"type":"Feature","properties":{"valleyId":"yongmunsan","layer":"shadow","date":"2026-08-01","timeLocal":"16:00"},"geometry":{"type":"Polygon","coordinates":[[[127.55988,37.55996],[127.55986,37.55989],[127.56008,37.55987],[127.56006,37.55994],[127.55988,37.55996]]]}},{"type":"Feature","properties":{"valleyId":"yongmunsan","layer":"shadow","date":"2026-08-01","timeLocal":"16:00"},"geometry":{"type":"Polygon","coordinates":[[[127.56013,37.55989],[127.56013,37.55982],[127.5602,37.55982],[127.56022,37.55989],[127.56013,37.55989]]]}},{"type":"Feature","properties":{"valleyId":"yongmunsan","layer":"shadow","date":"2026-08-01","timeLocal":"16:00"},"geometry":{"type":"Polygon","coordinates":[[[127.559,37.55986],[127.55895,37.55979],[127.55889,37.55979],[127.55889,37.55973],[127.55896,37.55973],[127.55895,37.55977],[127.55902,37.55977],[127.55907,37.55981],[127.55907,37.55986],[127.559,37.55986]]]}},{"type":"Feature","properties":{"valleyId":"yongmunsan","layer":"shadow","date":"2026-08-01","timeLocal":"16:00"},"geometry":{"type":"Polygon","coordinates":[[[127.55994,37.55902],[127.55992,37.55899],[127.55988,37.55899],[127.55988,37.55893],[127.56006,37.55895],[127.56006,37.55902],[127.55994,37.55902]]]}},{"type":"Feature","properties":{"valleyId":"yongmunsan","layer":"shadow","date":"2026-08-01","timeLocal":"16:00"},"geometry":{"type":"Polygon","coordinates":[[[127.55945,37.55891],[127.55945,37.55887],[127.5594,37.55885],[127.5594,37.55878],[127.55961,37.55884],[127.55958,37.55891],[127.55945,37.55891]]]}},{"type":"Feature","properties":{"valleyId":"yongmunsan","layer":"shadow","date":"2026-08-01","timeLocal":"16:00"},"geometry":{"type":"Polygon","coordinates":[[[127.5606,37.55784],[127.5606,37.55779],[127.56069,37.55779],[127.56069,37.55784],[127.5606,37.55784]]]}},{"type":"Feature","properties":{"valleyId":"yongmunsan","layer":"shadow","date":"2026-08-01","timeLocal":"16:00"},"geometry":{"type":"Polygon","coordinates":[[[127.56323,37.55739],[127.56324,37.55733],[127.5633,37.55733],[127.5633,37.55739],[127.56323,37.55739]]]}},{"type":"Feature","properties":{"valleyId":"yongmunsan","layer":"shadow","date":"2026-08-01","timeLocal":"16:00"},"geometry":{"type":"Polygon","coordinates":[[[127.56344,37.55712],[127.56344,37.55706],[127.56351,37.55707],[127.56351,37.55712],[127.56344,37.55712]]]}},{"type":"Feature","properties":{"valleyId":"yongmunsan","layer":"shadow","date":"2026-08-01","timeLocal":"16:00"},"geometry":{"type":"Polygon","coordinates":[[[127.56333,37.55696],[127.56334,37.55687],[127.5634,37.55687],[127.5634,37.55696],[127.56333,37.55696]]]}},{"type":"Feature","properties":{"valleyId":"yongmunsan","layer":"shadow","date":"2026-08-01","timeLocal":"16:00"},"geometry":{"type":"Polygon","coordinates":[[[127.56426,37.55693],[127.56424,37.55689],[127.5642,37.55689],[127.5642,37.55684],[127.56431,37.55684],[127.56433,37.55693],[127.56426,37.55693]]]}},{"type":"Feature","properties":{"valleyId":"yongmunsan","layer":"shadow","date":"2026-08-01","timeLocal":"16:00"},"geometry":{"type":"Polygon","coordinates":[[[127.563,37.55681],[127.563,37.55675],[127.56307,37.55675],[127.56306,37.55681],[127.563,37.55681]]]}},{"type":"Feature","properties":{"valleyId":"yongmunsan","layer":"shadow","date":"2026-08-01","timeLocal":"16:00"},"geometry":{"type":"Polygon","coordinates":[[[127.56377,37.55685],[127.56356,37.55683],[127.56356,37.55678],[127.5637,37.55669],[127.56384,37.55669],[127.56388,37.55673],[127.56388,37.55678],[127.56383,37.55678],[127.56383,37.55685],[127.56377,37.55685]]]}},{"type":"Feature","properties":{"valleyId":"yongmunsan","layer":"shadow","date":"2026-08-01","timeLocal":"16:00"},"geometry":{"type":"Polygon","coordinates":[[[127.56563,37.55637],[127.56563,37.5563],[127.5657,37.5563],[127.5657,37.55637],[127.56563,37.55637]]]}},{"type":"Feature","properties":{"valleyId":"yongmunsan","layer":"shadow","date":"2026-08-01","timeLocal":"16:00"},"geometry":{"type":"Polygon","coordinates":[[[127.56288,37.55589],[127.56283,37.55581],[127.56284,37.55576],[127.5629,37.55576],[127.5629,37.55581],[127.56295,37.55583],[127.56295,37.55589],[127.56288,37.55589]]]}},{"type":"Feature","properties":{"valleyId":"yongmunsan","layer":"shadow","date":"2026-08-01","timeLocal":"16:00"},"geometry":{"type":"Polygon","coordinates":[[[127.56279,37.55574],[127.56279,37.55569],[127.56286,37.55569],[127.56286,37.55574],[127.56279,37.55574]]]}},{"type":"Feature","properties":{"valleyId":"yongmunsan","layer":"shadow","date":"2026-08-01","timeLocal":"16:00"},"geometry":{"type":"Polygon","coordinates":[[[127.56268,37.55565],[127.56268,37.5556],[127.56275,37.5556],[127.56275,37.55565],[127.56268,37.55565]]]}},{"type":"Feature","properties":{"valleyId":"yongmunsan","layer":"shadow","date":"2026-08-01","timeLocal":"16:00"},"geometry":{"type":"Polygon","coordinates":[[[127.56419,37.55505],[127.56419,37.555],[127.56425,37.555],[127.56425,37.55506],[127.56419,37.55505]]]}},{"type":"Feature","properties":{"valleyId":"yongmunsan","layer":"shadow","date":"2026-08-01","timeLocal":"16:00"},"geometry":{"type":"Polygon","coordinates":[[[127.56477,37.55508],[127.56477,37.55503],[127.56482,37.55503],[127.56487,37.55497],[127.56505,37.55499],[127.56505,37.55505],[127.565,37.55506],[127.56477,37.55508]]]}},{"type":"Feature","properties":{"valleyId":"yongmunsan","layer":"shadow","date":"2026-08-01","timeLocal":"16:00"},"geometry":{"type":"Polygon","coordinates":[[[127.56511,37.55499],[127.56512,37.55494],[127.56516,37.55494],[127.56518,37.55489],[127.56528,37.55489],[127.56532,37.55485],[127.56568,37.55486],[127.56568,37.55493],[127.56564,37.55496],[127.56546,37.55494],[127.56539,37.555],[127.56511,37.55499]]]}},{"type":"Feature","properties":{"valleyId":"yongmunsan","layer":"shadow","date":"2026-08-01","timeLocal":"16:00"},"geometry":{"type":"Polygon","coordinates":[[[127.56497,37.55447],[127.56497,37.55442],[127.56504,37.55442],[127.56503,37.55447],[127.56497,37.55447]]]}},{"type":"Feature","properties":{"valleyId":"yongmunsan","layer":"shadow","date":"2026-08-01","timeLocal":"16:00"},"geometry":{"type":"Polygon","coordinates":[[[127.56584,37.55387],[127.56584,37.55381],[127.56591,37.55381],[127.56591,37.55387],[127.56584,37.55387]]]}},{"type":"Feature","properties":{"valleyId":"yongmunsan","layer":"shadow","date":"2026-08-01","timeLocal":"16:00"},"geometry":{"type":"Polygon","coordinates":[[[127.56706,37.55381],[127.56706,37.55376],[127.56715,37.55374],[127.56715,37.55379],[127.56706,37.55381]]]}},{"type":"Feature","properties":{"valleyId":"yongmunsan","layer":"shadow","date":"2026-08-01","timeLocal":"16:00"},"geometry":{"type":"Polygon","coordinates":[[[127.56725,37.55367],[127.56725,37.5536],[127.56734,37.5536],[127.56734,37.55367],[127.56725,37.55367]]]}},{"type":"Feature","properties":{"valleyId":"yongmunsan","layer":"shadow","date":"2026-08-01","timeLocal":"16:00"},"geometry":{"type":"Polygon","coordinates":[[[127.56704,37.55365],[127.56704,37.55359],[127.56713,37.55359],[127.56713,37.55365],[127.56704,37.55365]]]}},{"type":"Feature","properties":{"valleyId":"yongmunsan","layer":"shadow","date":"2026-08-01","timeLocal":"16:00"},"geometry":{"type":"Polygon","coordinates":[[[127.56766,37.55351],[127.56766,37.55342],[127.56775,37.5534],[127.56772,37.55351],[127.56766,37.55351]]]}},{"type":"Feature","properties":{"valleyId":"yongmunsan","layer":"shadow","date":"2026-08-01","timeLocal":"16:00"},"geometry":{"type":"Polygon","coordinates":[[[127.56732,37.55358],[127.56732,37.5534],[127.56736,37.55336],[127.56746,37.55336],[127.5675,37.55351],[127.56741,37.55353],[127.56738,37.55358],[127.56732,37.55358]]]}},{"type":"Feature","properties":{"valleyId":"yongmunsan","layer":"shadow","date":"2026-08-01","timeLocal":"16:00"},"geometry":{"type":"Polygon","coordinates":[[[127.56828,37.55298],[127.56828,37.55289],[127.56835,37.55289],[127.56835,37.55298],[127.56828,37.55298]]]}},{"type":"Feature","properties":{"valleyId":"yongmunsan","layer":"shadow","date":"2026-08-01","timeLocal":"16:00"},"geometry":{"type":"Polygon","coordinates":[[[127.56837,37.55273],[127.56837,37.55265],[127.56844,37.55266],[127.56844,37.55273],[127.56837,37.55273]]]}},{"type":"Feature","properties":{"valleyId":"yongmunsan","layer":"shadow","date":"2026-08-01","timeLocal":"16:00"},"geometry":{"type":"Polygon","coordinates":[[[127.56865,37.55259],[127.56865,37.55253],[127.56872,37.55253],[127.56872,37.55259],[127.56865,37.55259]]]}},{"type":"Feature","properties":{"valleyId":"yongmunsan","layer":"shadow","date":"2026-08-01","timeLocal":"16:00"},"geometry":{"type":"Polygon","coordinates":[[[127.56845,37.5524],[127.56845,37.55233],[127.56856,37.55231],[127.56856,37.55239],[127.56845,37.5524]]]}},{"type":"Feature","properties":{"valleyId":"yongmunsan","layer":"shadow","date":"2026-08-01","timeLocal":"16:00"},"geometry":{"type":"Polygon","coordinates":[[[127.57045,37.5507],[127.57045,37.55059],[127.57054,37.55057],[127.57052,37.5507],[127.57045,37.5507]]]}},{"type":"Feature","properties":{"valleyId":"yongmunsan","layer":"shadow","date":"2026-08-01","timeLocal":"16:00"},"geometry":{"type":"Polygon","coordinates":[[[127.57027,37.55044],[127.57025,37.55032],[127.57034,37.5503],[127.57034,37.55044],[127.57027,37.55044]]]}},{"type":"Feature","properties":{"valleyId":"yongmunsan","layer":"shadow","date":"2026-08-01","timeLocal":"16:00"},"geometry":{"type":"Polygon","coordinates":[[[127.57025,37.55024],[127.57026,37.5501],[127.57033,37.55006],[127.57033,37.55003],[127.57042,37.55003],[127.57042,37.55008],[127.57032,37.55017],[127.57032,37.55024],[127.57025,37.55024]]]}},{"type":"Feature","properties":{"valleyId":"yongmunsan","layer":"shadow","date":"2026-08-01","timeLocal":"16:00"},"geometry":{"type":"Polygon","coordinates":[[[127.57062,37.54998],[127.57067,37.54987],[127.57083,37.54984],[127.57083,37.54989],[127.57074,37.54993],[127.57071,37.54998],[127.57062,37.54998]]]}},{"type":"Feature","properties":{"valleyId":"yongmunsan","layer":"shadow","date":"2026-08-01","timeLocal":"16:00"},"geometry":{"type":"Polygon","coordinates":[[[127.57101,37.54989],[127.57103,37.5498],[127.57108,37.54977],[127.57117,37.54977],[127.57117,37.54982],[127.57108,37.54989],[127.57101,37.54989]]]}},{"type":"Feature","properties":{"valleyId":"yongmunsan","layer":"shadow","date":"2026-08-01","timeLocal":"16:00"},"geometry":{"type":"Polygon","coordinates":[[[127.57866,37.54979],[127.57866,37.54971],[127.57873,37.54972],[127.57873,37.54979],[127.57866,37.54979]]]}},{"type":"Feature","properties":{"valleyId":"yongmunsan","layer":"shadow","date":"2026-08-01","timeLocal":"16:00"},"geometry":{"type":"Polygon","coordinates":[[[127.57142,37.54983],[127.57142,37.54972],[127.5714,37.54968],[127.57135,37.54968],[127.57135,37.54961],[127.57147,37.54961],[127.57146,37.5497],[127.57151,37.54974],[127.57151,37.54981],[127.57142,37.54983]]]}},{"type":"Feature","properties":{"valleyId":"yongmunsan","layer":"shadow","date":"2026-08-01","timeLocal":"16:00"},"geometry":{"type":"Polygon","coordinates":[[[127.57944,37.54926],[127.57944,37.54916],[127.57954,37.54915],[127.57951,37.54926],[127.57944,37.54926]]]}},{"type":"Feature","properties":{"valleyId":"yongmunsan","layer":"shadow","date":"2026-08-01","timeLocal":"16:00"},"geometry":{"type":"Polygon","coordinates":[[[127.57958,37.54904],[127.57958,37.54899],[127.57965,37.54899],[127.57965,37.54904],[127.57958,37.54904]]]}},{"type":"Feature","properties":{"valleyId":"yongmunsan","layer":"shadow","date":"2026-08-01","timeLocal":"16:00"},"geometry":{"type":"Polygon","coordinates":[[[127.57617,37.54878],[127.57617,37.54873],[127.57624,37.54873],[127.57624,37.54878],[127.57617,37.54878]]]}},{"type":"Feature","properties":{"valleyId":"yongmunsan","layer":"shadow","date":"2026-08-01","timeLocal":"16:00"},"geometry":{"type":"Polygon","coordinates":[[[127.5804,37.54871],[127.5804,37.54865],[127.58047,37.54865],[127.58047,37.54871],[127.5804,37.54871]]]}},{"type":"Feature","properties":{"valleyId":"yongmunsan","layer":"shadow","date":"2026-08-01","timeLocal":"16:00"},"geometry":{"type":"Polygon","coordinates":[[[127.57321,37.54858],[127.57321,37.5484],[127.57332,37.54835],[127.57341,37.54835],[127.57337,37.54853],[127.57327,37.54859],[127.57321,37.54858]]]}},{"type":"Feature","properties":{"valleyId":"yongmunsan","layer":"shadow","date":"2026-08-01","timeLocal":"16:00"},"geometry":{"type":"Polygon","coordinates":[[[127.58034,37.54851],[127.58036,37.5484],[127.58046,37.54838],[127.58041,37.54851],[127.58034,37.54851]]]}},{"type":"Feature","properties":{"valleyId":"yongmunsan","layer":"shadow","date":"2026-08-01","timeLocal":"16:00"},"geometry":{"type":"Polygon","coordinates":[[[127.57362,37.54834],[127.57362,37.54828],[127.57369,37.54828],[127.57369,37.54834],[127.57362,37.54834]]]}},{"type":"Feature","properties":{"valleyId":"yongmunsan","layer":"shadow","date":"2026-08-01","timeLocal":"16:00"},"geometry":{"type":"Polygon","coordinates":[[[127.56977,37.54818],[127.5698,37.54809],[127.56987,37.54809],[127.56989,37.54818],[127.56977,37.54818]]]}},{"type":"Feature","properties":{"valleyId":"yongmunsan","layer":"shadow","date":"2026-08-01","timeLocal":"16:00"},"geometry":{"type":"Polygon","coordinates":[[[127.58027,37.54732],[127.58027,37.54726],[127.58036,37.54725],[127.58036,37.5473],[127.58027,37.54732]]]}},{"type":"Feature","properties":{"valleyId":"yongmunsan","layer":"shadow","date":"2026-08-01","timeLocal":"16:00"},"geometry":{"type":"Polygon","coordinates":[[[127.57941,37.54731],[127.57941,37.54722],[127.57948,37.54722],[127.57948,37.54731],[127.57941,37.54731]]]}},{"type":"Feature","properties":{"valleyId":"yongmunsan","layer":"shadow","date":"2026-08-01","timeLocal":"16:00"},"geometry":{"type":"Polygon","coordinates":[[[127.5798,37.54726],[127.5798,37.5472],[127.57987,37.54721],[127.57987,37.54726],[127.5798,37.54726]]]}},{"type":"Feature","properties":{"valleyId":"yongmunsan","layer":"shadow","date":"2026-08-01","timeLocal":"16:00"},"geometry":{"type":"Polygon","coordinates":[[[127.5805,37.54721],[127.58052,37.54712],[127.58059,37.54712],[127.58059,37.5472],[127.5805,37.54721]]]}},{"type":"Feature","properties":{"valleyId":"yongmunsan","layer":"shadow","date":"2026-08-01","timeLocal":"16:00"},"geometry":{"type":"Polygon","coordinates":[[[127.57971,37.54717],[127.57973,37.54699],[127.5798,37.54699],[127.5798,37.54713],[127.57978,37.54717],[127.57971,37.54717]]]}},{"type":"Feature","properties":{"valleyId":"yongmunsan","layer":"shadow","date":"2026-08-01","timeLocal":"16:00"},"geometry":{"type":"Polygon","coordinates":[[[127.57971,37.54688],[127.57972,37.54682],[127.57978,37.54683],[127.57978,37.54688],[127.57971,37.54688]]]}},{"type":"Feature","properties":{"valleyId":"yongmunsan","layer":"shadow","date":"2026-08-01","timeLocal":"16:00"},"geometry":{"type":"Polygon","coordinates":[[[127.5837,37.54689],[127.5837,37.5468],[127.58377,37.5468],[127.58377,37.54689],[127.5837,37.54689]]]}},{"type":"Feature","properties":{"valleyId":"yongmunsan","layer":"shadow","date":"2026-08-01","timeLocal":"16:00"},"geometry":{"type":"Polygon","coordinates":[[[127.58375,37.54677],[127.58375,37.54671],[127.58381,37.54671],[127.58381,37.54677],[127.58375,37.54677]]]}},{"type":"Feature","properties":{"valleyId":"yongmunsan","layer":"shadow","date":"2026-08-01","timeLocal":"16:00"},"geometry":{"type":"Polygon","coordinates":[[[127.58391,37.54653],[127.58393,37.54641],[127.584,37.54641],[127.584,37.54652],[127.58391,37.54653]]]}},{"type":"Feature","properties":{"valleyId":"yongmunsan","layer":"shadow","date":"2026-08-01","timeLocal":"16:00"},"geometry":{"type":"Polygon","coordinates":[[[127.58196,37.5464],[127.58197,37.54635],[127.58203,37.54635],[127.58203,37.5464],[127.58196,37.5464]]]}},{"type":"Feature","properties":{"valleyId":"yongmunsan","layer":"shadow","date":"2026-08-01","timeLocal":"16:00"},"geometry":{"type":"Polygon","coordinates":[[[127.57599,37.54631],[127.57599,37.54626],[127.57608,37.54624],[127.57608,37.54629],[127.57599,37.54631]]]}},{"type":"Feature","properties":{"valleyId":"yongmunsan","layer":"shadow","date":"2026-08-01","timeLocal":"16:00"},"geometry":{"type":"Polygon","coordinates":[[[127.584,37.54635],[127.584,37.5463],[127.58407,37.5463],[127.58407,37.54635],[127.584,37.54635]]]}},{"type":"Feature","properties":{"valleyId":"yongmunsan","layer":"shadow","date":"2026-08-01","timeLocal":"16:00"},"geometry":{"type":"Polygon","coordinates":[[[127.57943,37.54623],[127.57943,37.54617],[127.57957,37.54617],[127.57957,37.54623],[127.57943,37.54623]]]}},{"type":"Feature","properties":{"valleyId":"yongmunsan","layer":"shadow","date":"2026-08-01","timeLocal":"16:00"},"geometry":{"type":"Polygon","coordinates":[[[127.5762,37.54619],[127.57615,37.54617],[127.57615,37.54611],[127.57626,37.54613],[127.57626,37.54619],[127.5762,37.54619]]]}},{"type":"Feature","properties":{"valleyId":"yongmunsan","layer":"shadow","date":"2026-08-01","timeLocal":"16:00"},"geometry":{"type":"Polygon","coordinates":[[[127.57988,37.54627],[127.57989,37.54614],[127.57995,37.54614],[127.57995,37.54627],[127.57988,37.54627]]]}},{"type":"Feature","properties":{"valleyId":"yongmunsan","layer":"shadow","date":"2026-08-01","timeLocal":"16:00"},"geometry":{"type":"Polygon","coordinates":[[[127.58163,37.54623],[127.58163,37.54613],[127.5817,37.54613],[127.5817,37.54624],[127.58163,37.54623]]]}},{"type":"Feature","properties":{"valleyId":"yongmunsan","layer":"shadow","date":"2026-08-01","timeLocal":"16:00"},"geometry":{"type":"Polygon","coordinates":[[[127.57819,37.54619],[127.57817,37.54605],[127.57824,37.54605],[127.57826,37.54619],[127.57819,37.54619]]]}},{"type":"Feature","properties":{"valleyId":"yongmunsan","layer":"shadow","date":"2026-08-01","timeLocal":"16:00"},"geometry":{"type":"Polygon","coordinates":[[[127.58097,37.54615],[127.58097,37.5461],[127.58106,37.54608],[127.58106,37.54614],[127.58097,37.54615]]]}},{"type":"Feature","properties":{"valleyId":"yongmunsan","layer":"shadow","date":"2026-08-01","timeLocal":"16:00"},"geometry":{"type":"Polygon","coordinates":[[[127.57957,37.54608],[127.57957,37.54603],[127.57966,37.54603],[127.57966,37.54609],[127.57957,37.54608]]]}},{"type":"Feature","properties":{"valleyId":"yongmunsan","layer":"shadow","date":"2026-08-01","timeLocal":"16:00"},"geometry":{"type":"Polygon","coordinates":[[[127.5764,37.54603],[127.5764,37.54597],[127.57647,37.54597],[127.57647,37.54603],[127.5764,37.54603]]]}},{"type":"Feature","properties":{"valleyId":"yongmunsan","layer":"shadow","date":"2026-08-01","timeLocal":"16:00"},"geometry":{"type":"Polygon","coordinates":[[[127.58116,37.54601],[127.58116,37.54596],[127.58123,37.54596],[127.58122,37.54601],[127.58116,37.54601]]]}},{"type":"Feature","properties":{"valleyId":"yongmunsan","layer":"shadow","date":"2026-08-01","timeLocal":"16:00"},"geometry":{"type":"Polygon","coordinates":[[[127.57998,37.54598],[127.57998,37.54589],[127.58005,37.54589],[127.58005,37.54598],[127.57998,37.54598]]]}},{"type":"Feature","properties":{"valleyId":"yongmunsan","layer":"shadow","date":"2026-08-01","timeLocal":"16:00"},"geometry":{"type":"Polygon","coordinates":[[[127.57874,37.54597],[127.57871,37.54584],[127.57881,37.54584],[127.5788,37.54597],[127.57874,37.54597]]]}},{"type":"Feature","properties":{"valleyId":"yongmunsan","layer":"shadow","date":"2026-08-01","timeLocal":"16:00"},"geometry":{"type":"Polygon","coordinates":[[[127.57973,37.54587],[127.57973,37.54578],[127.57985,37.5458],[127.57982,37.54587],[127.57973,37.54587]]]}},{"type":"Feature","properties":{"valleyId":"yongmunsan","layer":"shadow","date":"2026-08-01","timeLocal":"16:00"},"geometry":{"type":"Polygon","coordinates":[[[127.57921,37.54579],[127.57922,37.54572],[127.57928,37.54572],[127.57928,37.54579],[127.57921,37.54579]]]}},{"type":"Feature","properties":{"valleyId":"yongmunsan","layer":"shadow","date":"2026-08-01","timeLocal":"16:00"},"geometry":{"type":"Polygon","coordinates":[[[127.58542,37.54585],[127.58542,37.54576],[127.58551,37.54576],[127.58553,37.54583],[127.58542,37.54585]]]}},{"type":"Feature","properties":{"valleyId":"yongmunsan","layer":"shadow","date":"2026-08-01","timeLocal":"16:00"},"geometry":{"type":"Polygon","coordinates":[[[127.58066,37.54575],[127.58067,37.54566],[127.58073,37.54567],[127.58073,37.54576],[127.58066,37.54575]]]}},{"type":"Feature","properties":{"valleyId":"yongmunsan","layer":"shadow","date":"2026-08-01","timeLocal":"16:00"},"geometry":{"type":"Polygon","coordinates":[[[127.58304,37.54571],[127.58304,37.5456],[127.58311,37.5456],[127.58311,37.54571],[127.58304,37.54571]]]}},{"type":"Feature","properties":{"valleyId":"yongmunsan","layer":"shadow","date":"2026-08-01","timeLocal":"16:00"},"geometry":{"type":"Polygon","coordinates":[[[127.5856,37.54569],[127.5856,37.54562],[127.58569,37.5456],[127.58569,37.54556],[127.58576,37.54556],[127.58576,37.54562],[127.58569,37.54562],[127.58567,37.54569],[127.5856,37.54569]]]}},{"type":"Feature","properties":{"valleyId":"yongmunsan","layer":"shadow","date":"2026-08-01","timeLocal":"16:00"},"geometry":{"type":"Polygon","coordinates":[[[127.58044,37.54557],[127.58044,37.5455],[127.5804,37.54537],[127.58047,37.54537],[127.58047,37.54541],[127.58053,37.54546],[127.58051,37.54557],[127.58044,37.54557]]]}},{"type":"Feature","properties":{"valleyId":"yongmunsan","layer":"shadow","date":"2026-08-01","timeLocal":"16:00"},"geometry":{"type":"Polygon","coordinates":[[[127.58526,37.54547],[127.58527,37.54538],[127.58533,37.54538],[127.58533,37.54547],[127.58526,37.54547]]]}},{"type":"Feature","properties":{"valleyId":"yongmunsan","layer":"shadow","date":"2026-08-01","timeLocal":"16:00"},"geometry":{"type":"Polygon","coordinates":[[[127.58223,37.54541],[127.58228,37.54531],[127.58235,37.54531],[127.58235,37.54538],[127.5823,37.54538],[127.5823,37.54541],[127.58223,37.54541]]]}},{"type":"Feature","properties":{"valleyId":"yongmunsan","layer":"shadow","date":"2026-08-01","timeLocal":"16:00"},"geometry":{"type":"Polygon","coordinates":[[[127.58683,37.5454],[127.58683,37.54532],[127.5869,37.54532],[127.5869,37.5454],[127.58683,37.5454]]]}},{"type":"Feature","properties":{"valleyId":"yongmunsan","layer":"shadow","date":"2026-08-01","timeLocal":"16:00"},"geometry":{"type":"Polygon","coordinates":[[[127.58253,37.54527],[127.58253,37.54522],[127.58262,37.5452],[127.58262,37.54526],[127.58253,37.54527]]]}},{"type":"Feature","properties":{"valleyId":"yongmunsan","layer":"shadow","date":"2026-08-01","timeLocal":"16:00"},"geometry":{"type":"Polygon","coordinates":[[[127.58391,37.54518],[127.58391,37.54511],[127.58398,37.54511],[127.58398,37.54518],[127.58391,37.54518]]]}},{"type":"Feature","properties":{"valleyId":"yongmunsan","layer":"shadow","date":"2026-08-01","timeLocal":"16:00"},"geometry":{"type":"Polygon","coordinates":[[[127.58249,37.54509],[127.58249,37.54502],[127.58258,37.54502],[127.58258,37.54509],[127.58249,37.54509]]]}},{"type":"Feature","properties":{"valleyId":"yongmunsan","layer":"shadow","date":"2026-08-01","timeLocal":"16:00"},"geometry":{"type":"Polygon","coordinates":[[[127.58663,37.54514],[127.58663,37.54507],[127.58672,37.54507],[127.58672,37.54514],[127.58663,37.54514]]]}},{"type":"Feature","properties":{"valleyId":"yongmunsan","layer":"shadow","date":"2026-08-01","timeLocal":"16:00"},"geometry":{"type":"Polygon","coordinates":[[[127.58306,37.54485],[127.58308,37.54463],[127.58315,37.54463],[127.58317,37.54479],[127.58313,37.54485],[127.58306,37.54485]]]}},{"type":"Feature","properties":{"valleyId":"yongmunsan","layer":"shadow","date":"2026-08-01","timeLocal":"16:00"},"geometry":{"type":"Polygon","coordinates":[[[127.58324,37.54463],[127.58324,37.54458],[127.58331,37.54458],[127.58331,37.54463],[127.58324,37.54463]]]}},{"type":"Feature","properties":{"valleyId":"yongmunsan","layer":"shadow","date":"2026-08-01","timeLocal":"16:00"},"geometry":{"type":"Polygon","coordinates":[[[127.58456,37.54459],[127.58456,37.54452],[127.58463,37.54452],[127.58465,37.54459],[127.58456,37.54459]]]}},{"type":"Feature","properties":{"valleyId":"yongmunsan","layer":"shadow","date":"2026-08-01","timeLocal":"16:00"},"geometry":{"type":"Polygon","coordinates":[[[127.58517,37.54447],[127.58517,37.54442],[127.58524,37.54442],[127.58524,37.54448],[127.58517,37.54447]]]}},{"type":"Feature","properties":{"valleyId":"yongmunsan","layer":"shadow","date":"2026-08-01","timeLocal":"16:00"},"geometry":{"type":"Polygon","coordinates":[[[127.58269,37.54502],[127.58274,37.54481],[127.58281,37.54479],[127.58288,37.54459],[127.58297,37.54457],[127.58297,37.54445],[127.58307,37.54443],[127.58309,37.54438],[127.58316,37.54438],[127.58309,37.54458],[127.58306,37.54461],[127.58299,37.54461],[127.58297,37.54472],[127.5829,37.54483],[127.58285,37.54484],[127.58285,37.54493],[127.58276,37.54502],[127.58269,37.54502]]]}},{"type":"Feature","properties":{"valleyId":"yongmunsan","layer":"shadow","date":"2026-08-01","timeLocal":"16:00"},"geometry":{"type":"Polygon","coordinates":[[[127.58365,37.54446],[127.58366,37.54435],[127.58372,37.54435],[127.58374,37.54444],[127.58365,37.54446]]]}},{"type":"Feature","properties":{"valleyId":"yongmunsan","layer":"shadow","date":"2026-08-01","timeLocal":"16:00"},"geometry":{"type":"Polygon","coordinates":[[[127.58393,37.54435],[127.58393,37.54428],[127.584,37.54428],[127.584,37.54435],[127.58393,37.54435]]]}},{"type":"Feature","properties":{"valleyId":"yongmunsan","layer":"shadow","date":"2026-08-01","timeLocal":"16:00"},"geometry":{"type":"Polygon","coordinates":[[[127.58332,37.54433],[127.58332,37.54425],[127.58339,37.54426],[127.58341,37.54415],[127.58348,37.54415],[127.58341,37.54431],[127.58332,37.54433]]]}},{"type":"Feature","properties":{"valleyId":"yongmunsan","layer":"shadow","date":"2026-08-01","timeLocal":"16:00"},"geometry":{"type":"Polygon","coordinates":[[[127.58565,37.54416],[127.58565,37.54408],[127.58572,37.54408],[127.58572,37.54416],[127.58565,37.54416]]]}},{"type":"Feature","properties":{"valleyId":"yongmunsan","layer":"shadow","date":"2026-08-01","timeLocal":"16:00"},"geometry":{"type":"Polygon","coordinates":[[[127.58703,37.54406],[127.58704,37.54399],[127.5871,37.54399],[127.58712,37.54407],[127.58703,37.54406]]]}},{"type":"Feature","properties":{"valleyId":"yongmunsan","layer":"shadow","date":"2026-08-01","timeLocal":"16:00"},"geometry":{"type":"Polygon","coordinates":[[[127.58649,37.54395],[127.58649,37.54386],[127.58663,37.5439],[127.58663,37.54395],[127.58649,37.54395]]]}},{"type":"Feature","properties":{"valleyId":"yongmunsan","layer":"shadow","date":"2026-08-01","timeLocal":"16:00"},"geometry":{"type":"Polygon","coordinates":[[[127.58439,37.54389],[127.58439,37.54383],[127.58446,37.54384],[127.58446,37.54389],[127.58439,37.54389]]]}},{"type":"Feature","properties":{"valleyId":"yongmunsan","layer":"shadow","date":"2026-08-01","timeLocal":"16:00"},"geometry":{"type":"Polygon","coordinates":[[[127.58527,37.54377],[127.58528,37.54372],[127.58534,37.54372],[127.58534,37.54377],[127.58527,37.54377]]]}},{"type":"Feature","properties":{"valleyId":"yongmunsan","layer":"shadow","date":"2026-08-01","timeLocal":"16:00"},"geometry":{"type":"Polygon","coordinates":[[[127.58272,37.54374],[127.5827,37.54367],[127.58279,37.54367],[127.58281,37.54374],[127.58272,37.54374]]]}},{"type":"Feature","properties":{"valleyId":"yongmunsan","layer":"shadow","date":"2026-08-01","timeLocal":"16:00"},"geometry":{"type":"Polygon","coordinates":[[[127.5824,37.54361],[127.5824,37.54356],[127.58252,37.54354],[127.58249,37.54361],[127.5824,37.54361]]]}},{"type":"Feature","properties":{"valleyId":"yongmunsan","layer":"shadow","date":"2026-08-01","timeLocal":"16:00"},"geometry":{"type":"Polygon","coordinates":[[[127.58312,37.5438],[127.58312,37.54371],[127.58317,37.54368],[127.58317,37.54353],[127.58324,37.54353],[127.58331,37.54361],[127.58331,37.5437],[127.58328,37.54373],[127.58324,37.54373],[127.58319,37.5438],[127.58312,37.5438]]]}},{"type":"Feature","properties":{"valleyId":"yongmunsan","layer":"shadow","date":"2026-08-01","timeLocal":"16:00"},"geometry":{"type":"Polygon","coordinates":[[[127.58514,37.54361],[127.58514,37.54356],[127.58523,37.54354],[127.58523,37.54361],[127.58514,37.54361]]]}},{"type":"Feature","properties":{"valleyId":"yongmunsan","layer":"shadow","date":"2026-08-01","timeLocal":"16:00"},"geometry":{"type":"Polygon","coordinates":[[[127.58736,37.54353],[127.58736,37.54344],[127.58743,37.54344],[127.58745,37.54351],[127.58736,37.54353]]]}},{"type":"Feature","properties":{"valleyId":"yongmunsan","layer":"shadow","date":"2026-08-01","timeLocal":"16:00"},"geometry":{"type":"Polygon","coordinates":[[[127.58528,37.54348],[127.58528,37.54343],[127.58537,37.54341],[127.58537,37.54347],[127.58528,37.54348]]]}},{"type":"Feature","properties":{"valleyId":"yongmunsan","layer":"shadow","date":"2026-08-01","timeLocal":"16:00"},"geometry":{"type":"Polygon","coordinates":[[[127.58606,37.54315],[127.58606,37.5431],[127.58612,37.5431],[127.58612,37.54315],[127.58606,37.54315]]]}},{"type":"Feature","properties":{"valleyId":"yongmunsan","layer":"shadow","date":"2026-08-01","timeLocal":"16:00"},"geometry":{"type":"Polygon","coordinates":[[[127.58537,37.54338],[127.58536,37.54293],[127.5854,37.54289],[127.58541,37.54264],[127.5855,37.54262],[127.58555,37.54255],[127.58566,37.54255],[127.58566,37.54261],[127.5855,37.54264],[127.58549,37.54289],[127.58545,37.54311],[127.58546,37.54334],[127.58544,37.54338],[127.58537,37.54338]]]}},{"type":"Feature","properties":{"valleyId":"yongmunsan","layer":"shadow","date":"2026-08-01","timeLocal":"16:00"},"geometry":{"type":"Polygon","coordinates":[[[127.58571,37.54252],[127.58573,37.54243],[127.5858,37.54243],[127.58577,37.54252],[127.58571,37.54252]]]}},{"type":"Feature","properties":{"valleyId":"yongmunsan","layer":"shadow","date":"2026-08-01","timeLocal":"16:00"},"geometry":{"type":"Polygon","coordinates":[[[127.5858,37.54241],[127.5858,37.54236],[127.58587,37.54236],[127.58587,37.54241],[127.5858,37.54241]]]}}]}
