{"type":"FeatureCollection","metadata":{"description":"개방지(CHM ≤ 2 m)에 드리운 나무·지형 그림자, 2026-08-01 10:00 KST. canopy 위에 겹쳐 그린다","source":"위성 기반 추정 — Copernicus GLO-30 지형(30 m) + Meta/WRI 수관 높이(1 m CHM, 2016 촬영). 그늘 = 수관(CHM > 2 m) ∪ 나무·지형 그림자 ∪ 원거리 지형 마스크. 현장과 다를 수 있음.","datasetVersion":"2026-09-06.0","collectedAt":"2026-09-06","coordinateOrder":"[longitude, latitude]","crs":"EPSG:4326","representativeDate":"2026-08-01","hours":["10:00","11:00","12:00","13:00","14:00","15:00","16:00","17:00","18:00"],"chmAcquisition":["2016-06"],"assets":{"glo30":{"dataset":"Copernicus DEM GLO-30 (COG, s3://copernicus-dem-30m)","tiles":["Copernicus_DSM_COG_10_N37_00_E127_00_DEM"]},"chm":{"dataset":"Meta/WRI Global Canopy Height Map v1 (alsgedi_global_v6_float, 1 m, CC-BY 4.0)","quadkeys":["132110321"],"acquisition":["2016-06"]}},"method":{"gridResM":2,"canopyThresholdM":2,"bufferHalfM":25,"corridorHalfM":200,"simplifyTolM":2,"minAreaM2":25,"coordDecimals":5},"generator":"scripts/shade 0.1.0","builtAt":"2026-09-06T06:09:52Z","layer":"shadow","timeLocal":"10:00"},"features":[{"type":"Feature","properties":{"valleyId":"yongmunsan","layer":"shadow","date":"2026-08-01","timeLocal":"10:00"},"geometry":{"type":"Polygon","coordinates":[[[127.56082,37.56177],[127.56082,37.56172],[127.56089,37.56172],[127.56089,37.56177],[127.56082,37.56177]]]}},{"type":"Feature","properties":{"valleyId":"yongmunsan","layer":"shadow","date":"2026-08-01","timeLocal":"10:00"},"geometry":{"type":"Polygon","coordinates":[[[127.563,37.56038],[127.563,37.5603],[127.56307,37.5603],[127.56306,37.56038],[127.563,37.56038]]]}},{"type":"Feature","properties":{"valleyId":"yongmunsan","layer":"shadow","date":"2026-08-01","timeLocal":"10:00"},"geometry":{"type":"Polygon","coordinates":[[[127.5632,37.55825],[127.5632,37.55816],[127.56326,37.55816],[127.56326,37.55825],[127.5632,37.55825]]]}},{"type":"Feature","properties":{"valleyId":"yongmunsan","layer":"shadow","date":"2026-08-01","timeLocal":"10:00"},"geometry":{"type":"Polygon","coordinates":[[[127.56668,37.55727],[127.56668,37.55719],[127.56675,37.5572],[127.56675,37.55727],[127.56668,37.55727]]]}},{"type":"Feature","properties":{"valleyId":"yongmunsan","layer":"shadow","date":"2026-08-01","timeLocal":"10:00"},"geometry":{"type":"Polygon","coordinates":[[[127.56666,37.55608],[127.56666,37.55602],[127.56679,37.55602],[127.56679,37.55608],[127.56666,37.55608]]]}},{"type":"Feature","properties":{"valleyId":"yongmunsan","layer":"shadow","date":"2026-08-01","timeLocal":"10:00"},"geometry":{"type":"Polygon","coordinates":[[[127.57622,37.54621],[127.57622,37.54617],[127.57617,37.54617],[127.57617,37.54612],[127.57624,37.54612],[127.57624,37.54615],[127.57629,37.54615],[127.57629,37.54621],[127.57622,37.54621]]]}},{"type":"Feature","properties":{"valleyId":"yongmunsan","layer":"shadow","date":"2026-08-01","timeLocal":"10:00"},"geometry":{"type":"Polygon","coordinates":[[[127.57924,37.54581],[127.57922,37.54572],[127.57928,37.54572],[127.5793,37.54581],[127.57924,37.54581]]]}},{"type":"Feature","properties":{"valleyId":"yongmunsan","layer":"shadow","date":"2026-08-01","timeLocal":"10:00"},"geometry":{"type":"Polygon","coordinates":[[[127.58526,37.54585],[127.58526,37.54579],[127.58533,37.54579],[127.58533,37.54585],[127.58526,37.54585]]]}},{"type":"Feature","properties":{"valleyId":"yongmunsan","layer":"shadow","date":"2026-08-01","timeLocal":"10:00"},"geometry":{"type":"Polygon","coordinates":[[[127.58087,37.54538],[127.58088,37.54531],[127.58083,37.54525],[127.58081,37.54509],[127.5809,37.54511],[127.58094,37.54538],[127.58087,37.54538]]]}},{"type":"Feature","properties":{"valleyId":"yongmunsan","layer":"shadow","date":"2026-08-01","timeLocal":"10:00"},"geometry":{"type":"Polygon","coordinates":[[[127.58079,37.54507],[127.58079,37.54498],[127.58086,37.54498],[127.58086,37.54507],[127.58079,37.54507]]]}},{"type":"Feature","properties":{"valleyId":"yongmunsan","layer":"shadow","date":"2026-08-01","timeLocal":"10:00"},"geometry":{"type":"Polygon","coordinates":[[[127.58609,37.54476],[127.58609,37.5447],[127.58616,37.5447],[127.58616,37.54476],[127.58609,37.54476]]]}},{"type":"Feature","properties":{"valleyId":"yongmunsan","layer":"shadow","date":"2026-08-01","timeLocal":"10:00"},"geometry":{"type":"Polygon","coordinates":[[[127.5844,37.54457],[127.5844,37.54452],[127.58447,37.54452],[127.58447,37.54457],[127.5844,37.54457]]]}},{"type":"Feature","properties":{"valleyId":"yongmunsan","layer":"shadow","date":"2026-08-01","timeLocal":"10:00"},"geometry":{"type":"Polygon","coordinates":[[[127.58631,37.54393],[127.58631,37.54388],[127.58638,37.54388],[127.58638,37.54393],[127.58631,37.54393]]]}},{"type":"Feature","properties":{"valleyId":"yongmunsan","layer":"shadow","date":"2026-08-01","timeLocal":"10:00"},"geometry":{"type":"Polygon","coordinates":[[[127.58353,37.54381],[127.58353,37.54375],[127.5836,37.54375],[127.5836,37.54381],[127.58353,37.54381]]]}},{"type":"Feature","properties":{"valleyId":"yongmunsan","layer":"shadow","date":"2026-08-01","timeLocal":"10:00"},"geometry":{"type":"Polygon","coordinates":[[[127.58342,37.54366],[127.58338,37.54361],[127.58338,37.5435],[127.58345,37.5435],[127.58344,37.54357],[127.58349,37.54361],[127.58349,37.54366],[127.58342,37.54366]]]}},{"type":"Feature","properties":{"valleyId":"yongmunsan","layer":"shadow","date":"2026-08-01","timeLocal":"10:00"},"geometry":{"type":"Polygon","coordinates":[[[127.58333,37.54346],[127.58333,37.54339],[127.5834,37.54339],[127.5834,37.54346],[127.58333,37.54346]]]}}]}
