{"type":"FeatureCollection","metadata":{"description":"개방지(CHM ≤ 2 m)에 드리운 나무·지형 그림자, 2026-08-01 17:00 KST. canopy 위에 겹쳐 그린다","source":"위성 기반 추정 — Copernicus GLO-30 지형(30 m) + Meta/WRI 수관 높이(1 m CHM, 2016 촬영). 그늘 = 수관(CHM > 2 m) ∪ 나무·지형 그림자 ∪ 원거리 지형 마스크. 현장과 다를 수 있음.","datasetVersion":"2026-09-06.0","collectedAt":"2026-09-06","coordinateOrder":"[longitude, latitude]","crs":"EPSG:4326","representativeDate":"2026-08-01","hours":["10:00","11:00","12:00","13:00","14:00","15:00","16:00","17:00","18:00"],"chmAcquisition":["2016-06"],"assets":{"glo30":{"dataset":"Copernicus DEM GLO-30 (COG, s3://copernicus-dem-30m)","tiles":["Copernicus_DSM_COG_10_N37_00_E127_00_DEM"]},"chm":{"dataset":"Meta/WRI Global Canopy Height Map v1 (alsgedi_global_v6_float, 1 m, CC-BY 4.0)","quadkeys":["132110321"],"acquisition":["2016-06"]}},"method":{"gridResM":2,"canopyThresholdM":2,"bufferHalfM":25,"corridorHalfM":200,"simplifyTolM":2,"minAreaM2":25,"coordDecimals":5},"generator":"scripts/shade 0.1.0","builtAt":"2026-09-06T06:09:52Z","layer":"shadow","timeLocal":"17:00"},"features":[{"type":"Feature","properties":{"valleyId":"yongmunsan","layer":"shadow","date":"2026-08-01","timeLocal":"17:00"},"geometry":{"type":"Polygon","coordinates":[[[127.5604,37.56114],[127.5604,37.56108],[127.56047,37.56108],[127.56047,37.56114],[127.5604,37.56114]]]}},{"type":"Feature","properties":{"valleyId":"yongmunsan","layer":"shadow","date":"2026-08-01","timeLocal":"17:00"},"geometry":{"type":"Polygon","coordinates":[[[127.56273,37.56118],[127.56276,37.561],[127.5628,37.56097],[127.56294,37.56097],[127.56298,37.56101],[127.56294,37.56111],[127.56287,37.56111],[127.56287,37.56119],[127.56273,37.56118]]]}},{"type":"Feature","properties":{"valleyId":"yongmunsan","layer":"shadow","date":"2026-08-01","timeLocal":"17:00"},"geometry":{"type":"Polygon","coordinates":[[[127.55988,37.55996],[127.55986,37.55989],[127.56008,37.55987],[127.56006,37.55994],[127.55988,37.55996]]]}},{"type":"Feature","properties":{"valleyId":"yongmunsan","layer":"shadow","date":"2026-08-01","timeLocal":"17:00"},"geometry":{"type":"Polygon","coordinates":[[[127.56126,37.55998],[127.56117,37.55994],[127.56117,37.55989],[127.56131,37.55987],[127.56135,37.55991],[127.56135,37.55996],[127.56126,37.55998]]]}},{"type":"Feature","properties":{"valleyId":"yongmunsan","layer":"shadow","date":"2026-08-01","timeLocal":"17:00"},"geometry":{"type":"Polygon","coordinates":[[[127.56013,37.55989],[127.56013,37.55982],[127.5602,37.55982],[127.56022,37.55989],[127.56013,37.55989]]]}},{"type":"Feature","properties":{"valleyId":"yongmunsan","layer":"shadow","date":"2026-08-01","timeLocal":"17:00"},"geometry":{"type":"Polygon","coordinates":[[[127.559,37.55986],[127.55895,37.55979],[127.55889,37.55979],[127.55889,37.55973],[127.55896,37.55973],[127.55895,37.55977],[127.55907,37.55979],[127.55907,37.55986],[127.559,37.55986]]]}},{"type":"Feature","properties":{"valleyId":"yongmunsan","layer":"shadow","date":"2026-08-01","timeLocal":"17:00"},"geometry":{"type":"Polygon","coordinates":[[[127.55994,37.55902],[127.55992,37.55899],[127.55988,37.55899],[127.55988,37.55893],[127.56006,37.55895],[127.56006,37.55902],[127.55994,37.55902]]]}},{"type":"Feature","properties":{"valleyId":"yongmunsan","layer":"shadow","date":"2026-08-01","timeLocal":"17:00"},"geometry":{"type":"Polygon","coordinates":[[[127.55945,37.55891],[127.55945,37.55887],[127.5594,37.55885],[127.5594,37.55878],[127.55961,37.55884],[127.55958,37.55891],[127.55945,37.55891]]]}},{"type":"Feature","properties":{"valleyId":"yongmunsan","layer":"shadow","date":"2026-08-01","timeLocal":"17:00"},"geometry":{"type":"Polygon","coordinates":[[[127.56317,37.55825],[127.56317,37.55818],[127.56326,37.55816],[127.56326,37.55825],[127.56317,37.55825]]]}},{"type":"Feature","properties":{"valleyId":"yongmunsan","layer":"shadow","date":"2026-08-01","timeLocal":"17:00"},"geometry":{"type":"Polygon","coordinates":[[[127.5606,37.55784],[127.5606,37.55779],[127.56069,37.55779],[127.56069,37.55784],[127.5606,37.55784]]]}},{"type":"Feature","properties":{"valleyId":"yongmunsan","layer":"shadow","date":"2026-08-01","timeLocal":"17:00"},"geometry":{"type":"Polygon","coordinates":[[[127.56323,37.55739],[127.56324,37.55733],[127.5633,37.55733],[127.5633,37.55739],[127.56323,37.55739]]]}},{"type":"Feature","properties":{"valleyId":"yongmunsan","layer":"shadow","date":"2026-08-01","timeLocal":"17:00"},"geometry":{"type":"Polygon","coordinates":[[[127.56344,37.55712],[127.56344,37.55706],[127.56351,37.55707],[127.56351,37.55712],[127.56344,37.55712]]]}},{"type":"Feature","properties":{"valleyId":"yongmunsan","layer":"shadow","date":"2026-08-01","timeLocal":"17:00"},"geometry":{"type":"Polygon","coordinates":[[[127.5644,37.55702],[127.5644,37.55697],[127.56447,37.55697],[127.56446,37.55702],[127.5644,37.55702]]]}},{"type":"Feature","properties":{"valleyId":"yongmunsan","layer":"shadow","date":"2026-08-01","timeLocal":"17:00"},"geometry":{"type":"Polygon","coordinates":[[[127.56333,37.55696],[127.56334,37.55687],[127.5634,37.55687],[127.5634,37.55696],[127.56333,37.55696]]]}},{"type":"Feature","properties":{"valleyId":"yongmunsan","layer":"shadow","date":"2026-08-01","timeLocal":"17:00"},"geometry":{"type":"Polygon","coordinates":[[[127.56426,37.55693],[127.56424,37.55689],[127.5642,37.55689],[127.5642,37.55684],[127.56431,37.55684],[127.5644,37.55688],[127.5644,37.55693],[127.56426,37.55693]]]}},{"type":"Feature","properties":{"valleyId":"yongmunsan","layer":"shadow","date":"2026-08-01","timeLocal":"17:00"},"geometry":{"type":"Polygon","coordinates":[[[127.563,37.55681],[127.563,37.55675],[127.56307,37.55675],[127.56306,37.55681],[127.563,37.55681]]]}},{"type":"Feature","properties":{"valleyId":"yongmunsan","layer":"shadow","date":"2026-08-01","timeLocal":"17:00"},"geometry":{"type":"Polygon","coordinates":[[[127.56544,37.55689],[127.56544,37.55682],[127.56533,37.55682],[127.56535,37.55675],[127.56542,37.55675],[127.56544,37.5568],[127.56551,37.5568],[127.56551,37.55689],[127.56544,37.55689]]]}},{"type":"Feature","properties":{"valleyId":"yongmunsan","layer":"shadow","date":"2026-08-01","timeLocal":"17:00"},"geometry":{"type":"Polygon","coordinates":[[[127.56381,37.55689],[127.56377,37.55683],[127.56356,37.55683],[127.56356,37.55678],[127.5637,37.55669],[127.56384,37.55669],[127.56395,37.55676],[127.56408,37.55678],[127.56408,37.55684],[127.56397,37.55684],[127.56388,37.55689],[127.56381,37.55689]]]}},{"type":"Feature","properties":{"valleyId":"yongmunsan","layer":"shadow","date":"2026-08-01","timeLocal":"17:00"},"geometry":{"type":"Polygon","coordinates":[[[127.56563,37.55637],[127.56563,37.5563],[127.5657,37.5563],[127.5657,37.55637],[127.56563,37.55637]]]}},{"type":"Feature","properties":{"valleyId":"yongmunsan","layer":"shadow","date":"2026-08-01","timeLocal":"17:00"},"geometry":{"type":"Polygon","coordinates":[[[127.56628,37.55578],[127.56626,37.55569],[127.56632,37.55569],[127.56634,37.55578],[127.56628,37.55578]]]}},{"type":"Feature","properties":{"valleyId":"yongmunsan","layer":"shadow","date":"2026-08-01","timeLocal":"17:00"},"geometry":{"type":"Polygon","coordinates":[[[127.56288,37.55589],[127.56279,37.5557],[127.56275,37.55567],[127.56259,37.55567],[127.56259,37.55561],[127.56273,37.55551],[127.56277,37.55551],[127.56293,37.5554],[127.563,37.5554],[127.563,37.55547],[127.56304,37.55553],[127.56302,37.55576],[127.56297,37.55576],[127.56299,37.55587],[127.56288,37.55589]],[[127.56291,37.55562],[127.56297,37.55562],[127.56298,37.55556],[127.56291,37.55556],[127.56291,37.55562]]]}},{"type":"Feature","properties":{"valleyId":"yongmunsan","layer":"shadow","date":"2026-08-01","timeLocal":"17:00"},"geometry":{"type":"Polygon","coordinates":[[[127.56419,37.55505],[127.56419,37.555],[127.56425,37.555],[127.56425,37.55506],[127.56419,37.55505]]]}},{"type":"Feature","properties":{"valleyId":"yongmunsan","layer":"shadow","date":"2026-08-01","timeLocal":"17:00"},"geometry":{"type":"Polygon","coordinates":[[[127.56477,37.55519],[127.56468,37.55513],[127.56468,37.55506],[127.56482,37.55503],[127.56487,37.55497],[127.56507,37.55499],[127.56505,37.55507],[127.56484,37.55506],[127.56484,37.55519],[127.56477,37.55519]]]}},{"type":"Feature","properties":{"valleyId":"yongmunsan","layer":"shadow","date":"2026-08-01","timeLocal":"17:00"},"geometry":{"type":"Polygon","coordinates":[[[127.56511,37.55499],[127.56512,37.55494],[127.56516,37.55494],[127.56518,37.55489],[127.56528,37.55489],[127.56532,37.55485],[127.56568,37.55486],[127.56568,37.55493],[127.56564,37.55496],[127.56546,37.55494],[127.56539,37.555],[127.56511,37.55499]]]}},{"type":"Feature","properties":{"valleyId":"yongmunsan","layer":"shadow","date":"2026-08-01","timeLocal":"17:00"},"geometry":{"type":"Polygon","coordinates":[[[127.56616,37.55488],[127.56605,37.55486],[127.56605,37.55481],[127.56627,37.55481],[127.56625,37.55488],[127.56616,37.55488]]]}},{"type":"Feature","properties":{"valleyId":"yongmunsan","layer":"shadow","date":"2026-08-01","timeLocal":"17:00"},"geometry":{"type":"Polygon","coordinates":[[[127.56639,37.55478],[127.56639,37.55472],[127.56646,37.55472],[127.56645,37.55478],[127.56639,37.55478]]]}},{"type":"Feature","properties":{"valleyId":"yongmunsan","layer":"shadow","date":"2026-08-01","timeLocal":"17:00"},"geometry":{"type":"Polygon","coordinates":[[[127.56497,37.55447],[127.56497,37.55442],[127.56504,37.55442],[127.56503,37.55447],[127.56497,37.55447]]]}},{"type":"Feature","properties":{"valleyId":"yongmunsan","layer":"shadow","date":"2026-08-01","timeLocal":"17:00"},"geometry":{"type":"Polygon","coordinates":[[[127.56581,37.55392],[127.56582,37.55385],[127.56588,37.5538],[127.56591,37.55372],[127.566,37.55373],[127.56604,37.5538],[127.56604,37.55389],[127.56595,37.55389],[127.56595,37.55392],[127.56581,37.55392]]]}},{"type":"Feature","properties":{"valleyId":"yongmunsan","layer":"shadow","date":"2026-08-01","timeLocal":"17:00"},"geometry":{"type":"Polygon","coordinates":[[[127.56706,37.55381],[127.56706,37.55376],[127.56715,37.55374],[127.56715,37.55379],[127.56706,37.55381]]]}},{"type":"Feature","properties":{"valleyId":"yongmunsan","layer":"shadow","date":"2026-08-01","timeLocal":"17:00"},"geometry":{"type":"Polygon","coordinates":[[[127.56725,37.55367],[127.56725,37.5536],[127.56734,37.5536],[127.56734,37.55367],[127.56725,37.55367]]]}},{"type":"Feature","properties":{"valleyId":"yongmunsan","layer":"shadow","date":"2026-08-01","timeLocal":"17:00"},"geometry":{"type":"Polygon","coordinates":[[[127.56704,37.55365],[127.56704,37.55359],[127.56713,37.55359],[127.56713,37.55365],[127.56704,37.55365]]]}},{"type":"Feature","properties":{"valleyId":"yongmunsan","layer":"shadow","date":"2026-08-01","timeLocal":"17:00"},"geometry":{"type":"Polygon","coordinates":[[[127.56766,37.55351],[127.56766,37.55342],[127.56775,37.5534],[127.56772,37.55351],[127.56766,37.55351]]]}},{"type":"Feature","properties":{"valleyId":"yongmunsan","layer":"shadow","date":"2026-08-01","timeLocal":"17:00"},"geometry":{"type":"Polygon","coordinates":[[[127.56732,37.55358],[127.56732,37.5534],[127.56736,37.55336],[127.56746,37.55336],[127.5675,37.55351],[127.56741,37.55353],[127.56738,37.55358],[127.56732,37.55358]]]}},{"type":"Feature","properties":{"valleyId":"yongmunsan","layer":"shadow","date":"2026-08-01","timeLocal":"17:00"},"geometry":{"type":"Polygon","coordinates":[[[127.56828,37.55298],[127.56828,37.55289],[127.56835,37.55289],[127.56835,37.55298],[127.56828,37.55298]]]}},{"type":"Feature","properties":{"valleyId":"yongmunsan","layer":"shadow","date":"2026-08-01","timeLocal":"17:00"},"geometry":{"type":"Polygon","coordinates":[[[127.56837,37.55273],[127.56837,37.55265],[127.56844,37.55266],[127.56844,37.55273],[127.56837,37.55273]]]}},{"type":"Feature","properties":{"valleyId":"yongmunsan","layer":"shadow","date":"2026-08-01","timeLocal":"17:00"},"geometry":{"type":"Polygon","coordinates":[[[127.56865,37.55259],[127.56865,37.55253],[127.56872,37.55253],[127.56872,37.55259],[127.56865,37.55259]]]}},{"type":"Feature","properties":{"valleyId":"yongmunsan","layer":"shadow","date":"2026-08-01","timeLocal":"17:00"},"geometry":{"type":"Polygon","coordinates":[[[127.56845,37.5524],[127.56847,37.55231],[127.56858,37.55233],[127.56858,37.55239],[127.56845,37.5524]]]}},{"type":"Feature","properties":{"valleyId":"yongmunsan","layer":"shadow","date":"2026-08-01","timeLocal":"17:00"},"geometry":{"type":"Polygon","coordinates":[[[127.56658,37.55188],[127.56658,37.55182],[127.56669,37.55182],[127.56669,37.55188],[127.56658,37.55188]]]}},{"type":"Feature","properties":{"valleyId":"yongmunsan","layer":"shadow","date":"2026-08-01","timeLocal":"17:00"},"geometry":{"type":"Polygon","coordinates":[[[127.56932,37.55184],[127.56932,37.55176],[127.56939,37.55177],[127.56939,37.55184],[127.56932,37.55184]]]}},{"type":"Feature","properties":{"valleyId":"yongmunsan","layer":"shadow","date":"2026-08-01","timeLocal":"17:00"},"geometry":{"type":"Polygon","coordinates":[[[127.57049,37.55073],[127.57045,37.5507],[127.57045,37.55059],[127.5705,37.55044],[127.57057,37.55045],[127.57057,37.5505],[127.57061,37.55052],[127.57061,37.55063],[127.57056,37.55073],[127.57049,37.55073]]]}},{"type":"Feature","properties":{"valleyId":"yongmunsan","layer":"shadow","date":"2026-08-01","timeLocal":"17:00"},"geometry":{"type":"Polygon","coordinates":[[[127.57265,37.55029],[127.57263,37.55022],[127.5727,37.55022],[127.57272,37.55029],[127.57265,37.55029]]]}},{"type":"Feature","properties":{"valleyId":"yongmunsan","layer":"shadow","date":"2026-08-01","timeLocal":"17:00"},"geometry":{"type":"Polygon","coordinates":[[[127.57032,37.55048],[127.57025,37.55037],[127.57025,37.55032],[127.5703,37.5503],[127.5703,37.55024],[127.57025,37.55024],[127.57026,37.5501],[127.57037,37.55001],[127.57053,37.55001],[127.57053,37.55008],[127.57044,37.55014],[127.57041,37.55021],[127.57043,37.55043],[127.57039,37.55043],[127.57039,37.55048],[127.57032,37.55048]]]}},{"type":"Feature","properties":{"valleyId":"yongmunsan","layer":"shadow","date":"2026-08-01","timeLocal":"17:00"},"geometry":{"type":"Polygon","coordinates":[[[127.57323,37.54996],[127.57323,37.54988],[127.57332,37.54988],[127.57332,37.54994],[127.57323,37.54996]]]}},{"type":"Feature","properties":{"valleyId":"yongmunsan","layer":"shadow","date":"2026-08-01","timeLocal":"17:00"},"geometry":{"type":"Polygon","coordinates":[[[127.57062,37.55],[127.57062,37.54992],[127.57067,37.54987],[127.57085,37.54984],[127.57087,37.54993],[127.57083,37.54996],[127.57062,37.55]]]}},{"type":"Feature","properties":{"valleyId":"yongmunsan","layer":"shadow","date":"2026-08-01","timeLocal":"17:00"},"geometry":{"type":"Polygon","coordinates":[[[127.57246,37.54987],[127.57246,37.54982],[127.57253,37.54982],[127.57253,37.54987],[127.57246,37.54987]]]}},{"type":"Feature","properties":{"valleyId":"yongmunsan","layer":"shadow","date":"2026-08-01","timeLocal":"17:00"},"geometry":{"type":"Polygon","coordinates":[[[127.57101,37.54989],[127.57101,37.54984],[127.57108,37.54977],[127.57117,37.54977],[127.57121,37.5498],[127.57119,37.54988],[127.57101,37.54989]]]}},{"type":"Feature","properties":{"valleyId":"yongmunsan","layer":"shadow","date":"2026-08-01","timeLocal":"17:00"},"geometry":{"type":"Polygon","coordinates":[[[127.57142,37.54983],[127.57142,37.54972],[127.5714,37.54968],[127.57135,37.54968],[127.57135,37.54961],[127.57158,37.54963],[127.57162,37.54979],[127.57142,37.54983]]]}},{"type":"Feature","properties":{"valleyId":"yongmunsan","layer":"shadow","date":"2026-08-01","timeLocal":"17:00"},"geometry":{"type":"Polygon","coordinates":[[[127.57873,37.54981],[127.57862,37.54977],[127.57862,37.54971],[127.5788,37.54972],[127.57882,37.54981],[127.57873,37.54981]]]}},{"type":"Feature","properties":{"valleyId":"yongmunsan","layer":"shadow","date":"2026-08-01","timeLocal":"17:00"},"geometry":{"type":"Polygon","coordinates":[[[127.57846,37.54975],[127.57846,37.54968],[127.57853,37.54968],[127.57853,37.54975],[127.57846,37.54975]]]}},{"type":"Feature","properties":{"valleyId":"yongmunsan","layer":"shadow","date":"2026-08-01","timeLocal":"17:00"},"geometry":{"type":"Polygon","coordinates":[[[127.57169,37.54956],[127.5717,37.54938],[127.57181,37.54936],[127.57178,37.54956],[127.57169,37.54956]]]}},{"type":"Feature","properties":{"valleyId":"yongmunsan","layer":"shadow","date":"2026-08-01","timeLocal":"17:00"},"geometry":{"type":"Polygon","coordinates":[[[127.57186,37.54934],[127.57186,37.54929],[127.5719,37.54925],[127.57195,37.54925],[127.57199,37.5492],[127.57206,37.5492],[127.57202,37.54931],[127.57186,37.54934]]]}},{"type":"Feature","properties":{"valleyId":"yongmunsan","layer":"shadow","date":"2026-08-01","timeLocal":"17:00"},"geometry":{"type":"Polygon","coordinates":[[[127.57211,37.54917],[127.57211,37.54911],[127.5722,37.5491],[127.5722,37.54917],[127.57211,37.54917]]]}},{"type":"Feature","properties":{"valleyId":"yongmunsan","layer":"shadow","date":"2026-08-01","timeLocal":"17:00"},"geometry":{"type":"Polygon","coordinates":[[[127.5789,37.54912],[127.57888,37.54898],[127.57897,37.54896],[127.57897,37.54905],[127.57906,37.54907],[127.57906,37.54912],[127.5789,37.54912]]]}},{"type":"Feature","properties":{"valleyId":"yongmunsan","layer":"shadow","date":"2026-08-01","timeLocal":"17:00"},"geometry":{"type":"Polygon","coordinates":[[[127.579,37.54894],[127.579,37.54889],[127.57909,37.54889],[127.57909,37.54894],[127.579,37.54894]]]}},{"type":"Feature","properties":{"valleyId":"yongmunsan","layer":"shadow","date":"2026-08-01","timeLocal":"17:00"},"geometry":{"type":"Polygon","coordinates":[[[127.58135,37.54894],[127.58133,37.54881],[127.5814,37.54872],[127.58147,37.54872],[127.58147,37.54879],[127.58142,37.54881],[127.58142,37.54894],[127.58135,37.54894]]]}},{"type":"Feature","properties":{"valleyId":"yongmunsan","layer":"shadow","date":"2026-08-01","timeLocal":"17:00"},"geometry":{"type":"Polygon","coordinates":[[[127.57944,37.54927],[127.57944,37.54916],[127.57958,37.54906],[127.57958,37.54899],[127.57963,37.54893],[127.57963,37.54879],[127.5797,37.5487],[127.5797,37.54865],[127.57979,37.54863],[127.57981,37.54879],[127.57975,37.54879],[127.57974,37.54899],[127.57963,37.54908],[127.57963,37.54915],[127.57958,37.54917],[127.57956,37.54926],[127.57944,37.54927]]]}},{"type":"Feature","properties":{"valleyId":"yongmunsan","layer":"shadow","date":"2026-08-01","timeLocal":"17:00"},"geometry":{"type":"Polygon","coordinates":[[[127.57393,37.54852],[127.57391,37.54845],[127.57398,37.54845],[127.574,37.54852],[127.57393,37.54852]]]}},{"type":"Feature","properties":{"valleyId":"yongmunsan","layer":"shadow","date":"2026-08-01","timeLocal":"17:00"},"geometry":{"type":"Polygon","coordinates":[[[127.57321,37.54858],[127.57319,37.54844],[127.57323,37.54839],[127.57332,37.54835],[127.57353,37.54835],[127.5735,37.54855],[127.5733,37.54855],[127.57327,37.54859],[127.57321,37.54858]]]}},{"type":"Feature","properties":{"valleyId":"yongmunsan","layer":"shadow","date":"2026-08-01","timeLocal":"17:00"},"geometry":{"type":"Polygon","coordinates":[[[127.56954,37.54832],[127.5695,37.54831],[127.5695,37.54825],[127.56961,37.54827],[127.56961,37.54833],[127.56954,37.54832]]]}},{"type":"Feature","properties":{"valleyId":"yongmunsan","layer":"shadow","date":"2026-08-01","timeLocal":"17:00"},"geometry":{"type":"Polygon","coordinates":[[[127.56997,37.54837],[127.56988,37.54831],[127.56988,37.54826],[127.57009,37.54829],[127.57009,37.54837],[127.56997,37.54837]]]}},{"type":"Feature","properties":{"valleyId":"yongmunsan","layer":"shadow","date":"2026-08-01","timeLocal":"17:00"},"geometry":{"type":"Polygon","coordinates":[[[127.5736,37.54836],[127.5736,37.5483],[127.57369,37.54828],[127.57369,37.54834],[127.5736,37.54836]]]}},{"type":"Feature","properties":{"valleyId":"yongmunsan","layer":"shadow","date":"2026-08-01","timeLocal":"17:00"},"geometry":{"type":"Polygon","coordinates":[[[127.58181,37.54836],[127.58182,37.54829],[127.58188,37.54829],[127.58188,37.54837],[127.58181,37.54836]]]}},{"type":"Feature","properties":{"valleyId":"yongmunsan","layer":"shadow","date":"2026-08-01","timeLocal":"17:00"},"geometry":{"type":"Polygon","coordinates":[[[127.57023,37.54822],[127.57018,37.54819],[127.57018,37.54813],[127.57025,37.54813],[127.57029,37.54817],[127.57029,37.54823],[127.57023,37.54822]]]}},{"type":"Feature","properties":{"valleyId":"yongmunsan","layer":"shadow","date":"2026-08-01","timeLocal":"17:00"},"geometry":{"type":"Polygon","coordinates":[[[127.58095,37.54832],[127.58096,37.54825],[127.58105,37.54825],[127.58105,37.54832],[127.58095,37.54832]]]}},{"type":"Feature","properties":{"valleyId":"yongmunsan","layer":"shadow","date":"2026-08-01","timeLocal":"17:00"},"geometry":{"type":"Polygon","coordinates":[[[127.56977,37.54818],[127.5698,37.54809],[127.56987,37.54809],[127.56989,37.54817],[127.56977,37.54818]]]}},{"type":"Feature","properties":{"valleyId":"yongmunsan","layer":"shadow","date":"2026-08-01","timeLocal":"17:00"},"geometry":{"type":"Polygon","coordinates":[[[127.58188,37.5482],[127.58189,37.54813],[127.58195,37.54813],[127.58195,37.5482],[127.58188,37.5482]]]}},{"type":"Feature","properties":{"valleyId":"yongmunsan","layer":"shadow","date":"2026-08-01","timeLocal":"17:00"},"geometry":{"type":"Polygon","coordinates":[[[127.5804,37.54871],[127.58041,37.54864],[127.58032,37.54858],[127.58034,37.54844],[127.58041,37.54837],[127.58046,37.54837],[127.58053,37.54826],[127.58068,37.54822],[127.58066,37.5481],[127.58078,37.5481],[127.5808,37.54823],[127.58071,37.54824],[127.58071,37.54828],[127.58064,37.5483],[127.58064,37.54835],[127.58055,37.54842],[127.58054,37.54848],[127.58043,37.54851],[127.58043,37.54856],[127.58052,37.54864],[127.58052,37.54871],[127.5804,37.54871]]]}},{"type":"Feature","properties":{"valleyId":"yongmunsan","layer":"shadow","date":"2026-08-01","timeLocal":"17:00"},"geometry":{"type":"Polygon","coordinates":[[[127.58098,37.5481],[127.58094,37.54807],[127.58094,37.54798],[127.58105,37.54798],[127.58105,37.5481],[127.58098,37.5481]]]}},{"type":"Feature","properties":{"valleyId":"yongmunsan","layer":"shadow","date":"2026-08-01","timeLocal":"17:00"},"geometry":{"type":"Polygon","coordinates":[[[127.58076,37.54781],[127.58076,37.54776],[127.58069,37.5477],[127.58068,37.54752],[127.58077,37.54752],[127.58079,37.54767],[127.58085,37.54774],[127.58085,37.54781],[127.58076,37.54781]]]}},{"type":"Feature","properties":{"valleyId":"yongmunsan","layer":"shadow","date":"2026-08-01","timeLocal":"17:00"},"geometry":{"type":"Polygon","coordinates":[[[127.5795,37.54758],[127.5795,37.54753],[127.57959,37.54751],[127.57959,37.54758],[127.5795,37.54758]]]}},{"type":"Feature","properties":{"valleyId":"yongmunsan","layer":"shadow","date":"2026-08-01","timeLocal":"17:00"},"geometry":{"type":"Polygon","coordinates":[[[127.58052,37.5475],[127.58052,37.54743],[127.58061,37.54743],[127.58061,37.54748],[127.58052,37.5475]]]}},{"type":"Feature","properties":{"valleyId":"yongmunsan","layer":"shadow","date":"2026-08-01","timeLocal":"17:00"},"geometry":{"type":"Polygon","coordinates":[[[127.5783,37.5474],[127.5783,37.54731],[127.57837,37.54731],[127.57837,37.5474],[127.5783,37.5474]]]}},{"type":"Feature","properties":{"valleyId":"yongmunsan","layer":"shadow","date":"2026-08-01","timeLocal":"17:00"},"geometry":{"type":"Polygon","coordinates":[[[127.58007,37.54739],[127.58009,37.5473],[127.58016,37.5473],[127.58016,37.54739],[127.58007,37.54739]]]}},{"type":"Feature","properties":{"valleyId":"yongmunsan","layer":"shadow","date":"2026-08-01","timeLocal":"17:00"},"geometry":{"type":"Polygon","coordinates":[[[127.57941,37.54731],[127.57941,37.54722],[127.5795,37.54722],[127.57952,37.54731],[127.57941,37.54731]]]}},{"type":"Feature","properties":{"valleyId":"yongmunsan","layer":"shadow","date":"2026-08-01","timeLocal":"17:00"},"geometry":{"type":"Polygon","coordinates":[[[127.58029,37.5473],[127.58032,37.54723],[127.58043,37.54723],[127.58041,37.5473],[127.58029,37.5473]]]}},{"type":"Feature","properties":{"valleyId":"yongmunsan","layer":"shadow","date":"2026-08-01","timeLocal":"17:00"},"geometry":{"type":"Polygon","coordinates":[[[127.581,37.54716],[127.581,37.54709],[127.58107,37.54709],[127.58107,37.54717],[127.581,37.54716]]]}},{"type":"Feature","properties":{"valleyId":"yongmunsan","layer":"shadow","date":"2026-08-01","timeLocal":"17:00"},"geometry":{"type":"Polygon","coordinates":[[[127.58105,37.54704],[127.58105,37.54699],[127.58112,37.54699],[127.58111,37.54704],[127.58105,37.54704]]]}},{"type":"Feature","properties":{"valleyId":"yongmunsan","layer":"shadow","date":"2026-08-01","timeLocal":"17:00"},"geometry":{"type":"Polygon","coordinates":[[[127.58319,37.54717],[127.58318,37.54699],[127.58324,37.54699],[127.58331,37.54707],[127.58331,37.54716],[127.58319,37.54717]]]}},{"type":"Feature","properties":{"valleyId":"yongmunsan","layer":"shadow","date":"2026-08-01","timeLocal":"17:00"},"geometry":{"type":"Polygon","coordinates":[[[127.5805,37.54721],[127.58052,37.5471],[127.58046,37.54709],[127.58046,37.54701],[127.5805,37.547],[127.58051,37.54687],[127.58057,37.54687],[127.58057,37.54691],[127.58062,37.54693],[127.58057,37.54707],[127.58066,37.54711],[127.58066,37.54718],[127.5805,37.54721]]]}},{"type":"Feature","properties":{"valleyId":"yongmunsan","layer":"shadow","date":"2026-08-01","timeLocal":"17:00"},"geometry":{"type":"Polygon","coordinates":[[[127.58168,37.54692],[127.58168,37.54687],[127.58175,37.54687],[127.58175,37.54692],[127.58168,37.54692]]]}},{"type":"Feature","properties":{"valleyId":"yongmunsan","layer":"shadow","date":"2026-08-01","timeLocal":"17:00"},"geometry":{"type":"Polygon","coordinates":[[[127.58392,37.547],[127.58388,37.54695],[127.58388,37.54686],[127.58399,37.54688],[127.58399,37.547],[127.58392,37.547]]]}},{"type":"Feature","properties":{"valleyId":"yongmunsan","layer":"shadow","date":"2026-08-01","timeLocal":"17:00"},"geometry":{"type":"Polygon","coordinates":[[[127.58229,37.54689],[127.5823,37.54684],[127.58236,37.54684],[127.58236,37.54689],[127.58229,37.54689]]]}},{"type":"Feature","properties":{"valleyId":"yongmunsan","layer":"shadow","date":"2026-08-01","timeLocal":"17:00"},"geometry":{"type":"Polygon","coordinates":[[[127.58024,37.54685],[127.58024,37.54678],[127.58035,37.5468],[127.58035,37.54685],[127.58024,37.54685]]]}},{"type":"Feature","properties":{"valleyId":"yongmunsan","layer":"shadow","date":"2026-08-01","timeLocal":"17:00"},"geometry":{"type":"Polygon","coordinates":[[[127.58053,37.54685],[127.58055,37.54674],[127.58062,37.54675],[127.58062,37.54684],[127.58053,37.54685]]]}},{"type":"Feature","properties":{"valleyId":"yongmunsan","layer":"shadow","date":"2026-08-01","timeLocal":"17:00"},"geometry":{"type":"Polygon","coordinates":[[[127.58431,37.54684],[127.58431,37.54679],[127.58438,37.54679],[127.58438,37.54684],[127.58431,37.54684]]]}},{"type":"Feature","properties":{"valleyId":"yongmunsan","layer":"shadow","date":"2026-08-01","timeLocal":"17:00"},"geometry":{"type":"Polygon","coordinates":[[[127.58189,37.54676],[127.58189,37.54667],[127.58196,37.54667],[127.58198,37.54674],[127.58189,37.54676]]]}},{"type":"Feature","properties":{"valleyId":"yongmunsan","layer":"shadow","date":"2026-08-01","timeLocal":"17:00"},"geometry":{"type":"Polygon","coordinates":[[[127.58062,37.54671],[127.58062,37.54662],[127.58069,37.54662],[127.58069,37.54671],[127.58062,37.54671]]]}},{"type":"Feature","properties":{"valleyId":"yongmunsan","layer":"shadow","date":"2026-08-01","timeLocal":"17:00"},"geometry":{"type":"Polygon","coordinates":[[[127.58472,37.54672],[127.58472,37.54667],[127.58481,37.54667],[127.58481,37.54672],[127.58472,37.54672]]]}},{"type":"Feature","properties":{"valleyId":"yongmunsan","layer":"shadow","date":"2026-08-01","timeLocal":"17:00"},"geometry":{"type":"Polygon","coordinates":[[[127.57979,37.54738],[127.5798,37.54719],[127.57969,37.54718],[127.57973,37.54704],[127.57972,37.54682],[127.57976,37.54675],[127.57976,37.54659],[127.57986,37.54659],[127.57985,37.54672],[127.5799,37.54674],[127.57987,37.54693],[127.57994,37.54703],[127.57994,37.54713],[127.57982,37.54713],[127.57982,37.54719],[127.57996,37.54721],[127.57989,37.54737],[127.57979,37.54738]]]}},{"type":"Feature","properties":{"valleyId":"yongmunsan","layer":"shadow","date":"2026-08-01","timeLocal":"17:00"},"geometry":{"type":"Polygon","coordinates":[[[127.57967,37.54659],[127.57963,37.54657],[127.57963,37.54652],[127.57974,37.54654],[127.57974,37.54659],[127.57967,37.54659]]]}},{"type":"Feature","properties":{"valleyId":"yongmunsan","layer":"shadow","date":"2026-08-01","timeLocal":"17:00"},"geometry":{"type":"Polygon","coordinates":[[[127.58047,37.54658],[127.58047,37.54653],[127.58056,37.54653],[127.58056,37.54658],[127.58047,37.54658]]]}},{"type":"Feature","properties":{"valleyId":"yongmunsan","layer":"shadow","date":"2026-08-01","timeLocal":"17:00"},"geometry":{"type":"Polygon","coordinates":[[[127.5837,37.54689],[127.58375,37.54671],[127.5837,37.54667],[127.58368,37.54655],[127.58377,37.54653],[127.58377,37.54662],[127.58388,37.54666],[127.58388,37.54675],[127.58386,37.54684],[127.58377,37.54684],[127.58377,37.54689],[127.5837,37.54689]]]}},{"type":"Feature","properties":{"valleyId":"yongmunsan","layer":"shadow","date":"2026-08-01","timeLocal":"17:00"},"geometry":{"type":"Polygon","coordinates":[[[127.57999,37.54656],[127.57999,37.54649],[127.58006,37.54649],[127.58006,37.54656],[127.57999,37.54656]]]}},{"type":"Feature","properties":{"valleyId":"yongmunsan","layer":"shadow","date":"2026-08-01","timeLocal":"17:00"},"geometry":{"type":"Polygon","coordinates":[[[127.58069,37.54657],[127.5807,37.54648],[127.58076,37.54648],[127.58078,37.54657],[127.58069,37.54657]]]}},{"type":"Feature","properties":{"valleyId":"yongmunsan","layer":"shadow","date":"2026-08-01","timeLocal":"17:00"},"geometry":{"type":"Polygon","coordinates":[[[127.58056,37.54647],[127.58056,37.54637],[127.58063,37.54637],[127.58063,37.54648],[127.58056,37.54647]]]}},{"type":"Feature","properties":{"valleyId":"yongmunsan","layer":"shadow","date":"2026-08-01","timeLocal":"17:00"},"geometry":{"type":"Polygon","coordinates":[[[127.58088,37.54642],[127.58088,37.54637],[127.58097,37.54637],[127.58097,37.54643],[127.58088,37.54642]]]}},{"type":"Feature","properties":{"valleyId":"yongmunsan","layer":"shadow","date":"2026-08-01","timeLocal":"17:00"},"geometry":{"type":"Polygon","coordinates":[[[127.57587,37.54647],[127.57587,37.54642],[127.57597,37.54635],[127.57599,37.54626],[127.57613,37.54624],[127.57613,37.54629],[127.57608,37.54631],[127.57606,37.54638],[127.57599,37.5464],[127.57594,37.54647],[127.57587,37.54647]]]}},{"type":"Feature","properties":{"valleyId":"yongmunsan","layer":"shadow","date":"2026-08-01","timeLocal":"17:00"},"geometry":{"type":"Polygon","coordinates":[[[127.58189,37.54651],[127.5819,37.54644],[127.58196,37.5464],[127.58197,37.54629],[127.58203,37.54629],[127.58208,37.54633],[127.58208,37.54638],[127.58203,37.54638],[127.58196,37.54651],[127.58189,37.54651]]]}},{"type":"Feature","properties":{"valleyId":"yongmunsan","layer":"shadow","date":"2026-08-01","timeLocal":"17:00"},"geometry":{"type":"Polygon","coordinates":[[[127.58427,37.54639],[127.58428,37.5463],[127.58434,37.5463],[127.58434,37.54639],[127.58427,37.54639]]]}},{"type":"Feature","properties":{"valleyId":"yongmunsan","layer":"shadow","date":"2026-08-01","timeLocal":"17:00"},"geometry":{"type":"Polygon","coordinates":[[[127.58224,37.5463],[127.58224,37.54624],[127.58233,37.54624],[127.58233,37.5463],[127.58224,37.5463]]]}},{"type":"Feature","properties":{"valleyId":"yongmunsan","layer":"shadow","date":"2026-08-01","timeLocal":"17:00"},"geometry":{"type":"Polygon","coordinates":[[[127.57848,37.54627],[127.57846,37.5462],[127.57857,37.54618],[127.57857,37.54627],[127.57848,37.54627]]]}},{"type":"Feature","properties":{"valleyId":"yongmunsan","layer":"shadow","date":"2026-08-01","timeLocal":"17:00"},"geometry":{"type":"Polygon","coordinates":[[[127.57798,37.54623],[127.57798,37.54617],[127.57805,37.54617],[127.57805,37.54623],[127.57798,37.54623]]]}},{"type":"Feature","properties":{"valleyId":"yongmunsan","layer":"shadow","date":"2026-08-01","timeLocal":"17:00"},"geometry":{"type":"Polygon","coordinates":[[[127.58391,37.54653],[127.58393,37.54641],[127.58398,37.54639],[127.584,37.5463],[127.58407,37.5463],[127.5841,37.54625],[127.58421,37.54623],[127.58418,37.54636],[127.58409,37.54637],[127.58409,37.5465],[127.58391,37.54653]]]}},{"type":"Feature","properties":{"valleyId":"yongmunsan","layer":"shadow","date":"2026-08-01","timeLocal":"17:00"},"geometry":{"type":"Polygon","coordinates":[[[127.5766,37.54621],[127.5766,37.54616],[127.57669,37.54614],[127.57669,37.54621],[127.5766,37.54621]]]}},{"type":"Feature","properties":{"valleyId":"yongmunsan","layer":"shadow","date":"2026-08-01","timeLocal":"17:00"},"geometry":{"type":"Polygon","coordinates":[[[127.57622,37.54624],[127.57622,37.54619],[127.57615,37.54617],[127.57615,37.54611],[127.57624,37.54612],[127.57629,37.54617],[127.57628,37.54624],[127.57622,37.54624]]]}},{"type":"Feature","properties":{"valleyId":"yongmunsan","layer":"shadow","date":"2026-08-01","timeLocal":"17:00"},"geometry":{"type":"Polygon","coordinates":[[[127.58086,37.54624],[127.58086,37.54615],[127.58097,37.54615],[127.58097,37.54623],[127.58086,37.54624]]]}},{"type":"Feature","properties":{"valleyId":"yongmunsan","layer":"shadow","date":"2026-08-01","timeLocal":"17:00"},"geometry":{"type":"Polygon","coordinates":[[[127.57993,37.54647],[127.57988,37.54634],[127.57989,37.54611],[127.57998,37.54611],[127.58002,37.54614],[127.58002,37.54625],[127.57995,37.54629],[127.57999,37.54647],[127.57993,37.54647]]]}},{"type":"Feature","properties":{"valleyId":"yongmunsan","layer":"shadow","date":"2026-08-01","timeLocal":"17:00"},"geometry":{"type":"Polygon","coordinates":[[[127.57902,37.54624],[127.57905,37.54611],[127.57916,37.5461],[127.57916,37.54615],[127.57912,37.54615],[127.57909,37.54624],[127.57902,37.54624]]]}},{"type":"Feature","properties":{"valleyId":"yongmunsan","layer":"shadow","date":"2026-08-01","timeLocal":"17:00"},"geometry":{"type":"Polygon","coordinates":[[[127.58163,37.54627],[127.58163,37.54611],[127.58174,37.54611],[127.58176,37.54622],[127.5817,37.54627],[127.58163,37.54627]]]}},{"type":"Feature","properties":{"valleyId":"yongmunsan","layer":"shadow","date":"2026-08-01","timeLocal":"17:00"},"geometry":{"type":"Polygon","coordinates":[[[127.58192,37.54617],[127.58192,37.54611],[127.58199,37.54611],[127.58199,37.54617],[127.58192,37.54617]]]}},{"type":"Feature","properties":{"valleyId":"yongmunsan","layer":"shadow","date":"2026-08-01","timeLocal":"17:00"},"geometry":{"type":"Polygon","coordinates":[[[127.57819,37.54619],[127.57817,37.54605],[127.57824,37.54605],[127.57826,37.5461],[127.57839,37.54611],[127.57839,37.5462],[127.57819,37.54619]]]}},{"type":"Feature","properties":{"valleyId":"yongmunsan","layer":"shadow","date":"2026-08-01","timeLocal":"17:00"},"geometry":{"type":"Polygon","coordinates":[[[127.57954,37.54628],[127.57954,37.54625],[127.57943,37.54624],[127.57943,37.54612],[127.57952,37.54612],[127.57955,37.54605],[127.57962,37.54605],[127.57966,37.54607],[127.5797,37.54623],[127.57961,37.54623],[127.57961,37.54628],[127.57954,37.54628]]]}},{"type":"Feature","properties":{"valleyId":"yongmunsan","layer":"shadow","date":"2026-08-01","timeLocal":"17:00"},"geometry":{"type":"Polygon","coordinates":[[[127.5764,37.54603],[127.5764,37.54597],[127.57647,37.54597],[127.57647,37.54603],[127.5764,37.54603]]]}},{"type":"Feature","properties":{"valleyId":"yongmunsan","layer":"shadow","date":"2026-08-01","timeLocal":"17:00"},"geometry":{"type":"Polygon","coordinates":[[[127.58419,37.54621],[127.58421,37.54605],[127.58428,37.54605],[127.5843,37.54619],[127.58419,37.54621]]]}},{"type":"Feature","properties":{"valleyId":"yongmunsan","layer":"shadow","date":"2026-08-01","timeLocal":"17:00"},"geometry":{"type":"Polygon","coordinates":[[[127.57839,37.54603],[127.5784,37.54598],[127.57846,37.54598],[127.57846,37.54603],[127.57839,37.54603]]]}},{"type":"Feature","properties":{"valleyId":"yongmunsan","layer":"shadow","date":"2026-08-01","timeLocal":"17:00"},"geometry":{"type":"Polygon","coordinates":[[[127.58258,37.54608],[127.58258,37.54603],[127.58265,37.54603],[127.58265,37.54608],[127.58258,37.54608]]]}},{"type":"Feature","properties":{"valleyId":"yongmunsan","layer":"shadow","date":"2026-08-01","timeLocal":"17:00"},"geometry":{"type":"Polygon","coordinates":[[[127.58161,37.54604],[127.58161,37.54596],[127.5817,37.54597],[127.5817,37.54602],[127.58161,37.54604]]]}},{"type":"Feature","properties":{"valleyId":"yongmunsan","layer":"shadow","date":"2026-08-01","timeLocal":"17:00"},"geometry":{"type":"Polygon","coordinates":[[[127.58097,37.54615],[127.581,37.54608],[127.58113,37.54605],[127.58116,37.54596],[127.58123,37.54592],[127.58123,37.54589],[127.58129,37.54589],[127.58127,37.54601],[127.5812,37.54607],[127.58116,37.54607],[127.58111,37.54614],[127.58097,37.54615]]]}},{"type":"Feature","properties":{"valleyId":"yongmunsan","layer":"shadow","date":"2026-08-01","timeLocal":"17:00"},"geometry":{"type":"Polygon","coordinates":[[[127.58236,37.54596],[127.58236,37.54588],[127.58243,37.54588],[127.58243,37.54596],[127.58236,37.54596]]]}},{"type":"Feature","properties":{"valleyId":"yongmunsan","layer":"shadow","date":"2026-08-01","timeLocal":"17:00"},"geometry":{"type":"Polygon","coordinates":[[[127.5788,37.54604],[127.57871,37.54593],[127.57871,37.54584],[127.57887,37.54582],[127.57887,37.54604],[127.5788,37.54604]]]}},{"type":"Feature","properties":{"valleyId":"yongmunsan","layer":"shadow","date":"2026-08-01","timeLocal":"17:00"},"geometry":{"type":"Polygon","coordinates":[[[127.58059,37.54593],[127.58062,37.54581],[127.58069,37.54581],[127.58068,37.54592],[127.58059,37.54593]]]}},{"type":"Feature","properties":{"valleyId":"yongmunsan","layer":"shadow","date":"2026-08-01","timeLocal":"17:00"},"geometry":{"type":"Polygon","coordinates":[[[127.58274,37.54589],[127.58274,37.54583],[127.58281,37.54583],[127.58281,37.54589],[127.58274,37.54589]]]}},{"type":"Feature","properties":{"valleyId":"yongmunsan","layer":"shadow","date":"2026-08-01","timeLocal":"17:00"},"geometry":{"type":"Polygon","coordinates":[[[127.57998,37.54603],[127.57998,37.54589],[127.58007,37.54582],[127.58026,37.54579],[127.58025,37.54584],[127.58012,37.54589],[127.58007,37.54604],[127.57998,37.54603]]]}},{"type":"Feature","properties":{"valleyId":"yongmunsan","layer":"shadow","date":"2026-08-01","timeLocal":"17:00"},"geometry":{"type":"Polygon","coordinates":[[[127.57973,37.54587],[127.57973,37.54578],[127.57987,37.54582],[127.57987,37.54587],[127.57973,37.54587]]]}},{"type":"Feature","properties":{"valleyId":"yongmunsan","layer":"shadow","date":"2026-08-01","timeLocal":"17:00"},"geometry":{"type":"Polygon","coordinates":[[[127.57924,37.54581],[127.57922,37.54572],[127.57928,37.54572],[127.5793,37.54581],[127.57924,37.54581]]]}},{"type":"Feature","properties":{"valleyId":"yongmunsan","layer":"shadow","date":"2026-08-01","timeLocal":"17:00"},"geometry":{"type":"Polygon","coordinates":[[[127.58261,37.54578],[127.58261,37.54572],[127.5827,37.54571],[127.5827,37.54578],[127.58261,37.54578]]]}},{"type":"Feature","properties":{"valleyId":"yongmunsan","layer":"shadow","date":"2026-08-01","timeLocal":"17:00"},"geometry":{"type":"Polygon","coordinates":[[[127.58537,37.54592],[127.58537,37.54585],[127.58542,37.54583],[127.58542,37.54572],[127.58553,37.54572],[127.58562,37.54576],[127.58562,37.54581],[127.58548,37.54583],[127.58548,37.5459],[127.58537,37.54592]]]}},{"type":"Feature","properties":{"valleyId":"yongmunsan","layer":"shadow","date":"2026-08-01","timeLocal":"17:00"},"geometry":{"type":"Polygon","coordinates":[[[127.58066,37.54579],[127.58067,37.54565],[127.5808,37.54567],[127.58082,37.54574],[127.58075,37.54579],[127.58066,37.54579]]]}},{"type":"Feature","properties":{"valleyId":"yongmunsan","layer":"shadow","date":"2026-08-01","timeLocal":"17:00"},"geometry":{"type":"Polygon","coordinates":[[[127.58141,37.54573],[127.58141,37.54564],[127.58148,37.54564],[127.5815,37.54573],[127.58141,37.54573]]]}},{"type":"Feature","properties":{"valleyId":"yongmunsan","layer":"shadow","date":"2026-08-01","timeLocal":"17:00"},"geometry":{"type":"Polygon","coordinates":[[[127.58544,37.54565],[127.58544,37.54558],[127.58551,37.54558],[127.58551,37.54565],[127.58544,37.54565]]]}},{"type":"Feature","properties":{"valleyId":"yongmunsan","layer":"shadow","date":"2026-08-01","timeLocal":"17:00"},"geometry":{"type":"Polygon","coordinates":[[[127.58182,37.54559],[127.58182,37.54553],[127.58189,37.54554],[127.58189,37.54559],[127.58182,37.54559]]]}},{"type":"Feature","properties":{"valleyId":"yongmunsan","layer":"shadow","date":"2026-08-01","timeLocal":"17:00"},"geometry":{"type":"Polygon","coordinates":[[[127.58304,37.54571],[127.58304,37.54558],[127.58316,37.54559],[127.58316,37.54553],[127.58325,37.54552],[127.58325,37.54559],[127.58318,37.54559],[127.58318,37.54569],[127.58304,37.54571]]]}},{"type":"Feature","properties":{"valleyId":"yongmunsan","layer":"shadow","date":"2026-08-01","timeLocal":"17:00"},"geometry":{"type":"Polygon","coordinates":[[[127.58528,37.54561],[127.58529,37.54554],[127.5854,37.54554],[127.58538,37.54561],[127.58528,37.54561]]]}},{"type":"Feature","properties":{"valleyId":"yongmunsan","layer":"shadow","date":"2026-08-01","timeLocal":"17:00"},"geometry":{"type":"Polygon","coordinates":[[[127.58203,37.54554],[127.58203,37.54548],[127.58212,37.54547],[127.58212,37.54552],[127.58203,37.54554]]]}},{"type":"Feature","properties":{"valleyId":"yongmunsan","layer":"shadow","date":"2026-08-01","timeLocal":"17:00"},"geometry":{"type":"Polygon","coordinates":[[[127.5856,37.54569],[127.5856,37.54562],[127.58569,37.5456],[127.58567,37.5454],[127.58574,37.5454],[127.58574,37.54553],[127.58581,37.54555],[127.58581,37.5456],[127.58576,37.5456],[127.58569,37.54569],[127.5856,37.54569]]]}},{"type":"Feature","properties":{"valleyId":"yongmunsan","layer":"shadow","date":"2026-08-01","timeLocal":"17:00"},"geometry":{"type":"Polygon","coordinates":[[[127.58526,37.54545],[127.58524,37.54534],[127.5854,37.54536],[127.58538,37.54545],[127.58526,37.54545]]]}},{"type":"Feature","properties":{"valleyId":"yongmunsan","layer":"shadow","date":"2026-08-01","timeLocal":"17:00"},"geometry":{"type":"Polygon","coordinates":[[[127.58219,37.54547],[127.58219,37.54541],[127.58223,37.54539],[127.58228,37.54531],[127.58237,37.54527],[127.58248,37.54527],[127.58248,37.54533],[127.58237,37.54541],[127.58232,37.54541],[127.58225,37.54547],[127.58219,37.54547]]]}},{"type":"Feature","properties":{"valleyId":"yongmunsan","layer":"shadow","date":"2026-08-01","timeLocal":"17:00"},"geometry":{"type":"Polygon","coordinates":[[[127.58051,37.54563],[127.58044,37.54557],[127.58036,37.54525],[127.58042,37.54525],[127.58062,37.54545],[127.5806,37.54563],[127.58051,37.54563]]]}},{"type":"Feature","properties":{"valleyId":"yongmunsan","layer":"shadow","date":"2026-08-01","timeLocal":"17:00"},"geometry":{"type":"Polygon","coordinates":[[[127.58368,37.54532],[127.58368,37.54527],[127.58375,37.54527],[127.58375,37.54532],[127.58368,37.54532]]]}},{"type":"Feature","properties":{"valleyId":"yongmunsan","layer":"shadow","date":"2026-08-01","timeLocal":"17:00"},"geometry":{"type":"Polygon","coordinates":[[[127.58683,37.54541],[127.58683,37.54532],[127.58688,37.54529],[127.58694,37.54529],[127.58694,37.54538],[127.5869,37.54541],[127.58683,37.54541]]]}},{"type":"Feature","properties":{"valleyId":"yongmunsan","layer":"shadow","date":"2026-08-01","timeLocal":"17:00"},"geometry":{"type":"Polygon","coordinates":[[[127.58692,37.54523],[127.58692,37.54518],[127.58699,37.54518],[127.58699,37.54524],[127.58692,37.54523]]]}},{"type":"Feature","properties":{"valleyId":"yongmunsan","layer":"shadow","date":"2026-08-01","timeLocal":"17:00"},"geometry":{"type":"Polygon","coordinates":[[[127.58391,37.54518],[127.58396,37.54502],[127.58405,37.54502],[127.58405,37.54507],[127.584,37.54509],[127.584,37.54518],[127.58391,37.54518]]]}},{"type":"Feature","properties":{"valleyId":"yongmunsan","layer":"shadow","date":"2026-08-01","timeLocal":"17:00"},"geometry":{"type":"Polygon","coordinates":[[[127.58697,37.54511],[127.58697,37.54506],[127.58704,37.54506],[127.58704,37.54511],[127.58697,37.54511]]]}},{"type":"Feature","properties":{"valleyId":"yongmunsan","layer":"shadow","date":"2026-08-01","timeLocal":"17:00"},"geometry":{"type":"Polygon","coordinates":[[[127.58663,37.54514],[127.58663,37.54503],[127.58681,37.54507],[127.58681,37.54513],[127.58663,37.54514]]]}},{"type":"Feature","properties":{"valleyId":"yongmunsan","layer":"shadow","date":"2026-08-01","timeLocal":"17:00"},"geometry":{"type":"Polygon","coordinates":[[[127.58414,37.54517],[127.58414,37.54504],[127.58419,37.54502],[127.58419,37.54493],[127.58428,37.54493],[127.58425,37.54509],[127.58421,37.54511],[127.58421,37.54517],[127.58414,37.54517]]]}},{"type":"Feature","properties":{"valleyId":"yongmunsan","layer":"shadow","date":"2026-08-01","timeLocal":"17:00"},"geometry":{"type":"Polygon","coordinates":[[[127.58652,37.54483],[127.58652,37.54478],[127.58661,37.54478],[127.58661,37.54483],[127.58652,37.54483]]]}},{"type":"Feature","properties":{"valleyId":"yongmunsan","layer":"shadow","date":"2026-08-01","timeLocal":"17:00"},"geometry":{"type":"Polygon","coordinates":[[[127.58636,37.54483],[127.58632,37.54478],[127.58632,37.5447],[127.58634,37.54465],[127.58641,37.54465],[127.58643,37.54483],[127.58636,37.54483]]]}},{"type":"Feature","properties":{"valleyId":"yongmunsan","layer":"shadow","date":"2026-08-01","timeLocal":"17:00"},"geometry":{"type":"Polygon","coordinates":[[[127.58442,37.54466],[127.58442,37.54459],[127.58449,37.54459],[127.58449,37.54466],[127.58442,37.54466]]]}},{"type":"Feature","properties":{"valleyId":"yongmunsan","layer":"shadow","date":"2026-08-01","timeLocal":"17:00"},"geometry":{"type":"Polygon","coordinates":[[[127.58297,37.54494],[127.58297,37.54488],[127.58306,37.54485],[127.58308,37.54463],[127.58324,37.54463],[127.58324,37.54458],[127.58331,37.54458],[127.58331,37.54449],[127.58343,37.54449],[127.58345,37.54458],[127.58333,37.54463],[127.58327,37.54463],[127.58324,37.54481],[127.58317,37.54487],[127.58308,37.54486],[127.58306,37.54494],[127.58297,37.54494]]]}},{"type":"Feature","properties":{"valleyId":"yongmunsan","layer":"shadow","date":"2026-08-01","timeLocal":"17:00"},"geometry":{"type":"Polygon","coordinates":[[[127.58456,37.54458],[127.58456,37.54452],[127.58447,37.5445],[127.58447,37.54441],[127.58456,37.54441],[127.58463,37.54447],[127.58463,37.54452],[127.58467,37.54452],[127.58467,37.54458],[127.58456,37.54458]]]}},{"type":"Feature","properties":{"valleyId":"yongmunsan","layer":"shadow","date":"2026-08-01","timeLocal":"17:00"},"geometry":{"type":"Polygon","coordinates":[[[127.58517,37.54447],[127.58517,37.5444],[127.58533,37.5444],[127.58533,37.54446],[127.58517,37.54447]]]}},{"type":"Feature","properties":{"valleyId":"yongmunsan","layer":"shadow","date":"2026-08-01","timeLocal":"17:00"},"geometry":{"type":"Polygon","coordinates":[[[127.58365,37.54446],[127.58366,37.54435],[127.58381,37.54437],[127.58379,37.54444],[127.58365,37.54446]]]}},{"type":"Feature","properties":{"valleyId":"yongmunsan","layer":"shadow","date":"2026-08-01","timeLocal":"17:00"},"geometry":{"type":"Polygon","coordinates":[[[127.58424,37.54443],[127.58424,37.54437],[127.58431,37.54437],[127.58431,37.5443],[127.58445,37.54432],[127.58445,37.54441],[127.58431,37.54439],[127.58431,37.54443],[127.58424,37.54443]]]}},{"type":"Feature","properties":{"valleyId":"yongmunsan","layer":"shadow","date":"2026-08-01","timeLocal":"17:00"},"geometry":{"type":"Polygon","coordinates":[[[127.58671,37.54437],[127.58671,37.5443],[127.58683,37.5443],[127.58683,37.54435],[127.58671,37.54437]]]}},{"type":"Feature","properties":{"valleyId":"yongmunsan","layer":"shadow","date":"2026-08-01","timeLocal":"17:00"},"geometry":{"type":"Polygon","coordinates":[[[127.58393,37.54435],[127.58393,37.54419],[127.584,37.54419],[127.58402,37.54426],[127.58406,37.54426],[127.58406,37.54432],[127.58404,37.54435],[127.58393,37.54435]]]}},{"type":"Feature","properties":{"valleyId":"yongmunsan","layer":"shadow","date":"2026-08-01","timeLocal":"17:00"},"geometry":{"type":"Polygon","coordinates":[[[127.58253,37.54527],[127.58258,37.54515],[127.58255,37.54511],[127.58249,37.54511],[127.58249,37.54502],[127.58267,37.54504],[127.58269,37.54493],[127.58274,37.5449],[127.58274,37.54481],[127.58281,37.54479],[127.58288,37.54459],[127.58297,37.54457],[127.58297,37.54445],[127.58307,37.54443],[127.58307,37.5444],[127.58318,37.54434],[127.58329,37.54434],[127.58329,37.54429],[127.58339,37.54424],[127.58343,37.54413],[127.58361,37.54413],[127.58359,37.54422],[127.58355,37.54422],[127.58354,37.54429],[127.58332,37.54434],[127.58331,37.54447],[127.58318,37.54449],[127.58309,37.54454],[127.58308,37.54461],[127.58299,37.54461],[127.5829,37.54486],[127.58292,37.54499],[127.58276,37.54502],[127.58276,37.54509],[127.58267,37.54513],[127.58267,37.54526],[127.58253,37.54527]]]}},{"type":"Feature","properties":{"valleyId":"yongmunsan","layer":"shadow","date":"2026-08-01","timeLocal":"17:00"},"geometry":{"type":"Polygon","coordinates":[[[127.58565,37.54416],[127.58565,37.54407],[127.58579,37.54409],[127.58579,37.54414],[127.58565,37.54416]]]}},{"type":"Feature","properties":{"valleyId":"yongmunsan","layer":"shadow","date":"2026-08-01","timeLocal":"17:00"},"geometry":{"type":"Polygon","coordinates":[[[127.58733,37.54412],[127.58733,37.54403],[127.5874,37.54403],[127.58742,37.54411],[127.58733,37.54412]]]}},{"type":"Feature","properties":{"valleyId":"yongmunsan","layer":"shadow","date":"2026-08-01","timeLocal":"17:00"},"geometry":{"type":"Polygon","coordinates":[[[127.58703,37.54406],[127.58704,37.54397],[127.58719,37.54398],[127.58719,37.54405],[127.58703,37.54406]]]}},{"type":"Feature","properties":{"valleyId":"yongmunsan","layer":"shadow","date":"2026-08-01","timeLocal":"17:00"},"geometry":{"type":"Polygon","coordinates":[[[127.58631,37.54395],[127.58631,37.54386],[127.58638,37.54386],[127.58638,37.54395],[127.58631,37.54395]]]}},{"type":"Feature","properties":{"valleyId":"yongmunsan","layer":"shadow","date":"2026-08-01","timeLocal":"17:00"},"geometry":{"type":"Polygon","coordinates":[[[127.58405,37.54392],[127.58403,37.54385],[127.58412,37.54383],[127.58412,37.54392],[127.58405,37.54392]]]}},{"type":"Feature","properties":{"valleyId":"yongmunsan","layer":"shadow","date":"2026-08-01","timeLocal":"17:00"},"geometry":{"type":"Polygon","coordinates":[[[127.58785,37.54398],[127.5879,37.54384],[127.58797,37.54384],[127.58792,37.54399],[127.58785,37.54398]]]}},{"type":"Feature","properties":{"valleyId":"yongmunsan","layer":"shadow","date":"2026-08-01","timeLocal":"17:00"},"geometry":{"type":"Polygon","coordinates":[[[127.58649,37.54391],[127.5865,37.54382],[127.58674,37.54384],[127.58674,37.54392],[127.58649,37.54391]]]}},{"type":"Feature","properties":{"valleyId":"yongmunsan","layer":"shadow","date":"2026-08-01","timeLocal":"17:00"},"geometry":{"type":"Polygon","coordinates":[[[127.58439,37.54391],[127.58441,37.5438],[127.58455,37.54378],[127.58455,37.54385],[127.58446,37.54391],[127.58439,37.54391]]]}},{"type":"Feature","properties":{"valleyId":"yongmunsan","layer":"shadow","date":"2026-08-01","timeLocal":"17:00"},"geometry":{"type":"Polygon","coordinates":[[[127.58496,37.54382],[127.58496,37.54375],[127.58503,37.54375],[127.58502,37.54382],[127.58496,37.54382]]]}},{"type":"Feature","properties":{"valleyId":"yongmunsan","layer":"shadow","date":"2026-08-01","timeLocal":"17:00"},"geometry":{"type":"Polygon","coordinates":[[[127.58564,37.54381],[127.58564,37.54374],[127.58575,37.54376],[127.58575,37.54381],[127.58564,37.54381]]]}},{"type":"Feature","properties":{"valleyId":"yongmunsan","layer":"shadow","date":"2026-08-01","timeLocal":"17:00"},"geometry":{"type":"Polygon","coordinates":[[[127.58527,37.54379],[127.58528,37.5437],[127.58543,37.54372],[127.58543,37.54378],[127.58527,37.54379]]]}},{"type":"Feature","properties":{"valleyId":"yongmunsan","layer":"shadow","date":"2026-08-01","timeLocal":"17:00"},"geometry":{"type":"Polygon","coordinates":[[[127.58469,37.54377],[127.58469,37.54368],[127.58478,37.54366],[127.58478,37.54375],[127.58469,37.54377]]]}},{"type":"Feature","properties":{"valleyId":"yongmunsan","layer":"shadow","date":"2026-08-01","timeLocal":"17:00"},"geometry":{"type":"Polygon","coordinates":[[[127.58272,37.54374],[127.58265,37.54369],[127.58265,37.54363],[127.58272,37.54363],[127.58281,37.54369],[127.58281,37.54374],[127.58272,37.54374]]]}},{"type":"Feature","properties":{"valleyId":"yongmunsan","layer":"shadow","date":"2026-08-01","timeLocal":"17:00"},"geometry":{"type":"Polygon","coordinates":[[[127.58423,37.54371],[127.58423,37.54365],[127.5843,37.54365],[127.5843,37.54371],[127.58423,37.54371]]]}},{"type":"Feature","properties":{"valleyId":"yongmunsan","layer":"shadow","date":"2026-08-01","timeLocal":"17:00"},"geometry":{"type":"Polygon","coordinates":[[[127.58229,37.54367],[127.58229,37.54361],[127.58236,37.54361],[127.58236,37.54367],[127.58229,37.54367]]]}},{"type":"Feature","properties":{"valleyId":"yongmunsan","layer":"shadow","date":"2026-08-01","timeLocal":"17:00"},"geometry":{"type":"Polygon","coordinates":[[[127.58575,37.54369],[127.58575,37.54363],[127.58584,37.54364],[127.58584,37.54369],[127.58575,37.54369]]]}},{"type":"Feature","properties":{"valleyId":"yongmunsan","layer":"shadow","date":"2026-08-01","timeLocal":"17:00"},"geometry":{"type":"Polygon","coordinates":[[[127.58765,37.54371],[127.58765,37.54366],[127.58772,37.54366],[127.58772,37.54371],[127.58765,37.54371]]]}},{"type":"Feature","properties":{"valleyId":"yongmunsan","layer":"shadow","date":"2026-08-01","timeLocal":"17:00"},"geometry":{"type":"Polygon","coordinates":[[[127.58254,37.54363],[127.5824,37.54361],[127.5824,37.54356],[127.58252,37.54354],[127.58261,37.54358],[127.58261,37.54363],[127.58254,37.54363]]]}},{"type":"Feature","properties":{"valleyId":"yongmunsan","layer":"shadow","date":"2026-08-01","timeLocal":"17:00"},"geometry":{"type":"Polygon","coordinates":[[[127.58677,37.54359],[127.58677,37.54354],[127.58684,37.54354],[127.58684,37.54359],[127.58677,37.54359]]]}},{"type":"Feature","properties":{"valleyId":"yongmunsan","layer":"shadow","date":"2026-08-01","timeLocal":"17:00"},"geometry":{"type":"Polygon","coordinates":[[[127.58657,37.54355],[127.58657,37.54348],[127.58664,37.54348],[127.58664,37.54356],[127.58657,37.54355]]]}},{"type":"Feature","properties":{"valleyId":"yongmunsan","layer":"shadow","date":"2026-08-01","timeLocal":"17:00"},"geometry":{"type":"Polygon","coordinates":[[[127.58736,37.54356],[127.58736,37.54344],[127.5875,37.54346],[127.5875,37.54351],[127.58743,37.54356],[127.58736,37.54356]]]}},{"type":"Feature","properties":{"valleyId":"yongmunsan","layer":"shadow","date":"2026-08-01","timeLocal":"17:00"},"geometry":{"type":"Polygon","coordinates":[[[127.58312,37.54382],[127.58317,37.54353],[127.58315,37.5435],[127.58299,37.54346],[127.58293,37.5434],[127.58293,37.54333],[127.583,37.54333],[127.58306,37.5434],[127.58315,37.54344],[127.58315,37.54348],[127.58331,37.5435],[127.58333,37.54353],[127.5834,37.54353],[127.58344,37.54359],[127.58344,37.54368],[127.58335,37.54377],[127.58328,37.54379],[127.58328,37.54382],[127.58312,37.54382]]]}},{"type":"Feature","properties":{"valleyId":"yongmunsan","layer":"shadow","date":"2026-08-01","timeLocal":"17:00"},"geometry":{"type":"Polygon","coordinates":[[[127.58625,37.54348],[127.58628,37.54335],[127.58635,37.54335],[127.58637,37.54346],[127.58625,37.54348]]]}},{"type":"Feature","properties":{"valleyId":"yongmunsan","layer":"shadow","date":"2026-08-01","timeLocal":"17:00"},"geometry":{"type":"Polygon","coordinates":[[[127.58763,37.54357],[127.58759,37.54342],[127.58761,37.54335],[127.58768,37.54335],[127.58768,37.5435],[127.58775,37.54351],[127.58775,37.54357],[127.58763,37.54357]]]}},{"type":"Feature","properties":{"valleyId":"yongmunsan","layer":"shadow","date":"2026-08-01","timeLocal":"17:00"},"geometry":{"type":"Polygon","coordinates":[[[127.58623,37.5433],[127.58623,37.54324],[127.5863,37.54324],[127.5863,37.5433],[127.58623,37.5433]]]}},{"type":"Feature","properties":{"valleyId":"yongmunsan","layer":"shadow","date":"2026-08-01","timeLocal":"17:00"},"geometry":{"type":"Polygon","coordinates":[[[127.58755,37.54333],[127.58755,37.54322],[127.58762,37.54322],[127.58761,37.54333],[127.58755,37.54333]]]}},{"type":"Feature","properties":{"valleyId":"yongmunsan","layer":"shadow","date":"2026-08-01","timeLocal":"17:00"},"geometry":{"type":"Polygon","coordinates":[[[127.58653,37.54339],[127.58651,37.5433],[127.58646,37.54326],[127.58646,37.54312],[127.58658,37.54314],[127.58655,37.54328],[127.5866,37.5433],[127.58659,37.54339],[127.58653,37.54339]]]}},{"type":"Feature","properties":{"valleyId":"yongmunsan","layer":"shadow","date":"2026-08-01","timeLocal":"17:00"},"geometry":{"type":"Polygon","coordinates":[[[127.58606,37.54317],[127.58608,37.54306],[127.58622,37.54306],[127.58621,37.54312],[127.58617,37.54312],[127.58615,37.54317],[127.58606,37.54317]]]}},{"type":"Feature","properties":{"valleyId":"yongmunsan","layer":"shadow","date":"2026-08-01","timeLocal":"17:00"},"geometry":{"type":"Polygon","coordinates":[[[127.58685,37.54311],[127.58685,37.54302],[127.58696,37.54302],[127.58696,37.54309],[127.58685,37.54311]]]}},{"type":"Feature","properties":{"valleyId":"yongmunsan","layer":"shadow","date":"2026-08-01","timeLocal":"17:00"},"geometry":{"type":"Polygon","coordinates":[[[127.58583,37.54302],[127.58583,37.54295],[127.5859,37.54295],[127.5859,37.54302],[127.58583,37.54302]]]}},{"type":"Feature","properties":{"valleyId":"yongmunsan","layer":"shadow","date":"2026-08-01","timeLocal":"17:00"},"geometry":{"type":"Polygon","coordinates":[[[127.58751,37.54302],[127.58751,37.54297],[127.58758,37.54297],[127.58757,37.54303],[127.58751,37.54302]]]}},{"type":"Feature","properties":{"valleyId":"yongmunsan","layer":"shadow","date":"2026-08-01","timeLocal":"17:00"},"geometry":{"type":"Polygon","coordinates":[[[127.58694,37.5428],[127.58695,37.54275],[127.58704,37.54275],[127.58704,37.5428],[127.58694,37.5428]]]}},{"type":"Feature","properties":{"valleyId":"yongmunsan","layer":"shadow","date":"2026-08-01","timeLocal":"17:00"},"geometry":{"type":"Polygon","coordinates":[[[127.58514,37.54366],[127.5851,37.54364],[127.5851,37.54359],[127.58517,37.54354],[127.58526,37.54352],[127.5853,37.54341],[127.58537,37.54341],[127.58536,37.54293],[127.5854,37.54289],[127.58541,37.54264],[127.58548,37.54262],[127.58555,37.54255],[127.58568,37.54253],[127.58585,37.54228],[127.58594,37.54221],[127.58601,37.54221],[127.58598,37.54241],[127.58595,37.54248],[127.58591,37.5425],[127.58591,37.54259],[127.58573,37.54262],[127.58572,37.54271],[127.58584,37.54272],[127.58584,37.54277],[127.58572,37.54279],[127.58572,37.54299],[127.58567,37.54298],[127.58567,37.54302],[127.5856,37.54307],[127.5856,37.54313],[127.58556,37.54315],[127.58555,37.54331],[127.58551,37.54336],[127.58546,37.54336],[127.58544,37.54347],[127.58535,37.54352],[127.58535,37.54356],[127.5853,37.54359],[127.58523,37.54359],[127.58523,37.54366],[127.58514,37.54366]],[[127.58565,37.54279],[127.58572,37.54279],[127.58572,37.54273],[127.58566,37.54273],[127.58565,37.54279]]]}}]}
