{"type":"FeatureCollection","metadata":{"description":"수관 아래(CHM > 2 m) — 시각 무관. 구간 회랑 ±200 m 절단","source":"위성 기반 추정 — Copernicus GLO-30 지형(30 m) + Meta/WRI 수관 높이(1 m CHM, 2015~2016 촬영). 그늘 = 수관(CHM > 2 m) ∪ 나무·지형 그림자 ∪ 원거리 지형 마스크. 현장과 다를 수 있음.","datasetVersion":"2026-09-06.0","collectedAt":"2026-09-06","coordinateOrder":"[longitude, latitude]","crs":"EPSG:4326","representativeDate":"2026-08-01","hours":["10:00","11:00","12:00","13:00","14:00","15:00","16:00","17:00","18:00"],"chmAcquisition":["2015-07","2016-06"],"assets":{"glo30":{"dataset":"Copernicus DEM GLO-30 (COG, s3://copernicus-dem-30m)","tiles":["Copernicus_DSM_COG_10_N37_00_E127_00_DEM"]},"chm":{"dataset":"Meta/WRI Global Canopy Height Map v1 (alsgedi_global_v6_float, 1 m, CC-BY 4.0)","quadkeys":["132110303"],"acquisition":["2015-07","2016-06"]}},"method":{"gridResM":2,"canopyThresholdM":2,"bufferHalfM":25,"corridorHalfM":200,"simplifyTolM":2,"minAreaM2":25,"coordDecimals":5},"generator":"scripts/shade 0.1.0","builtAt":"2026-09-06T05:58:56Z","layer":"canopy"},"features":[{"type":"Feature","properties":{"valleyId":"baekdunri","layer":"canopy","date":"2026-08-01"},"geometry":{"type":"Polygon","coordinates":[[[127.475,37.90557],[127.47494,37.90555],[127.47489,37.9054],[127.47485,37.90539],[127.47485,37.90531],[127.4749,37.9053],[127.47501,37.90532],[127.4751,37.90539],[127.47512,37.90555],[127.475,37.90557]]]}},{"type":"Feature","properties":{"valleyId":"baekdunri","layer":"canopy","date":"2026-08-01"},"geometry":{"type":"Polygon","coordinates":[[[127.47604,37.9052],[127.47599,37.90517],[127.47602,37.90499],[127.47649,37.90499],[127.47649,37.90507],[127.47635,37.90519],[127.47604,37.9052]]]}},{"type":"Feature","properties":{"valleyId":"baekdunri","layer":"canopy","date":"2026-08-01"},"geometry":{"type":"Polygon","coordinates":[[[127.47541,37.90458],[127.47541,37.90453],[127.47548,37.90453],[127.47548,37.90458],[127.47541,37.90458]]]}},{"type":"Feature","properties":{"valleyId":"baekdunri","layer":"canopy","date":"2026-08-01"},"geometry":{"type":"Polygon","coordinates":[[[127.47887,37.90454],[127.47887,37.90446],[127.47899,37.90445],[127.47898,37.90452],[127.47887,37.90454]]]}},{"type":"Feature","properties":{"valleyId":"baekdunri","layer":"canopy","date":"2026-08-01"},"geometry":{"type":"Polygon","coordinates":[[[127.47436,37.90457],[127.47427,37.90453],[127.47414,37.90453],[127.47412,37.90439],[127.47425,37.90441],[127.47426,37.90437],[127.47441,37.90437],[127.47444,37.90441],[127.47466,37.90439],[127.47482,37.90441],[127.47487,37.90445],[127.47484,37.90452],[127.47471,37.90456],[127.47436,37.90457]]]}},{"type":"Feature","properties":{"valleyId":"baekdunri","layer":"canopy","date":"2026-08-01"},"geometry":{"type":"Polygon","coordinates":[[[127.47756,37.90405],[127.47756,37.90402],[127.47752,37.904],[127.47754,37.90389],[127.47766,37.90384],[127.47775,37.90384],[127.47772,37.90396],[127.47765,37.904],[127.47763,37.90405],[127.47756,37.90405]]]}},{"type":"Feature","properties":{"valleyId":"baekdunri","layer":"canopy","date":"2026-08-01"},"geometry":{"type":"Polygon","coordinates":[[[127.48121,37.90343],[127.48124,37.90332],[127.48128,37.90332],[127.48147,37.90316],[127.48156,37.90317],[127.48158,37.9032],[127.48163,37.9032],[127.48163,37.90326],[127.48153,37.90329],[127.48149,37.90335],[127.4814,37.90336],[127.48128,37.90343],[127.48121,37.90343]]]}},{"type":"Feature","properties":{"valleyId":"baekdunri","layer":"canopy","date":"2026-08-01"},"geometry":{"type":"Polygon","coordinates":[[[127.47972,37.90314],[127.47972,37.90309],[127.47979,37.90309],[127.47979,37.90314],[127.47972,37.90314]]]}},{"type":"Feature","properties":{"valleyId":"baekdunri","layer":"canopy","date":"2026-08-01"},"geometry":{"type":"Polygon","coordinates":[[[127.48174,37.90311],[127.48174,37.90304],[127.48179,37.90304],[127.48181,37.90301],[127.4819,37.90301],[127.4819,37.90306],[127.48183,37.90312],[127.48174,37.90311]]]}},{"type":"Feature","properties":{"valleyId":"baekdunri","layer":"canopy","date":"2026-08-01"},"geometry":{"type":"Polygon","coordinates":[[[127.48209,37.90281],[127.48209,37.90276],[127.48216,37.90276],[127.48216,37.90281],[127.48209,37.90281]]]}},{"type":"Feature","properties":{"valleyId":"baekdunri","layer":"canopy","date":"2026-08-01"},"geometry":{"type":"Polygon","coordinates":[[[127.48036,37.9027],[127.48036,37.90265],[127.48046,37.90263],[127.48045,37.9027],[127.48036,37.9027]]]}},{"type":"Feature","properties":{"valleyId":"baekdunri","layer":"canopy","date":"2026-08-01"},"geometry":{"type":"Polygon","coordinates":[[[127.48227,37.90271],[127.48223,37.90256],[127.48253,37.90255],[127.48253,37.9026],[127.48243,37.90267],[127.48239,37.90267],[127.48237,37.90271],[127.48227,37.90271]]]}},{"type":"Feature","properties":{"valleyId":"baekdunri","layer":"canopy","date":"2026-08-01"},"geometry":{"type":"Polygon","coordinates":[[[127.48075,37.90258],[127.48073,37.90251],[127.48087,37.90249],[127.48087,37.90256],[127.48075,37.90258]]]}},{"type":"Feature","properties":{"valleyId":"baekdunri","layer":"canopy","date":"2026-08-01"},"geometry":{"type":"Polygon","coordinates":[[[127.4762,37.90605],[127.4762,37.906],[127.47627,37.90598],[127.47627,37.90586],[127.47611,37.90582],[127.47611,37.90578],[127.47602,37.90576],[127.476,37.90573],[127.47593,37.90572],[127.47596,37.9056],[127.47621,37.9056],[127.47632,37.90555],[127.47655,37.90557],[127.47657,37.90553],[127.47664,37.90554],[127.47669,37.90563],[127.47664,37.90579],[127.47668,37.90579],[127.47668,37.90582],[127.47673,37.90584],[127.47675,37.90593],[127.47684,37.90595],[127.47695,37.90595],[127.47695,37.90592],[127.47704,37.90588],[127.47707,37.90578],[127.47712,37.90576],[127.47714,37.90569],[127.47732,37.90567],[127.47732,37.90562],[127.47726,37.90558],[127.47703,37.90559],[127.47703,37.90549],[127.47708,37.90547],[127.4771,37.90534],[127.47717,37.90533],[127.47731,37.9052],[127.47734,37.90502],[127.47745,37.90495],[127.4775,37.90486],[127.47761,37.90481],[127.47764,37.90476],[127.47766,37.90463],[127.47757,37.9045],[127.47748,37.90445],[127.47744,37.9043],[127.47749,37.90428],[127.47749,37.90425],[127.47758,37.90425],[127.47769,37.90416],[127.47785,37.90416],[127.4779,37.90422],[127.47803,37.90426],[127.47833,37.90428],[127.47833,37.90424],[127.47842,37.90417],[127.47842,37.90404],[127.47827,37.90384],[127.47827,37.9037],[127.47834,37.90367],[127.47841,37.90356],[127.4785,37.90354],[127.47855,37.90349],[127.47864,37.90345],[127.47864,37.9034],[127.47878,37.90333],[127.47885,37.90322],[127.47903,37.90315],[127.47908,37.90301],[127.47915,37.90294],[127.47922,37.90292],[127.47925,37.90281],[127.47934,37.90276],[127.47934,37.90269],[127.47941,37.90265],[127.47946,37.90254],[127.47953,37.90249],[127.47962,37.90246],[127.4798,37.90248],[127.4798,37.90255],[127.47957,37.90255],[127.47954,37.90271],[127.47945,37.90278],[127.47945,37.90287],[127.47933,37.90294],[127.47933,37.90301],[127.4794,37.90305],[127.47947,37.90316],[127.47947,37.90325],[127.47958,37.90332],[127.47962,37.90345],[127.47971,37.90345],[127.47989,37.90352],[127.48005,37.90352],[127.48005,37.90349],[127.4801,37.90349],[127.48019,37.9034],[127.48019,37.90335],[127.48026,37.90333],[127.48026,37.90326],[127.48035,37.9032],[127.48042,37.90321],[127.48042,37.90317],[127.48051,37.90312],[127.48047,37.90292],[127.48052,37.90292],[127.48054,37.90286],[127.48079,37.90289],[127.48084,37.90298],[127.48079,37.90308],[127.48065,37.90314],[127.48063,37.90321],[127.48058,37.90323],[127.48058,37.90326],[127.48053,37.90326],[127.48053,37.9033],[127.48044,37.90331],[127.4804,37.90337],[127.4803,37.90337],[127.4803,37.9034],[127.48021,37.90345],[127.48021,37.90358],[127.48007,37.9036],[127.48005,37.90365],[127.48005,37.90378],[127.48016,37.9038],[127.48023,37.90387],[127.48027,37.90387],[127.48027,37.90391],[127.48038,37.90391],[127.48038,37.904],[127.48027,37.904],[127.48027,37.90392],[127.4802,37.90392],[127.48025,37.90403],[127.48006,37.90405],[127.48006,37.90414],[127.48002,37.90416],[127.47999,37.90425],[127.47992,37.90424],[127.47981,37.90417],[127.47981,37.90413],[127.47972,37.90406],[127.47959,37.90404],[127.47956,37.90399],[127.47947,37.90395],[127.47943,37.9039],[127.47904,37.90387],[127.47883,37.90407],[127.47879,37.90423],[127.47863,37.90423],[127.47863,37.90426],[127.47856,37.90428],[127.47851,37.90433],[127.47844,37.90433],[127.47837,37.9044],[127.4783,37.9044],[127.47828,37.90449],[127.47821,37.90456],[127.47805,37.9046],[127.47805,37.90463],[127.47796,37.90471],[127.47787,37.90472],[127.47773,37.90483],[127.47774,37.90506],[127.47788,37.90516],[127.47788,37.90521],[127.47799,37.90535],[127.47817,37.90534],[127.47822,37.90527],[127.47822,37.90518],[127.47827,37.90514],[127.47843,37.90513],[127.47849,37.9052],[127.47856,37.9052],[127.47856,37.90524],[127.4786,37.90525],[127.4786,37.90531],[127.47865,37.90535],[127.47865,37.90545],[127.4786,37.90549],[127.47828,37.90559],[127.47826,37.90563],[127.47812,37.90568],[127.47805,37.90568],[127.47796,37.90573],[127.47768,37.9058],[127.47752,37.90582],[127.47707,37.90599],[127.47665,37.90606],[127.4762,37.90605]]]}},{"type":"Feature","properties":{"valleyId":"baekdunri","layer":"canopy","date":"2026-08-01"},"geometry":{"type":"Polygon","coordinates":[[[127.482,37.90256],[127.48198,37.9025],[127.48191,37.9025],[127.48192,37.90243],[127.4821,37.90242],[127.4821,37.90256],[127.482,37.90256]]]}},{"type":"Feature","properties":{"valleyId":"baekdunri","layer":"canopy","date":"2026-08-01"},"geometry":{"type":"Polygon","coordinates":[[[127.47883,37.90302],[127.47881,37.90297],[127.4787,37.90291],[127.4787,37.90277],[127.47877,37.90275],[127.47884,37.9027],[127.47884,37.90266],[127.479,37.90263],[127.479,37.90259],[127.47914,37.90256],[127.47914,37.90245],[127.4793,37.90233],[127.47948,37.90235],[127.47948,37.90244],[127.47928,37.90249],[127.47921,37.90256],[127.47916,37.90256],[127.47916,37.90265],[127.47893,37.90277],[127.47888,37.90284],[127.47892,37.90302],[127.47883,37.90302]]]}},{"type":"Feature","properties":{"valleyId":"baekdunri","layer":"canopy","date":"2026-08-01"},"geometry":{"type":"Polygon","coordinates":[[[127.48251,37.90242],[127.48251,37.90237],[127.48258,37.90237],[127.48258,37.90242],[127.48251,37.90242]]]}},{"type":"Feature","properties":{"valleyId":"baekdunri","layer":"canopy","date":"2026-08-01"},"geometry":{"type":"Polygon","coordinates":[[[127.48282,37.90252],[127.48278,37.90248],[127.48276,37.90237],[127.48287,37.90237],[127.48287,37.90241],[127.48294,37.90241],[127.48294,37.90252],[127.48282,37.90252]]]}},{"type":"Feature","properties":{"valleyId":"baekdunri","layer":"canopy","date":"2026-08-01"},"geometry":{"type":"Polygon","coordinates":[[[127.48133,37.90232],[127.48133,37.90206],[127.48147,37.90207],[127.48151,37.90212],[127.4816,37.90216],[127.4816,37.90223],[127.48146,37.90225],[127.48142,37.90232],[127.48133,37.90232]]]}},{"type":"Feature","properties":{"valleyId":"baekdunri","layer":"canopy","date":"2026-08-01"},"geometry":{"type":"Polygon","coordinates":[[[127.47967,37.90224],[127.47962,37.90219],[127.47965,37.90201],[127.47974,37.90201],[127.47985,37.90213],[127.47985,37.90221],[127.4798,37.90224],[127.47967,37.90224]]]}},{"type":"Feature","properties":{"valleyId":"baekdunri","layer":"canopy","date":"2026-08-01"},"geometry":{"type":"Polygon","coordinates":[[[127.48226,37.90222],[127.48226,37.90218],[127.48219,37.90218],[127.4822,37.90211],[127.48211,37.90207],[127.48213,37.902],[127.48227,37.902],[127.48226,37.90206],[127.48233,37.90215],[127.48233,37.90222],[127.48226,37.90222]]]}},{"type":"Feature","properties":{"valleyId":"baekdunri","layer":"canopy","date":"2026-08-01"},"geometry":{"type":"Polygon","coordinates":[[[127.48256,37.9021],[127.48251,37.90208],[127.48252,37.90199],[127.48263,37.90201],[127.48263,37.9021],[127.48256,37.9021]]]}},{"type":"Feature","properties":{"valleyId":"baekdunri","layer":"canopy","date":"2026-08-01"},"geometry":{"type":"Polygon","coordinates":[[[127.48163,37.90194],[127.48161,37.90187],[127.48156,37.90185],[127.48156,37.9018],[127.48166,37.9018],[127.48168,37.90185],[127.48179,37.90185],[127.48179,37.90193],[127.48163,37.90194]]]}},{"type":"Feature","properties":{"valleyId":"baekdunri","layer":"canopy","date":"2026-08-01"},"geometry":{"type":"Polygon","coordinates":[[[127.48186,37.90164],[127.48182,37.90162],[127.48182,37.90157],[127.48196,37.90157],[127.48195,37.90164],[127.48186,37.90164]]]}},{"type":"Feature","properties":{"valleyId":"baekdunri","layer":"canopy","date":"2026-08-01"},"geometry":{"type":"Polygon","coordinates":[[[127.48157,37.90167],[127.48145,37.90161],[127.48146,37.90152],[127.48173,37.90155],[127.48173,37.9016],[127.48168,37.9016],[127.48168,37.90167],[127.48157,37.90167]]]}},{"type":"Feature","properties":{"valleyId":"baekdunri","layer":"canopy","date":"2026-08-01"},"geometry":{"type":"Polygon","coordinates":[[[127.4808,37.90157],[127.4808,37.9015],[127.48091,37.90148],[127.48094,37.90139],[127.48098,37.90136],[127.48105,37.90136],[127.48107,37.90145],[127.48098,37.9015],[127.48091,37.9015],[127.48089,37.90157],[127.4808,37.90157]]]}},{"type":"Feature","properties":{"valleyId":"baekdunri","layer":"canopy","date":"2026-08-01"},"geometry":{"type":"Polygon","coordinates":[[[127.48137,37.90127],[127.48137,37.90122],[127.48144,37.90122],[127.48144,37.90127],[127.48137,37.90127]]]}},{"type":"Feature","properties":{"valleyId":"baekdunri","layer":"canopy","date":"2026-08-01"},"geometry":{"type":"Polygon","coordinates":[[[127.48772,37.90016],[127.48777,37.90004],[127.48786,37.89997],[127.48799,37.89997],[127.48799,37.90002],[127.4879,37.90009],[127.48786,37.90009],[127.48781,37.90016],[127.48772,37.90016]]]}},{"type":"Feature","properties":{"valleyId":"baekdunri","layer":"canopy","date":"2026-08-01"},"geometry":{"type":"Polygon","coordinates":[[[127.50336,37.90069],[127.50331,37.9006],[127.50327,37.90029],[127.50323,37.90029],[127.50316,37.90023],[127.50316,37.90018],[127.5031,37.90013],[127.50312,37.90004],[127.50319,37.90002],[127.50321,37.89991],[127.50328,37.89989],[127.50329,37.89973],[127.50338,37.89973],[127.5034,37.89986],[127.50344,37.89988],[127.50343,37.90044],[127.50349,37.90067],[127.50336,37.90069]]]}},{"type":"Feature","properties":{"valleyId":"baekdunri","layer":"canopy","date":"2026-08-01"},"geometry":{"type":"Polygon","coordinates":[[[127.50313,37.89949],[127.50309,37.89948],[127.50309,37.89942],[127.5032,37.89944],[127.5032,37.8995],[127.50313,37.89949]]]}},{"type":"Feature","properties":{"valleyId":"baekdunri","layer":"canopy","date":"2026-08-01"},"geometry":{"type":"Polygon","coordinates":[[[127.5034,37.89955],[127.50336,37.89952],[127.50336,37.89941],[127.50332,37.89935],[127.50334,37.89921],[127.50341,37.89921],[127.50345,37.89926],[127.50347,37.89955],[127.5034,37.89955]]]}},{"type":"Feature","properties":{"valleyId":"baekdunri","layer":"canopy","date":"2026-08-01"},"geometry":{"type":"Polygon","coordinates":[[[127.50307,37.89935],[127.503,37.89928],[127.503,37.8992],[127.50314,37.89921],[127.50318,37.89924],[127.50318,37.89932],[127.50313,37.89935],[127.50307,37.89935]]]}},{"type":"Feature","properties":{"valleyId":"baekdunri","layer":"canopy","date":"2026-08-01"},"geometry":{"type":"Polygon","coordinates":[[[127.49991,37.89913],[127.49986,37.89909],[127.49975,37.89907],[127.49952,37.89907],[127.49943,37.89902],[127.49934,37.89901],[127.49934,37.89896],[127.49968,37.89898],[127.49975,37.89902],[127.49996,37.89904],[127.49998,37.89913],[127.49991,37.89913]]]}},{"type":"Feature","properties":{"valleyId":"baekdunri","layer":"canopy","date":"2026-08-01"},"geometry":{"type":"Polygon","coordinates":[[[127.50194,37.89897],[127.50196,37.8989],[127.50212,37.89891],[127.50212,37.89896],[127.50194,37.89897]]]}},{"type":"Feature","properties":{"valleyId":"baekdunri","layer":"canopy","date":"2026-08-01"},"geometry":{"type":"Polygon","coordinates":[[[127.5025,37.89895],[127.50251,37.89887],[127.50262,37.89889],[127.50262,37.89895],[127.5025,37.89895]]]}},{"type":"Feature","properties":{"valleyId":"baekdunri","layer":"canopy","date":"2026-08-01"},"geometry":{"type":"Polygon","coordinates":[[[127.50269,37.89891],[127.50269,37.89886],[127.50276,37.89886],[127.50276,37.89891],[127.50269,37.89891]]]}},{"type":"Feature","properties":{"valleyId":"baekdunri","layer":"canopy","date":"2026-08-01"},"geometry":{"type":"Polygon","coordinates":[[[127.50301,37.89884],[127.50301,37.89879],[127.50308,37.89879],[127.50308,37.89885],[127.50301,37.89884]]]}},{"type":"Feature","properties":{"valleyId":"baekdunri","layer":"canopy","date":"2026-08-01"},"geometry":{"type":"Polygon","coordinates":[[[127.48305,37.90252],[127.48303,37.90237],[127.48296,37.90234],[127.48287,37.90234],[127.48287,37.90228],[127.48299,37.90228],[127.48299,37.90212],[127.48317,37.90216],[127.48317,37.90209],[127.48315,37.90205],[127.48295,37.90205],[127.48286,37.90196],[127.48284,37.90185],[127.48309,37.90182],[127.48316,37.90174],[127.48318,37.90164],[127.48293,37.90165],[127.48289,37.90161],[127.48287,37.90151],[127.48307,37.90147],[127.48305,37.90133],[127.48322,37.90102],[127.48335,37.90103],[127.48345,37.90094],[127.48356,37.90094],[127.48363,37.90087],[127.4837,37.90085],[127.48386,37.90085],[127.48402,37.90094],[127.48413,37.90095],[127.48422,37.90089],[127.48429,37.90089],[127.48438,37.90095],[127.48447,37.90095],[127.48447,37.90091],[127.48459,37.90086],[127.48459,37.90079],[127.48466,37.90079],[127.48477,37.90074],[127.48487,37.90056],[127.48528,37.90053],[127.48543,37.90057],[127.48568,37.90057],[127.48575,37.90062],[127.48582,37.90075],[127.48579,37.90097],[127.48583,37.901],[127.48583,37.90106],[127.48592,37.90115],[127.4861,37.90117],[127.48613,37.90108],[127.48617,37.90106],[127.48616,37.90077],[127.48611,37.90072],[127.48612,37.90065],[127.48616,37.90065],[127.48623,37.90056],[127.48641,37.90052],[127.48659,37.90055],[127.48664,37.90051],[127.48694,37.90051],[127.48698,37.90048],[127.48721,37.90046],[127.48733,37.90037],[127.48751,37.90038],[127.48781,37.90025],[127.4881,37.90024],[127.48813,37.9002],[127.48824,37.90019],[127.48829,37.90004],[127.48838,37.90001],[127.48843,37.89996],[127.48847,37.89996],[127.4885,37.89987],[127.48857,37.89981],[127.48857,37.89965],[127.48862,37.89962],[127.48873,37.8996],[127.48873,37.89946],[127.48878,37.89938],[127.48885,37.89935],[127.48885,37.8992],[127.48888,37.89917],[127.48892,37.89917],[127.48895,37.89906],[127.48899,37.89906],[127.48899,37.89897],[127.48909,37.8989],[127.48918,37.8989],[127.4892,37.89896],[127.48927,37.89899],[127.48951,37.89903],[127.48956,37.89896],[127.48974,37.89896],[127.48979,37.89887],[127.48993,37.89884],[127.49007,37.89859],[127.49016,37.89859],[127.49023,37.89875],[127.49027,37.89879],[127.49036,37.89879],[127.49045,37.89886],[127.49047,37.89901],[127.49061,37.89905],[127.49067,37.8991],[127.49072,37.89921],[127.49073,37.89946],[127.4908,37.8995],[127.49089,37.8995],[127.49084,37.89964],[127.4908,37.89966],[127.49073,37.89979],[127.49059,37.89991],[127.49014,37.90057],[127.4901,37.90059],[127.49007,37.90066],[127.49003,37.90068],[127.49,37.90075],[127.48996,37.90077],[127.48996,37.9008],[127.48991,37.90082],[127.48989,37.90089],[127.48977,37.90098],[127.48968,37.90113],[127.48928,37.90146],[127.48924,37.90146],[127.48901,37.90162],[127.48802,37.90199],[127.48729,37.90214],[127.48702,37.90217],[127.48581,37.90216],[127.48584,37.90201],[127.48581,37.90198],[127.48575,37.90198],[127.48575,37.90201],[127.48563,37.90206],[127.48561,37.90215],[127.48524,37.90215],[127.48492,37.90227],[127.48394,37.90248],[127.4833,37.9025],[127.4833,37.90241],[127.48324,37.90241],[127.48323,37.9025],[127.48305,37.90252]],[[127.48582,37.90174],[127.48593,37.90174],[127.48603,37.90166],[127.48603,37.90148],[127.48608,37.90146],[127.48608,37.90131],[127.48612,37.9013],[127.4861,37.90122],[127.48604,37.90122],[127.48601,37.90129],[127.48594,37.90131],[127.48596,37.90144],[127.48589,37.90146],[127.48589,37.9016],[127.48582,37.90167],[127.48582,37.90174]]]}},{"type":"Feature","properties":{"valleyId":"baekdunri","layer":"canopy","date":"2026-08-01"},"geometry":{"type":"Polygon","coordinates":[[[127.48919,37.89845],[127.48919,37.89834],[127.48923,37.89831],[127.48932,37.89831],[127.4893,37.89842],[127.48925,37.89845],[127.48919,37.89845]]]}},{"type":"Feature","properties":{"valleyId":"baekdunri","layer":"canopy","date":"2026-08-01"},"geometry":{"type":"Polygon","coordinates":[[[127.49866,37.89886],[127.49841,37.89884],[127.49837,37.8988],[127.4983,37.8988],[127.4981,37.89866],[127.49785,37.8986],[127.49771,37.8986],[127.49769,37.89865],[127.49764,37.89865],[127.49757,37.89872],[127.49751,37.89872],[127.49751,37.89863],[127.49744,37.89856],[127.49728,37.89856],[127.49717,37.89848],[127.49699,37.89846],[127.49688,37.89837],[127.49667,37.89839],[127.49663,37.89835],[127.49663,37.89829],[127.49708,37.89826],[127.49715,37.89832],[127.49724,37.89832],[127.49738,37.89839],[127.49774,37.8984],[127.49778,37.89844],[127.49794,37.89844],[127.49806,37.89851],[127.49817,37.89851],[127.49828,37.89857],[127.49851,37.89855],[127.49862,37.89859],[127.49882,37.89879],[127.49882,37.89885],[127.49866,37.89886]]]}},{"type":"Feature","properties":{"valleyId":"baekdunri","layer":"canopy","date":"2026-08-01"},"geometry":{"type":"Polygon","coordinates":[[[127.48935,37.8982],[127.48935,37.89811],[127.4894,37.89808],[127.48953,37.8981],[127.48951,37.89819],[127.48935,37.8982]]]}},{"type":"Feature","properties":{"valleyId":"baekdunri","layer":"canopy","date":"2026-08-01"},"geometry":{"type":"Polygon","coordinates":[[[127.4919,37.89802],[127.4919,37.89796],[127.49199,37.89796],[127.49199,37.89802],[127.4919,37.89802]]]}},{"type":"Feature","properties":{"valleyId":"baekdunri","layer":"canopy","date":"2026-08-01"},"geometry":{"type":"Polygon","coordinates":[[[127.49763,37.89831],[127.49747,37.89823],[127.49726,37.89823],[127.49722,37.89818],[127.49715,37.89816],[127.49711,37.89803],[127.4974,37.89807],[127.49765,37.89816],[127.4977,37.8982],[127.49772,37.89831],[127.49763,37.89831]]]}},{"type":"Feature","properties":{"valleyId":"baekdunri","layer":"canopy","date":"2026-08-01"},"geometry":{"type":"Polygon","coordinates":[[[127.50341,37.89811],[127.50341,37.89806],[127.50348,37.89806],[127.50348,37.89811],[127.50341,37.89811]]]}},{"type":"Feature","properties":{"valleyId":"baekdunri","layer":"canopy","date":"2026-08-01"},"geometry":{"type":"Polygon","coordinates":[[[127.49238,37.89801],[127.49231,37.89795],[127.49222,37.89795],[127.49222,37.8979],[127.49243,37.89786],[127.49249,37.89792],[127.49259,37.89794],[127.49256,37.89801],[127.49238,37.89801]]]}},{"type":"Feature","properties":{"valleyId":"baekdunri","layer":"canopy","date":"2026-08-01"},"geometry":{"type":"Polygon","coordinates":[[[127.50022,37.8983],[127.50018,37.8982],[127.5002,37.89798],[127.50025,37.89794],[127.50032,37.89794],[127.50036,37.898],[127.50054,37.89804],[127.50066,37.89813],[127.50066,37.89818],[127.50061,37.8982],[127.50036,37.89816],[127.50033,37.89829],[127.50022,37.8983]]]}},{"type":"Feature","properties":{"valleyId":"baekdunri","layer":"canopy","date":"2026-08-01"},"geometry":{"type":"Polygon","coordinates":[[[127.49195,37.89795],[127.49195,37.89784],[127.49211,37.89784],[127.49215,37.89788],[127.49213,37.89795],[127.49195,37.89795]]]}},{"type":"Feature","properties":{"valleyId":"baekdunri","layer":"canopy","date":"2026-08-01"},"geometry":{"type":"Polygon","coordinates":[[[127.49165,37.89783],[127.49166,37.8978],[127.49159,37.89774],[127.49147,37.89774],[127.4915,37.89763],[127.49168,37.89764],[127.49175,37.89767],[127.49195,37.89766],[127.49202,37.89771],[127.49202,37.89777],[127.49197,37.89778],[127.49175,37.89775],[127.49175,37.89782],[127.49165,37.89783]]]}},{"type":"Feature","properties":{"valleyId":"baekdunri","layer":"canopy","date":"2026-08-01"},"geometry":{"type":"Polygon","coordinates":[[[127.50147,37.90086],[127.50069,37.90083],[127.50035,37.90079],[127.50026,37.90076],[127.49915,37.90056],[127.49908,37.90052],[127.49852,37.90041],[127.49786,37.90022],[127.49664,37.89999],[127.49625,37.89988],[127.49607,37.89978],[127.49601,37.89978],[127.49564,37.89963],[127.49562,37.8996],[127.49549,37.89956],[127.49546,37.89952],[127.49537,37.8995],[127.49535,37.89947],[127.49531,37.89947],[127.49513,37.89936],[127.49476,37.89932],[127.49438,37.89922],[127.49363,37.89891],[127.49328,37.89868],[127.49289,37.89859],[127.49257,37.89846],[127.49262,37.89835],[127.49285,37.89828],[127.4929,37.89816],[127.49299,37.89814],[127.49304,37.89807],[127.49315,37.89807],[127.49319,37.89821],[127.49328,37.89832],[127.4933,37.89854],[127.49337,37.89865],[127.49346,37.89865],[127.49348,37.8986],[127.49362,37.89854],[127.49369,37.89838],[127.49378,37.89835],[127.49378,37.89829],[127.49385,37.89822],[127.49384,37.89799],[127.49359,37.89795],[127.49352,37.89798],[127.49352,37.89802],[127.49338,37.89802],[127.49333,37.89805],[127.49322,37.89805],[127.49318,37.898],[127.49313,37.898],[127.49313,37.89794],[127.4932,37.89794],[127.49325,37.89791],[127.49325,37.89785],[127.49316,37.89785],[127.49311,37.89783],[127.49307,37.89774],[127.49298,37.89774],[127.49295,37.89765],[127.49309,37.89767],[127.49343,37.89764],[127.49343,37.89769],[127.49361,37.8977],[127.49361,37.89764],[127.49382,37.89761],[127.49382,37.89757],[127.49393,37.89756],[127.49396,37.89767],[127.49409,37.89772],[127.49416,37.89787],[127.49429,37.89783],[127.49461,37.89787],[127.49461,37.89796],[127.49456,37.89796],[127.49456,37.898],[127.49433,37.89807],[127.49426,37.89816],[127.49408,37.89821],[127.49403,37.89842],[127.49442,37.89839],[127.49444,37.89832],[127.49449,37.8983],[127.49449,37.89821],[127.49456,37.89816],[127.49458,37.89809],[127.49467,37.89809],[127.49497,37.8982],[127.49508,37.8982],[127.49508,37.89833],[127.49517,37.89847],[127.49523,37.89851],[127.49583,37.89854],[127.49589,37.89852],[127.49594,37.89845],[127.49603,37.89841],[127.49608,37.89832],[127.49619,37.89832],[127.49622,37.89838],[127.49631,37.8984],[127.49635,37.89862],[127.49639,37.89865],[127.49639,37.89878],[127.49637,37.89881],[127.4963,37.89881],[127.49628,37.89876],[127.49614,37.89876],[127.49612,37.89879],[127.49607,37.89879],[127.49607,37.89883],[127.49602,37.89883],[127.49602,37.8989],[127.49623,37.89892],[127.49634,37.89901],[127.49634,37.89907],[127.49641,37.8991],[127.49677,37.89913],[127.49679,37.89907],[127.49686,37.89905],[127.49684,37.89891],[127.497,37.89895],[127.49702,37.89904],[127.49709,37.89908],[127.49718,37.89908],[127.49718,37.89897],[127.49743,37.89894],[127.49748,37.89897],[127.49759,37.89897],[127.4977,37.89907],[127.49784,37.89908],[127.49804,37.8992],[127.49845,37.89918],[127.4985,37.89909],[127.49861,37.89908],[127.49863,37.89911],[127.49873,37.89911],[127.49884,37.89919],[127.49907,37.89919],[127.49916,37.89914],[127.49941,37.89914],[127.49941,37.8992],[127.49954,37.8992],[127.49957,37.89914],[127.49973,37.89915],[127.49979,37.89918],[127.49979,37.89922],[127.49995,37.8992],[127.50002,37.89926],[127.5002,37.89926],[127.50036,37.89923],[127.50041,37.89926],[127.5007,37.89928],[127.50088,37.89934],[127.50138,37.89933],[127.50182,37.89926],[127.50207,37.89927],[127.5022,37.89928],[127.50222,37.89936],[127.50234,37.89936],[127.50243,37.89941],[127.50268,37.89944],[127.50281,37.89958],[127.50281,37.89974],[127.50269,37.89992],[127.50269,37.89998],[127.50282,37.90007],[127.50282,37.90016],[127.50273,37.90019],[127.50266,37.90028],[127.50248,37.9003],[127.50245,37.90039],[127.50263,37.90041],[127.50268,37.90044],[127.5027,37.90061],[127.50256,37.90062],[127.50245,37.90071],[127.5024,37.90071],[127.50238,37.90086],[127.50147,37.90086]],[[127.50152,37.90048],[127.50165,37.90049],[127.50168,37.90041],[127.50163,37.90038],[127.50154,37.90038],[127.50152,37.90048]],[[127.49981,37.89934],[127.49993,37.89935],[127.49993,37.89929],[127.49981,37.89929],[127.49981,37.89934]],[[127.49398,37.89889],[127.49409,37.89889],[127.49409,37.8988],[127.49405,37.89877],[127.49396,37.89878],[127.49398,37.89889]]]}},{"type":"Feature","properties":{"valleyId":"baekdunri","layer":"canopy","date":"2026-08-01"},"geometry":{"type":"Polygon","coordinates":[[[127.495,37.89771],[127.49484,37.89768],[127.4948,37.89762],[127.49473,37.8976],[127.49471,37.89751],[127.49475,37.89751],[127.49478,37.89746],[127.49503,37.8975],[127.49505,37.89754],[127.49519,37.89757],[127.49525,37.89765],[127.49525,37.89772],[127.495,37.89771]]]}},{"type":"Feature","properties":{"valleyId":"baekdunri","layer":"canopy","date":"2026-08-01"},"geometry":{"type":"Polygon","coordinates":[[[127.49235,37.89721],[127.49235,37.89714],[127.49242,37.89714],[127.49244,37.89721],[127.49235,37.89721]]]}},{"type":"Feature","properties":{"valleyId":"baekdunri","layer":"canopy","date":"2026-08-01"},"geometry":{"type":"Polygon","coordinates":[[[127.49385,37.8972],[127.49381,37.89716],[127.49385,37.89705],[127.49395,37.89705],[127.49397,37.89709],[127.49408,37.89713],[127.49408,37.89718],[127.49385,37.8972]]]}},{"type":"Feature","properties":{"valleyId":"baekdunri","layer":"canopy","date":"2026-08-01"},"geometry":{"type":"Polygon","coordinates":[[[127.49125,37.89862],[127.49123,37.89859],[127.49107,37.89853],[127.49092,37.8984],[127.49087,37.8984],[127.49076,37.89829],[127.49062,37.89827],[127.49056,37.8982],[127.49028,37.89812],[127.49006,37.89812],[127.48988,37.89794],[127.4899,37.89781],[127.49018,37.89783],[127.49029,37.89776],[127.49029,37.89773],[127.49034,37.89771],[127.4903,37.89756],[127.49032,37.89731],[127.49046,37.89722],[127.49049,37.89717],[127.49055,37.89715],[127.49055,37.89712],[127.49062,37.89706],[127.49081,37.89701],[127.49103,37.897],[127.4911,37.89707],[127.4911,37.89721],[127.49137,37.89734],[127.49137,37.8974],[127.4913,37.89743],[127.49128,37.89749],[127.49129,37.89767],[127.49125,37.8977],[127.49122,37.89783],[127.49136,37.89794],[127.49138,37.89816],[127.49147,37.89817],[127.49149,37.89812],[127.4916,37.89805],[127.49161,37.89798],[127.4917,37.898],[127.49169,37.89816],[127.49163,37.89816],[127.49151,37.89823],[127.4914,37.89823],[127.49139,37.89861],[127.49125,37.89862]]]}},{"type":"Feature","properties":{"valleyId":"baekdunri","layer":"canopy","date":"2026-08-01"},"geometry":{"type":"Polygon","coordinates":[[[127.47533,37.904],[127.4752,37.90393],[127.47506,37.90391],[127.47479,37.90393],[127.47472,37.90387],[127.47436,37.90385],[127.47436,37.90388],[127.47429,37.90388],[127.4742,37.90385],[127.4742,37.90374],[127.47432,37.90354],[127.47432,37.90349],[127.47439,37.90338],[127.47444,37.90336],[127.47448,37.90325],[127.47455,37.90322],[127.4746,37.90313],[127.47471,37.90306],[127.47472,37.90302],[127.47502,37.90281],[127.47506,37.90281],[127.47511,37.90276],[127.47522,37.90272],[127.47529,37.90265],[127.47534,37.90265],[127.4755,37.90255],[127.47582,37.90242],[127.47634,37.90232],[127.47676,37.90199],[127.47683,37.90186],[127.47697,37.90174],[127.477,37.90166],[127.47704,37.90165],[127.47704,37.90161],[127.47709,37.90159],[127.47709,37.90156],[127.47713,37.90154],[127.47716,37.90147],[127.47727,37.90138],[127.47732,37.90129],[127.47804,37.90072],[127.47808,37.90072],[127.47822,37.9006],[127.47827,37.9006],[127.47831,37.90055],[127.47848,37.90049],[127.4785,37.90046],[127.47893,37.90032],[127.47972,37.89974],[127.47976,37.89974],[127.47988,37.89965],[127.47997,37.89963],[127.4802,37.89949],[127.48029,37.89947],[127.48052,37.89933],[127.48078,37.89924],[127.4808,37.89921],[127.48126,37.89907],[127.48196,37.89895],[127.48326,37.8989],[127.48342,37.89886],[127.48365,37.89876],[127.48372,37.89876],[127.4839,37.89867],[127.48441,37.89855],[127.48634,37.89856],[127.48667,37.89808],[127.48671,37.89806],[127.48683,37.89788],[127.48692,37.89781],[127.48725,37.89731],[127.48725,37.89726],[127.4873,37.89722],[127.4873,37.89717],[127.48737,37.89709],[127.48744,37.89693],[127.48765,37.89695],[127.4878,37.89703],[127.48819,37.89707],[127.48819,37.89714],[127.48801,37.89714],[127.48798,37.8971],[127.48792,37.8971],[127.48789,37.89719],[127.48778,37.89719],[127.48767,37.8971],[127.48751,37.89711],[127.48753,37.89731],[127.48746,37.8974],[127.48745,37.89746],[127.48752,37.8976],[127.48763,37.89769],[127.48768,37.89778],[127.48792,37.89786],[127.48815,37.89786],[127.48838,37.89781],[127.48854,37.89781],[127.48867,37.89787],[127.48883,37.89787],[127.48897,37.89796],[127.48899,37.89803],[127.48912,37.89811],[127.48912,37.89816],[127.48905,37.8982],[127.48903,37.89834],[127.48896,37.89839],[127.48885,37.89839],[127.48884,37.89843],[127.48878,37.89846],[127.48877,37.89855],[127.48859,37.89871],[127.48863,37.89886],[127.4887,37.89886],[127.4887,37.89879],[127.48875,37.89875],[127.48884,37.89875],[127.48886,37.89866],[127.48898,37.89865],[127.48903,37.8985],[127.48912,37.89845],[127.48919,37.89845],[127.48911,37.89861],[127.48902,37.89867],[127.48902,37.89877],[127.48888,37.89879],[127.48888,37.89884],[127.48881,37.8989],[127.48872,37.8989],[127.48872,37.89897],[127.48879,37.89897],[127.48874,37.89909],[127.48858,37.89907],[127.48856,37.89902],[127.48849,37.89902],[127.48847,37.89909],[127.48838,37.89913],[127.48837,37.89922],[127.48824,37.89921],[127.48815,37.89927],[127.48816,37.89943],[127.4881,37.89945],[127.48791,37.89961],[127.48777,37.89993],[127.48772,37.89996],[127.48752,37.89998],[127.48745,37.90005],[127.48738,37.90005],[127.48731,37.9001],[127.4869,37.90019],[127.48676,37.90019],[127.48662,37.90024],[127.48606,37.90018],[127.48585,37.90018],[127.48578,37.90023],[127.48558,37.90023],[127.48542,37.90026],[127.48535,37.90026],[127.48535,37.90022],[127.48467,37.90021],[127.48446,37.90032],[127.48408,37.90028],[127.48405,37.9004],[127.48396,37.9004],[127.48389,37.90046],[127.48375,37.90047],[127.48368,37.90053],[127.48343,37.90059],[127.48307,37.90059],[127.48302,37.90055],[127.48277,37.90055],[127.48259,37.90067],[127.48218,37.90067],[127.48211,37.90063],[127.48191,37.90061],[127.48184,37.90065],[127.4817,37.90064],[127.48154,37.9007],[127.48134,37.90068],[127.48125,37.90073],[127.48127,37.90085],[127.48115,37.90087],[127.48108,37.901],[127.48097,37.901],[127.48092,37.90096],[127.4809,37.90087],[127.48081,37.90087],[127.48079,37.9009],[127.48054,37.9009],[127.48054,37.90095],[127.48065,37.90099],[127.48064,37.90128],[127.48051,37.90128],[127.48044,37.90137],[127.48028,37.90135],[127.48016,37.90142],[127.47998,37.90142],[127.47991,37.90147],[127.47987,37.90147],[127.47984,37.90158],[127.47998,37.90158],[127.47998,37.90167],[127.47984,37.90167],[127.47984,37.90181],[127.47974,37.90184],[127.47967,37.90192],[127.47952,37.90191],[127.47949,37.90188],[127.4795,37.90179],[127.47957,37.90168],[127.47963,37.90166],[127.47963,37.90163],[127.4797,37.90159],[127.47971,37.90147],[127.47966,37.90137],[127.4795,37.90132],[127.47946,37.90126],[127.47905,37.90122],[127.47896,37.90126],[127.47889,37.90133],[127.47882,37.90154],[127.47904,37.90175],[127.4792,37.90177],[127.47927,37.90184],[127.47927,37.90189],[127.47917,37.90193],[127.47917,37.90204],[127.47903,37.90211],[127.47899,37.90225],[127.47889,37.90227],[127.47889,37.90237],[127.4788,37.90246],[127.4788,37.90261],[127.47875,37.90268],[127.47863,37.90271],[127.47847,37.90282],[127.47838,37.90282],[127.47838,37.90278],[127.47834,37.90276],[127.47822,37.90278],[127.47822,37.90283],[127.47843,37.90284],[127.47843,37.90289],[127.47836,37.90293],[127.47836,37.90298],[127.47819,37.90307],[127.47815,37.90318],[127.4781,37.90319],[127.47803,37.90337],[127.47773,37.90357],[127.47764,37.90371],[127.47752,37.90373],[127.4775,37.90376],[127.47734,37.90378],[127.47677,37.90379],[127.47674,37.90388],[127.47668,37.90388],[127.47661,37.90379],[127.47661,37.9037],[127.4765,37.90362],[127.47648,37.90357],[127.47637,37.90355],[127.47627,37.90362],[127.47609,37.90369],[127.47593,37.90371],[127.47577,37.90396],[127.47567,37.90399],[127.47533,37.904]],[[127.48003,37.90134],[127.48014,37.90135],[127.48017,37.90126],[127.48001,37.90127],[127.48003,37.90134]],[[127.48323,37.89929],[127.48332,37.89928],[127.48332,37.89917],[127.48326,37.89911],[127.48314,37.89911],[127.48314,37.89918],[127.48323,37.89929]],[[127.48308,37.89909],[127.48314,37.89909],[127.48315,37.89904],[127.48308,37.89904],[127.48308,37.89909]]]}},{"type":"Feature","properties":{"valleyId":"baekdunri","layer":"canopy","date":"2026-08-01"},"geometry":{"type":"Polygon","coordinates":[[[127.4936,37.89703],[127.49361,37.89698],[127.49367,37.89698],[127.49367,37.89703],[127.4936,37.89703]]]}},{"type":"Feature","properties":{"valleyId":"baekdunri","layer":"canopy","date":"2026-08-01"},"geometry":{"type":"Polygon","coordinates":[[[127.4897,37.89765],[127.48975,37.89752],[127.48975,37.89732],[127.48982,37.89725],[127.48983,37.8972],[127.48989,37.89718],[127.48989,37.89713],[127.48994,37.89709],[127.49001,37.89709],[127.49006,37.89706],[127.49006,37.897],[127.49013,37.89697],[127.49017,37.8969],[127.49029,37.89688],[127.49029,37.89695],[127.49024,37.89697],[127.49022,37.89704],[127.49017,37.89704],[127.49017,37.89708],[127.4901,37.89711],[127.4901,37.89718],[127.49003,37.89725],[127.49003,37.89731],[127.48996,37.89733],[127.48996,37.89742],[127.48991,37.89743],[127.48984,37.89759],[127.48979,37.89761],[127.48979,37.89765],[127.4897,37.89765]]]}},{"type":"Feature","properties":{"valleyId":"baekdunri","layer":"canopy","date":"2026-08-01"},"geometry":{"type":"Polygon","coordinates":[[[127.49056,37.89668],[127.49052,37.89667],[127.49054,37.89659],[127.49068,37.89658],[127.49073,37.89654],[127.49086,37.89654],[127.49086,37.89669],[127.49056,37.89668]]]}},{"type":"Feature","properties":{"valleyId":"baekdunri","layer":"canopy","date":"2026-08-01"},"geometry":{"type":"Polygon","coordinates":[[[127.50427,37.89708],[127.50423,37.897],[127.50421,37.89684],[127.50432,37.89677],[127.50432,37.89668],[127.50437,37.89668],[127.50437,37.89657],[127.50446,37.89657],[127.50451,37.89659],[127.50451,37.89666],[127.50448,37.89677],[127.50441,37.89684],[127.50439,37.89704],[127.50436,37.89708],[127.50427,37.89708]]]}},{"type":"Feature","properties":{"valleyId":"baekdunri","layer":"canopy","date":"2026-08-01"},"geometry":{"type":"Polygon","coordinates":[[[127.49278,37.89642],[127.49271,37.89637],[127.49271,37.8963],[127.49278,37.8963],[127.49282,37.89635],[127.49287,37.89635],[127.49287,37.89643],[127.49278,37.89642]]]}},{"type":"Feature","properties":{"valleyId":"baekdunri","layer":"canopy","date":"2026-08-01"},"geometry":{"type":"Polygon","coordinates":[[[127.49106,37.89666],[127.49097,37.8966],[127.49102,37.89642],[127.49118,37.8964],[127.49125,37.89635],[127.49125,37.8963],[127.49137,37.89626],[127.49141,37.89621],[127.49157,37.89621],[127.49162,37.89625],[127.49162,37.89637],[127.49148,37.89641],[127.49143,37.89648],[127.49123,37.89651],[127.49116,37.89664],[127.49106,37.89666]]]}},{"type":"Feature","properties":{"valleyId":"baekdunri","layer":"canopy","date":"2026-08-01"},"geometry":{"type":"Polygon","coordinates":[[[127.49248,37.89631],[127.49244,37.89628],[127.49244,37.89622],[127.4926,37.89622],[127.49269,37.89626],[127.49269,37.89632],[127.49248,37.89631]]]}},{"type":"Feature","properties":{"valleyId":"baekdunri","layer":"canopy","date":"2026-08-01"},"geometry":{"type":"Polygon","coordinates":[[[127.50407,37.90052],[127.50405,37.90017],[127.50412,37.89992],[127.5041,37.89976],[127.5042,37.89971],[127.5042,37.8996],[127.50424,37.89953],[127.50423,37.89936],[127.50413,37.89933],[127.50411,37.89926],[127.50412,37.89898],[127.50419,37.89884],[127.50416,37.8983],[127.50418,37.89814],[127.50425,37.89809],[127.50425,37.89805],[127.50437,37.89798],[127.50437,37.89787],[127.50441,37.89785],[127.50442,37.89774],[127.50449,37.89762],[127.50449,37.89748],[127.50442,37.89744],[127.5044,37.89728],[127.50443,37.89724],[127.50452,37.89722],[127.50463,37.89712],[127.50468,37.89712],[127.50468,37.89696],[127.5048,37.89688],[127.50487,37.89676],[127.50494,37.89671],[127.50517,37.89671],[127.50517,37.89658],[127.5054,37.89644],[127.5054,37.89635],[127.50547,37.89635],[127.50571,37.89657],[127.50571,37.89661],[127.50583,37.8967],[127.50587,37.89681],[127.50591,37.89683],[127.50596,37.89695],[127.50602,37.89703],[127.50613,37.89735],[127.50614,37.89786],[127.50589,37.89912],[127.50575,37.89944],[127.50563,37.89962],[127.50558,37.89963],[127.50549,37.89978],[127.5054,37.89983],[127.5054,37.89987],[127.50491,37.9002],[127.50413,37.90052],[127.50407,37.90052]]]}},{"type":"Feature","properties":{"valleyId":"baekdunri","layer":"canopy","date":"2026-08-01"},"geometry":{"type":"Polygon","coordinates":[[[127.49223,37.89627],[127.49219,37.89625],[127.49219,37.89618],[127.49237,37.8962],[127.49237,37.89628],[127.49223,37.89627]]]}},{"type":"Feature","properties":{"valleyId":"baekdunri","layer":"canopy","date":"2026-08-01"},"geometry":{"type":"Polygon","coordinates":[[[127.50463,37.89641],[127.50463,37.89636],[127.50472,37.89634],[127.50472,37.89641],[127.50463,37.89641]]]}},{"type":"Feature","properties":{"valleyId":"baekdunri","layer":"canopy","date":"2026-08-01"},"geometry":{"type":"Polygon","coordinates":[[[127.49187,37.89623],[127.49178,37.89621],[127.49178,37.89614],[127.49198,37.89616],[127.49198,37.89623],[127.49187,37.89623]]]}},{"type":"Feature","properties":{"valleyId":"baekdunri","layer":"canopy","date":"2026-08-01"},"geometry":{"type":"Polygon","coordinates":[[[127.50442,37.89647],[127.5044,37.89634],[127.50449,37.8963],[127.50454,37.89612],[127.50459,37.89609],[127.50468,37.89609],[127.50465,37.89625],[127.50456,37.89632],[127.50449,37.89647],[127.50442,37.89647]]]}},{"type":"Feature","properties":{"valleyId":"baekdunri","layer":"canopy","date":"2026-08-01"},"geometry":{"type":"Polygon","coordinates":[[[127.50005,37.89899],[127.5,37.89895],[127.49998,37.89884],[127.49985,37.89884],[127.49964,37.89871],[127.49937,37.89874],[127.49935,37.89871],[127.49901,37.8986],[127.49899,37.89856],[127.49881,37.8985],[127.49878,37.89847],[127.4986,37.89845],[127.49853,37.8985],[127.49844,37.8985],[127.4984,37.89846],[127.4984,37.89835],[127.49847,37.89834],[127.49847,37.89828],[127.4984,37.89823],[127.4984,37.89819],[127.49836,37.89819],[127.49836,37.89812],[127.49847,37.8981],[127.49847,37.89803],[127.49854,37.89799],[127.49857,37.89794],[127.49857,37.89783],[127.4985,37.89778],[127.49828,37.89774],[127.49816,37.89776],[127.49823,37.89794],[127.4982,37.89803],[127.49809,37.89802],[127.49804,37.89797],[127.49793,37.89797],[127.49791,37.8979],[127.4978,37.8978],[127.49746,37.89776],[127.49727,37.89783],[127.4972,37.89791],[127.49709,37.89792],[127.49709,37.89805],[127.49702,37.89805],[127.49695,37.89803],[127.49688,37.89797],[127.49688,37.89794],[127.4967,37.89783],[127.49632,37.8978],[127.49612,37.89769],[127.49596,37.89767],[127.49582,37.89755],[127.49573,37.89751],[127.4956,37.89749],[127.49555,37.89745],[127.49539,37.89745],[127.49533,37.89739],[127.49494,37.89737],[127.4948,37.89733],[127.49474,37.89726],[127.49458,37.89724],[127.49458,37.8972],[127.49438,37.89711],[127.49433,37.897],[127.4942,37.897],[127.49413,37.89693],[127.49402,37.89691],[127.49373,37.89667],[127.49355,37.8966],[127.49348,37.89652],[127.49343,37.89652],[127.49337,37.89647],[127.49337,37.89641],[127.49344,37.89642],[127.49348,37.89647],[127.49355,37.89647],[127.49359,37.8964],[127.4938,37.89638],[127.49387,37.89647],[127.49407,37.89653],[127.49416,37.8966],[127.49416,37.89666],[127.49425,37.89675],[127.49447,37.89681],[127.49454,37.89686],[127.49454,37.89697],[127.49463,37.89706],[127.49476,37.8971],[127.49499,37.8971],[127.49517,37.89719],[127.49533,37.8972],[127.49535,37.89723],[127.49553,37.89722],[127.4958,37.89738],[127.49592,37.89737],[127.49592,37.89726],[127.49574,37.89715],[127.49565,37.89698],[127.4955,37.89687],[127.49538,37.89684],[127.49538,37.8968],[127.49534,37.8968],[127.49532,37.89675],[127.49523,37.89671],[127.49507,37.89654],[127.495,37.89654],[127.49498,37.89651],[127.49484,37.89647],[127.49478,37.8964],[127.49462,37.89632],[127.49451,37.89623],[127.49449,37.89616],[127.49437,37.89608],[127.49428,37.89608],[127.49428,37.89612],[127.49417,37.89612],[127.4941,37.89606],[127.49403,37.89606],[127.49401,37.89615],[127.49392,37.8962],[127.4938,37.89619],[127.49369,37.89609],[127.4934,37.89611],[127.49328,37.89625],[127.49328,37.8964],[127.49319,37.89639],[127.49312,37.89632],[127.49294,37.8963],[127.49282,37.89623],[127.49273,37.89623],[127.49264,37.89613],[127.49255,37.8961],[127.4921,37.89606],[127.49203,37.896],[127.49183,37.89598],[127.49162,37.89607],[127.49139,37.89608],[127.49133,37.89615],[127.49112,37.89622],[127.49101,37.89622],[127.49089,37.89629],[127.49073,37.89629],[127.49055,37.8964],[127.49036,37.89641],[127.49025,37.89655],[127.49013,37.89655],[127.49009,37.8965],[127.49009,37.89635],[127.49016,37.8963],[127.49028,37.89628],[127.49032,37.89625],[127.49035,37.89611],[127.49055,37.89607],[127.49055,37.89604],[127.49067,37.89597],[127.49092,37.89593],[127.49092,37.89586],[127.49097,37.89582],[127.49095,37.89568],[127.49102,37.89568],[127.49099,37.89561],[127.49088,37.89561],[127.49077,37.8955],[127.49061,37.89548],[127.49047,37.89551],[127.49045,37.89555],[127.49031,37.89558],[127.49031,37.89569],[127.49038,37.89575],[127.49037,37.89593],[127.49028,37.896],[127.49015,37.89601],[127.49001,37.89606],[127.48998,37.8961],[127.48985,37.89613],[127.48985,37.89617],[127.48975,37.89622],[127.48973,37.89633],[127.48966,37.89637],[127.48961,37.89649],[127.48957,37.89653],[127.48958,37.89685],[127.48954,37.89687],[127.48954,37.89692],[127.48958,37.89698],[127.48958,37.89705],[127.48948,37.89716],[127.48944,37.89716],[127.48928,37.89726],[127.48919,37.89728],[127.48919,37.89733],[127.48948,37.89734],[127.48953,37.89737],[127.48952,37.89743],[127.48946,37.89746],[127.48943,37.89755],[127.48918,37.89755],[127.48914,37.89751],[127.48914,37.89739],[127.48909,37.89737],[127.48903,37.89726],[127.48882,37.89724],[127.4888,37.89715],[127.48876,37.89711],[127.48871,37.89711],[127.48865,37.89706],[127.48855,37.89706],[127.48856,37.897],[127.4886,37.89697],[127.48887,37.89697],[127.48897,37.8969],[127.48906,37.89688],[127.48908,37.89681],[127.48924,37.89669],[127.48925,37.89652],[127.48932,37.89643],[127.48932,37.89634],[127.48921,37.89632],[127.48916,37.8964],[127.48905,37.89639],[127.48891,37.8965],[127.48891,37.89654],[127.48886,37.89654],[127.48879,37.89659],[127.48852,37.89662],[127.48843,37.89668],[127.48831,37.89667],[127.48822,37.89671],[127.48797,37.89671],[127.48793,37.89667],[127.48786,37.89667],[127.4877,37.89658],[127.4877,37.8965],[127.48777,37.89645],[127.48784,37.89633],[127.48789,37.89631],[127.48789,37.89627],[127.48793,37.89625],[127.48793,37.89622],[127.48798,37.8962],[127.48798,37.89616],[127.48803,37.89615],[127.48803,37.89611],[127.48807,37.89609],[127.48807,37.89606],[127.48812,37.89604],[127.48812,37.896],[127.48817,37.89599],[127.48817,37.89595],[127.48821,37.89593],[127.48821,37.8959],[127.48826,37.89588],[127.48826,37.89584],[127.48831,37.89583],[127.48831,37.89579],[127.48838,37.89576],[127.48838,37.89572],[127.48916,37.89508],[127.48921,37.89508],[127.48928,37.89501],[127.48932,37.89501],[127.48949,37.8949],[127.49065,37.8945],[127.49074,37.89451],[127.49081,37.89447],[127.49109,37.89444],[127.49134,37.89437],[127.49207,37.89429],[127.49277,37.89432],[127.49377,37.89458],[127.49388,37.89465],[127.49417,37.89477],[127.4942,37.8948],[127.49429,37.89482],[127.49444,37.89493],[127.49449,37.89493],[127.49487,37.89523],[127.49487,37.89526],[127.49494,37.89532],[127.49512,37.89536],[127.4955,37.8955],[127.49599,37.89582],[127.49638,37.89584],[127.49686,37.89595],[127.49719,37.8961],[127.49722,37.89614],[127.49731,37.89616],[127.49733,37.89619],[127.49737,37.8962],[127.4974,37.89623],[127.49744,37.89623],[127.49746,37.89627],[127.49751,37.89627],[127.49753,37.89631],[127.49758,37.89631],[127.4976,37.89634],[127.49764,37.89634],[127.49767,37.89638],[127.49771,37.89638],[127.49773,37.89642],[127.49778,37.89642],[127.49796,37.89653],[127.49914,37.89676],[127.49927,37.89681],[127.49936,37.89682],[127.49957,37.89689],[127.49966,37.89689],[127.50034,37.89708],[127.50104,37.8972],[127.50113,37.89723],[127.50165,37.89726],[127.5018,37.8969],[127.50203,37.89658],[127.50238,37.89628],[127.50242,37.89628],[127.50252,37.89619],[127.50256,37.89619],[127.50272,37.89608],[127.50304,37.89596],[127.50341,37.89588],[127.5037,37.89584],[127.50402,37.89585],[127.50402,37.89594],[127.50393,37.89603],[127.50392,37.89622],[127.50385,37.89635],[127.50372,37.89637],[127.50367,37.89644],[127.5036,37.89645],[127.50349,37.89658],[127.50346,37.89678],[127.50339,37.89688],[127.50339,37.89701],[127.50332,37.89703],[127.50329,37.89708],[127.5032,37.89708],[127.50313,37.89717],[127.50295,37.8972],[127.50288,37.89729],[127.50283,37.89729],[127.50274,37.89738],[127.50265,37.89742],[127.5026,37.8977],[127.50255,37.89774],[127.5021,37.89781],[127.502,37.89789],[127.50193,37.89789],[127.50187,37.89795],[127.50186,37.89809],[127.50154,37.89827],[127.50147,37.89827],[127.50143,37.8983],[127.50113,37.8983],[127.50106,37.89822],[127.50102,37.89822],[127.50097,37.89812],[127.50086,37.89801],[127.5007,37.898],[127.50052,37.89788],[127.50028,37.89784],[127.50019,37.89776],[127.50001,37.89771],[127.49994,37.89763],[127.49994,37.89753],[127.49999,37.89749],[127.49999,37.89744],[127.49988,37.89733],[127.49972,37.89731],[127.49967,37.89734],[127.49969,37.89765],[127.49957,37.89767],[127.49957,37.89772],[127.49962,37.89776],[127.49962,37.89783],[127.49968,37.89788],[127.49975,37.89788],[127.4998,37.89792],[127.49993,37.89792],[127.50004,37.89801],[127.50007,37.8981],[127.50011,37.89814],[127.50011,37.89823],[127.50006,37.89825],[127.50008,37.89839],[127.50022,37.89841],[127.50024,37.89845],[127.50038,37.89845],[127.50042,37.89851],[127.50067,37.89851],[127.50067,37.89869],[127.50074,37.89871],[127.50073,37.89878],[127.50078,37.89882],[127.50085,37.89882],[127.50085,37.89876],[127.50094,37.89876],[127.50094,37.89885],[127.50089,37.89885],[127.50089,37.89891],[127.50103,37.89891],[127.50103,37.89898],[127.50073,37.89898],[127.50069,37.89894],[127.50044,37.89892],[127.50032,37.89897],[127.50014,37.89895],[127.50012,37.89899],[127.50005,37.89899]],[[127.4994,37.89824],[127.49959,37.89822],[127.49959,37.89808],[127.49952,37.89797],[127.49943,37.89797],[127.49938,37.89802],[127.49932,37.89802],[127.49927,37.89806],[127.49931,37.89818],[127.4994,37.89824]],[[127.49937,37.89752],[127.49949,37.89752],[127.49951,37.89741],[127.49944,37.8973],[127.49933,37.89728],[127.49931,37.89739],[127.49933,37.8975],[127.49937,37.89752]],[[127.49838,37.89691],[127.49845,37.89691],[127.49845,37.89686],[127.49838,37.89686],[127.49838,37.89691]],[[127.49294,37.89616],[127.49314,37.89616],[127.49315,37.89609],[127.49294,37.89607],[127.49294,37.89616]],[[127.4957,37.89599],[127.49576,37.89599],[127.49577,37.89592],[127.4957,37.89592],[127.4957,37.89599]],[[127.49347,37.89593],[127.49415,37.89592],[127.49417,37.89583],[127.49427,37.89579],[127.49427,37.8957],[127.49404,37.89554],[127.49402,37.89547],[127.49377,37.89546],[127.49368,37.8955],[127.49368,37.89568],[127.49336,37.89568],[127.49324,37.89571],[127.49322,37.89578],[127.49311,37.89578],[127.49311,37.89574],[127.49302,37.89574],[127.49302,37.8958],[127.49311,37.8958],[127.49313,37.89585],[127.49329,37.89585],[127.49331,37.89582],[127.49338,37.89582],[127.49347,37.89593]]]}}]}
