{"type":"FeatureCollection","metadata":{"description":"개방지(CHM ≤ 2 m)에 드리운 나무·지형 그림자, 2026-08-01 17:00 KST. canopy 위에 겹쳐 그린다","source":"위성 기반 추정 — Copernicus GLO-30 지형(30 m) + Meta/WRI 수관 높이(1 m CHM, 2015~2016 촬영). 그늘 = 수관(CHM > 2 m) ∪ 나무·지형 그림자 ∪ 원거리 지형 마스크. 현장과 다를 수 있음.","datasetVersion":"2026-09-06.0","collectedAt":"2026-09-06","coordinateOrder":"[longitude, latitude]","crs":"EPSG:4326","representativeDate":"2026-08-01","hours":["10:00","11:00","12:00","13:00","14:00","15:00","16:00","17:00","18:00"],"chmAcquisition":["2015-07","2016-06"],"assets":{"glo30":{"dataset":"Copernicus DEM GLO-30 (COG, s3://copernicus-dem-30m)","tiles":["Copernicus_DSM_COG_10_N37_00_E127_00_DEM"]},"chm":{"dataset":"Meta/WRI Global Canopy Height Map v1 (alsgedi_global_v6_float, 1 m, CC-BY 4.0)","quadkeys":["132110303"],"acquisition":["2015-07","2016-06"]}},"method":{"gridResM":2,"canopyThresholdM":2,"bufferHalfM":25,"corridorHalfM":200,"simplifyTolM":2,"minAreaM2":25,"coordDecimals":5},"generator":"scripts/shade 0.1.0","builtAt":"2026-09-06T05:58:56Z","layer":"shadow","timeLocal":"17:00"},"features":[{"type":"Feature","properties":{"valleyId":"baekdunri","layer":"shadow","date":"2026-08-01","timeLocal":"17:00"},"geometry":{"type":"Polygon","coordinates":[[[127.47487,37.9045],[127.47487,37.90445],[127.47494,37.90445],[127.47493,37.9045],[127.47487,37.9045]]]}},{"type":"Feature","properties":{"valleyId":"baekdunri","layer":"shadow","date":"2026-08-01","timeLocal":"17:00"},"geometry":{"type":"Polygon","coordinates":[[[127.47772,37.90398],[127.47772,37.90389],[127.47784,37.90389],[127.47784,37.90396],[127.47772,37.90398]]]}},{"type":"Feature","properties":{"valleyId":"baekdunri","layer":"shadow","date":"2026-08-01","timeLocal":"17:00"},"geometry":{"type":"Polygon","coordinates":[[[127.48005,37.90374],[127.48005,37.90365],[127.48012,37.90365],[127.48011,37.90374],[127.48005,37.90374]]]}},{"type":"Feature","properties":{"valleyId":"baekdunri","layer":"shadow","date":"2026-08-01","timeLocal":"17:00"},"geometry":{"type":"Polygon","coordinates":[[[127.4777,37.90367],[127.47773,37.90357],[127.47787,37.90346],[127.47796,37.90344],[127.47796,37.90341],[127.47803,37.90341],[127.47803,37.90346],[127.47794,37.9035],[127.47791,37.90357],[127.47782,37.90364],[127.47777,37.90364],[127.47777,37.90368],[127.4777,37.90367]]]}},{"type":"Feature","properties":{"valleyId":"baekdunri","layer":"shadow","date":"2026-08-01","timeLocal":"17:00"},"geometry":{"type":"Polygon","coordinates":[[[127.47863,37.90316],[127.4786,37.90309],[127.47867,37.90309],[127.47869,37.90316],[127.47863,37.90316]]]}},{"type":"Feature","properties":{"valleyId":"baekdunri","layer":"shadow","date":"2026-08-01","timeLocal":"17:00"},"geometry":{"type":"Polygon","coordinates":[[[127.47892,37.90299],[127.47888,37.90284],[127.47893,37.90277],[127.47902,37.90274],[127.47902,37.9027],[127.47909,37.9027],[127.47909,37.90276],[127.47897,37.90288],[127.47899,37.90299],[127.47892,37.90299]]]}},{"type":"Feature","properties":{"valleyId":"baekdunri","layer":"shadow","date":"2026-08-01","timeLocal":"17:00"},"geometry":{"type":"Polygon","coordinates":[[[127.47948,37.90244],[127.47948,37.90235],[127.4796,37.90237],[127.4796,37.90242],[127.47948,37.90244]]]}},{"type":"Feature","properties":{"valleyId":"baekdunri","layer":"shadow","date":"2026-08-01","timeLocal":"17:00"},"geometry":{"type":"Polygon","coordinates":[[[127.47985,37.90219],[127.47985,37.90212],[127.47992,37.90212],[127.47992,37.90219],[127.47985,37.90219]]]}},{"type":"Feature","properties":{"valleyId":"baekdunri","layer":"shadow","date":"2026-08-01","timeLocal":"17:00"},"geometry":{"type":"Polygon","coordinates":[[[127.48563,37.90215],[127.48563,37.90206],[127.48572,37.90203],[127.48575,37.90198],[127.48581,37.90198],[127.48579,37.90216],[127.48563,37.90215]]]}},{"type":"Feature","properties":{"valleyId":"baekdunri","layer":"shadow","date":"2026-08-01","timeLocal":"17:00"},"geometry":{"type":"Polygon","coordinates":[[[127.47803,37.90341],[127.4781,37.90319],[127.47815,37.90318],[127.47819,37.90307],[127.47836,37.90298],[127.4784,37.90284],[127.47847,37.90284],[127.4785,37.90278],[127.47875,37.90268],[127.4788,37.90261],[127.4788,37.90246],[127.47889,37.90237],[127.47889,37.90227],[127.47899,37.90225],[127.47903,37.90211],[127.47917,37.90204],[127.47917,37.90193],[127.47927,37.90189],[127.47924,37.90178],[127.47934,37.90179],[127.47935,37.90204],[127.47929,37.90204],[127.47917,37.9022],[127.47912,37.9022],[127.47907,37.90236],[127.479,37.90239],[127.479,37.90254],[127.47896,37.90254],[127.47896,37.90259],[127.47879,37.9027],[127.47877,37.90275],[127.47868,37.90279],[127.47867,37.903],[127.47858,37.903],[127.47858,37.90306],[127.4784,37.90302],[127.4784,37.90307],[127.47833,37.90307],[127.47824,37.90318],[127.47821,37.90332],[127.4781,37.90341],[127.47803,37.90341]]]}},{"type":"Feature","properties":{"valleyId":"baekdunri","layer":"shadow","date":"2026-08-01","timeLocal":"17:00"},"geometry":{"type":"Polygon","coordinates":[[[127.4797,37.90195],[127.4797,37.90188],[127.47974,37.90188],[127.47974,37.90184],[127.47984,37.90181],[127.47984,37.90167],[127.47995,37.90167],[127.48004,37.90174],[127.48004,37.90181],[127.4799,37.90188],[127.47977,37.9019],[127.47976,37.90195],[127.4797,37.90195]]]}},{"type":"Feature","properties":{"valleyId":"baekdunri","layer":"shadow","date":"2026-08-01","timeLocal":"17:00"},"geometry":{"type":"Polygon","coordinates":[[[127.48168,37.90165],[127.48168,37.9016],[127.48177,37.9016],[127.48177,37.90165],[127.48168,37.90165]]]}},{"type":"Feature","properties":{"valleyId":"baekdunri","layer":"shadow","date":"2026-08-01","timeLocal":"17:00"},"geometry":{"type":"Polygon","coordinates":[[[127.47984,37.90156],[127.47984,37.9015],[127.47991,37.9015],[127.47991,37.90156],[127.47984,37.90156]]]}},{"type":"Feature","properties":{"valleyId":"baekdunri","layer":"shadow","date":"2026-08-01","timeLocal":"17:00"},"geometry":{"type":"Polygon","coordinates":[[[127.47904,37.90175],[127.47882,37.90154],[127.47887,37.90136],[127.47896,37.90126],[127.47905,37.90126],[127.47905,37.90133],[127.47896,37.90138],[127.47898,37.90158],[127.47911,37.90169],[127.47911,37.90175],[127.47904,37.90175]]]}},{"type":"Feature","properties":{"valleyId":"baekdunri","layer":"shadow","date":"2026-08-01","timeLocal":"17:00"},"geometry":{"type":"Polygon","coordinates":[[[127.48144,37.90127],[127.48144,37.90122],[127.48151,37.90122],[127.48151,37.90127],[127.48144,37.90127]]]}},{"type":"Feature","properties":{"valleyId":"baekdunri","layer":"shadow","date":"2026-08-01","timeLocal":"17:00"},"geometry":{"type":"Polygon","coordinates":[[[127.48582,37.90174],[127.48582,37.90167],[127.48589,37.9016],[127.48589,37.90146],[127.48596,37.90144],[127.48594,37.90131],[127.48601,37.90129],[127.48603,37.90124],[127.4861,37.90124],[127.48605,37.90148],[127.48601,37.90149],[127.486,37.90165],[127.48593,37.90167],[127.48593,37.90174],[127.48582,37.90174]]]}},{"type":"Feature","properties":{"valleyId":"baekdunri","layer":"shadow","date":"2026-08-01","timeLocal":"17:00"},"geometry":{"type":"Polygon","coordinates":[[[127.48087,37.9011],[127.48088,37.90105],[127.48097,37.90105],[127.48096,37.9011],[127.48087,37.9011]]]}},{"type":"Feature","properties":{"valleyId":"baekdunri","layer":"shadow","date":"2026-08-01","timeLocal":"17:00"},"geometry":{"type":"Polygon","coordinates":[[[127.48064,37.90124],[127.48065,37.90099],[127.48056,37.90097],[127.48051,37.90094],[127.48051,37.90088],[127.48058,37.90088],[127.48065,37.90094],[127.48079,37.90094],[127.48078,37.90121],[127.48064,37.90124]]]}},{"type":"Feature","properties":{"valleyId":"baekdunri","layer":"shadow","date":"2026-08-01","timeLocal":"17:00"},"geometry":{"type":"Polygon","coordinates":[[[127.48597,37.90117],[127.48588,37.90111],[127.48579,37.90097],[127.48582,37.90081],[127.48588,37.90081],[127.48588,37.90084],[127.48595,37.90088],[127.48595,37.90095],[127.486,37.90095],[127.48599,37.90101],[127.48606,37.90106],[127.48606,37.90117],[127.48597,37.90117]]]}},{"type":"Feature","properties":{"valleyId":"baekdunri","layer":"shadow","date":"2026-08-01","timeLocal":"17:00"},"geometry":{"type":"Polygon","coordinates":[[[127.48127,37.90087],[127.48125,37.90073],[127.48129,37.90069],[127.48138,37.90069],[127.48136,37.90086],[127.48127,37.90087]]]}},{"type":"Feature","properties":{"valleyId":"baekdunri","layer":"shadow","date":"2026-08-01","timeLocal":"17:00"},"geometry":{"type":"Polygon","coordinates":[[[127.48407,37.90035],[127.48408,37.90028],[127.48414,37.90028],[127.48416,37.90035],[127.48407,37.90035]]]}},{"type":"Feature","properties":{"valleyId":"baekdunri","layer":"shadow","date":"2026-08-01","timeLocal":"17:00"},"geometry":{"type":"Polygon","coordinates":[[[127.50152,37.90048],[127.50154,37.90038],[127.50166,37.9004],[127.50166,37.90045],[127.50161,37.90048],[127.50152,37.90048]]]}},{"type":"Feature","properties":{"valleyId":"baekdunri","layer":"shadow","date":"2026-08-01","timeLocal":"17:00"},"geometry":{"type":"Polygon","coordinates":[[[127.50349,37.90065],[127.50343,37.90044],[127.50344,37.89986],[127.5034,37.89986],[127.5034,37.89975],[127.50353,37.89977],[127.50353,37.89995],[127.50367,37.90001],[127.50375,37.90021],[127.50375,37.90028],[127.50361,37.90035],[127.50361,37.9004],[127.50368,37.90044],[127.50365,37.90062],[127.50361,37.90065],[127.50349,37.90065]]]}},{"type":"Feature","properties":{"valleyId":"baekdunri","layer":"shadow","date":"2026-08-01","timeLocal":"17:00"},"geometry":{"type":"Polygon","coordinates":[[[127.5024,37.90084],[127.5024,37.90071],[127.50245,37.90071],[127.50256,37.90062],[127.5027,37.90061],[127.50268,37.90044],[127.50263,37.90041],[127.50245,37.90039],[127.50245,37.90032],[127.50266,37.90028],[127.50268,37.90023],[127.50282,37.90016],[127.50282,37.90007],[127.50269,37.89998],[127.50269,37.89992],[127.50281,37.89974],[127.50281,37.89956],[127.5029,37.89956],[127.50294,37.89969],[127.50301,37.89976],[127.50301,37.89994],[127.50305,37.9],[127.5031,37.9],[127.5031,37.90013],[127.50314,37.90014],[127.50318,37.90023],[127.50318,37.90029],[127.50314,37.90029],[127.50314,37.90034],[127.50309,37.90034],[127.50309,37.90041],[127.50329,37.90043],[127.50331,37.90063],[127.50322,37.90067],[127.50322,37.90074],[127.50317,37.90076],[127.5024,37.90084]]]}},{"type":"Feature","properties":{"valleyId":"baekdunri","layer":"shadow","date":"2026-08-01","timeLocal":"17:00"},"geometry":{"type":"Polygon","coordinates":[[[127.48323,37.89929],[127.48314,37.89918],[127.48314,37.89911],[127.48326,37.89911],[127.48332,37.89917],[127.48332,37.89928],[127.48323,37.89929]]]}},{"type":"Feature","properties":{"valleyId":"baekdunri","layer":"shadow","date":"2026-08-01","timeLocal":"17:00"},"geometry":{"type":"Polygon","coordinates":[[[127.49981,37.89934],[127.49981,37.89929],[127.49988,37.89929],[127.49988,37.89935],[127.49981,37.89934]]]}},{"type":"Feature","properties":{"valleyId":"baekdunri","layer":"shadow","date":"2026-08-01","timeLocal":"17:00"},"geometry":{"type":"Polygon","coordinates":[[[127.49076,37.89948],[127.49071,37.89937],[127.4907,37.89916],[127.49076,37.89916],[127.49078,37.89934],[127.49083,37.89941],[127.49082,37.89948],[127.49076,37.89948]]]}},{"type":"Feature","properties":{"valleyId":"baekdunri","layer":"shadow","date":"2026-08-01","timeLocal":"17:00"},"geometry":{"type":"Polygon","coordinates":[[[127.48308,37.89909],[127.48308,37.89904],[127.48315,37.89904],[127.48314,37.89909],[127.48308,37.89909]]]}},{"type":"Feature","properties":{"valleyId":"baekdunri","layer":"shadow","date":"2026-08-01","timeLocal":"17:00"},"geometry":{"type":"Polygon","coordinates":[[[127.50318,37.89933],[127.50318,37.89923],[127.5033,37.89923],[127.50329,37.8993],[127.50325,37.89933],[127.50318,37.89933]]]}},{"type":"Feature","properties":{"valleyId":"baekdunri","layer":"shadow","date":"2026-08-01","timeLocal":"17:00"},"geometry":{"type":"Polygon","coordinates":[[[127.48777,37.89995],[127.48777,37.89988],[127.48791,37.89961],[127.4881,37.89945],[127.48816,37.89943],[127.48815,37.89927],[127.48824,37.89921],[127.48837,37.89922],[127.48838,37.89913],[127.48847,37.89909],[127.48849,37.89902],[127.48856,37.89902],[127.48858,37.89907],[127.48865,37.89909],[127.48865,37.89918],[127.48851,37.89922],[127.4885,37.89949],[127.48823,37.8995],[127.48823,37.89954],[127.48807,37.89961],[127.48807,37.89964],[127.48802,37.89966],[127.48793,37.8999],[127.48784,37.89995],[127.48777,37.89995]]]}},{"type":"Feature","properties":{"valleyId":"baekdunri","layer":"shadow","date":"2026-08-01","timeLocal":"17:00"},"geometry":{"type":"Polygon","coordinates":[[[127.49979,37.89922],[127.49979,37.89916],[127.49986,37.89916],[127.49986,37.89922],[127.49979,37.89922]]]}},{"type":"Feature","properties":{"valleyId":"baekdunri","layer":"shadow","date":"2026-08-01","timeLocal":"17:00"},"geometry":{"type":"Polygon","coordinates":[[[127.50347,37.89955],[127.50345,37.89926],[127.50343,37.89921],[127.50361,37.89923],[127.50373,37.89929],[127.50372,37.89936],[127.50368,37.89939],[127.50354,37.89941],[127.50354,37.89946],[127.50365,37.89948],[127.50365,37.89954],[127.50347,37.89955]]]}},{"type":"Feature","properties":{"valleyId":"baekdunri","layer":"shadow","date":"2026-08-01","timeLocal":"17:00"},"geometry":{"type":"Polygon","coordinates":[[[127.49804,37.8992],[127.498,37.89918],[127.498,37.89912],[127.49813,37.89914],[127.49813,37.8992],[127.49804,37.8992]]]}},{"type":"Feature","properties":{"valleyId":"baekdunri","layer":"shadow","date":"2026-08-01","timeLocal":"17:00"},"geometry":{"type":"Polygon","coordinates":[[[127.49704,37.89906],[127.49702,37.89897],[127.49714,37.89899],[127.49713,37.89906],[127.49704,37.89906]]]}},{"type":"Feature","properties":{"valleyId":"baekdunri","layer":"shadow","date":"2026-08-01","timeLocal":"17:00"},"geometry":{"type":"Polygon","coordinates":[[[127.49641,37.8991],[127.49634,37.89907],[127.4963,37.89894],[127.49643,37.89896],[127.49654,37.89905],[127.49661,37.89905],[127.49661,37.89911],[127.49641,37.8991]]]}},{"type":"Feature","properties":{"valleyId":"baekdunri","layer":"shadow","date":"2026-08-01","timeLocal":"17:00"},"geometry":{"type":"Polygon","coordinates":[[[127.48886,37.89886],[127.48886,37.89879],[127.48897,37.89879],[127.48897,37.89885],[127.48886,37.89886]]]}},{"type":"Feature","properties":{"valleyId":"baekdunri","layer":"shadow","date":"2026-08-01","timeLocal":"17:00"},"geometry":{"type":"Polygon","coordinates":[[[127.50262,37.89895],[127.50262,37.89889],[127.50269,37.89889],[127.50269,37.89895],[127.50262,37.89895]]]}},{"type":"Feature","properties":{"valleyId":"baekdunri","layer":"shadow","date":"2026-08-01","timeLocal":"17:00"},"geometry":{"type":"Polygon","coordinates":[[[127.49398,37.89889],[127.49396,37.89878],[127.49405,37.89877],[127.49404,37.89889],[127.49398,37.89889]]]}},{"type":"Feature","properties":{"valleyId":"baekdunri","layer":"shadow","date":"2026-08-01","timeLocal":"17:00"},"geometry":{"type":"Polygon","coordinates":[[[127.48902,37.89877],[127.48902,37.89868],[127.48911,37.89868],[127.48911,37.89876],[127.48902,37.89877]]]}},{"type":"Feature","properties":{"valleyId":"baekdunri","layer":"shadow","date":"2026-08-01","timeLocal":"17:00"},"geometry":{"type":"Polygon","coordinates":[[[127.49602,37.8989],[127.49602,37.89883],[127.49607,37.89883],[127.49607,37.89879],[127.49614,37.89879],[127.49614,37.89876],[127.49621,37.89876],[127.49621,37.89881],[127.49614,37.89881],[127.49614,37.8989],[127.49602,37.8989]]]}},{"type":"Feature","properties":{"valleyId":"baekdunri","layer":"shadow","date":"2026-08-01","timeLocal":"17:00"},"geometry":{"type":"Polygon","coordinates":[[[127.48918,37.89852],[127.48919,37.89847],[127.48925,37.89847],[127.48925,37.89852],[127.48918,37.89852]]]}},{"type":"Feature","properties":{"valleyId":"baekdunri","layer":"shadow","date":"2026-08-01","timeLocal":"17:00"},"geometry":{"type":"Polygon","coordinates":[[[127.4893,37.89843],[127.48932,37.89833],[127.48939,37.89833],[127.48941,37.8984],[127.48937,37.89844],[127.4893,37.89843]]]}},{"type":"Feature","properties":{"valleyId":"baekdunri","layer":"shadow","date":"2026-08-01","timeLocal":"17:00"},"geometry":{"type":"Polygon","coordinates":[[[127.50069,37.89858],[127.50067,37.89847],[127.50074,37.89847],[127.50076,37.89858],[127.50069,37.89858]]]}},{"type":"Feature","properties":{"valleyId":"baekdunri","layer":"shadow","date":"2026-08-01","timeLocal":"17:00"},"geometry":{"type":"Polygon","coordinates":[[[127.49639,37.89881],[127.49639,37.89865],[127.49635,37.89862],[127.49631,37.8984],[127.4964,37.89842],[127.4964,37.89845],[127.49646,37.89849],[127.49651,37.89856],[127.49651,37.89865],[127.4966,37.89871],[127.49657,37.89878],[127.49639,37.89881]]]}},{"type":"Feature","properties":{"valleyId":"baekdunri","layer":"shadow","date":"2026-08-01","timeLocal":"17:00"},"geometry":{"type":"Polygon","coordinates":[[[127.49523,37.89851],[127.49517,37.89847],[127.49508,37.89833],[127.49508,37.89824],[127.49515,37.89824],[127.49521,37.89838],[127.49526,37.89839],[127.4953,37.89846],[127.49535,37.89846],[127.49535,37.89851],[127.49523,37.89851]]]}},{"type":"Feature","properties":{"valleyId":"baekdunri","layer":"shadow","date":"2026-08-01","timeLocal":"17:00"},"geometry":{"type":"Polygon","coordinates":[[[127.49139,37.89859],[127.49139,37.89841],[127.49144,37.89826],[127.49149,37.89826],[127.49149,37.89823],[127.49158,37.89818],[127.49169,37.89816],[127.49169,37.89821],[127.49165,37.89821],[127.49158,37.89827],[127.49158,37.8983],[127.49151,37.89832],[127.49146,37.89859],[127.49139,37.89859]]]}},{"type":"Feature","properties":{"valleyId":"baekdunri","layer":"shadow","date":"2026-08-01","timeLocal":"17:00"},"geometry":{"type":"Polygon","coordinates":[[[127.50006,37.89836],[127.50006,37.89825],[127.50013,37.89825],[127.50013,37.89836],[127.50006,37.89836]]]}},{"type":"Feature","properties":{"valleyId":"baekdunri","layer":"shadow","date":"2026-08-01","timeLocal":"17:00"},"geometry":{"type":"Polygon","coordinates":[[[127.49403,37.89842],[127.49408,37.89821],[127.49429,37.89816],[127.49429,37.89823],[127.49422,37.89828],[127.49421,37.89835],[127.49412,37.89839],[127.49412,37.89842],[127.49403,37.89842]]]}},{"type":"Feature","properties":{"valleyId":"baekdunri","layer":"shadow","date":"2026-08-01","timeLocal":"17:00"},"geometry":{"type":"Polygon","coordinates":[[[127.50033,37.89831],[127.50034,37.89822],[127.5004,37.89822],[127.5004,37.89831],[127.50033,37.89831]]]}},{"type":"Feature","properties":{"valleyId":"baekdunri","layer":"shadow","date":"2026-08-01","timeLocal":"17:00"},"geometry":{"type":"Polygon","coordinates":[[[127.49647,37.89822],[127.49647,37.89811],[127.49654,37.89811],[127.49654,37.89822],[127.49647,37.89822]]]}},{"type":"Feature","properties":{"valleyId":"baekdunri","layer":"shadow","date":"2026-08-01","timeLocal":"17:00"},"geometry":{"type":"Polygon","coordinates":[[[127.49337,37.89865],[127.49328,37.89849],[127.49328,37.89832],[127.49319,37.89821],[127.49317,37.89807],[127.49336,37.89807],[127.49338,37.89818],[127.49347,37.89824],[127.49346,37.89842],[127.49342,37.89843],[127.49342,37.89851],[127.49346,37.89851],[127.49346,37.8986],[127.49343,37.89865],[127.49337,37.89865]]]}},{"type":"Feature","properties":{"valleyId":"baekdunri","layer":"shadow","date":"2026-08-01","timeLocal":"17:00"},"geometry":{"type":"Polygon","coordinates":[[[127.49431,37.89816],[127.49431,37.89808],[127.4944,37.89807],[127.4944,37.89814],[127.49431,37.89816]]]}},{"type":"Feature","properties":{"valleyId":"baekdunri","layer":"shadow","date":"2026-08-01","timeLocal":"17:00"},"geometry":{"type":"Polygon","coordinates":[[[127.49169,37.89816],[127.4917,37.89802],[127.49188,37.89802],[127.49183,37.89812],[127.49169,37.89816]]]}},{"type":"Feature","properties":{"valleyId":"baekdunri","layer":"shadow","date":"2026-08-01","timeLocal":"17:00"},"geometry":{"type":"Polygon","coordinates":[[[127.49199,37.89804],[127.49199,37.89795],[127.49218,37.89797],[127.49217,37.89802],[127.49199,37.89804]]]}},{"type":"Feature","properties":{"valleyId":"baekdunri","layer":"shadow","date":"2026-08-01","timeLocal":"17:00"},"geometry":{"type":"Polygon","coordinates":[[[127.5007,37.89826],[127.50068,37.89813],[127.50061,37.89811],[127.50061,37.89806],[127.50068,37.89806],[127.5007,37.89813],[127.50077,37.89815],[127.50077,37.89826],[127.5007,37.89826]]]}},{"type":"Feature","properties":{"valleyId":"baekdunri","layer":"shadow","date":"2026-08-01","timeLocal":"17:00"},"geometry":{"type":"Polygon","coordinates":[[[127.49354,37.89802],[127.49354,37.89797],[127.49365,37.89795],[127.49365,37.898],[127.49354,37.89802]]]}},{"type":"Feature","properties":{"valleyId":"baekdunri","layer":"shadow","date":"2026-08-01","timeLocal":"17:00"},"geometry":{"type":"Polygon","coordinates":[[[127.50011,37.89816],[127.50007,37.8981],[127.50007,37.89803],[127.50013,37.89803],[127.50018,37.89811],[127.50018,37.89816],[127.50011,37.89816]]]}},{"type":"Feature","properties":{"valleyId":"baekdunri","layer":"shadow","date":"2026-08-01","timeLocal":"17:00"},"geometry":{"type":"Polygon","coordinates":[[[127.48863,37.89886],[127.48863,37.8988],[127.48859,37.89877],[127.48861,37.89868],[127.48877,37.89855],[127.48878,37.89846],[127.48884,37.89843],[127.48885,37.89839],[127.48896,37.89839],[127.48903,37.89834],[127.48905,37.8982],[127.48912,37.89816],[127.48912,37.89811],[127.48903,37.89807],[127.48897,37.89796],[127.48892,37.89794],[127.48892,37.89789],[127.48899,37.89789],[127.48926,37.89802],[127.48926,37.89807],[127.48931,37.89807],[127.4893,37.89824],[127.48926,37.89825],[127.48923,37.89833],[127.48914,37.89836],[127.48912,37.89843],[127.48905,37.89847],[127.48898,37.89859],[127.48884,37.89866],[127.48881,37.89877],[127.48872,37.89877],[127.4887,37.89886],[127.48863,37.89886]]]}},{"type":"Feature","properties":{"valleyId":"baekdunri","layer":"shadow","date":"2026-08-01","timeLocal":"17:00"},"geometry":{"type":"Polygon","coordinates":[[[127.49158,37.89792],[127.49159,37.89787],[127.49165,37.89787],[127.49165,37.89792],[127.49158,37.89792]]]}},{"type":"Feature","properties":{"valleyId":"baekdunri","layer":"shadow","date":"2026-08-01","timeLocal":"17:00"},"geometry":{"type":"Polygon","coordinates":[[[127.49215,37.89789],[127.49215,37.89784],[127.49222,37.89784],[127.49222,37.8979],[127.49215,37.89789]]]}},{"type":"Feature","properties":{"valleyId":"baekdunri","layer":"shadow","date":"2026-08-01","timeLocal":"17:00"},"geometry":{"type":"Polygon","coordinates":[[[127.5035,37.8982],[127.5035,37.89815],[127.50345,37.89813],[127.50343,37.89798],[127.5035,37.89799],[127.5035,37.89802],[127.50355,37.89802],[127.50357,37.8982],[127.5035,37.8982]]]}},{"type":"Feature","properties":{"valleyId":"baekdunri","layer":"shadow","date":"2026-08-01","timeLocal":"17:00"},"geometry":{"type":"Polygon","coordinates":[[[127.49172,37.89785],[127.49175,37.89775],[127.49188,37.89777],[127.49188,37.89782],[127.49172,37.89785]]]}},{"type":"Feature","properties":{"valleyId":"baekdunri","layer":"shadow","date":"2026-08-01","timeLocal":"17:00"},"geometry":{"type":"Polygon","coordinates":[[[127.49124,37.89787],[127.49125,37.89772],[127.49132,37.89772],[127.49131,37.89787],[127.49124,37.89787]]]}},{"type":"Feature","properties":{"valleyId":"baekdunri","layer":"shadow","date":"2026-08-01","timeLocal":"17:00"},"geometry":{"type":"Polygon","coordinates":[[[127.50186,37.89809],[127.50187,37.89795],[127.50193,37.89789],[127.502,37.89789],[127.5021,37.89781],[127.50237,37.89777],[127.50237,37.89783],[127.50202,37.89795],[127.50195,37.89809],[127.50186,37.89809]]]}},{"type":"Feature","properties":{"valleyId":"baekdunri","layer":"shadow","date":"2026-08-01","timeLocal":"17:00"},"geometry":{"type":"Polygon","coordinates":[[[127.49962,37.89783],[127.49962,37.89774],[127.49969,37.89774],[127.49971,37.89783],[127.49962,37.89783]]]}},{"type":"Feature","properties":{"valleyId":"baekdunri","layer":"shadow","date":"2026-08-01","timeLocal":"17:00"},"geometry":{"type":"Polygon","coordinates":[[[127.49202,37.89784],[127.49197,37.89782],[127.49197,37.89777],[127.49202,37.89777],[127.49198,37.89764],[127.49207,37.89764],[127.49207,37.89768],[127.49214,37.8977],[127.49213,37.89784],[127.49202,37.89784]]]}},{"type":"Feature","properties":{"valleyId":"baekdunri","layer":"shadow","date":"2026-08-01","timeLocal":"17:00"},"geometry":{"type":"Polygon","coordinates":[[[127.49416,37.89787],[127.49414,37.89778],[127.49405,37.89768],[127.49396,37.89767],[127.49393,37.89758],[127.494,37.89758],[127.49407,37.89763],[127.49412,37.89763],[127.49414,37.8977],[127.49429,37.8978],[127.49429,37.89785],[127.49416,37.89787]]]}},{"type":"Feature","properties":{"valleyId":"baekdunri","layer":"shadow","date":"2026-08-01","timeLocal":"17:00"},"geometry":{"type":"Polygon","coordinates":[[[127.49523,37.89765],[127.49523,37.89759],[127.4953,37.89759],[127.4953,37.89765],[127.49523,37.89765]]]}},{"type":"Feature","properties":{"valleyId":"baekdunri","layer":"shadow","date":"2026-08-01","timeLocal":"17:00"},"geometry":{"type":"Polygon","coordinates":[[[127.4913,37.89761],[127.4913,37.89743],[127.49139,37.89742],[127.49139,37.8976],[127.4913,37.89761]]]}},{"type":"Feature","properties":{"valleyId":"baekdunri","layer":"shadow","date":"2026-08-01","timeLocal":"17:00"},"geometry":{"type":"Polygon","coordinates":[[[127.48952,37.89743],[127.48953,37.89737],[127.48959,37.89738],[127.48959,37.89743],[127.48952,37.89743]]]}},{"type":"Feature","properties":{"valleyId":"baekdunri","layer":"shadow","date":"2026-08-01","timeLocal":"17:00"},"geometry":{"type":"Polygon","coordinates":[[[127.48919,37.89733],[127.48919,37.89728],[127.48925,37.89728],[127.48925,37.89733],[127.48919,37.89733]]]}},{"type":"Feature","properties":{"valleyId":"baekdunri","layer":"shadow","date":"2026-08-01","timeLocal":"17:00"},"geometry":{"type":"Polygon","coordinates":[[[127.49969,37.89765],[127.49967,37.89734],[127.49976,37.89733],[127.49976,37.89742],[127.49985,37.89749],[127.49985,37.89761],[127.49969,37.89765]]]}},{"type":"Feature","properties":{"valleyId":"baekdunri","layer":"shadow","date":"2026-08-01","timeLocal":"17:00"},"geometry":{"type":"Polygon","coordinates":[[[127.49933,37.8975],[127.49931,37.8973],[127.49938,37.8973],[127.49942,37.8975],[127.49933,37.8975]]]}},{"type":"Feature","properties":{"valleyId":"baekdunri","layer":"shadow","date":"2026-08-01","timeLocal":"17:00"},"geometry":{"type":"Polygon","coordinates":[[[127.48791,37.89719],[127.48792,37.89712],[127.48801,37.89712],[127.48801,37.89719],[127.48791,37.89719]]]}},{"type":"Feature","properties":{"valleyId":"baekdunri","layer":"shadow","date":"2026-08-01","timeLocal":"17:00"},"geometry":{"type":"Polygon","coordinates":[[[127.48792,37.89786],[127.48768,37.89778],[127.48763,37.89769],[127.48756,37.89766],[127.48748,37.89753],[127.48746,37.8974],[127.48753,37.89731],[127.48753,37.8971],[127.48769,37.89712],[127.48769,37.89715],[127.48773,37.89715],[127.48776,37.89721],[127.4878,37.89721],[127.4878,37.89732],[127.48787,37.89732],[127.48786,37.89741],[127.48802,37.89748],[127.48802,37.89757],[127.4882,37.89759],[127.4882,37.8977],[127.48834,37.89772],[127.48838,37.89776],[127.48838,37.89783],[127.48792,37.89786]]]}},{"type":"Feature","properties":{"valleyId":"baekdunri","layer":"shadow","date":"2026-08-01","timeLocal":"17:00"},"geometry":{"type":"Polygon","coordinates":[[[127.49244,37.89721],[127.49244,37.89716],[127.49251,37.89716],[127.49251,37.89721],[127.49244,37.89721]]]}},{"type":"Feature","properties":{"valleyId":"baekdunri","layer":"shadow","date":"2026-08-01","timeLocal":"17:00"},"geometry":{"type":"Polygon","coordinates":[[[127.49003,37.89731],[127.49003,37.89725],[127.4901,37.89718],[127.4901,37.89711],[127.49024,37.89713],[127.49026,37.8972],[127.49021,37.8972],[127.49014,37.89729],[127.49003,37.89731]]]}},{"type":"Feature","properties":{"valleyId":"baekdunri","layer":"shadow","date":"2026-08-01","timeLocal":"17:00"},"geometry":{"type":"Polygon","coordinates":[[[127.49112,37.89723],[127.4911,37.89703],[127.49117,37.89703],[127.49119,37.89723],[127.49112,37.89723]]]}},{"type":"Feature","properties":{"valleyId":"baekdunri","layer":"shadow","date":"2026-08-01","timeLocal":"17:00"},"geometry":{"type":"Polygon","coordinates":[[[127.4941,37.89718],[127.49406,37.89707],[127.49422,37.89711],[127.49422,37.89718],[127.4941,37.89718]]]}},{"type":"Feature","properties":{"valleyId":"baekdunri","layer":"shadow","date":"2026-08-01","timeLocal":"17:00"},"geometry":{"type":"Polygon","coordinates":[[[127.49367,37.89705],[127.49367,37.89698],[127.49379,37.89698],[127.49379,37.89703],[127.49367,37.89705]]]}},{"type":"Feature","properties":{"valleyId":"baekdunri","layer":"shadow","date":"2026-08-01","timeLocal":"17:00"},"geometry":{"type":"Polygon","coordinates":[[[127.49029,37.89693],[127.49029,37.89688],[127.49035,37.89688],[127.49035,37.89693],[127.49029,37.89693]]]}},{"type":"Feature","properties":{"valleyId":"baekdunri","layer":"shadow","date":"2026-08-01","timeLocal":"17:00"},"geometry":{"type":"Polygon","coordinates":[[[127.50439,37.89704],[127.50441,37.89684],[127.50444,37.89681],[127.5045,37.89681],[127.5045,37.89688],[127.50455,37.89688],[127.50455,37.89694],[127.50445,37.89701],[127.50445,37.89704],[127.50439,37.89704]]]}},{"type":"Feature","properties":{"valleyId":"baekdunri","layer":"shadow","date":"2026-08-01","timeLocal":"17:00"},"geometry":{"type":"Polygon","coordinates":[[[127.49088,37.89667],[127.49088,37.8966],[127.49095,37.8966],[127.49095,37.89667],[127.49088,37.89667]]]}},{"type":"Feature","properties":{"valleyId":"baekdunri","layer":"shadow","date":"2026-08-01","timeLocal":"17:00"},"geometry":{"type":"Polygon","coordinates":[[[127.4912,37.89662],[127.49123,37.89651],[127.49134,37.8965],[127.49134,37.89657],[127.49127,37.89662],[127.4912,37.89662]]]}},{"type":"Feature","properties":{"valleyId":"baekdunri","layer":"shadow","date":"2026-08-01","timeLocal":"17:00"},"geometry":{"type":"Polygon","coordinates":[[[127.48916,37.89645],[127.48916,37.89638],[127.48921,37.89632],[127.48932,37.89634],[127.48932,37.8964],[127.48925,37.89645],[127.48916,37.89645]]]}},{"type":"Feature","properties":{"valleyId":"baekdunri","layer":"shadow","date":"2026-08-01","timeLocal":"17:00"},"geometry":{"type":"Polygon","coordinates":[[[127.49071,37.89636],[127.49073,37.89629],[127.49084,37.89629],[127.49084,37.89635],[127.49071,37.89636]]]}},{"type":"Feature","properties":{"valleyId":"baekdunri","layer":"shadow","date":"2026-08-01","timeLocal":"17:00"},"geometry":{"type":"Polygon","coordinates":[[[127.49162,37.89637],[127.49162,37.89623],[127.49173,37.89625],[127.49173,37.89634],[127.49168,37.89637],[127.49162,37.89637]]]}},{"type":"Feature","properties":{"valleyId":"baekdunri","layer":"shadow","date":"2026-08-01","timeLocal":"17:00"},"geometry":{"type":"Polygon","coordinates":[[[127.5026,37.89774],[127.50265,37.89742],[127.50274,37.89738],[127.50283,37.89729],[127.50288,37.89729],[127.50295,37.8972],[127.50313,37.89717],[127.5032,37.89708],[127.50329,37.89708],[127.50332,37.89703],[127.50339,37.89703],[127.50339,37.89688],[127.50346,37.89678],[127.50346,37.89663],[127.50351,37.89654],[127.5036,37.89645],[127.50367,37.89644],[127.50372,37.89637],[127.50383,37.89637],[127.50383,37.89649],[127.50376,37.89653],[127.50376,37.8966],[127.50371,37.89662],[127.50373,37.89678],[127.50369,37.8968],[127.50364,37.89689],[127.50357,37.8969],[127.50357,37.89698],[127.50348,37.89705],[127.50341,37.89705],[127.50338,37.89714],[127.50322,37.89717],[127.50322,37.89721],[127.50313,37.89726],[127.50311,37.89733],[127.50297,37.89737],[127.50294,37.89744],[127.50283,37.89751],[127.50273,37.89771],[127.5026,37.89774]]]}},{"type":"Feature","properties":{"valleyId":"baekdunri","layer":"shadow","date":"2026-08-01","timeLocal":"17:00"},"geometry":{"type":"Polygon","coordinates":[[[127.48948,37.89719],[127.48949,37.89714],[127.48958,37.89705],[127.48958,37.89698],[127.48954,37.89692],[127.48954,37.89687],[127.48958,37.89685],[127.48957,37.89653],[127.48961,37.89649],[127.48966,37.89637],[127.48971,37.89635],[127.48975,37.89622],[127.48985,37.89617],[127.48985,37.89613],[127.49005,37.89608],[127.49005,37.89617],[127.49019,37.89625],[127.49018,37.8963],[127.49009,37.89635],[127.49009,37.8965],[127.49013,37.89655],[127.49025,37.89655],[127.49036,37.89641],[127.49064,37.89638],[127.49064,37.89645],[127.49057,37.8965],[127.49036,37.89656],[127.49034,37.89666],[127.49027,37.89668],[127.49027,37.89681],[127.49013,37.89681],[127.49011,37.89684],[127.48992,37.89684],[127.48976,37.89687],[127.48974,37.89694],[127.48983,37.89695],[127.48985,37.89704],[127.48981,37.89704],[127.48981,37.89707],[127.48976,37.89707],[127.48976,37.89711],[127.48967,37.89716],[127.48948,37.89719]]]}},{"type":"Feature","properties":{"valleyId":"baekdunri","layer":"shadow","date":"2026-08-01","timeLocal":"17:00"},"geometry":{"type":"Polygon","coordinates":[[[127.49328,37.89634],[127.49328,37.89625],[127.49335,37.89614],[127.49344,37.89613],[127.49344,37.8962],[127.49339,37.89623],[127.49337,37.89632],[127.49328,37.89634]]]}},{"type":"Feature","properties":{"valleyId":"baekdunri","layer":"shadow","date":"2026-08-01","timeLocal":"17:00"},"geometry":{"type":"Polygon","coordinates":[[[127.49132,37.89619],[127.49135,37.8961],[127.49155,37.89608],[127.49153,37.89616],[127.49132,37.89619]]]}},{"type":"Feature","properties":{"valleyId":"baekdunri","layer":"shadow","date":"2026-08-01","timeLocal":"17:00"},"geometry":{"type":"Polygon","coordinates":[[[127.49294,37.89616],[127.49294,37.89607],[127.49308,37.89607],[127.49308,37.89616],[127.49294,37.89616]]]}},{"type":"Feature","properties":{"valleyId":"baekdunri","layer":"shadow","date":"2026-08-01","timeLocal":"17:00"},"geometry":{"type":"Polygon","coordinates":[[[127.50467,37.89625],[127.50468,37.89611],[127.50486,37.89613],[127.50486,37.8962],[127.50474,37.89622],[127.50474,37.89625],[127.50467,37.89625]]]}},{"type":"Feature","properties":{"valleyId":"baekdunri","layer":"shadow","date":"2026-08-01","timeLocal":"17:00"},"geometry":{"type":"Polygon","coordinates":[[[127.49302,37.8958],[127.49302,37.89574],[127.49311,37.89574],[127.49311,37.8958],[127.49302,37.8958]]]}},{"type":"Feature","properties":{"valleyId":"baekdunri","layer":"shadow","date":"2026-08-01","timeLocal":"17:00"},"geometry":{"type":"Polygon","coordinates":[[[127.5039,37.8963],[127.50393,37.89603],[127.50402,37.89594],[127.50402,37.89585],[127.50423,37.89587],[127.50423,37.89592],[127.50413,37.89596],[127.50406,37.89606],[127.50404,37.89626],[127.5039,37.8963]]]}},{"type":"Feature","properties":{"valleyId":"baekdunri","layer":"shadow","date":"2026-08-01","timeLocal":"17:00"},"geometry":{"type":"Polygon","coordinates":[[[127.4901,37.89608],[127.4901,37.89603],[127.49028,37.896],[127.49037,37.89593],[127.49038,37.89575],[127.49031,37.89569],[127.49031,37.89558],[127.49061,37.89548],[127.49077,37.8955],[127.49081,37.89553],[127.49081,37.89564],[127.49068,37.89566],[127.49067,37.89575],[127.49072,37.8958],[127.49069,37.89591],[127.49053,37.89595],[127.49033,37.89607],[127.4901,37.89608]]]}}]}
