{"type":"FeatureCollection","metadata":{"description":"개방지(CHM ≤ 2 m)에 드리운 나무·지형 그림자, 2026-08-01 18:00 KST. canopy 위에 겹쳐 그린다","source":"위성 기반 추정 — Copernicus GLO-30 지형(30 m) + Meta/WRI 수관 높이(1 m CHM, 2015~2016 촬영). 그늘 = 수관(CHM > 2 m) ∪ 나무·지형 그림자 ∪ 원거리 지형 마스크. 현장과 다를 수 있음.","datasetVersion":"2026-09-06.0","collectedAt":"2026-09-06","coordinateOrder":"[longitude, latitude]","crs":"EPSG:4326","representativeDate":"2026-08-01","hours":["10:00","11:00","12:00","13:00","14:00","15:00","16:00","17:00","18:00"],"chmAcquisition":["2015-07","2016-06"],"assets":{"glo30":{"dataset":"Copernicus DEM GLO-30 (COG, s3://copernicus-dem-30m)","tiles":["Copernicus_DSM_COG_10_N37_00_E127_00_DEM"]},"chm":{"dataset":"Meta/WRI Global Canopy Height Map v1 (alsgedi_global_v6_float, 1 m, CC-BY 4.0)","quadkeys":["132110303"],"acquisition":["2015-07","2016-06"]}},"method":{"gridResM":2,"canopyThresholdM":2,"bufferHalfM":25,"corridorHalfM":200,"simplifyTolM":2,"minAreaM2":25,"coordDecimals":5},"generator":"scripts/shade 0.1.0","builtAt":"2026-09-06T05:58:56Z","layer":"shadow","timeLocal":"18:00"},"features":[{"type":"Feature","properties":{"valleyId":"baekdunri","layer":"shadow","date":"2026-08-01","timeLocal":"18:00"},"geometry":{"type":"Polygon","coordinates":[[[127.47673,37.9059],[127.47673,37.90583],[127.47668,37.90582],[127.47664,37.90572],[127.47671,37.90572],[127.47671,37.90577],[127.47675,37.90577],[127.47675,37.90583],[127.4768,37.90583],[127.47679,37.9059],[127.47673,37.9059]]]}},{"type":"Feature","properties":{"valleyId":"baekdunri","layer":"shadow","date":"2026-08-01","timeLocal":"18:00"},"geometry":{"type":"Polygon","coordinates":[[[127.47668,37.9057],[127.47669,37.90559],[127.47676,37.90559],[127.47675,37.9057],[127.47668,37.9057]]]}},{"type":"Feature","properties":{"valleyId":"baekdunri","layer":"shadow","date":"2026-08-01","timeLocal":"18:00"},"geometry":{"type":"Polygon","coordinates":[[[127.47716,37.90569],[127.47712,37.90565],[127.47712,37.9056],[127.47723,37.90562],[127.47723,37.90569],[127.47716,37.90569]]]}},{"type":"Feature","properties":{"valleyId":"baekdunri","layer":"shadow","date":"2026-08-01","timeLocal":"18:00"},"geometry":{"type":"Polygon","coordinates":[[[127.47689,37.90547],[127.4769,37.90541],[127.47696,37.90541],[127.47696,37.90547],[127.47689,37.90547]]]}},{"type":"Feature","properties":{"valleyId":"baekdunri","layer":"shadow","date":"2026-08-01","timeLocal":"18:00"},"geometry":{"type":"Polygon","coordinates":[[[127.47512,37.90555],[127.4751,37.90539],[127.47501,37.90532],[127.47496,37.90532],[127.47496,37.90526],[127.47508,37.90526],[127.47517,37.90532],[127.4753,37.90532],[127.4753,37.90554],[127.47512,37.90555]]]}},{"type":"Feature","properties":{"valleyId":"baekdunri","layer":"shadow","date":"2026-08-01","timeLocal":"18:00"},"geometry":{"type":"Polygon","coordinates":[[[127.47867,37.9054],[127.47867,37.90531],[127.47876,37.90529],[127.47878,37.9054],[127.47867,37.9054]]]}},{"type":"Feature","properties":{"valleyId":"baekdunri","layer":"shadow","date":"2026-08-01","timeLocal":"18:00"},"geometry":{"type":"Polygon","coordinates":[[[127.47531,37.90528],[127.47531,37.90521],[127.4754,37.90521],[127.4754,37.90527],[127.47531,37.90528]]]}},{"type":"Feature","properties":{"valleyId":"baekdunri","layer":"shadow","date":"2026-08-01","timeLocal":"18:00"},"geometry":{"type":"Polygon","coordinates":[[[127.47649,37.90503],[127.47647,37.90494],[127.47654,37.90494],[127.47656,37.90503],[127.47649,37.90503]]]}},{"type":"Feature","properties":{"valleyId":"baekdunri","layer":"shadow","date":"2026-08-01","timeLocal":"18:00"},"geometry":{"type":"Polygon","coordinates":[[[127.47545,37.90484],[127.47545,37.90476],[127.47552,37.90476],[127.47552,37.90484],[127.47545,37.90484]]]}},{"type":"Feature","properties":{"valleyId":"baekdunri","layer":"shadow","date":"2026-08-01","timeLocal":"18:00"},"geometry":{"type":"Polygon","coordinates":[[[127.4755,37.90457],[127.4755,37.90449],[127.47557,37.90449],[127.47559,37.90457],[127.4755,37.90457]]]}},{"type":"Feature","properties":{"valleyId":"baekdunri","layer":"shadow","date":"2026-08-01","timeLocal":"18:00"},"geometry":{"type":"Polygon","coordinates":[[[127.47828,37.90449],[127.4783,37.9044],[127.47837,37.9044],[127.47837,37.90449],[127.47828,37.90449]]]}},{"type":"Feature","properties":{"valleyId":"baekdunri","layer":"shadow","date":"2026-08-01","timeLocal":"18:00"},"geometry":{"type":"Polygon","coordinates":[[[127.47667,37.90444],[127.47667,37.90438],[127.47678,37.90437],[127.47678,37.90444],[127.47667,37.90444]]]}},{"type":"Feature","properties":{"valleyId":"baekdunri","layer":"shadow","date":"2026-08-01","timeLocal":"18:00"},"geometry":{"type":"Polygon","coordinates":[[[127.47487,37.90454],[127.47485,37.90443],[127.47473,37.90443],[127.47466,37.90439],[127.47444,37.90441],[127.47441,37.90437],[127.47426,37.90437],[127.47425,37.90441],[127.47419,37.9044],[127.47416,37.90437],[127.47412,37.90437],[127.47412,37.9043],[127.47439,37.9043],[127.47444,37.90434],[127.47471,37.90432],[127.47471,37.90436],[127.47501,37.90436],[127.47514,37.90438],[127.47519,37.90442],[127.47519,37.90447],[127.47509,37.90447],[127.47509,37.90451],[127.47496,37.9045],[127.47496,37.90454],[127.47487,37.90454]]]}},{"type":"Feature","properties":{"valleyId":"baekdunri","layer":"shadow","date":"2026-08-01","timeLocal":"18:00"},"geometry":{"type":"Polygon","coordinates":[[[127.4768,37.90437],[127.4768,37.90429],[127.4769,37.9043],[127.47689,37.90437],[127.4768,37.90437]]]}},{"type":"Feature","properties":{"valleyId":"baekdunri","layer":"shadow","date":"2026-08-01","timeLocal":"18:00"},"geometry":{"type":"Polygon","coordinates":[[[127.48003,37.90432],[127.48004,37.90428],[127.47999,37.90428],[127.47999,37.90419],[127.48006,37.90412],[127.48013,37.90412],[127.48013,37.90417],[127.48008,37.90419],[127.4801,37.90432],[127.48003,37.90432]]]}},{"type":"Feature","properties":{"valleyId":"baekdunri","layer":"shadow","date":"2026-08-01","timeLocal":"18:00"},"geometry":{"type":"Polygon","coordinates":[[[127.47904,37.90394],[127.47904,37.90387],[127.47911,37.90387],[127.47911,37.90395],[127.47904,37.90394]]]}},{"type":"Feature","properties":{"valleyId":"baekdunri","layer":"shadow","date":"2026-08-01","timeLocal":"18:00"},"geometry":{"type":"Polygon","coordinates":[[[127.4777,37.90402],[127.47777,37.9038],[127.47795,37.9038],[127.47795,37.90384],[127.47802,37.90384],[127.47802,37.9039],[127.47797,37.90393],[127.4779,37.90393],[127.47788,37.90397],[127.47781,37.90396],[127.47777,37.90402],[127.4777,37.90402]]]}},{"type":"Feature","properties":{"valleyId":"baekdunri","layer":"shadow","date":"2026-08-01","timeLocal":"18:00"},"geometry":{"type":"Polygon","coordinates":[[[127.47581,37.90403],[127.47581,37.90399],[127.47576,37.90399],[127.47577,37.90392],[127.47581,37.9039],[127.47591,37.90372],[127.47597,37.90372],[127.47597,37.9038],[127.47602,37.9038],[127.47602,37.90385],[127.47593,37.90387],[127.47593,37.9039],[127.47588,37.90392],[127.47588,37.90403],[127.47581,37.90403]]]}},{"type":"Feature","properties":{"valleyId":"baekdunri","layer":"shadow","date":"2026-08-01","timeLocal":"18:00"},"geometry":{"type":"Polygon","coordinates":[[[127.47611,37.90373],[127.47614,37.90365],[127.47623,37.90366],[127.4762,37.90373],[127.47611,37.90373]]]}},{"type":"Feature","properties":{"valleyId":"baekdunri","layer":"shadow","date":"2026-08-01","timeLocal":"18:00"},"geometry":{"type":"Polygon","coordinates":[[[127.48007,37.9038],[127.48005,37.90365],[127.48014,37.90363],[127.48014,37.90371],[127.48016,37.90374],[127.48021,37.90374],[127.4802,37.9038],[127.48007,37.9038]]]}},{"type":"Feature","properties":{"valleyId":"baekdunri","layer":"shadow","date":"2026-08-01","timeLocal":"18:00"},"geometry":{"type":"Polygon","coordinates":[[[127.48021,37.90356],[127.48021,37.90345],[127.48028,37.90346],[127.48028,37.90356],[127.48021,37.90356]]]}},{"type":"Feature","properties":{"valleyId":"baekdunri","layer":"shadow","date":"2026-08-01","timeLocal":"18:00"},"geometry":{"type":"Polygon","coordinates":[[[127.47962,37.90345],[127.47958,37.90337],[127.47958,37.90332],[127.47965,37.90332],[127.47964,37.90336],[127.47969,37.90338],[127.47969,37.90345],[127.47962,37.90345]]]}},{"type":"Feature","properties":{"valleyId":"baekdunri","layer":"shadow","date":"2026-08-01","timeLocal":"18:00"},"geometry":{"type":"Polygon","coordinates":[[[127.48063,37.90323],[127.48065,37.90314],[127.48072,37.90314],[127.48069,37.90323],[127.48063,37.90323]]]}},{"type":"Feature","properties":{"valleyId":"baekdunri","layer":"shadow","date":"2026-08-01","timeLocal":"18:00"},"geometry":{"type":"Polygon","coordinates":[[[127.47947,37.90325],[127.47945,37.90308],[127.4794,37.90308],[127.4794,37.90305],[127.47933,37.90301],[127.47936,37.90292],[127.47943,37.90292],[127.47947,37.90308],[127.47951,37.90309],[127.47954,37.90312],[127.47953,37.90325],[127.47947,37.90325]]]}},{"type":"Feature","properties":{"valleyId":"baekdunri","layer":"shadow","date":"2026-08-01","timeLocal":"18:00"},"geometry":{"type":"Polygon","coordinates":[[[127.47945,37.90285],[127.47945,37.90278],[127.47952,37.90278],[127.47952,37.90285],[127.47945,37.90285]]]}},{"type":"Feature","properties":{"valleyId":"baekdunri","layer":"shadow","date":"2026-08-01","timeLocal":"18:00"},"geometry":{"type":"Polygon","coordinates":[[[127.48218,37.9028],[127.48218,37.90274],[127.48225,37.90274],[127.48225,37.9028],[127.48218,37.9028]]]}},{"type":"Feature","properties":{"valleyId":"baekdunri","layer":"shadow","date":"2026-08-01","timeLocal":"18:00"},"geometry":{"type":"Polygon","coordinates":[[[127.48187,37.90268],[127.48187,37.90263],[127.48193,37.90263],[127.48193,37.90268],[127.48187,37.90268]]]}},{"type":"Feature","properties":{"valleyId":"baekdunri","layer":"shadow","date":"2026-08-01","timeLocal":"18:00"},"geometry":{"type":"Polygon","coordinates":[[[127.48045,37.90268],[127.48048,37.90259],[127.48059,37.90259],[127.48057,37.90268],[127.48045,37.90268]]]}},{"type":"Feature","properties":{"valleyId":"baekdunri","layer":"shadow","date":"2026-08-01","timeLocal":"18:00"},"geometry":{"type":"Polygon","coordinates":[[[127.47954,37.90273],[127.47955,37.90258],[127.47959,37.90253],[127.47966,37.90253],[127.47964,37.90269],[127.47961,37.90273],[127.47954,37.90273]]]}},{"type":"Feature","properties":{"valleyId":"baekdunri","layer":"shadow","date":"2026-08-01","timeLocal":"18:00"},"geometry":{"type":"Polygon","coordinates":[[[127.47982,37.90257],[127.4798,37.90246],[127.47989,37.90246],[127.47989,37.90257],[127.47982,37.90257]]]}},{"type":"Feature","properties":{"valleyId":"baekdunri","layer":"shadow","date":"2026-08-01","timeLocal":"18:00"},"geometry":{"type":"Polygon","coordinates":[[[127.48089,37.90254],[127.48089,37.90247],[127.48098,37.90247],[127.48098,37.90253],[127.48089,37.90254]]]}},{"type":"Feature","properties":{"valleyId":"baekdunri","layer":"shadow","date":"2026-08-01","timeLocal":"18:00"},"geometry":{"type":"Polygon","coordinates":[[[127.4821,37.90254],[127.4821,37.90242],[127.48217,37.90242],[127.48216,37.90254],[127.4821,37.90254]]]}},{"type":"Feature","properties":{"valleyId":"baekdunri","layer":"shadow","date":"2026-08-01","timeLocal":"18:00"},"geometry":{"type":"Polygon","coordinates":[[[127.48287,37.90246],[127.48287,37.90235],[127.48294,37.90235],[127.48298,37.90246],[127.48287,37.90246]]]}},{"type":"Feature","properties":{"valleyId":"baekdunri","layer":"shadow","date":"2026-08-01","timeLocal":"18:00"},"geometry":{"type":"Polygon","coordinates":[[[127.4816,37.90221],[127.48156,37.90208],[127.48174,37.90209],[127.48172,37.90221],[127.4816,37.90221]]]}},{"type":"Feature","properties":{"valleyId":"baekdunri","layer":"shadow","date":"2026-08-01","timeLocal":"18:00"},"geometry":{"type":"Polygon","coordinates":[[[127.48231,37.90215],[127.48231,37.90208],[127.48238,37.90208],[127.48238,37.90215],[127.48231,37.90215]]]}},{"type":"Feature","properties":{"valleyId":"baekdunri","layer":"shadow","date":"2026-08-01","timeLocal":"18:00"},"geometry":{"type":"Polygon","coordinates":[[[127.48263,37.90206],[127.48263,37.90199],[127.48272,37.90199],[127.48272,37.90206],[127.48263,37.90206]]]}},{"type":"Feature","properties":{"valleyId":"baekdunri","layer":"shadow","date":"2026-08-01","timeLocal":"18:00"},"geometry":{"type":"Polygon","coordinates":[[[127.48563,37.90215],[127.48563,37.90206],[127.48572,37.90203],[127.48575,37.90198],[127.48581,37.90198],[127.48584,37.90207],[127.48579,37.90216],[127.48563,37.90215]]]}},{"type":"Feature","properties":{"valleyId":"baekdunri","layer":"shadow","date":"2026-08-01","timeLocal":"18:00"},"geometry":{"type":"Polygon","coordinates":[[[127.48204,37.90186],[127.48204,37.9018],[127.48211,37.9018],[127.48211,37.90186],[127.48204,37.90186]]]}},{"type":"Feature","properties":{"valleyId":"baekdunri","layer":"shadow","date":"2026-08-01","timeLocal":"18:00"},"geometry":{"type":"Polygon","coordinates":[[[127.48179,37.90193],[127.48179,37.90184],[127.48166,37.90183],[127.48166,37.90178],[127.48182,37.90178],[127.48181,37.90182],[127.48193,37.90182],[127.4819,37.90191],[127.48179,37.90193]]]}},{"type":"Feature","properties":{"valleyId":"baekdunri","layer":"shadow","date":"2026-08-01","timeLocal":"18:00"},"geometry":{"type":"Polygon","coordinates":[[[127.48168,37.90167],[127.48168,37.9016],[127.48173,37.9016],[127.48173,37.90151],[127.4818,37.90151],[127.48182,37.90166],[127.48168,37.90167]]]}},{"type":"Feature","properties":{"valleyId":"baekdunri","layer":"shadow","date":"2026-08-01","timeLocal":"18:00"},"geometry":{"type":"Polygon","coordinates":[[[127.48091,37.90155],[127.48091,37.9015],[127.48098,37.9015],[127.48098,37.90155],[127.48091,37.90155]]]}},{"type":"Feature","properties":{"valleyId":"baekdunri","layer":"shadow","date":"2026-08-01","timeLocal":"18:00"},"geometry":{"type":"Polygon","coordinates":[[[127.48195,37.90164],[127.48196,37.90157],[127.48191,37.90157],[127.48191,37.90151],[127.48198,37.90151],[127.48198,37.90155],[127.48212,37.90155],[127.48211,37.9016],[127.48207,37.9016],[127.48205,37.90164],[127.48195,37.90164]]]}},{"type":"Feature","properties":{"valleyId":"baekdunri","layer":"shadow","date":"2026-08-01","timeLocal":"18:00"},"geometry":{"type":"Polygon","coordinates":[[[127.48003,37.90134],[127.48001,37.90127],[127.48017,37.90126],[127.48014,37.90135],[127.48003,37.90134]]]}},{"type":"Feature","properties":{"valleyId":"baekdunri","layer":"shadow","date":"2026-08-01","timeLocal":"18:00"},"geometry":{"type":"Polygon","coordinates":[[[127.48144,37.90127],[127.48144,37.9012],[127.48155,37.9012],[127.48155,37.90126],[127.48144,37.90127]]]}},{"type":"Feature","properties":{"valleyId":"baekdunri","layer":"shadow","date":"2026-08-01","timeLocal":"18:00"},"geometry":{"type":"Polygon","coordinates":[[[127.48582,37.90174],[127.48582,37.90167],[127.48589,37.9016],[127.48589,37.90146],[127.48596,37.90144],[127.48594,37.90131],[127.48601,37.90129],[127.48604,37.90122],[127.4861,37.90122],[127.48612,37.9013],[127.48608,37.90131],[127.48608,37.90146],[127.48603,37.90148],[127.48603,37.90166],[127.48593,37.90174],[127.48582,37.90174]]]}},{"type":"Feature","properties":{"valleyId":"baekdunri","layer":"shadow","date":"2026-08-01","timeLocal":"18:00"},"geometry":{"type":"Polygon","coordinates":[[[127.48169,37.90111],[127.48169,37.90108],[127.48165,37.90108],[127.48165,37.90102],[127.48172,37.90102],[127.48172,37.90106],[127.48176,37.90106],[127.48176,37.90111],[127.48169,37.90111]]]}},{"type":"Feature","properties":{"valleyId":"baekdunri","layer":"shadow","date":"2026-08-01","timeLocal":"18:00"},"geometry":{"type":"Polygon","coordinates":[[[127.48402,37.90094],[127.48402,37.90089],[127.48409,37.90089],[127.48408,37.90095],[127.48402,37.90094]]]}},{"type":"Feature","properties":{"valleyId":"baekdunri","layer":"shadow","date":"2026-08-01","timeLocal":"18:00"},"geometry":{"type":"Polygon","coordinates":[[[127.48438,37.90095],[127.48438,37.9009],[127.48447,37.9009],[127.48447,37.90095],[127.48438,37.90095]]]}},{"type":"Feature","properties":{"valleyId":"baekdunri","layer":"shadow","date":"2026-08-01","timeLocal":"18:00"},"geometry":{"type":"Polygon","coordinates":[[[127.48393,37.90091],[127.4839,37.90083],[127.48397,37.90084],[127.48399,37.90091],[127.48393,37.90091]]]}},{"type":"Feature","properties":{"valleyId":"baekdunri","layer":"shadow","date":"2026-08-01","timeLocal":"18:00"},"geometry":{"type":"Polygon","coordinates":[[[127.47766,37.90371],[127.47766,37.90366],[127.47771,37.90364],[127.47773,37.90357],[127.47803,37.90337],[127.4781,37.90319],[127.47815,37.90318],[127.47819,37.90307],[127.47826,37.90302],[127.47831,37.90302],[127.47836,37.90298],[127.47836,37.90293],[127.4784,37.90291],[127.4784,37.90285],[127.47822,37.90283],[127.47822,37.90278],[127.47834,37.90276],[127.4784,37.90282],[127.47847,37.90282],[127.4785,37.90278],[127.47875,37.90268],[127.4788,37.90261],[127.4788,37.90246],[127.47889,37.90237],[127.47889,37.90227],[127.47899,37.90225],[127.47903,37.90211],[127.47917,37.90204],[127.47917,37.90193],[127.47927,37.90189],[127.47927,37.90184],[127.4792,37.90177],[127.47904,37.90175],[127.47882,37.90154],[127.47882,37.90147],[127.47894,37.90128],[127.47905,37.90122],[127.47946,37.90126],[127.4795,37.90132],[127.47966,37.90137],[127.47971,37.90147],[127.4797,37.90159],[127.47963,37.90163],[127.47963,37.90166],[127.47957,37.90168],[127.4795,37.90179],[127.47949,37.90188],[127.47952,37.90191],[127.47967,37.90192],[127.47974,37.90184],[127.47984,37.90181],[127.47984,37.90167],[127.47998,37.90167],[127.47998,37.90158],[127.47984,37.90158],[127.47987,37.90147],[127.48003,37.9014],[127.48016,37.90142],[127.48028,37.90135],[127.48044,37.90137],[127.48051,37.90128],[127.48064,37.90128],[127.48065,37.90099],[127.48056,37.90097],[127.48051,37.90094],[127.48051,37.90088],[127.48079,37.9009],[127.48081,37.90087],[127.4809,37.90087],[127.48092,37.90096],[127.48097,37.901],[127.48108,37.901],[127.48113,37.90089],[127.48127,37.90085],[127.48125,37.90073],[127.48129,37.90069],[127.48161,37.90068],[127.48161,37.90081],[127.48152,37.9008],[127.48149,37.90086],[127.48138,37.90087],[127.48138,37.90091],[127.48133,37.90091],[127.48129,37.90096],[127.4813,37.90129],[127.4811,37.90129],[127.4811,37.90134],[127.48119,37.90134],[127.48114,37.90147],[127.48107,37.90147],[127.48107,37.90136],[127.48103,37.90136],[127.48103,37.9013],[127.48096,37.9013],[127.48091,37.90148],[127.48082,37.90148],[127.48077,37.90155],[127.48059,37.90157],[127.48054,37.90162],[127.4805,37.90162],[127.4805,37.90166],[127.48045,37.90166],[127.48045,37.90169],[127.48027,37.90176],[127.48027,37.90182],[127.48009,37.90181],[127.48004,37.90196],[127.47997,37.90201],[127.48001,37.90215],[127.47992,37.90219],[127.47992,37.90235],[127.47976,37.90235],[127.47973,37.90239],[127.47966,37.90238],[127.47966,37.90242],[127.47957,37.90242],[127.47957,37.90249],[127.47953,37.90249],[127.47946,37.90254],[127.47946,37.9026],[127.47936,37.90261],[127.47936,37.90267],[127.47932,37.90267],[127.47929,37.90276],[127.47922,37.90281],[127.47922,37.90288],[127.47915,37.90288],[127.47899,37.90304],[127.47892,37.90304],[127.47892,37.90313],[127.47878,37.90315],[127.47869,37.90329],[127.47865,37.90329],[127.47862,37.90333],[127.47853,37.90333],[127.47853,37.90342],[127.47821,37.90341],[127.47818,37.90368],[127.47777,37.90368],[127.47777,37.90371],[127.47766,37.90371]],[[127.47883,37.90302],[127.47892,37.90302],[127.47893,37.90293],[127.47888,37.9029],[127.47893,37.90277],[127.47916,37.90265],[127.47916,37.90256],[127.47921,37.90256],[127.47928,37.90249],[127.47948,37.90244],[127.47948,37.90235],[127.4793,37.90233],[127.47914,37.90245],[127.47914,37.90256],[127.479,37.90259],[127.479,37.90263],[127.47884,37.90266],[127.47884,37.9027],[127.4787,37.90277],[127.4787,37.90291],[127.47879,37.90295],[127.47883,37.90302]],[[127.47967,37.90224],[127.4798,37.90224],[127.47985,37.90221],[127.47985,37.90213],[127.47974,37.90201],[127.47965,37.90201],[127.47962,37.90219],[127.47967,37.90224]]]}},{"type":"Feature","properties":{"valleyId":"baekdunri","layer":"shadow","date":"2026-08-01","timeLocal":"18:00"},"geometry":{"type":"Polygon","coordinates":[[[127.48263,37.90069],[127.48264,37.90064],[127.48268,37.90064],[127.48268,37.9006],[127.48275,37.9006],[127.48275,37.90066],[127.4827,37.90066],[127.4827,37.90069],[127.48263,37.90069]]]}},{"type":"Feature","properties":{"valleyId":"baekdunri","layer":"shadow","date":"2026-08-01","timeLocal":"18:00"},"geometry":{"type":"Polygon","coordinates":[[[127.48597,37.90117],[127.48588,37.90111],[127.48579,37.90097],[127.48582,37.90075],[127.48575,37.90062],[127.48568,37.90059],[127.48569,37.90053],[127.4858,37.90053],[127.48589,37.90059],[127.48589,37.90063],[127.48609,37.90065],[127.48609,37.9007],[127.48614,37.90072],[127.48617,37.90106],[127.48613,37.90108],[127.4861,37.90117],[127.48597,37.90117]]]}},{"type":"Feature","properties":{"valleyId":"baekdunri","layer":"shadow","date":"2026-08-01","timeLocal":"18:00"},"geometry":{"type":"Polygon","coordinates":[[[127.48371,37.90054],[127.48371,37.90049],[127.48378,37.90049],[127.48377,37.90054],[127.48371,37.90054]]]}},{"type":"Feature","properties":{"valleyId":"baekdunri","layer":"shadow","date":"2026-08-01","timeLocal":"18:00"},"geometry":{"type":"Polygon","coordinates":[[[127.48543,37.90057],[127.48544,37.90051],[127.48553,37.90051],[127.48553,37.90057],[127.48543,37.90057]]]}},{"type":"Feature","properties":{"valleyId":"baekdunri","layer":"shadow","date":"2026-08-01","timeLocal":"18:00"},"geometry":{"type":"Polygon","coordinates":[[[127.48407,37.90042],[127.48408,37.90028],[127.48419,37.9003],[127.48414,37.90042],[127.48407,37.90042]]]}},{"type":"Feature","properties":{"valleyId":"baekdunri","layer":"shadow","date":"2026-08-01","timeLocal":"18:00"},"geometry":{"type":"Polygon","coordinates":[[[127.50152,37.90048],[127.50154,37.90038],[127.50163,37.90038],[127.50168,37.90041],[127.50165,37.90049],[127.50152,37.90048]]]}},{"type":"Feature","properties":{"valleyId":"baekdunri","layer":"shadow","date":"2026-08-01","timeLocal":"18:00"},"geometry":{"type":"Polygon","coordinates":[[[127.48585,37.90023],[127.48585,37.90018],[127.48592,37.90018],[127.48592,37.90023],[127.48585,37.90023]]]}},{"type":"Feature","properties":{"valleyId":"baekdunri","layer":"shadow","date":"2026-08-01","timeLocal":"18:00"},"geometry":{"type":"Polygon","coordinates":[[[127.48783,37.90016],[127.48786,37.90009],[127.48795,37.90009],[127.48795,37.90015],[127.48783,37.90016]]]}},{"type":"Feature","properties":{"valleyId":"baekdunri","layer":"shadow","date":"2026-08-01","timeLocal":"18:00"},"geometry":{"type":"Polygon","coordinates":[[[127.48749,37.90005],[127.48752,37.89998],[127.48761,37.89998],[127.48761,37.90004],[127.48749,37.90005]]]}},{"type":"Feature","properties":{"valleyId":"baekdunri","layer":"shadow","date":"2026-08-01","timeLocal":"18:00"},"geometry":{"type":"Polygon","coordinates":[[[127.48797,37.90008],[127.48799,37.89997],[127.48813,37.89995],[127.48813,37.90001],[127.48804,37.90004],[127.48804,37.90008],[127.48797,37.90008]]]}},{"type":"Feature","properties":{"valleyId":"baekdunri","layer":"shadow","date":"2026-08-01","timeLocal":"18:00"},"geometry":{"type":"Polygon","coordinates":[[[127.48323,37.89929],[127.48314,37.89918],[127.48314,37.89911],[127.48326,37.89911],[127.48332,37.89917],[127.48332,37.89928],[127.48323,37.89929]]]}},{"type":"Feature","properties":{"valleyId":"baekdunri","layer":"shadow","date":"2026-08-01","timeLocal":"18:00"},"geometry":{"type":"Polygon","coordinates":[[[127.49981,37.89934],[127.49981,37.89929],[127.49993,37.89929],[127.49993,37.89935],[127.49981,37.89934]]]}},{"type":"Feature","properties":{"valleyId":"baekdunri","layer":"shadow","date":"2026-08-01","timeLocal":"18:00"},"geometry":{"type":"Polygon","coordinates":[[[127.48308,37.89909],[127.48308,37.89904],[127.48315,37.89904],[127.48314,37.89909],[127.48308,37.89909]]]}},{"type":"Feature","properties":{"valleyId":"baekdunri","layer":"shadow","date":"2026-08-01","timeLocal":"18:00"},"geometry":{"type":"Polygon","coordinates":[[[127.50088,37.89934],[127.50077,37.89932],[127.50077,37.89927],[127.50116,37.89925],[127.50116,37.89933],[127.50111,37.89934],[127.50088,37.89934]]]}},{"type":"Feature","properties":{"valleyId":"baekdunri","layer":"shadow","date":"2026-08-01","timeLocal":"18:00"},"geometry":{"type":"Polygon","coordinates":[[[127.50122,37.89933],[127.50123,37.89924],[127.50129,37.89924],[127.50129,37.89927],[127.50138,37.89927],[127.50138,37.89933],[127.50122,37.89933]]]}},{"type":"Feature","properties":{"valleyId":"baekdunri","layer":"shadow","date":"2026-08-01","timeLocal":"18:00"},"geometry":{"type":"Polygon","coordinates":[[[127.5005,37.89928],[127.5005,37.89923],[127.5007,37.89923],[127.5007,37.89928],[127.5005,37.89928]]]}},{"type":"Feature","properties":{"valleyId":"baekdunri","layer":"shadow","date":"2026-08-01","timeLocal":"18:00"},"geometry":{"type":"Polygon","coordinates":[[[127.50207,37.89928],[127.50207,37.89923],[127.50214,37.89923],[127.50213,37.89928],[127.50207,37.89928]]]}},{"type":"Feature","properties":{"valleyId":"baekdunri","layer":"shadow","date":"2026-08-01","timeLocal":"18:00"},"geometry":{"type":"Polygon","coordinates":[[[127.50275,37.89927],[127.50275,37.89922],[127.50282,37.89922],[127.50282,37.89927],[127.50275,37.89927]]]}},{"type":"Feature","properties":{"valleyId":"baekdunri","layer":"shadow","date":"2026-08-01","timeLocal":"18:00"},"geometry":{"type":"Polygon","coordinates":[[[127.5024,37.90084],[127.5024,37.90071],[127.50245,37.90071],[127.50256,37.90062],[127.5027,37.90061],[127.50268,37.90044],[127.50263,37.90041],[127.50245,37.90039],[127.50245,37.90032],[127.50266,37.90028],[127.50268,37.90023],[127.50282,37.90016],[127.50282,37.90007],[127.50269,37.89998],[127.50269,37.89992],[127.50281,37.89974],[127.50281,37.89958],[127.50268,37.89944],[127.50243,37.89941],[127.50241,37.89938],[127.50225,37.89938],[127.5022,37.89934],[127.5022,37.89925],[127.50238,37.89927],[127.50241,37.89931],[127.50254,37.89934],[127.50279,37.89935],[127.50286,37.8994],[127.50309,37.8994],[127.50309,37.89948],[127.5032,37.8995],[127.5032,37.89944],[127.50311,37.89942],[127.50311,37.89935],[127.50318,37.89932],[127.50316,37.89919],[127.50334,37.89917],[127.50329,37.89939],[127.50336,37.89941],[127.50336,37.89952],[127.5034,37.89955],[127.50347,37.89955],[127.50345,37.89926],[127.50341,37.89923],[127.50341,37.89917],[127.50389,37.89922],[127.50391,37.89929],[127.50375,37.89936],[127.50375,37.89941],[127.50386,37.89941],[127.50386,37.89963],[127.50392,37.89969],[127.50415,37.89969],[127.50415,37.89974],[127.5041,37.89976],[127.50412,37.89992],[127.50405,37.90017],[127.50406,37.90053],[127.50363,37.90065],[127.50349,37.90065],[127.50343,37.90044],[127.50344,37.89988],[127.5034,37.89986],[127.50338,37.89973],[127.50329,37.89973],[127.50328,37.89989],[127.50321,37.89991],[127.50319,37.90002],[127.50312,37.90004],[127.5031,37.90013],[127.50314,37.90014],[127.50316,37.90023],[127.50323,37.90029],[127.50327,37.90029],[127.50333,37.90072],[127.50297,37.90079],[127.5024,37.90084]]]}},{"type":"Feature","properties":{"valleyId":"baekdunri","layer":"shadow","date":"2026-08-01","timeLocal":"18:00"},"geometry":{"type":"Polygon","coordinates":[[[127.4908,37.8995],[127.49073,37.89946],[127.49072,37.89921],[127.49067,37.8991],[127.49061,37.89905],[127.49047,37.89901],[127.49045,37.89883],[127.49063,37.89887],[127.49063,37.89901],[127.49077,37.89903],[127.49079,37.89907],[127.4909,37.89907],[127.49097,37.89912],[127.49108,37.89912],[127.49108,37.8993],[127.49101,37.89936],[127.49096,37.89948],[127.4908,37.8995]]]}},{"type":"Feature","properties":{"valleyId":"baekdunri","layer":"shadow","date":"2026-08-01","timeLocal":"18:00"},"geometry":{"type":"Polygon","coordinates":[[[127.50002,37.89926],[127.49995,37.8992],[127.49979,37.89922],[127.49977,37.89913],[127.49998,37.89913],[127.49998,37.89906],[127.49968,37.899],[127.49968,37.89895],[127.5,37.89899],[127.50002,37.89902],[127.50016,37.89901],[127.50014,37.89913],[127.50038,37.89917],[127.50038,37.89923],[127.50002,37.89926]]]}},{"type":"Feature","properties":{"valleyId":"baekdunri","layer":"shadow","date":"2026-08-01","timeLocal":"18:00"},"geometry":{"type":"Polygon","coordinates":[[[127.49943,37.89898],[127.49943,37.89893],[127.49955,37.89893],[127.49955,37.89898],[127.49943,37.89898]]]}},{"type":"Feature","properties":{"valleyId":"baekdunri","layer":"shadow","date":"2026-08-01","timeLocal":"18:00"},"geometry":{"type":"Polygon","coordinates":[[[127.49923,37.89896],[127.49923,37.89887],[127.4993,37.89887],[127.4993,37.89896],[127.49923,37.89896]]]}},{"type":"Feature","properties":{"valleyId":"baekdunri","layer":"shadow","date":"2026-08-01","timeLocal":"18:00"},"geometry":{"type":"Polygon","coordinates":[[[127.49398,37.89889],[127.49396,37.89878],[127.49405,37.89877],[127.49409,37.8988],[127.49409,37.89889],[127.49398,37.89889]]]}},{"type":"Feature","properties":{"valleyId":"baekdunri","layer":"shadow","date":"2026-08-01","timeLocal":"18:00"},"geometry":{"type":"Polygon","coordinates":[[[127.50212,37.89896],[127.50212,37.89887],[127.50223,37.89887],[127.50223,37.89894],[127.50212,37.89896]]]}},{"type":"Feature","properties":{"valleyId":"baekdunri","layer":"shadow","date":"2026-08-01","timeLocal":"18:00"},"geometry":{"type":"Polygon","coordinates":[[[127.50262,37.89895],[127.50262,37.89886],[127.50269,37.89886],[127.50269,37.89895],[127.50262,37.89895]]]}},{"type":"Feature","properties":{"valleyId":"baekdunri","layer":"shadow","date":"2026-08-01","timeLocal":"18:00"},"geometry":{"type":"Polygon","coordinates":[[[127.49909,37.89887],[127.4991,37.89881],[127.49916,37.89881],[127.49916,37.89887],[127.49909,37.89887]]]}},{"type":"Feature","properties":{"valleyId":"baekdunri","layer":"shadow","date":"2026-08-01","timeLocal":"18:00"},"geometry":{"type":"Polygon","coordinates":[[[127.50276,37.89893],[127.50276,37.89884],[127.50285,37.89884],[127.50287,37.89891],[127.50276,37.89893]]]}},{"type":"Feature","properties":{"valleyId":"baekdunri","layer":"shadow","date":"2026-08-01","timeLocal":"18:00"},"geometry":{"type":"Polygon","coordinates":[[[127.50116,37.89902],[127.50116,37.89897],[127.50103,37.89896],[127.50103,37.89891],[127.50094,37.89889],[127.50094,37.89875],[127.50105,37.89875],[127.50105,37.89878],[127.5011,37.8988],[127.5011,37.89887],[127.50119,37.89891],[127.50119,37.89897],[127.50123,37.89897],[127.50123,37.89902],[127.50116,37.89902]]]}},{"type":"Feature","properties":{"valleyId":"baekdunri","layer":"shadow","date":"2026-08-01","timeLocal":"18:00"},"geometry":{"type":"Polygon","coordinates":[[[127.5031,37.89885],[127.5031,37.8987],[127.50324,37.89872],[127.50326,37.89879],[127.50319,37.89885],[127.5031,37.89885]]]}},{"type":"Feature","properties":{"valleyId":"baekdunri","layer":"shadow","date":"2026-08-01","timeLocal":"18:00"},"geometry":{"type":"Polygon","coordinates":[[[127.49769,37.89878],[127.49769,37.89874],[127.4976,37.89874],[127.4976,37.89869],[127.49769,37.89865],[127.49771,37.8986],[127.49785,37.8986],[127.49785,37.89867],[127.49776,37.89867],[127.49776,37.89872],[127.49785,37.89872],[127.49785,37.89878],[127.49769,37.89878]]]}},{"type":"Feature","properties":{"valleyId":"baekdunri","layer":"shadow","date":"2026-08-01","timeLocal":"18:00"},"geometry":{"type":"Polygon","coordinates":[[[127.49882,37.89885],[127.49878,37.89872],[127.49862,37.89861],[127.49862,37.89855],[127.49878,37.89857],[127.4988,37.89863],[127.49892,37.8987],[127.49891,37.89885],[127.49882,37.89885]]]}},{"type":"Feature","properties":{"valleyId":"baekdunri","layer":"shadow","date":"2026-08-01","timeLocal":"18:00"},"geometry":{"type":"Polygon","coordinates":[[[127.49853,37.89857],[127.49853,37.89852],[127.4986,37.89852],[127.4986,37.89857],[127.49853,37.89857]]]}},{"type":"Feature","properties":{"valleyId":"baekdunri","layer":"shadow","date":"2026-08-01","timeLocal":"18:00"},"geometry":{"type":"Polygon","coordinates":[[[127.50042,37.89851],[127.5004,37.89843],[127.50049,37.89843],[127.50049,37.89851],[127.50042,37.89851]]]}},{"type":"Feature","properties":{"valleyId":"baekdunri","layer":"shadow","date":"2026-08-01","timeLocal":"18:00"},"geometry":{"type":"Polygon","coordinates":[[[127.50078,37.89882],[127.50073,37.89878],[127.50074,37.89871],[127.50067,37.89869],[127.50069,37.89854],[127.50067,37.89851],[127.50063,37.89851],[127.50063,37.89842],[127.5007,37.89842],[127.50072,37.89845],[127.50076,37.89846],[127.50076,37.89849],[127.50083,37.89849],[127.5008,37.89867],[127.50089,37.89871],[127.50089,37.89876],[127.50085,37.89876],[127.50085,37.89882],[127.50078,37.89882]]]}},{"type":"Feature","properties":{"valleyId":"baekdunri","layer":"shadow","date":"2026-08-01","timeLocal":"18:00"},"geometry":{"type":"Polygon","coordinates":[[[127.49828,37.89857],[127.49817,37.89851],[127.49806,37.89851],[127.49794,37.89844],[127.49778,37.89844],[127.49779,37.89838],[127.49792,37.89838],[127.49792,37.89831],[127.49799,37.89831],[127.49799,37.89838],[127.49815,37.89839],[127.49822,37.89848],[127.49835,37.89851],[127.49835,37.89857],[127.49828,37.89857]]]}},{"type":"Feature","properties":{"valleyId":"baekdunri","layer":"shadow","date":"2026-08-01","timeLocal":"18:00"},"geometry":{"type":"Polygon","coordinates":[[[127.49738,37.89839],[127.49724,37.89832],[127.49715,37.89832],[127.49713,37.89823],[127.49747,37.89825],[127.49763,37.89833],[127.49763,37.8984],[127.49738,37.89839]]]}},{"type":"Feature","properties":{"valleyId":"baekdunri","layer":"shadow","date":"2026-08-01","timeLocal":"18:00"},"geometry":{"type":"Polygon","coordinates":[[[127.49804,37.8992],[127.49784,37.89908],[127.4977,37.89907],[127.49759,37.89897],[127.49748,37.89897],[127.49743,37.89894],[127.49718,37.89897],[127.49718,37.89908],[127.49709,37.89908],[127.49702,37.89904],[127.497,37.89895],[127.49684,37.89891],[127.49686,37.89905],[127.49679,37.89907],[127.49677,37.89913],[127.49636,37.89908],[127.49634,37.89901],[127.49623,37.89892],[127.49602,37.8989],[127.49602,37.89883],[127.49607,37.89883],[127.49607,37.89879],[127.49612,37.89879],[127.49614,37.89876],[127.49628,37.89876],[127.4963,37.89881],[127.49637,37.89881],[127.49639,37.89878],[127.49639,37.89865],[127.49635,37.89862],[127.49631,37.8984],[127.49622,37.89838],[127.49622,37.89834],[127.49615,37.89832],[127.49615,37.89827],[127.49626,37.89827],[127.49626,37.89831],[127.49633,37.89831],[127.49633,37.89825],[127.49629,37.89825],[127.49629,37.89816],[127.49636,37.89816],[127.49635,37.89825],[127.49642,37.89826],[127.49642,37.89831],[127.49649,37.89836],[127.49688,37.89837],[127.4969,37.89841],[127.49694,37.89841],[127.49696,37.89846],[127.49708,37.89846],[127.4971,37.8985],[127.49715,37.8985],[127.49714,37.89866],[127.49739,37.89874],[127.49739,37.89879],[127.49748,37.89881],[127.49752,37.8989],[127.49809,37.89893],[127.49807,37.8988],[127.49828,37.8988],[127.49828,37.89887],[127.49818,37.89887],[127.49816,37.89894],[127.49859,37.89897],[127.49861,37.899],[127.49886,37.89903],[127.49889,37.89906],[127.49968,37.89909],[127.49968,37.89914],[127.49957,37.89914],[127.49954,37.8992],[127.49941,37.8992],[127.49941,37.89914],[127.49916,37.89914],[127.49907,37.89919],[127.49884,37.89919],[127.49873,37.89911],[127.49854,37.89908],[127.4985,37.89909],[127.49845,37.89918],[127.49804,37.8992]]]}},{"type":"Feature","properties":{"valleyId":"baekdunri","layer":"shadow","date":"2026-08-01","timeLocal":"18:00"},"geometry":{"type":"Polygon","coordinates":[[[127.50033,37.89831],[127.50036,37.89816],[127.5005,37.89818],[127.50047,37.89831],[127.50033,37.89831]]]}},{"type":"Feature","properties":{"valleyId":"baekdunri","layer":"shadow","date":"2026-08-01","timeLocal":"18:00"},"geometry":{"type":"Polygon","coordinates":[[[127.49651,37.89827],[127.49647,37.89826],[127.49647,37.89811],[127.49643,37.89811],[127.49643,37.89806],[127.49665,37.8981],[127.49667,37.8982],[127.49688,37.89823],[127.49688,37.89828],[127.49651,37.89827]]]}},{"type":"Feature","properties":{"valleyId":"baekdunri","layer":"shadow","date":"2026-08-01","timeLocal":"18:00"},"geometry":{"type":"Polygon","coordinates":[[[127.49772,37.89827],[127.49765,37.89816],[127.49752,37.89813],[127.49752,37.89807],[127.49761,37.89807],[127.49768,37.89813],[127.49774,37.89813],[127.49783,37.89818],[127.49783,37.89827],[127.49772,37.89827]]]}},{"type":"Feature","properties":{"valleyId":"baekdunri","layer":"shadow","date":"2026-08-01","timeLocal":"18:00"},"geometry":{"type":"Polygon","coordinates":[[[127.49337,37.89865],[127.49328,37.89849],[127.49328,37.89832],[127.49319,37.89821],[127.49317,37.89805],[127.49333,37.89805],[127.49338,37.89802],[127.49352,37.89804],[127.49352,37.89798],[127.49359,37.89795],[127.49381,37.89799],[127.49385,37.89822],[127.49378,37.89829],[127.49378,37.89835],[127.49369,37.89838],[127.49367,37.89847],[127.49362,37.89849],[127.49362,37.89854],[127.49357,37.89858],[127.49348,37.8986],[127.49346,37.89865],[127.49337,37.89865]]]}},{"type":"Feature","properties":{"valleyId":"baekdunri","layer":"shadow","date":"2026-08-01","timeLocal":"18:00"},"geometry":{"type":"Polygon","coordinates":[[[127.4994,37.89824],[127.49931,37.89818],[127.49927,37.89811],[127.49927,37.89806],[127.49932,37.89802],[127.49941,37.89802],[127.49943,37.89815],[127.49952,37.89819],[127.49952,37.89824],[127.4994,37.89824]]]}},{"type":"Feature","properties":{"valleyId":"baekdunri","layer":"shadow","date":"2026-08-01","timeLocal":"18:00"},"geometry":{"type":"Polygon","coordinates":[[[127.496,37.898],[127.496,37.89791],[127.49609,37.89791],[127.49609,37.898],[127.496,37.898]]]}},{"type":"Feature","properties":{"valleyId":"baekdunri","layer":"shadow","date":"2026-08-01","timeLocal":"18:00"},"geometry":{"type":"Polygon","coordinates":[[[127.49709,37.89801],[127.49707,37.89794],[127.49716,37.89792],[127.49716,37.89801],[127.49709,37.89801]]]}},{"type":"Feature","properties":{"valleyId":"baekdunri","layer":"shadow","date":"2026-08-01","timeLocal":"18:00"},"geometry":{"type":"Polygon","coordinates":[[[127.50074,37.89833],[127.5007,37.89831],[127.5007,37.89817],[127.50066,37.89817],[127.50066,37.89813],[127.50054,37.89804],[127.50036,37.898],[127.50036,37.89795],[127.50055,37.89795],[127.50061,37.89797],[127.50061,37.898],[127.50086,37.89802],[127.50091,37.89806],[127.50091,37.89811],[127.50086,37.89811],[127.50081,37.89833],[127.50074,37.89833]]]}},{"type":"Feature","properties":{"valleyId":"baekdunri","layer":"shadow","date":"2026-08-01","timeLocal":"18:00"},"geometry":{"type":"Polygon","coordinates":[[[127.5001,37.89841],[127.50006,37.89836],[127.50011,37.89814],[127.50007,37.8981],[127.50004,37.89801],[127.49998,37.89798],[127.49998,37.89792],[127.50011,37.89794],[127.50011,37.898],[127.50016,37.898],[127.5002,37.89809],[127.5002,37.89841],[127.5001,37.89841]]]}},{"type":"Feature","properties":{"valleyId":"baekdunri","layer":"shadow","date":"2026-08-01","timeLocal":"18:00"},"geometry":{"type":"Polygon","coordinates":[[[127.50352,37.8982],[127.50345,37.89813],[127.50341,37.89795],[127.50373,37.89799],[127.50373,37.89806],[127.50368,37.89806],[127.50368,37.89817],[127.50364,37.89817],[127.50363,37.8982],[127.50352,37.8982]]]}},{"type":"Feature","properties":{"valleyId":"baekdunri","layer":"shadow","date":"2026-08-01","timeLocal":"18:00"},"geometry":{"type":"Polygon","coordinates":[[[127.49734,37.89785],[127.49734,37.8978],[127.49748,37.89778],[127.49748,37.89784],[127.49734,37.89785]]]}},{"type":"Feature","properties":{"valleyId":"baekdunri","layer":"shadow","date":"2026-08-01","timeLocal":"18:00"},"geometry":{"type":"Polygon","coordinates":[[[127.49343,37.89769],[127.49346,37.89762],[127.49359,37.89762],[127.49362,37.89753],[127.49371,37.89754],[127.49371,37.89761],[127.49361,37.8977],[127.49343,37.89769]]]}},{"type":"Feature","properties":{"valleyId":"baekdunri","layer":"shadow","date":"2026-08-01","timeLocal":"18:00"},"geometry":{"type":"Polygon","coordinates":[[[127.49551,37.89853],[127.49519,37.89849],[127.49508,37.89833],[127.49508,37.8982],[127.49497,37.8982],[127.49467,37.89809],[127.49458,37.89809],[127.49456,37.89816],[127.49449,37.89821],[127.49449,37.8983],[127.49444,37.89832],[127.49442,37.89839],[127.49403,37.89842],[127.49408,37.89821],[127.49426,37.89816],[127.49433,37.89807],[127.49456,37.898],[127.49456,37.89796],[127.49461,37.89796],[127.49461,37.89787],[127.4945,37.89787],[127.49441,37.89783],[127.49416,37.89787],[127.49409,37.89772],[127.49396,37.89767],[127.49393,37.89763],[127.49396,37.89745],[127.4941,37.89747],[127.49412,37.89756],[127.49444,37.89756],[127.49453,37.8976],[127.49452,37.89765],[127.49462,37.89766],[127.49466,37.89771],[127.49477,37.89771],[127.49477,37.89784],[127.49479,37.89787],[127.49484,37.89788],[127.49486,37.89806],[127.49497,37.89806],[127.49506,37.89808],[127.49508,37.89811],[127.49517,37.89811],[127.49515,37.89801],[127.49531,37.89803],[127.49533,37.89815],[127.49549,37.89819],[127.49554,37.89823],[127.4957,37.89823],[127.49569,37.89834],[127.49574,37.89834],[127.49576,37.89837],[127.49592,37.89838],[127.49594,37.89841],[127.49594,37.89848],[127.49589,37.89852],[127.49551,37.89853]]]}},{"type":"Feature","properties":{"valleyId":"baekdunri","layer":"shadow","date":"2026-08-01","timeLocal":"18:00"},"geometry":{"type":"Polygon","coordinates":[[[127.49371,37.89748],[127.49371,37.89743],[127.4938,37.89743],[127.4938,37.89748],[127.49371,37.89748]]]}},{"type":"Feature","properties":{"valleyId":"baekdunri","layer":"shadow","date":"2026-08-01","timeLocal":"18:00"},"geometry":{"type":"Polygon","coordinates":[[[127.49559,37.89781],[127.49559,37.89778],[127.49545,37.89776],[127.49543,37.8977],[127.49534,37.8977],[127.49534,37.89776],[127.49525,37.89775],[127.49523,37.89761],[127.49512,37.89754],[127.49505,37.89754],[127.49503,37.8975],[127.49494,37.8975],[127.49494,37.89744],[127.49521,37.89745],[127.49526,37.8975],[127.49553,37.89752],[127.49552,37.8977],[127.49577,37.89771],[127.49575,37.89781],[127.49559,37.89781]]]}},{"type":"Feature","properties":{"valleyId":"baekdunri","layer":"shadow","date":"2026-08-01","timeLocal":"18:00"},"geometry":{"type":"Polygon","coordinates":[[[127.4946,37.89749],[127.4946,37.89735],[127.49485,37.89733],[127.49485,37.89744],[127.49478,37.89744],[127.49476,37.8975],[127.4946,37.89749]]]}},{"type":"Feature","properties":{"valleyId":"baekdunri","layer":"shadow","date":"2026-08-01","timeLocal":"18:00"},"geometry":{"type":"Polygon","coordinates":[[[127.49576,37.89736],[127.49576,37.89731],[127.49583,37.89731],[127.49583,37.89736],[127.49576,37.89736]]]}},{"type":"Feature","properties":{"valleyId":"baekdunri","layer":"shadow","date":"2026-08-01","timeLocal":"18:00"},"geometry":{"type":"Polygon","coordinates":[[[127.49446,37.89735],[127.49446,37.89726],[127.49453,37.89726],[127.49453,37.89735],[127.49446,37.89735]]]}},{"type":"Feature","properties":{"valleyId":"baekdunri","layer":"shadow","date":"2026-08-01","timeLocal":"18:00"},"geometry":{"type":"Polygon","coordinates":[[[127.49968,37.89788],[127.49962,37.89783],[127.49957,37.89767],[127.49969,37.89765],[127.49967,37.89734],[127.49972,37.89731],[127.49979,37.89731],[127.4999,37.89742],[127.49994,37.89742],[127.49996,37.89751],[127.49992,37.89758],[127.49983,37.89761],[127.49982,37.89767],[127.49978,37.8977],[127.49977,37.89788],[127.49968,37.89788]]]}},{"type":"Feature","properties":{"valleyId":"baekdunri","layer":"shadow","date":"2026-08-01","timeLocal":"18:00"},"geometry":{"type":"Polygon","coordinates":[[[127.49937,37.89752],[127.49933,37.8975],[127.49931,37.89739],[127.49933,37.89728],[127.49944,37.8973],[127.49947,37.89738],[127.49946,37.8975],[127.49937,37.89752]]]}},{"type":"Feature","properties":{"valleyId":"baekdunri","layer":"shadow","date":"2026-08-01","timeLocal":"18:00"},"geometry":{"type":"Polygon","coordinates":[[[127.49562,37.89729],[127.4956,37.89722],[127.49567,37.89722],[127.49569,37.89729],[127.49562,37.89729]]]}},{"type":"Feature","properties":{"valleyId":"baekdunri","layer":"shadow","date":"2026-08-01","timeLocal":"18:00"},"geometry":{"type":"Polygon","coordinates":[[[127.49244,37.89721],[127.49244,37.89714],[127.4926,37.89714],[127.4926,37.8972],[127.49244,37.89721]]]}},{"type":"Feature","properties":{"valleyId":"baekdunri","layer":"shadow","date":"2026-08-01","timeLocal":"18:00"},"geometry":{"type":"Polygon","coordinates":[[[127.49517,37.89719],[127.49508,37.89716],[127.49508,37.8971],[127.4952,37.8971],[127.49529,37.89714],[127.49528,37.8972],[127.49517,37.89719]]]}},{"type":"Feature","properties":{"valleyId":"baekdunri","layer":"shadow","date":"2026-08-01","timeLocal":"18:00"},"geometry":{"type":"Polygon","coordinates":[[[127.49139,37.89862],[127.4914,37.89825],[127.49149,37.89825],[127.49158,37.89818],[127.49169,37.89816],[127.4917,37.898],[127.49161,37.89798],[127.49158,37.89805],[127.49154,37.89805],[127.49154,37.89809],[127.49149,37.8981],[127.49149,37.89816],[127.49138,37.89816],[127.49136,37.89794],[127.49122,37.89783],[127.49125,37.8977],[127.49129,37.89767],[127.49128,37.89749],[127.4913,37.89743],[127.49137,37.8974],[127.49137,37.89734],[127.4911,37.89721],[127.49108,37.89698],[127.4914,37.897],[127.49142,37.89709],[127.49162,37.89709],[127.49169,37.8972],[127.49221,37.89723],[127.49221,37.89726],[127.49228,37.89732],[127.49237,37.89732],[127.49244,37.89738],[127.49264,37.89738],[127.49264,37.8975],[127.49268,37.89752],[127.49296,37.89753],[127.49298,37.89756],[127.49312,37.89756],[127.49312,37.8976],[127.49321,37.8976],[127.49321,37.89766],[127.49309,37.89767],[127.49298,37.89765],[127.49298,37.89762],[127.49286,37.89762],[127.49286,37.89765],[127.49277,37.89767],[127.49273,37.89772],[127.49272,37.89778],[127.49279,37.89779],[127.49279,37.89787],[127.49293,37.89789],[127.49293,37.89799],[127.49279,37.89799],[127.49263,37.8981],[127.49263,37.89821],[127.49278,37.89823],[127.49278,37.89832],[127.49262,37.89835],[127.49258,37.8984],[127.49248,37.8984],[127.4924,37.89833],[127.49228,37.89829],[127.49224,37.89824],[127.49219,37.89824],[127.49215,37.89818],[127.4921,37.89818],[127.49195,37.89805],[127.49188,37.89805],[127.49174,37.8982],[127.49174,37.89823],[127.49169,37.89825],[127.49169,37.89829],[127.49165,37.8983],[127.49148,37.89863],[127.49139,37.89862]],[[127.49238,37.89801],[127.49256,37.89801],[127.49259,37.89794],[127.49249,37.89792],[127.49243,37.89786],[127.49222,37.8979],[127.49222,37.89795],[127.49231,37.89795],[127.49238,37.89801]],[[127.49152,37.89794],[127.49158,37.89794],[127.49159,37.89785],[127.4915,37.89785],[127.49152,37.89794]],[[127.49197,37.89795],[127.49213,37.89795],[127.49215,37.89788],[127.49211,37.89784],[127.49195,37.89784],[127.49197,37.89795]],[[127.4914,37.89785],[127.49147,37.89785],[127.49147,37.89776],[127.49161,37.89776],[127.49165,37.89783],[127.49172,37.89784],[127.49175,37.89775],[127.49197,37.89778],[127.49202,37.89777],[127.49202,37.89771],[127.49195,37.89766],[127.49175,37.89767],[127.49168,37.89764],[127.49141,37.89763],[127.4914,37.89785]]]}},{"type":"Feature","properties":{"valleyId":"baekdunri","layer":"shadow","date":"2026-08-01","timeLocal":"18:00"},"geometry":{"type":"Polygon","coordinates":[[[127.49433,37.89731],[127.49433,37.89726],[127.49419,37.89727],[127.49419,37.89718],[127.4941,37.89718],[127.4941,37.89714],[127.49397,37.89709],[127.49392,37.89703],[127.49381,37.89705],[127.49381,37.89709],[127.49365,37.89708],[127.49367,37.89698],[127.49363,37.89698],[127.49363,37.8969],[127.49402,37.89693],[127.49411,37.89695],[127.49413,37.89702],[127.49435,37.89704],[127.49435,37.89726],[127.4944,37.89726],[127.49439,37.89731],[127.49433,37.89731]]]}},{"type":"Feature","properties":{"valleyId":"baekdunri","layer":"shadow","date":"2026-08-01","timeLocal":"18:00"},"geometry":{"type":"Polygon","coordinates":[[[127.49463,37.89706],[127.49454,37.89697],[127.49454,37.89684],[127.49465,37.89686],[127.49465,37.89697],[127.4947,37.89699],[127.4947,37.89706],[127.49463,37.89706]]]}},{"type":"Feature","properties":{"valleyId":"baekdunri","layer":"shadow","date":"2026-08-01","timeLocal":"18:00"},"geometry":{"type":"Polygon","coordinates":[[[127.49429,37.89677],[127.49418,37.89669],[127.49416,37.8966],[127.49409,37.89657],[127.49409,37.89651],[127.49421,37.89652],[127.49427,37.89657],[127.49427,37.89666],[127.49436,37.8967],[127.49436,37.89677],[127.49429,37.89677]]]}},{"type":"Feature","properties":{"valleyId":"baekdunri","layer":"shadow","date":"2026-08-01","timeLocal":"18:00"},"geometry":{"type":"Polygon","coordinates":[[[127.4912,37.89662],[127.49123,37.89651],[127.49143,37.89648],[127.49148,37.89641],[127.49159,37.89639],[127.49159,37.89648],[127.49155,37.8965],[127.49154,37.89654],[127.49132,37.89662],[127.4912,37.89662]]]}},{"type":"Feature","properties":{"valleyId":"baekdunri","layer":"shadow","date":"2026-08-01","timeLocal":"18:00"},"geometry":{"type":"Polygon","coordinates":[[[127.48908,37.89676],[127.48909,37.89649],[127.489,37.89648],[127.489,37.89643],[127.48905,37.89639],[127.48916,37.8964],[127.48921,37.89632],[127.48927,37.89633],[127.48932,37.89634],[127.48932,37.89643],[127.48925,37.89652],[127.48924,37.89669],[127.48915,37.89676],[127.48908,37.89676]]]}},{"type":"Feature","properties":{"valleyId":"baekdunri","layer":"shadow","date":"2026-08-01","timeLocal":"18:00"},"geometry":{"type":"Polygon","coordinates":[[[127.49398,37.89651],[127.49382,37.89644],[127.49382,37.89637],[127.49394,37.89637],[127.49405,37.89644],[127.49405,37.89651],[127.49398,37.89651]]]}},{"type":"Feature","properties":{"valleyId":"baekdunri","layer":"shadow","date":"2026-08-01","timeLocal":"18:00"},"geometry":{"type":"Polygon","coordinates":[[[127.49287,37.89643],[127.49287,37.89635],[127.49282,37.89635],[127.49278,37.8963],[127.49271,37.8963],[127.49267,37.89624],[127.4926,37.89624],[127.4926,37.89619],[127.4928,37.89623],[127.49285,37.89628],[127.493,37.89634],[127.493,37.89641],[127.49287,37.89643]]]}},{"type":"Feature","properties":{"valleyId":"baekdunri","layer":"shadow","date":"2026-08-01","timeLocal":"18:00"},"geometry":{"type":"Polygon","coordinates":[[[127.49237,37.89622],[127.49237,37.89617],[127.49246,37.89617],[127.49246,37.89622],[127.49237,37.89622]]]}},{"type":"Feature","properties":{"valleyId":"baekdunri","layer":"shadow","date":"2026-08-01","timeLocal":"18:00"},"geometry":{"type":"Polygon","coordinates":[[[127.49198,37.89623],[127.49199,37.89613],[127.49219,37.89613],[127.49219,37.89618],[127.49214,37.89618],[127.49207,37.89624],[127.49198,37.89623]]]}},{"type":"Feature","properties":{"valleyId":"baekdunri","layer":"shadow","date":"2026-08-01","timeLocal":"18:00"},"geometry":{"type":"Polygon","coordinates":[[[127.49328,37.89638],[127.49328,37.89625],[127.49335,37.89614],[127.4934,37.89611],[127.49349,37.89611],[127.49346,37.89631],[127.49334,37.89638],[127.49328,37.89638]]]}},{"type":"Feature","properties":{"valleyId":"baekdunri","layer":"shadow","date":"2026-08-01","timeLocal":"18:00"},"geometry":{"type":"Polygon","coordinates":[[[127.49294,37.89616],[127.49294,37.89607],[127.49315,37.89609],[127.49314,37.89616],[127.49294,37.89616]]]}},{"type":"Feature","properties":{"valleyId":"baekdunri","layer":"shadow","date":"2026-08-01","timeLocal":"18:00"},"geometry":{"type":"Polygon","coordinates":[[[127.4957,37.89599],[127.4957,37.89592],[127.49577,37.89592],[127.49576,37.89599],[127.4957,37.89599]]]}},{"type":"Feature","properties":{"valleyId":"baekdunri","layer":"shadow","date":"2026-08-01","timeLocal":"18:00"},"geometry":{"type":"Polygon","coordinates":[[[127.49347,37.89593],[127.49345,37.89586],[127.49354,37.89586],[127.49356,37.89593],[127.49347,37.89593]]]}},{"type":"Feature","properties":{"valleyId":"baekdunri","layer":"shadow","date":"2026-08-01","timeLocal":"18:00"},"geometry":{"type":"Polygon","coordinates":[[[127.49313,37.89585],[127.49311,37.8958],[127.49302,37.8958],[127.49302,37.89574],[127.49311,37.89574],[127.49311,37.89578],[127.49327,37.89578],[127.49326,37.89585],[127.49313,37.89585]]]}},{"type":"Feature","properties":{"valleyId":"baekdunri","layer":"shadow","date":"2026-08-01","timeLocal":"18:00"},"geometry":{"type":"Polygon","coordinates":[[[127.50168,37.89823],[127.50168,37.89818],[127.50186,37.89809],[127.50187,37.89795],[127.50193,37.89789],[127.502,37.89789],[127.5021,37.89781],[127.50255,37.89774],[127.5026,37.8977],[127.50265,37.89742],[127.50274,37.89738],[127.50283,37.89729],[127.50288,37.89729],[127.50295,37.8972],[127.50313,37.89717],[127.5032,37.89708],[127.50329,37.89708],[127.50329,37.89705],[127.50339,37.89701],[127.50339,37.89688],[127.50346,37.89678],[127.50349,37.89658],[127.50355,37.89653],[127.50356,37.89649],[127.50367,37.89644],[127.50372,37.89637],[127.50385,37.89635],[127.50392,37.89622],[127.50393,37.89603],[127.50402,37.89594],[127.50402,37.89585],[127.50459,37.89593],[127.5047,37.89596],[127.5047,37.896],[127.50482,37.896],[127.50504,37.89609],[127.50504,37.89615],[127.50499,37.89617],[127.50495,37.89627],[127.50494,37.89645],[127.50481,37.89645],[127.50476,37.89652],[127.50467,37.89656],[127.50467,37.89661],[127.5046,37.89665],[127.5046,37.89672],[127.50455,37.89672],[127.50455,37.89681],[127.50464,37.89685],[127.50464,37.8969],[127.50445,37.89704],[127.50439,37.89704],[127.50439,37.89697],[127.50441,37.89684],[127.50448,37.89677],[127.50451,37.89659],[127.50437,37.89657],[127.50437,37.89668],[127.50432,37.89668],[127.50432,37.89677],[127.50421,37.89684],[127.50423,37.89699],[127.50409,37.89707],[127.50409,37.89711],[127.50404,37.89711],[127.50404,37.89715],[127.5039,37.89725],[127.5039,37.89752],[127.50351,37.89752],[127.50349,37.89755],[127.50337,37.89757],[127.50337,37.89761],[127.50324,37.89762],[127.50321,37.89778],[127.5028,37.89778],[127.50262,37.89787],[127.50253,37.89786],[127.50253,37.8979],[127.50244,37.8979],[127.50237,37.89792],[127.50237,37.89795],[127.50223,37.89797],[127.50218,37.89804],[127.50209,37.89804],[127.50207,37.89809],[127.50195,37.89811],[127.50195,37.89815],[127.50182,37.89818],[127.50175,37.89823],[127.50168,37.89823]],[[127.50442,37.89647],[127.50449,37.89647],[127.50456,37.89632],[127.50465,37.89625],[127.50468,37.89609],[127.50459,37.89609],[127.50454,37.89612],[127.50449,37.8963],[127.5044,37.89634],[127.50442,37.89647]],[[127.50463,37.89641],[127.50472,37.89641],[127.50472,37.89634],[127.50465,37.89634],[127.50463,37.89641]]]}},{"type":"Feature","properties":{"valleyId":"baekdunri","layer":"shadow","date":"2026-08-01","timeLocal":"18:00"},"geometry":{"type":"Polygon","coordinates":[[[127.49368,37.89568],[127.49368,37.89563],[127.49375,37.89563],[127.49375,37.89568],[127.49368,37.89568]]]}},{"type":"Feature","properties":{"valleyId":"baekdunri","layer":"shadow","date":"2026-08-01","timeLocal":"18:00"},"geometry":{"type":"Polygon","coordinates":[[[127.48777,37.89995],[127.48777,37.89988],[127.48791,37.89961],[127.4881,37.89945],[127.48816,37.89943],[127.48815,37.89927],[127.48824,37.89921],[127.48837,37.89922],[127.48838,37.89913],[127.48847,37.89909],[127.48849,37.89902],[127.48856,37.89902],[127.48858,37.89907],[127.48876,37.89908],[127.48879,37.89897],[127.48872,37.89897],[127.48872,37.8989],[127.48881,37.8989],[127.48886,37.89886],[127.48886,37.89879],[127.48902,37.89877],[127.48902,37.89867],[127.48911,37.89861],[127.48919,37.89845],[127.48912,37.89845],[127.48903,37.8985],[127.48898,37.89865],[127.48886,37.89866],[127.48886,37.89877],[127.48872,37.89877],[127.4887,37.89886],[127.48863,37.89886],[127.48859,37.89871],[127.48877,37.89855],[127.48878,37.89846],[127.48884,37.89843],[127.48885,37.89839],[127.48896,37.89839],[127.48903,37.89834],[127.48905,37.8982],[127.48912,37.89816],[127.48912,37.89811],[127.48903,37.89807],[127.48897,37.89796],[127.48883,37.89787],[127.48867,37.89787],[127.48854,37.89781],[127.48838,37.89781],[127.48815,37.89786],[127.48792,37.89786],[127.48774,37.89782],[127.48765,37.89776],[127.48763,37.89769],[127.48752,37.8976],[127.48745,37.89746],[127.48746,37.8974],[127.48753,37.89731],[127.48751,37.89711],[127.48767,37.8971],[127.48778,37.89719],[127.48789,37.89719],[127.48792,37.8971],[127.48798,37.8971],[127.48801,37.89714],[127.48819,37.89714],[127.48819,37.89707],[127.4878,37.89703],[127.48771,37.89697],[127.48747,37.89693],[127.48749,37.89683],[127.48756,37.89675],[127.48763,37.89659],[127.48772,37.89658],[127.48777,37.89663],[127.48793,37.89667],[127.48797,37.89671],[127.48845,37.89669],[127.48849,37.89673],[127.48856,37.89673],[127.48861,37.89679],[127.4889,37.89679],[127.4889,37.89688],[127.48894,37.89688],[127.48894,37.89693],[127.4889,37.89693],[127.48887,37.89697],[127.4886,37.89697],[127.48856,37.897],[127.48855,37.89706],[127.48865,37.89706],[127.48871,37.89711],[127.48876,37.89711],[127.4888,37.89715],[127.48882,37.89724],[127.48903,37.89726],[127.48909,37.89737],[127.48914,37.89739],[127.48914,37.89751],[127.48918,37.89755],[127.48943,37.89755],[127.48946,37.89746],[127.48952,37.89743],[127.48953,37.89737],[127.48948,37.89734],[127.48925,37.89735],[127.48919,37.89733],[127.48919,37.89728],[127.48928,37.89726],[127.4893,37.89723],[127.48948,37.89716],[127.48958,37.89705],[127.48958,37.89698],[127.48954,37.89692],[127.48954,37.89687],[127.48958,37.89685],[127.48957,37.89653],[127.48961,37.89649],[127.48966,37.89637],[127.48971,37.89635],[127.48975,37.89622],[127.48985,37.89617],[127.48985,37.89613],[127.48998,37.8961],[127.49001,37.89606],[127.49015,37.89601],[127.49028,37.896],[127.49037,37.89593],[127.49038,37.89575],[127.49031,37.89569],[127.49034,37.89556],[127.4904,37.89557],[127.49047,37.89551],[127.49061,37.89548],[127.4907,37.89548],[127.49077,37.8955],[127.49088,37.89561],[127.49099,37.89561],[127.49102,37.89568],[127.49095,37.89568],[127.49097,37.89582],[127.49092,37.89586],[127.49092,37.89593],[127.49067,37.89597],[127.49055,37.89604],[127.49055,37.89607],[127.49035,37.89611],[127.49032,37.89625],[127.49028,37.89628],[127.49016,37.8963],[127.49009,37.89635],[127.49009,37.8965],[127.49013,37.89655],[127.49025,37.89655],[127.49036,37.89641],[127.49055,37.8964],[127.49073,37.89629],[127.49089,37.89629],[127.49101,37.89622],[127.49112,37.89622],[127.49133,37.89615],[127.49139,37.89608],[127.49162,37.89607],[127.49176,37.896],[127.49183,37.896],[127.4918,37.89609],[127.49167,37.8961],[127.49169,37.89619],[127.49189,37.89623],[127.49189,37.89629],[127.4918,37.8963],[127.4918,37.89634],[127.49162,37.89637],[127.49162,37.89625],[127.49157,37.89621],[127.49141,37.89621],[127.49137,37.89626],[127.49125,37.89628],[127.49125,37.89635],[127.49118,37.8964],[127.49102,37.89642],[127.49098,37.89651],[127.491,37.89665],[127.49088,37.89667],[127.49086,37.89654],[127.49073,37.89654],[127.49068,37.89658],[127.49059,37.89658],[127.49052,37.89661],[127.49052,37.89667],[127.49075,37.89669],[127.49074,37.89674],[127.49065,37.89676],[127.49065,37.89679],[127.49051,37.89685],[127.49051,37.89688],[127.49042,37.89692],[127.49042,37.89695],[127.49038,37.89695],[127.49033,37.89702],[127.49028,37.89702],[127.49028,37.8971],[127.4904,37.8971],[127.49039,37.89715],[127.4903,37.89719],[127.49026,37.89729],[127.49025,37.89762],[127.49011,37.89762],[127.49002,37.89774],[127.49002,37.8978],[127.4899,37.89781],[127.4899,37.89815],[127.48978,37.89815],[127.48974,37.89824],[127.48969,37.89824],[127.48969,37.89828],[127.48957,37.89837],[127.48954,37.89869],[127.48923,37.8987],[127.4892,37.8989],[127.48909,37.8989],[127.48899,37.89897],[127.48899,37.89906],[127.48895,37.89906],[127.48892,37.89917],[127.48885,37.89919],[127.48885,37.89935],[127.48878,37.89938],[127.48873,37.89949],[127.48857,37.89949],[127.48853,37.89952],[127.4885,37.89976],[127.48834,37.89976],[127.48834,37.89983],[127.48825,37.89988],[127.48816,37.89988],[127.48816,37.89984],[127.48809,37.89984],[127.48806,37.8999],[127.48795,37.89991],[127.48795,37.89995],[127.48777,37.89995]],[[127.48919,37.89845],[127.48925,37.89845],[127.4893,37.89842],[127.48932,37.89831],[127.48923,37.89831],[127.48919,37.89834],[127.48919,37.89845]],[[127.48935,37.8982],[127.48951,37.89819],[127.48953,37.8981],[127.4894,37.89808],[127.48935,37.89811],[127.48935,37.8982]],[[127.4897,37.89765],[127.48979,37.89765],[127.48979,37.89761],[127.48984,37.89759],[127.48991,37.89743],[127.48996,37.89742],[127.48996,37.89733],[127.49003,37.89731],[127.49003,37.89725],[127.4901,37.89718],[127.4901,37.89711],[127.49017,37.89708],[127.49017,37.89704],[127.49022,37.89704],[127.49024,37.89697],[127.49029,37.89695],[127.49029,37.89688],[127.49017,37.8969],[127.49013,37.89697],[127.49006,37.897],[127.49006,37.89706],[127.49001,37.89709],[127.48994,37.89709],[127.48989,37.89713],[127.48989,37.89718],[127.48983,37.8972],[127.48982,37.89725],[127.48975,37.89732],[127.48975,37.89752],[127.4897,37.89765]]]}}]}
