{"type":"FeatureCollection","metadata":{"description":"개방지(CHM ≤ 2 m)에 드리운 나무·지형 그림자, 2026-08-01 17:00 KST. canopy 위에 겹쳐 그린다","source":"위성 기반 추정 — Copernicus GLO-30 지형(30 m) + Meta/WRI 수관 높이(1 m CHM, 2016~2019 촬영). 그늘 = 수관(CHM > 2 m) ∪ 나무·지형 그림자 ∪ 원거리 지형 마스크. 현장과 다를 수 있음.","datasetVersion":"2026-09-06.0","collectedAt":"2026-09-06","coordinateOrder":"[longitude, latitude]","crs":"EPSG:4326","representativeDate":"2026-08-01","hours":["10:00","11:00","12:00","13:00","14:00","15:00","16:00","17:00","18:00"],"chmAcquisition":["2016-12","2018-03","2019-03"],"assets":{"glo30":{"dataset":"Copernicus DEM GLO-30 (COG, s3://copernicus-dem-30m)","tiles":["Copernicus_DSM_COG_10_N38_00_E127_00_DEM"]},"chm":{"dataset":"Meta/WRI Global Canopy Height Map v1 (alsgedi_global_v6_float, 1 m, CC-BY 4.0)","quadkeys":["132110302"],"acquisition":["2016-12","2018-03","2019-03"]}},"method":{"gridResM":2,"canopyThresholdM":2,"bufferHalfM":25,"corridorHalfM":200,"simplifyTolM":2,"minAreaM2":25,"coordDecimals":5},"generator":"scripts/shade 0.1.0","builtAt":"2026-09-06T06:07:37Z","layer":"shadow","timeLocal":"17:00"},"features":[{"type":"Feature","properties":{"valleyId":"dongmak","layer":"shadow","date":"2026-08-01","timeLocal":"17:00"},"geometry":{"type":"Polygon","coordinates":[[[127.11635,38.1097],[127.11633,38.10959],[127.11642,38.1095],[127.11647,38.10932],[127.11634,38.10921],[127.11632,38.10914],[127.11623,38.10906],[127.11621,38.10897],[127.11616,38.10897],[127.11612,38.10888],[127.11603,38.10883],[127.11603,38.10877],[127.11637,38.10878],[127.11637,38.10901],[127.11641,38.10905],[127.11671,38.10905],[127.1167,38.10949],[127.11677,38.10949],[127.11679,38.10958],[127.11649,38.10959],[127.11642,38.10964],[127.11642,38.1097],[127.11635,38.1097]]]}},{"type":"Feature","properties":{"valleyId":"dongmak","layer":"shadow","date":"2026-08-01","timeLocal":"17:00"},"geometry":{"type":"Polygon","coordinates":[[[127.11596,38.10875],[127.11587,38.10868],[127.11578,38.10866],[127.11578,38.10859],[127.11572,38.10855],[127.1157,38.10843],[127.11577,38.10843],[127.11581,38.1085],[127.11604,38.1085],[127.11603,38.10876],[127.11596,38.10875]]]}},{"type":"Feature","properties":{"valleyId":"dongmak","layer":"shadow","date":"2026-08-01","timeLocal":"17:00"},"geometry":{"type":"Polygon","coordinates":[[[127.11974,38.10827],[127.11974,38.1082],[127.11983,38.10819],[127.11986,38.10815],[127.11992,38.10815],[127.1199,38.10824],[127.11974,38.10827]]]}},{"type":"Feature","properties":{"valleyId":"dongmak","layer":"shadow","date":"2026-08-01","timeLocal":"17:00"},"geometry":{"type":"Polygon","coordinates":[[[127.11561,38.10837],[127.11557,38.10824],[127.11541,38.1081],[127.11539,38.10799],[127.1155,38.10801],[127.11555,38.10815],[127.11566,38.10824],[127.11568,38.10837],[127.11561,38.10837]]]}},{"type":"Feature","properties":{"valleyId":"dongmak","layer":"shadow","date":"2026-08-01","timeLocal":"17:00"},"geometry":{"type":"Polygon","coordinates":[[[127.11992,38.10815],[127.11993,38.1081],[127.11997,38.10806],[127.11998,38.10795],[127.12002,38.10795],[127.12009,38.10788],[127.12012,38.10761],[127.12024,38.10754],[127.12049,38.10753],[127.1205,38.10776],[127.12041,38.10776],[127.12039,38.10782],[127.12027,38.1079],[127.12023,38.1079],[127.12023,38.10796],[127.12009,38.10797],[127.12004,38.10815],[127.11992,38.10815]]]}},{"type":"Feature","properties":{"valleyId":"dongmak","layer":"shadow","date":"2026-08-01","timeLocal":"17:00"},"geometry":{"type":"Polygon","coordinates":[[[127.11532,38.10795],[127.1153,38.10788],[127.11523,38.10784],[127.11521,38.10777],[127.11506,38.10762],[127.11497,38.1074],[127.11504,38.10741],[127.11504,38.10746],[127.11522,38.10762],[127.11522,38.10768],[127.11537,38.10768],[127.11539,38.10795],[127.11532,38.10795]]]}},{"type":"Feature","properties":{"valleyId":"dongmak","layer":"shadow","date":"2026-08-01","timeLocal":"17:00"},"geometry":{"type":"Polygon","coordinates":[[[127.12054,38.10739],[127.12054,38.10731],[127.12065,38.1073],[127.12065,38.10737],[127.12054,38.10739]]]}},{"type":"Feature","properties":{"valleyId":"dongmak","layer":"shadow","date":"2026-08-01","timeLocal":"17:00"},"geometry":{"type":"Polygon","coordinates":[[[127.11484,38.10726],[127.11484,38.10722],[127.11475,38.10715],[127.11475,38.10708],[127.11484,38.10708],[127.11484,38.10715],[127.11491,38.10721],[127.11491,38.10726],[127.11484,38.10726]]]}},{"type":"Feature","properties":{"valleyId":"dongmak","layer":"shadow","date":"2026-08-01","timeLocal":"17:00"},"geometry":{"type":"Polygon","coordinates":[[[127.12085,38.10752],[127.12086,38.10744],[127.1209,38.10743],[127.12097,38.1073],[127.12102,38.1073],[127.12105,38.10712],[127.12118,38.10714],[127.12118,38.10725],[127.12104,38.1073],[127.12104,38.10739],[127.12097,38.10743],[127.12094,38.10752],[127.12085,38.10752]]]}},{"type":"Feature","properties":{"valleyId":"dongmak","layer":"shadow","date":"2026-08-01","timeLocal":"17:00"},"geometry":{"type":"Polygon","coordinates":[[[127.1207,38.10719],[127.1207,38.10712],[127.12075,38.10712],[127.12078,38.10699],[127.12084,38.10699],[127.12084,38.1071],[127.12077,38.10712],[127.12077,38.10719],[127.1207,38.10719]]]}},{"type":"Feature","properties":{"valleyId":"dongmak","layer":"shadow","date":"2026-08-01","timeLocal":"17:00"},"geometry":{"type":"Polygon","coordinates":[[[127.1171,38.10639],[127.11712,38.1063],[127.11719,38.1063],[127.11719,38.10638],[127.1171,38.10639]]]}},{"type":"Feature","properties":{"valleyId":"dongmak","layer":"shadow","date":"2026-08-01","timeLocal":"17:00"},"geometry":{"type":"Polygon","coordinates":[[[127.11552,38.1057],[127.11552,38.10561],[127.11561,38.10561],[127.11561,38.10568],[127.11552,38.1057]]]}},{"type":"Feature","properties":{"valleyId":"dongmak","layer":"shadow","date":"2026-08-01","timeLocal":"17:00"},"geometry":{"type":"Polygon","coordinates":[[[127.11531,38.10557],[127.11532,38.1055],[127.11541,38.1055],[127.11541,38.10556],[127.11531,38.10557]]]}},{"type":"Feature","properties":{"valleyId":"dongmak","layer":"shadow","date":"2026-08-01","timeLocal":"17:00"},"geometry":{"type":"Polygon","coordinates":[[[127.11466,38.10702],[127.11466,38.10691],[127.11462,38.10689],[127.11458,38.10662],[127.11452,38.10648],[127.11447,38.10646],[127.11448,38.1063],[127.11441,38.10624],[127.11432,38.10624],[127.11429,38.10628],[127.11391,38.10629],[127.11388,38.10632],[127.11361,38.10632],[127.11345,38.10628],[127.11343,38.10624],[127.11343,38.10619],[127.11352,38.10617],[127.11352,38.10614],[127.11361,38.10612],[127.11364,38.10609],[127.11387,38.10605],[127.11391,38.10596],[127.11407,38.106],[127.11412,38.10591],[127.11419,38.1059],[127.11419,38.10586],[127.11444,38.10585],[127.11442,38.1057],[127.11433,38.10556],[127.11432,38.10536],[127.11439,38.10536],[127.11438,38.10539],[127.11443,38.10541],[127.11443,38.10556],[127.11447,38.10556],[127.11454,38.10561],[127.11454,38.10565],[127.11458,38.10565],[127.11472,38.10578],[127.11508,38.10578],[127.11507,38.10604],[127.11516,38.10613],[127.11516,38.10622],[127.11512,38.10624],[127.11511,38.10645],[127.11506,38.10647],[127.11506,38.1066],[127.11492,38.10659],[127.11472,38.10672],[127.11473,38.10702],[127.11466,38.10702]]]}},{"type":"Feature","properties":{"valleyId":"dongmak","layer":"shadow","date":"2026-08-01","timeLocal":"17:00"},"geometry":{"type":"Polygon","coordinates":[[[127.11427,38.1053],[127.11425,38.10519],[127.11432,38.1052],[127.11434,38.1053],[127.11427,38.1053]]]}},{"type":"Feature","properties":{"valleyId":"dongmak","layer":"shadow","date":"2026-08-01","timeLocal":"17:00"},"geometry":{"type":"Polygon","coordinates":[[[127.11412,38.10514],[127.11412,38.10505],[127.11419,38.10505],[127.11421,38.10514],[127.11412,38.10514]]]}},{"type":"Feature","properties":{"valleyId":"dongmak","layer":"shadow","date":"2026-08-01","timeLocal":"17:00"},"geometry":{"type":"Polygon","coordinates":[[[127.11405,38.10505],[127.11401,38.10492],[127.11403,38.10485],[127.1141,38.10485],[127.11412,38.10505],[127.11405,38.10505]]]}},{"type":"Feature","properties":{"valleyId":"dongmak","layer":"shadow","date":"2026-08-01","timeLocal":"17:00"},"geometry":{"type":"Polygon","coordinates":[[[127.1134,38.10475],[127.1134,38.10466],[127.11347,38.10466],[127.11347,38.10475],[127.1134,38.10475]]]}},{"type":"Feature","properties":{"valleyId":"dongmak","layer":"shadow","date":"2026-08-01","timeLocal":"17:00"},"geometry":{"type":"Polygon","coordinates":[[[127.1139,38.10459],[127.1139,38.10452],[127.11386,38.10447],[127.11386,38.10432],[127.1138,38.1042],[127.1138,38.10409],[127.11387,38.10409],[127.11387,38.1042],[127.11391,38.10423],[127.11393,38.10432],[127.11393,38.10447],[127.11397,38.10452],[127.11397,38.10459],[127.1139,38.10459]]]}},{"type":"Feature","properties":{"valleyId":"dongmak","layer":"shadow","date":"2026-08-01","timeLocal":"17:00"},"geometry":{"type":"Polygon","coordinates":[[[127.11539,38.10355],[127.11539,38.10343],[127.11548,38.10343],[127.11546,38.10356],[127.11539,38.10355]]]}},{"type":"Feature","properties":{"valleyId":"dongmak","layer":"shadow","date":"2026-08-01","timeLocal":"17:00"},"geometry":{"type":"Polygon","coordinates":[[[127.11072,38.1033],[127.11072,38.10325],[127.11079,38.10325],[127.11079,38.1033],[127.11072,38.1033]]]}},{"type":"Feature","properties":{"valleyId":"dongmak","layer":"shadow","date":"2026-08-01","timeLocal":"17:00"},"geometry":{"type":"Polygon","coordinates":[[[127.11014,38.10297],[127.11011,38.10289],[127.11021,38.10289],[127.1102,38.10297],[127.11014,38.10297]]]}},{"type":"Feature","properties":{"valleyId":"dongmak","layer":"shadow","date":"2026-08-01","timeLocal":"17:00"},"geometry":{"type":"Polygon","coordinates":[[[127.10931,38.10155],[127.10931,38.10147],[127.10938,38.10148],[127.10937,38.10155],[127.10931,38.10155]]]}},{"type":"Feature","properties":{"valleyId":"dongmak","layer":"shadow","date":"2026-08-01","timeLocal":"17:00"},"geometry":{"type":"Polygon","coordinates":[[[127.10681,38.10122],[127.10679,38.10111],[127.10685,38.10111],[127.10687,38.10122],[127.10681,38.10122]]]}},{"type":"Feature","properties":{"valleyId":"dongmak","layer":"shadow","date":"2026-08-01","timeLocal":"17:00"},"geometry":{"type":"Polygon","coordinates":[[[127.10889,38.10103],[127.10875,38.10091],[127.10876,38.10078],[127.10889,38.1008],[127.10891,38.10096],[127.10896,38.10098],[127.10895,38.10104],[127.10889,38.10103]]]}},{"type":"Feature","properties":{"valleyId":"dongmak","layer":"shadow","date":"2026-08-01","timeLocal":"17:00"},"geometry":{"type":"Polygon","coordinates":[[[127.10855,38.10072],[127.10856,38.10056],[127.10853,38.10051],[127.10844,38.10047],[127.10843,38.10027],[127.10838,38.10013],[127.10834,38.10009],[127.10834,38.09998],[127.1083,38.09998],[127.1083,38.09991],[127.10837,38.09991],[127.10837,38.09998],[127.10843,38.09998],[127.10843,38.10009],[127.10852,38.10024],[127.10858,38.10051],[127.10865,38.10054],[127.10862,38.10072],[127.10855,38.10072]]]}},{"type":"Feature","properties":{"valleyId":"dongmak","layer":"shadow","date":"2026-08-01","timeLocal":"17:00"},"geometry":{"type":"Polygon","coordinates":[[[127.10789,38.09981],[127.10787,38.09965],[127.10794,38.09965],[127.10796,38.09981],[127.10789,38.09981]]]}},{"type":"Feature","properties":{"valleyId":"dongmak","layer":"shadow","date":"2026-08-01","timeLocal":"17:00"},"geometry":{"type":"Polygon","coordinates":[[[127.10806,38.09947],[127.10806,38.0994],[127.10817,38.09942],[127.10817,38.09947],[127.10806,38.09947]]]}},{"type":"Feature","properties":{"valleyId":"dongmak","layer":"shadow","date":"2026-08-01","timeLocal":"17:00"},"geometry":{"type":"Polygon","coordinates":[[[127.10777,38.09932],[127.10777,38.09925],[127.10784,38.09925],[127.10783,38.09932],[127.10777,38.09932]]]}},{"type":"Feature","properties":{"valleyId":"dongmak","layer":"shadow","date":"2026-08-01","timeLocal":"17:00"},"geometry":{"type":"Polygon","coordinates":[[[127.1082,38.09929],[127.1082,38.09924],[127.10827,38.09924],[127.10827,38.09929],[127.1082,38.09929]]]}},{"type":"Feature","properties":{"valleyId":"dongmak","layer":"shadow","date":"2026-08-01","timeLocal":"17:00"},"geometry":{"type":"Polygon","coordinates":[[[127.108,38.09916],[127.108,38.09911],[127.10807,38.09911],[127.10807,38.09917],[127.108,38.09916]]]}},{"type":"Feature","properties":{"valleyId":"dongmak","layer":"shadow","date":"2026-08-01","timeLocal":"17:00"},"geometry":{"type":"Polygon","coordinates":[[[127.1083,38.09901],[127.1083,38.09893],[127.10839,38.09894],[127.10839,38.09901],[127.1083,38.09901]]]}},{"type":"Feature","properties":{"valleyId":"dongmak","layer":"shadow","date":"2026-08-01","timeLocal":"17:00"},"geometry":{"type":"Polygon","coordinates":[[[127.10894,38.0988],[127.10894,38.09875],[127.10904,38.09875],[127.10903,38.0988],[127.10894,38.0988]]]}},{"type":"Feature","properties":{"valleyId":"dongmak","layer":"shadow","date":"2026-08-01","timeLocal":"17:00"},"geometry":{"type":"Polygon","coordinates":[[[127.1102,38.09866],[127.1102,38.0986],[127.11027,38.09861],[127.11027,38.09866],[127.1102,38.09866]]]}},{"type":"Feature","properties":{"valleyId":"dongmak","layer":"shadow","date":"2026-08-01","timeLocal":"17:00"},"geometry":{"type":"Polygon","coordinates":[[[127.10927,38.09864],[127.10929,38.09854],[127.10936,38.09854],[127.10933,38.09864],[127.10927,38.09864]]]}},{"type":"Feature","properties":{"valleyId":"dongmak","layer":"shadow","date":"2026-08-01","timeLocal":"17:00"},"geometry":{"type":"Polygon","coordinates":[[[127.10961,38.09842],[127.10962,38.09836],[127.10968,38.09836],[127.10968,38.09842],[127.10961,38.09842]]]}},{"type":"Feature","properties":{"valleyId":"dongmak","layer":"shadow","date":"2026-08-01","timeLocal":"17:00"},"geometry":{"type":"Polygon","coordinates":[[[127.10966,38.09834],[127.10966,38.09825],[127.10973,38.09825],[127.10973,38.09834],[127.10966,38.09834]]]}},{"type":"Feature","properties":{"valleyId":"dongmak","layer":"shadow","date":"2026-08-01","timeLocal":"17:00"},"geometry":{"type":"Polygon","coordinates":[[[127.1108,38.09764],[127.1108,38.09757],[127.11087,38.09757],[127.11087,38.09764],[127.1108,38.09764]]]}},{"type":"Feature","properties":{"valleyId":"dongmak","layer":"shadow","date":"2026-08-01","timeLocal":"17:00"},"geometry":{"type":"Polygon","coordinates":[[[127.10989,38.09819],[127.10995,38.09779],[127.11002,38.09774],[127.11004,38.09765],[127.11025,38.09751],[127.11032,38.09751],[127.11034,38.09758],[127.11027,38.09758],[127.11016,38.09765],[127.11015,38.09787],[127.11004,38.09786],[127.11003,38.09812],[127.10996,38.09819],[127.10989,38.09819]]]}},{"type":"Feature","properties":{"valleyId":"dongmak","layer":"shadow","date":"2026-08-01","timeLocal":"17:00"},"geometry":{"type":"Polygon","coordinates":[[[127.11041,38.09753],[127.11041,38.09745],[127.11051,38.09746],[127.1105,38.09751],[127.11041,38.09753]]]}},{"type":"Feature","properties":{"valleyId":"dongmak","layer":"shadow","date":"2026-08-01","timeLocal":"17:00"},"geometry":{"type":"Polygon","coordinates":[[[127.11132,38.09756],[127.11133,38.09736],[127.1114,38.09736],[127.11142,38.09754],[127.11132,38.09756]]]}},{"type":"Feature","properties":{"valleyId":"dongmak","layer":"shadow","date":"2026-08-01","timeLocal":"17:00"},"geometry":{"type":"Polygon","coordinates":[[[127.11091,38.09755],[127.11092,38.09726],[127.11099,38.09727],[127.11105,38.09754],[127.11091,38.09755]]]}},{"type":"Feature","properties":{"valleyId":"dongmak","layer":"shadow","date":"2026-08-01","timeLocal":"17:00"},"geometry":{"type":"Polygon","coordinates":[[[127.10867,38.09719],[127.10867,38.09708],[127.10874,38.09709],[127.10873,38.09719],[127.10867,38.09719]]]}},{"type":"Feature","properties":{"valleyId":"dongmak","layer":"shadow","date":"2026-08-01","timeLocal":"17:00"},"geometry":{"type":"Polygon","coordinates":[[[127.11083,38.09725],[127.11083,38.09717],[127.11079,38.09705],[127.11086,38.09705],[127.11088,38.09716],[127.11092,38.09719],[127.11092,38.09725],[127.11083,38.09725]]]}},{"type":"Feature","properties":{"valleyId":"dongmak","layer":"shadow","date":"2026-08-01","timeLocal":"17:00"},"geometry":{"type":"Polygon","coordinates":[[[127.11161,38.09699],[127.11161,38.09693],[127.11168,38.09693],[127.11168,38.09699],[127.11161,38.09699]]]}},{"type":"Feature","properties":{"valleyId":"dongmak","layer":"shadow","date":"2026-08-01","timeLocal":"17:00"},"geometry":{"type":"Polygon","coordinates":[[[127.11055,38.09677],[127.11055,38.0967],[127.1105,38.0967],[127.11048,38.09657],[127.11055,38.09657],[127.11057,38.0967],[127.11062,38.0967],[127.11061,38.09677],[127.11055,38.09677]]]}},{"type":"Feature","properties":{"valleyId":"dongmak","layer":"shadow","date":"2026-08-01","timeLocal":"17:00"},"geometry":{"type":"Polygon","coordinates":[[[127.11019,38.09639],[127.11017,38.09632],[127.11026,38.09632],[127.11028,38.09639],[127.11019,38.09639]]]}},{"type":"Feature","properties":{"valleyId":"dongmak","layer":"shadow","date":"2026-08-01","timeLocal":"17:00"},"geometry":{"type":"Polygon","coordinates":[[[127.10981,38.09622],[127.10981,38.09617],[127.10972,38.09615],[127.10972,38.09609],[127.10988,38.09611],[127.1099,38.09617],[127.10995,38.09617],[127.10994,38.09622],[127.10981,38.09622]]]}},{"type":"Feature","properties":{"valleyId":"dongmak","layer":"shadow","date":"2026-08-01","timeLocal":"17:00"},"geometry":{"type":"Polygon","coordinates":[[[127.10956,38.09607],[127.10956,38.09602],[127.10963,38.09602],[127.10963,38.09607],[127.10956,38.09607]]]}},{"type":"Feature","properties":{"valleyId":"dongmak","layer":"shadow","date":"2026-08-01","timeLocal":"17:00"},"geometry":{"type":"Polygon","coordinates":[[[127.11181,38.09483],[127.11181,38.09474],[127.11188,38.09474],[127.11187,38.09483],[127.11181,38.09483]]]}},{"type":"Feature","properties":{"valleyId":"dongmak","layer":"shadow","date":"2026-08-01","timeLocal":"17:00"},"geometry":{"type":"Polygon","coordinates":[[[127.10427,38.09344],[127.10423,38.09325],[127.10426,38.09292],[127.10437,38.09292],[127.10447,38.09285],[127.10447,38.09282],[127.1047,38.09268],[127.10479,38.09252],[127.10486,38.09248],[127.10491,38.09237],[127.10498,38.09237],[127.10498,38.09245],[127.10488,38.09257],[127.10488,38.09264],[127.10481,38.09271],[127.10481,38.09291],[127.10465,38.09291],[127.1046,38.09305],[127.10446,38.09312],[127.10445,38.09345],[127.10427,38.09344]]]}},{"type":"Feature","properties":{"valleyId":"dongmak","layer":"shadow","date":"2026-08-01","timeLocal":"17:00"},"geometry":{"type":"Polygon","coordinates":[[[127.10705,38.09174],[127.1071,38.0916],[127.10717,38.0916],[127.10712,38.09174],[127.10705,38.09174]]]}},{"type":"Feature","properties":{"valleyId":"dongmak","layer":"shadow","date":"2026-08-01","timeLocal":"17:00"},"geometry":{"type":"Polygon","coordinates":[[[127.10719,38.09155],[127.10719,38.09149],[127.10726,38.09149],[127.10726,38.09155],[127.10719,38.09155]]]}},{"type":"Feature","properties":{"valleyId":"dongmak","layer":"shadow","date":"2026-08-01","timeLocal":"17:00"},"geometry":{"type":"Polygon","coordinates":[[[127.1074,38.09149],[127.1074,38.09144],[127.10745,38.09144],[127.10745,38.09139],[127.10749,38.09139],[127.10747,38.09128],[127.10759,38.09128],[127.10761,38.09137],[127.10756,38.09137],[127.10756,38.09141],[127.10747,38.09144],[127.10747,38.0915],[127.1074,38.09149]]]}},{"type":"Feature","properties":{"valleyId":"dongmak","layer":"shadow","date":"2026-08-01","timeLocal":"17:00"},"geometry":{"type":"Polygon","coordinates":[[[127.10736,38.09119],[127.10734,38.09112],[127.10741,38.09106],[127.10748,38.09106],[127.10743,38.09119],[127.10736,38.09119]]]}},{"type":"Feature","properties":{"valleyId":"dongmak","layer":"shadow","date":"2026-08-01","timeLocal":"17:00"},"geometry":{"type":"Polygon","coordinates":[[[127.10777,38.0911],[127.10777,38.09105],[127.10784,38.09105],[127.10784,38.09111],[127.10777,38.0911]]]}},{"type":"Feature","properties":{"valleyId":"dongmak","layer":"shadow","date":"2026-08-01","timeLocal":"17:00"},"geometry":{"type":"Polygon","coordinates":[[[127.10821,38.091],[127.10823,38.09093],[127.10832,38.09093],[127.1083,38.091],[127.10821,38.091]]]}},{"type":"Feature","properties":{"valleyId":"dongmak","layer":"shadow","date":"2026-08-01","timeLocal":"17:00"},"geometry":{"type":"Polygon","coordinates":[[[127.10832,38.09093],[127.10833,38.09082],[127.10846,38.09083],[127.10846,38.0909],[127.10832,38.09093]]]}},{"type":"Feature","properties":{"valleyId":"dongmak","layer":"shadow","date":"2026-08-01","timeLocal":"17:00"},"geometry":{"type":"Polygon","coordinates":[[[127.10869,38.09081],[127.1087,38.09072],[127.10877,38.09067],[127.10886,38.09067],[127.10885,38.09073],[127.10881,38.09074],[127.10878,38.09081],[127.10869,38.09081]]]}},{"type":"Feature","properties":{"valleyId":"dongmak","layer":"shadow","date":"2026-08-01","timeLocal":"17:00"},"geometry":{"type":"Polygon","coordinates":[[[127.10952,38.09048],[127.10952,38.09043],[127.10959,38.09043],[127.10959,38.09048],[127.10952,38.09048]]]}},{"type":"Feature","properties":{"valleyId":"dongmak","layer":"shadow","date":"2026-08-01","timeLocal":"17:00"},"geometry":{"type":"Polygon","coordinates":[[[127.1095,38.0903],[127.10951,38.09025],[127.10957,38.09025],[127.10957,38.0903],[127.1095,38.0903]]]}},{"type":"Feature","properties":{"valleyId":"dongmak","layer":"shadow","date":"2026-08-01","timeLocal":"17:00"},"geometry":{"type":"Polygon","coordinates":[[[127.10944,38.09023],[127.10939,38.09017],[127.10939,38.09012],[127.10946,38.09012],[127.10951,38.09018],[127.10951,38.09023],[127.10944,38.09023]]]}},{"type":"Feature","properties":{"valleyId":"dongmak","layer":"shadow","date":"2026-08-01","timeLocal":"17:00"},"geometry":{"type":"Polygon","coordinates":[[[127.10981,38.09006],[127.10981,38.08997],[127.10988,38.08997],[127.10988,38.09006],[127.10981,38.09006]]]}},{"type":"Feature","properties":{"valleyId":"dongmak","layer":"shadow","date":"2026-08-01","timeLocal":"17:00"},"geometry":{"type":"Polygon","coordinates":[[[127.10896,38.09008],[127.10892,38.09001],[127.10892,38.08992],[127.10899,38.08992],[127.10906,38.09001],[127.10905,38.09008],[127.10896,38.09008]]]}},{"type":"Feature","properties":{"valleyId":"dongmak","layer":"shadow","date":"2026-08-01","timeLocal":"17:00"},"geometry":{"type":"Polygon","coordinates":[[[127.10933,38.09012],[127.10933,38.09007],[127.10929,38.0899],[127.10938,38.08992],[127.10939,38.09012],[127.10933,38.09012]]]}}]}
