{"type":"FeatureCollection","metadata":{"description":"개방지(CHM ≤ 2 m)에 드리운 나무·지형 그림자, 2026-08-01 16:00 KST. canopy 위에 겹쳐 그린다","source":"위성 기반 추정 — Copernicus GLO-30 지형(30 m) + Meta/WRI 수관 높이(1 m CHM, 2016~2019 촬영). 그늘 = 수관(CHM > 2 m) ∪ 나무·지형 그림자 ∪ 원거리 지형 마스크. 현장과 다를 수 있음.","datasetVersion":"2026-09-06.0","collectedAt":"2026-09-06","coordinateOrder":"[longitude, latitude]","crs":"EPSG:4326","representativeDate":"2026-08-01","hours":["10:00","11:00","12:00","13:00","14:00","15:00","16:00","17:00","18:00"],"chmAcquisition":["2016-12","2018-03","2019-03"],"assets":{"glo30":{"dataset":"Copernicus DEM GLO-30 (COG, s3://copernicus-dem-30m)","tiles":["Copernicus_DSM_COG_10_N38_00_E127_00_DEM"]},"chm":{"dataset":"Meta/WRI Global Canopy Height Map v1 (alsgedi_global_v6_float, 1 m, CC-BY 4.0)","quadkeys":["132110302"],"acquisition":["2016-12","2018-03","2019-03"]}},"method":{"gridResM":2,"canopyThresholdM":2,"bufferHalfM":25,"corridorHalfM":200,"simplifyTolM":2,"minAreaM2":25,"coordDecimals":5},"generator":"scripts/shade 0.1.0","builtAt":"2026-09-06T06:07:37Z","layer":"shadow","timeLocal":"16:00"},"features":[{"type":"Feature","properties":{"valleyId":"dongmak","layer":"shadow","date":"2026-08-01","timeLocal":"16:00"},"geometry":{"type":"Polygon","coordinates":[[[127.11578,38.10866],[127.11578,38.10861],[127.11585,38.10861],[127.11585,38.10866],[127.11578,38.10866]]]}},{"type":"Feature","properties":{"valleyId":"dongmak","layer":"shadow","date":"2026-08-01","timeLocal":"16:00"},"geometry":{"type":"Polygon","coordinates":[[[127.12012,38.10783],[127.12012,38.10761],[127.12019,38.10756],[127.12031,38.10754],[127.12033,38.10762],[127.12023,38.10765],[127.12018,38.10783],[127.12012,38.10783]]]}},{"type":"Feature","properties":{"valleyId":"dongmak","layer":"shadow","date":"2026-08-01","timeLocal":"16:00"},"geometry":{"type":"Polygon","coordinates":[[[127.11449,38.10648],[127.11448,38.1063],[127.11443,38.10628],[127.11443,38.10621],[127.11452,38.10621],[127.11452,38.10628],[127.11457,38.1063],[127.11456,38.10648],[127.11449,38.10648]]]}},{"type":"Feature","properties":{"valleyId":"dongmak","layer":"shadow","date":"2026-08-01","timeLocal":"16:00"},"geometry":{"type":"Polygon","coordinates":[[[127.11448,38.1061],[127.11451,38.10599],[127.11457,38.10599],[127.11455,38.1061],[127.11448,38.1061]]]}},{"type":"Feature","properties":{"valleyId":"dongmak","layer":"shadow","date":"2026-08-01","timeLocal":"16:00"},"geometry":{"type":"Polygon","coordinates":[[[127.11361,38.10632],[127.11354,38.1063],[127.11352,38.10614],[127.11361,38.10612],[127.11364,38.10609],[127.11373,38.10609],[127.11375,38.10605],[127.11387,38.10605],[127.11391,38.10596],[127.11407,38.106],[127.11412,38.10591],[127.11419,38.1059],[127.11419,38.10586],[127.11426,38.10586],[127.11425,38.10619],[127.11432,38.1062],[127.11429,38.10628],[127.11404,38.10627],[127.11391,38.10629],[127.11388,38.10632],[127.11361,38.10632]]]}},{"type":"Feature","properties":{"valleyId":"dongmak","layer":"shadow","date":"2026-08-01","timeLocal":"16:00"},"geometry":{"type":"Polygon","coordinates":[[[127.11448,38.10594],[127.11449,38.10585],[127.11444,38.10585],[127.11444,38.10579],[127.11453,38.10578],[127.11455,38.10594],[127.11448,38.10594]]]}},{"type":"Feature","properties":{"valleyId":"dongmak","layer":"shadow","date":"2026-08-01","timeLocal":"16:00"},"geometry":{"type":"Polygon","coordinates":[[[127.11531,38.10557],[127.11532,38.10552],[127.11538,38.10552],[127.11538,38.10557],[127.11531,38.10557]]]}},{"type":"Feature","properties":{"valleyId":"dongmak","layer":"shadow","date":"2026-08-01","timeLocal":"16:00"},"geometry":{"type":"Polygon","coordinates":[[[127.10875,38.10091],[127.10875,38.10083],[127.10882,38.10084],[127.10882,38.10091],[127.10875,38.10091]]]}},{"type":"Feature","properties":{"valleyId":"dongmak","layer":"shadow","date":"2026-08-01","timeLocal":"16:00"},"geometry":{"type":"Polygon","coordinates":[[[127.1099,38.09811],[127.10992,38.09793],[127.10999,38.09793],[127.10999,38.09808],[127.10996,38.09811],[127.1099,38.09811]]]}},{"type":"Feature","properties":{"valleyId":"dongmak","layer":"shadow","date":"2026-08-01","timeLocal":"16:00"},"geometry":{"type":"Polygon","coordinates":[[[127.11091,38.09753],[127.11092,38.09744],[127.11099,38.09745],[127.11098,38.09754],[127.11091,38.09753]]]}},{"type":"Feature","properties":{"valleyId":"dongmak","layer":"shadow","date":"2026-08-01","timeLocal":"16:00"},"geometry":{"type":"Polygon","coordinates":[[[127.10981,38.09622],[127.10981,38.09617],[127.10988,38.09617],[127.10988,38.09622],[127.10981,38.09622]]]}},{"type":"Feature","properties":{"valleyId":"dongmak","layer":"shadow","date":"2026-08-01","timeLocal":"16:00"},"geometry":{"type":"Polygon","coordinates":[[[127.11181,38.09483],[127.11181,38.09474],[127.11188,38.09474],[127.11187,38.09483],[127.11181,38.09483]]]}},{"type":"Feature","properties":{"valleyId":"dongmak","layer":"shadow","date":"2026-08-01","timeLocal":"16:00"},"geometry":{"type":"Polygon","coordinates":[[[127.10892,38.09001],[127.10892,38.08995],[127.10899,38.08995],[127.10899,38.09001],[127.10892,38.09001]]]}}]}
