{"type":"FeatureCollection","metadata":{"description":"개방지(CHM ≤ 2 m)에 드리운 나무·지형 그림자, 2026-08-01 18:00 KST. canopy 위에 겹쳐 그린다","source":"위성 기반 추정 — Copernicus GLO-30 지형(30 m) + Meta/WRI 수관 높이(1 m CHM, 2016~2019 촬영). 그늘 = 수관(CHM > 2 m) ∪ 나무·지형 그림자 ∪ 원거리 지형 마스크. 현장과 다를 수 있음.","datasetVersion":"2026-09-06.0","collectedAt":"2026-09-06","coordinateOrder":"[longitude, latitude]","crs":"EPSG:4326","representativeDate":"2026-08-01","hours":["10:00","11:00","12:00","13:00","14:00","15:00","16:00","17:00","18:00"],"chmAcquisition":["2016-12","2018-03","2019-03"],"assets":{"glo30":{"dataset":"Copernicus DEM GLO-30 (COG, s3://copernicus-dem-30m)","tiles":["Copernicus_DSM_COG_10_N38_00_E127_00_DEM"]},"chm":{"dataset":"Meta/WRI Global Canopy Height Map v1 (alsgedi_global_v6_float, 1 m, CC-BY 4.0)","quadkeys":["132110302"],"acquisition":["2016-12","2018-03","2019-03"]}},"method":{"gridResM":2,"canopyThresholdM":2,"bufferHalfM":25,"corridorHalfM":200,"simplifyTolM":2,"minAreaM2":25,"coordDecimals":5},"generator":"scripts/shade 0.1.0","builtAt":"2026-09-06T06:07:37Z","layer":"shadow","timeLocal":"18:00"},"features":[{"type":"Feature","properties":{"valleyId":"dongmak","layer":"shadow","date":"2026-08-01","timeLocal":"18:00"},"geometry":{"type":"Polygon","coordinates":[[[127.11846,38.10998],[127.11846,38.10993],[127.11853,38.10993],[127.11853,38.10998],[127.11846,38.10998]]]}},{"type":"Feature","properties":{"valleyId":"dongmak","layer":"shadow","date":"2026-08-01","timeLocal":"18:00"},"geometry":{"type":"Polygon","coordinates":[[[127.11945,38.10975],[127.11938,38.10971],[127.11938,38.10966],[127.11948,38.10966],[127.1195,38.10969],[127.11954,38.10969],[127.11954,38.10975],[127.11945,38.10975]]]}},{"type":"Feature","properties":{"valleyId":"dongmak","layer":"shadow","date":"2026-08-01","timeLocal":"18:00"},"geometry":{"type":"Polygon","coordinates":[[[127.12073,38.10861],[127.12074,38.10856],[127.1208,38.10856],[127.1208,38.10862],[127.12073,38.10861]]]}},{"type":"Feature","properties":{"valleyId":"dongmak","layer":"shadow","date":"2026-08-01","timeLocal":"18:00"},"geometry":{"type":"Polygon","coordinates":[[[127.1206,38.10858],[127.1206,38.1085],[127.12067,38.10851],[127.12067,38.10858],[127.1206,38.10858]]]}},{"type":"Feature","properties":{"valleyId":"dongmak","layer":"shadow","date":"2026-08-01","timeLocal":"18:00"},"geometry":{"type":"Polygon","coordinates":[[[127.11908,38.10736],[127.11908,38.10731],[127.11915,38.10731],[127.11915,38.10736],[127.11908,38.10736]]]}},{"type":"Feature","properties":{"valleyId":"dongmak","layer":"shadow","date":"2026-08-01","timeLocal":"18:00"},"geometry":{"type":"Polygon","coordinates":[[[127.12054,38.10739],[127.12054,38.10731],[127.12065,38.1073],[127.12065,38.10737],[127.12054,38.10739]]]}},{"type":"Feature","properties":{"valleyId":"dongmak","layer":"shadow","date":"2026-08-01","timeLocal":"18:00"},"geometry":{"type":"Polygon","coordinates":[[[127.11693,38.10673],[127.11693,38.10668],[127.117,38.10668],[127.117,38.10673],[127.11693,38.10673]]]}},{"type":"Feature","properties":{"valleyId":"dongmak","layer":"shadow","date":"2026-08-01","timeLocal":"18:00"},"geometry":{"type":"Polygon","coordinates":[[[127.11663,38.10669],[127.11663,38.10664],[127.1167,38.10664],[127.1167,38.10669],[127.11663,38.10669]]]}},{"type":"Feature","properties":{"valleyId":"dongmak","layer":"shadow","date":"2026-08-01","timeLocal":"18:00"},"geometry":{"type":"Polygon","coordinates":[[[127.11593,38.10646],[127.11593,38.10641],[127.11602,38.10641],[127.11602,38.10647],[127.11593,38.10646]]]}},{"type":"Feature","properties":{"valleyId":"dongmak","layer":"shadow","date":"2026-08-01","timeLocal":"18:00"},"geometry":{"type":"Polygon","coordinates":[[[127.11709,38.10645],[127.1171,38.10634],[127.11712,38.1063],[127.11719,38.1063],[127.11721,38.1064],[127.11716,38.10641],[127.11716,38.10645],[127.11709,38.10645]]]}},{"type":"Feature","properties":{"valleyId":"dongmak","layer":"shadow","date":"2026-08-01","timeLocal":"18:00"},"geometry":{"type":"Polygon","coordinates":[[[127.11651,38.10536],[127.11651,38.10528],[127.11658,38.10529],[127.11657,38.10536],[127.11651,38.10536]]]}},{"type":"Feature","properties":{"valleyId":"dongmak","layer":"shadow","date":"2026-08-01","timeLocal":"18:00"},"geometry":{"type":"Polygon","coordinates":[[[127.11639,38.10528],[127.1164,38.10523],[127.11646,38.10523],[127.11646,38.10528],[127.11639,38.10528]]]}},{"type":"Feature","properties":{"valleyId":"dongmak","layer":"shadow","date":"2026-08-01","timeLocal":"18:00"},"geometry":{"type":"Polygon","coordinates":[[[127.11374,38.10488],[127.11374,38.10481],[127.11381,38.10481],[127.1138,38.10488],[127.11374,38.10488]]]}},{"type":"Feature","properties":{"valleyId":"dongmak","layer":"shadow","date":"2026-08-01","timeLocal":"18:00"},"geometry":{"type":"Polygon","coordinates":[[[127.11376,38.10479],[127.11376,38.10475],[127.11369,38.10475],[127.11369,38.10472],[127.11365,38.1047],[127.11365,38.10464],[127.11376,38.10466],[127.11379,38.10474],[127.11392,38.10472],[127.11392,38.10479],[127.11376,38.10479]]]}},{"type":"Feature","properties":{"valleyId":"dongmak","layer":"shadow","date":"2026-08-01","timeLocal":"18:00"},"geometry":{"type":"Polygon","coordinates":[[[127.11342,38.10477],[127.11342,38.1046],[127.11338,38.10459],[127.11338,38.10453],[127.11356,38.10455],[127.11356,38.1047],[127.11349,38.10477],[127.11342,38.10477]]]}},{"type":"Feature","properties":{"valleyId":"dongmak","layer":"shadow","date":"2026-08-01","timeLocal":"18:00"},"geometry":{"type":"Polygon","coordinates":[[[127.11503,38.10434],[127.11501,38.10425],[127.11508,38.10425],[127.1151,38.10434],[127.11503,38.10434]]]}},{"type":"Feature","properties":{"valleyId":"dongmak","layer":"shadow","date":"2026-08-01","timeLocal":"18:00"},"geometry":{"type":"Polygon","coordinates":[[[127.11311,38.10456],[127.11306,38.10451],[127.11279,38.10447],[127.11274,38.10443],[127.11275,38.10436],[127.11268,38.10434],[127.11263,38.10425],[127.11257,38.10421],[127.11255,38.10412],[127.11264,38.10412],[127.11273,38.10425],[127.11282,38.10427],[127.11288,38.10438],[127.11297,38.10443],[127.11311,38.10445],[127.11313,38.10449],[127.11324,38.10449],[127.11324,38.10455],[127.11311,38.10456]]]}},{"type":"Feature","properties":{"valleyId":"dongmak","layer":"shadow","date":"2026-08-01","timeLocal":"18:00"},"geometry":{"type":"Polygon","coordinates":[[[127.11479,38.10392],[127.11477,38.10383],[127.11465,38.10378],[127.11466,38.10372],[127.11475,38.10372],[127.11477,38.10378],[127.11486,38.10378],[127.1149,38.10382],[127.1149,38.10389],[127.11486,38.10389],[127.11486,38.10392],[127.11479,38.10392]]]}},{"type":"Feature","properties":{"valleyId":"dongmak","layer":"shadow","date":"2026-08-01","timeLocal":"18:00"},"geometry":{"type":"Polygon","coordinates":[[[127.11598,38.11061],[127.11597,38.11041],[127.11588,38.11034],[127.11588,38.11016],[127.11597,38.11009],[127.11602,38.11009],[127.11607,38.11],[127.11623,38.11],[127.11628,38.10986],[127.11637,38.10981],[127.11633,38.10959],[127.11642,38.1095],[127.11647,38.10932],[127.11634,38.10921],[127.11632,38.10914],[127.11623,38.10906],[127.11621,38.10897],[127.11616,38.10897],[127.11612,38.10888],[127.11603,38.10883],[127.11601,38.10875],[127.11578,38.10866],[127.11578,38.10859],[127.11572,38.10855],[127.1157,38.10844],[127.11563,38.10841],[127.11557,38.10824],[127.11543,38.10813],[127.11539,38.10799],[127.11532,38.10795],[127.1153,38.10788],[127.11523,38.10784],[127.11521,38.10777],[127.11506,38.10762],[127.11491,38.1073],[127.11475,38.10715],[127.11475,38.10708],[127.11468,38.10706],[127.11466,38.10691],[127.11462,38.10689],[127.11462,38.10677],[127.11458,38.10673],[127.11458,38.10662],[127.11452,38.10648],[127.11447,38.10646],[127.11448,38.1063],[127.11441,38.10624],[127.11432,38.10624],[127.11429,38.10628],[127.11404,38.10627],[127.11391,38.10629],[127.11388,38.10632],[127.11361,38.10632],[127.11345,38.10628],[127.11343,38.10624],[127.11343,38.10619],[127.11352,38.10617],[127.11352,38.10614],[127.11361,38.10612],[127.11364,38.10609],[127.11387,38.10605],[127.11391,38.10596],[127.11407,38.106],[127.11412,38.10591],[127.11419,38.1059],[127.11419,38.10586],[127.11444,38.10585],[127.11425,38.10519],[127.11419,38.10514],[127.11412,38.10514],[127.11412,38.10507],[127.11405,38.10505],[127.11405,38.10499],[127.11401,38.10497],[127.11403,38.10479],[127.11401,38.10476],[127.11397,38.10476],[127.11397,38.10467],[127.11388,38.10465],[127.1139,38.10452],[127.11386,38.10447],[127.11386,38.10432],[127.1138,38.1042],[127.1138,38.10409],[127.11378,38.10405],[127.11373,38.10405],[127.11374,38.10394],[127.11367,38.10391],[127.11365,38.10378],[127.11361,38.10374],[127.11354,38.10374],[127.11354,38.10367],[127.11363,38.10367],[127.11363,38.10371],[127.1137,38.10371],[127.1137,38.10374],[127.11376,38.10376],[127.11378,38.10391],[127.11385,38.10391],[127.11387,38.10403],[127.11396,38.10407],[127.11396,38.10418],[127.11403,38.10425],[127.11404,38.10465],[127.11411,38.10465],[127.11413,38.10469],[127.11443,38.10469],[127.11442,38.10484],[127.11449,38.10484],[127.1146,38.10491],[127.11469,38.10491],[127.11476,38.10497],[127.11544,38.10498],[127.11544,38.10514],[127.11558,38.10516],[127.11562,38.10522],[127.11571,38.10525],[127.11612,38.10526],[127.11612,38.1054],[127.11634,38.10546],[127.11639,38.10553],[127.1168,38.10554],[127.11678,38.10608],[127.1164,38.10608],[127.11628,38.10611],[127.11619,38.10618],[127.11612,38.10618],[127.11612,38.10625],[127.11621,38.10627],[127.11621,38.10638],[127.116,38.10638],[127.11596,38.10628],[127.11575,38.10626],[127.11574,38.10684],[127.11581,38.10684],[127.11583,38.10688],[127.11608,38.10688],[127.11608,38.10701],[127.11614,38.10703],[127.11619,38.10708],[127.11628,38.10708],[127.11632,38.10714],[127.11639,38.10716],[127.1166,38.10716],[127.11657,38.10729],[127.11661,38.10752],[127.11656,38.10756],[127.11653,38.10795],[127.11667,38.10806],[127.11671,38.10817],[127.117,38.10825],[127.117,38.10828],[127.11716,38.10839],[127.11768,38.10855],[127.11791,38.10855],[127.11793,38.10852],[127.11814,38.10854],[127.1182,38.1085],[127.11821,38.10843],[127.11807,38.10828],[127.11789,38.10826],[127.11785,38.10823],[127.11764,38.10822],[127.11758,38.10815],[127.11748,38.10811],[127.11719,38.10809],[127.11719,38.10805],[127.11714,38.10805],[127.11703,38.10787],[127.11699,38.10787],[127.11697,38.10783],[127.11697,38.10773],[127.11688,38.10765],[127.11688,38.10754],[127.11709,38.10756],[127.11713,38.10753],[127.11714,38.10744],[127.11743,38.10744],[127.11743,38.10757],[127.1175,38.10763],[127.11757,38.10763],[127.11761,38.10768],[127.1177,38.10772],[127.11807,38.10772],[127.11811,38.10776],[127.11811,38.10785],[127.11822,38.10791],[127.11856,38.10797],[127.11861,38.108],[127.11913,38.10801],[127.11913,38.10814],[127.11935,38.10818],[127.1194,38.10821],[127.11935,38.10836],[127.11928,38.10843],[127.11919,38.10845],[127.11919,38.10848],[127.11912,38.10852],[127.11891,38.10848],[127.11887,38.10855],[127.11868,38.10853],[127.11857,38.10847],[127.11839,38.10849],[127.11827,38.10854],[127.11827,38.10861],[127.11916,38.10863],[127.11937,38.10857],[127.11946,38.1085],[127.11946,38.10838],[127.1196,38.10834],[127.1196,38.10831],[127.11965,38.10831],[127.11974,38.10824],[127.11974,38.1082],[127.11993,38.10813],[127.11997,38.10806],[127.11998,38.10795],[127.12002,38.10795],[127.12009,38.10788],[127.12012,38.10761],[127.12019,38.10756],[127.12049,38.10753],[127.12051,38.1076],[127.12062,38.1076],[127.12065,38.10757],[127.12072,38.10757],[127.12085,38.10748],[127.121,38.10727],[127.12104,38.10725],[127.12105,38.10712],[127.121,38.10709],[127.12086,38.10708],[127.12077,38.10721],[127.1207,38.10721],[127.1207,38.10712],[127.12075,38.1071],[127.1208,38.10698],[127.121,38.10701],[127.12136,38.1072],[127.12136,38.10725],[127.12127,38.10725],[127.1212,38.10731],[127.1212,38.1075],[127.12104,38.1075],[127.12104,38.10754],[127.12099,38.10754],[127.12097,38.10761],[127.12092,38.10761],[127.12089,38.10768],[127.12085,38.1077],[127.12085,38.10777],[127.12073,38.10777],[127.12071,38.1078],[127.12062,38.1078],[127.12057,38.10787],[127.1205,38.10787],[127.1205,38.10803],[127.12036,38.10803],[127.12031,38.10809],[127.12018,38.1081],[127.12015,38.10817],[127.12002,38.10817],[127.12004,38.10828],[127.12049,38.1083],[127.12048,38.10857],[127.12021,38.10857],[127.12014,38.10862],[127.12014,38.10884],[127.11988,38.10885],[127.11979,38.10894],[127.11979,38.1091],[127.11944,38.10912],[127.11944,38.10937],[127.11896,38.10938],[127.11893,38.10945],[127.11875,38.10952],[127.11875,38.10963],[127.11856,38.10962],[127.11849,38.10966],[127.11849,38.1097],[127.1184,38.10975],[127.1184,38.10989],[127.11806,38.10989],[127.11803,38.10992],[127.11794,38.10994],[127.11796,38.11005],[127.11789,38.11005],[127.11782,38.10997],[127.11746,38.10997],[127.11723,38.10993],[127.11712,38.10984],[127.11705,38.10984],[127.11699,38.10978],[127.11688,38.10962],[127.11672,38.10961],[127.11667,38.1097],[127.11651,38.10968],[127.11648,38.10992],[127.11643,38.10993],[127.11643,38.10997],[127.11636,38.11002],[127.11623,38.11002],[127.11623,38.11006],[127.11609,38.11013],[127.11608,38.11025],[127.11613,38.11031],[127.11612,38.11061],[127.11598,38.11061]],[[127.11598,38.10825],[127.11611,38.10825],[127.11612,38.10805],[127.11603,38.10805],[127.11593,38.1081],[127.11593,38.1082],[127.11598,38.10821],[127.11598,38.10825]],[[127.11643,38.10817],[127.1165,38.10817],[127.1165,38.10811],[127.11644,38.10811],[127.11643,38.10817]],[[127.11591,38.108],[127.11603,38.108],[127.11605,38.10791],[127.11601,38.10785],[127.11596,38.10785],[127.11594,38.10774],[127.11585,38.10773],[127.11585,38.10764],[127.11574,38.10763],[127.11571,38.10778],[127.11576,38.10781],[127.11578,38.10794],[127.11591,38.108]],[[127.11535,38.10674],[127.11554,38.10673],[127.11554,38.1066],[127.11547,38.10653],[127.1155,38.1064],[127.11538,38.1064],[127.1154,38.10651],[127.11531,38.10651],[127.11524,38.10656],[127.1152,38.10656],[127.1152,38.10667],[127.11529,38.10667],[127.11535,38.10674]],[[127.1153,38.10633],[127.11536,38.10633],[127.11541,38.10629],[127.11539,38.10622],[127.11527,38.10624],[127.1153,38.10633]],[[127.11564,38.10624],[127.11573,38.10625],[127.11573,38.10617],[127.1158,38.10616],[127.1158,38.1061],[127.11573,38.1061],[127.11571,38.10615],[127.11564,38.10617],[127.11564,38.10624]],[[127.11542,38.10574],[127.11552,38.10572],[127.11552,38.10558],[127.11545,38.10557],[127.11541,38.10561],[127.11542,38.10574]],[[127.1152,38.10559],[127.11531,38.10557],[127.11532,38.10548],[127.11518,38.10544],[127.11502,38.10544],[127.11504,38.10555],[127.1152,38.10559]]]}},{"type":"Feature","properties":{"valleyId":"dongmak","layer":"shadow","date":"2026-08-01","timeLocal":"18:00"},"geometry":{"type":"Polygon","coordinates":[[[127.11456,38.10374],[127.11456,38.1037],[127.11452,38.1037],[127.11452,38.10365],[127.11459,38.10365],[127.11459,38.10369],[127.11463,38.10369],[127.11463,38.10374],[127.11456,38.10374]]]}},{"type":"Feature","properties":{"valleyId":"dongmak","layer":"shadow","date":"2026-08-01","timeLocal":"18:00"},"geometry":{"type":"Polygon","coordinates":[[[127.11441,38.10361],[127.11441,38.10356],[127.11448,38.10356],[127.11448,38.10361],[127.11441,38.10361]]]}},{"type":"Feature","properties":{"valleyId":"dongmak","layer":"shadow","date":"2026-08-01","timeLocal":"18:00"},"geometry":{"type":"Polygon","coordinates":[[[127.11459,38.10354],[127.11459,38.10349],[127.11464,38.10345],[127.11471,38.10345],[127.11471,38.10351],[127.11466,38.10354],[127.11459,38.10354]]]}},{"type":"Feature","properties":{"valleyId":"dongmak","layer":"shadow","date":"2026-08-01","timeLocal":"18:00"},"geometry":{"type":"Polygon","coordinates":[[[127.11537,38.10359],[127.11537,38.10341],[127.11548,38.10341],[127.11549,38.10329],[127.11556,38.10329],[127.1156,38.10332],[127.1156,38.10338],[127.11553,38.10343],[127.11553,38.10352],[127.11544,38.10356],[127.11543,38.10359],[127.11537,38.10359]]]}},{"type":"Feature","properties":{"valleyId":"dongmak","layer":"shadow","date":"2026-08-01","timeLocal":"18:00"},"geometry":{"type":"Polygon","coordinates":[[[127.11498,38.10333],[127.11496,38.10324],[127.11503,38.10324],[127.11505,38.10333],[127.11498,38.10333]]]}},{"type":"Feature","properties":{"valleyId":"dongmak","layer":"shadow","date":"2026-08-01","timeLocal":"18:00"},"geometry":{"type":"Polygon","coordinates":[[[127.11526,38.10332],[127.11526,38.10321],[127.11533,38.10321],[127.11533,38.10332],[127.11526,38.10332]]]}},{"type":"Feature","properties":{"valleyId":"dongmak","layer":"shadow","date":"2026-08-01","timeLocal":"18:00"},"geometry":{"type":"Polygon","coordinates":[[[127.11385,38.10303],[127.11385,38.10295],[127.11392,38.10295],[127.11392,38.10303],[127.11385,38.10303]]]}},{"type":"Feature","properties":{"valleyId":"dongmak","layer":"shadow","date":"2026-08-01","timeLocal":"18:00"},"geometry":{"type":"Polygon","coordinates":[[[127.11332,38.1035],[127.1133,38.10338],[127.1132,38.10338],[127.11316,38.10334],[127.1131,38.10312],[127.11301,38.10305],[127.11299,38.10298],[127.11279,38.10283],[127.11279,38.10277],[127.1127,38.10275],[127.11263,38.10268],[127.11258,38.10268],[127.11259,38.10263],[127.1127,38.10265],[127.11301,38.1029],[127.11317,38.10298],[127.11323,38.10309],[127.11323,38.10325],[127.11328,38.10325],[127.11332,38.10338],[127.11336,38.10338],[127.11336,38.10341],[127.11341,38.10341],[127.11343,38.10345],[127.11343,38.1035],[127.11332,38.1035]]]}},{"type":"Feature","properties":{"valleyId":"dongmak","layer":"shadow","date":"2026-08-01","timeLocal":"18:00"},"geometry":{"type":"Polygon","coordinates":[[[127.11432,38.10267],[127.11432,38.10262],[127.11439,38.10262],[127.11439,38.10267],[127.11432,38.10267]]]}},{"type":"Feature","properties":{"valleyId":"dongmak","layer":"shadow","date":"2026-08-01","timeLocal":"18:00"},"geometry":{"type":"Polygon","coordinates":[[[127.11177,38.1025],[127.11177,38.10245],[127.11184,38.10245],[127.11184,38.10251],[127.11177,38.1025]]]}},{"type":"Feature","properties":{"valleyId":"dongmak","layer":"shadow","date":"2026-08-01","timeLocal":"18:00"},"geometry":{"type":"Polygon","coordinates":[[[127.11234,38.1041],[127.11227,38.10405],[127.11214,38.10402],[127.11207,38.10397],[127.11207,38.10393],[127.11191,38.10393],[127.11182,38.10388],[127.1115,38.10391],[127.11151,38.10382],[127.11141,38.1038],[127.11137,38.10372],[127.1113,38.10371],[127.11126,38.10361],[127.11117,38.10358],[127.11115,38.10352],[127.11085,38.10348],[127.11079,38.10343],[127.11079,38.10339],[127.11074,38.10337],[127.11068,38.10308],[127.11023,38.10302],[127.10987,38.10274],[127.10985,38.10267],[127.10976,38.10262],[127.10972,38.10242],[127.10995,38.1024],[127.10994,38.10248],[127.11001,38.10258],[127.11008,38.10259],[127.11008,38.10262],[127.11017,38.1027],[127.11021,38.1027],[127.11021,38.10273],[127.11037,38.10273],[127.11037,38.10284],[127.11055,38.10292],[127.11059,38.10297],[127.11064,38.10297],[127.11064,38.10301],[127.1107,38.10301],[127.1107,38.10308],[127.11079,38.1031],[127.11086,38.10321],[127.11093,38.10323],[127.11097,38.10329],[127.11104,38.10329],[127.11104,38.10332],[127.11113,38.10338],[127.11113,38.10343],[127.11117,38.10347],[127.11124,38.10347],[127.11131,38.10352],[127.11138,38.10353],[127.1114,38.10356],[127.11172,38.10357],[127.11171,38.10375],[127.1118,38.10375],[127.11187,38.10382],[127.11205,38.10384],[127.11207,38.1039],[127.11219,38.1039],[127.11219,38.10394],[127.11225,38.10394],[127.1123,38.10401],[127.11237,38.10401],[127.11241,38.10405],[127.11241,38.1041],[127.11234,38.1041]]]}},{"type":"Feature","properties":{"valleyId":"dongmak","layer":"shadow","date":"2026-08-01","timeLocal":"18:00"},"geometry":{"type":"Polygon","coordinates":[[[127.11149,38.10248],[127.11145,38.10246],[127.11145,38.10241],[127.11156,38.10243],[127.11156,38.10248],[127.11149,38.10248]]]}},{"type":"Feature","properties":{"valleyId":"dongmak","layer":"shadow","date":"2026-08-01","timeLocal":"18:00"},"geometry":{"type":"Polygon","coordinates":[[[127.10869,38.10246],[127.10865,38.10233],[127.10876,38.10233],[127.10881,38.10237],[127.1088,38.10246],[127.10869,38.10246]]]}},{"type":"Feature","properties":{"valleyId":"dongmak","layer":"shadow","date":"2026-08-01","timeLocal":"18:00"},"geometry":{"type":"Polygon","coordinates":[[[127.11471,38.10255],[127.11471,38.1025],[127.11476,38.1025],[127.11476,38.10241],[127.11485,38.10241],[127.11482,38.10254],[127.11471,38.10255]]]}},{"type":"Feature","properties":{"valleyId":"dongmak","layer":"shadow","date":"2026-08-01","timeLocal":"18:00"},"geometry":{"type":"Polygon","coordinates":[[[127.10839,38.10245],[127.10835,38.10241],[127.10835,38.10231],[127.10846,38.10233],[127.10846,38.10245],[127.10839,38.10245]]]}},{"type":"Feature","properties":{"valleyId":"dongmak","layer":"shadow","date":"2026-08-01","timeLocal":"18:00"},"geometry":{"type":"Polygon","coordinates":[[[127.11072,38.1024],[127.1107,38.10227],[127.11077,38.10227],[127.11077,38.10231],[127.11086,38.10231],[127.11086,38.10238],[127.11072,38.1024]]]}},{"type":"Feature","properties":{"valleyId":"dongmak","layer":"shadow","date":"2026-08-01","timeLocal":"18:00"},"geometry":{"type":"Polygon","coordinates":[[[127.11072,38.10225],[127.11073,38.10218],[127.11079,38.10218],[127.11082,38.10226],[127.11072,38.10225]]]}},{"type":"Feature","properties":{"valleyId":"dongmak","layer":"shadow","date":"2026-08-01","timeLocal":"18:00"},"geometry":{"type":"Polygon","coordinates":[[[127.10838,38.1022],[127.10838,38.10205],[127.10847,38.10206],[127.10847,38.1022],[127.10838,38.1022]]]}},{"type":"Feature","properties":{"valleyId":"dongmak","layer":"shadow","date":"2026-08-01","timeLocal":"18:00"},"geometry":{"type":"Polygon","coordinates":[[[127.1097,38.10224],[127.1097,38.10218],[127.10963,38.10218],[127.10961,38.10222],[127.10947,38.10222],[127.10947,38.10213],[127.10957,38.10207],[127.10963,38.10207],[127.10964,38.10189],[127.10971,38.1019],[127.1097,38.10209],[127.10977,38.10209],[127.10979,38.10213],[127.10977,38.10224],[127.1097,38.10224]]]}},{"type":"Feature","properties":{"valleyId":"dongmak","layer":"shadow","date":"2026-08-01","timeLocal":"18:00"},"geometry":{"type":"Polygon","coordinates":[[[127.11004,38.10233],[127.11002,38.10213],[127.11004,38.10208],[127.11009,38.10208],[127.11009,38.10197],[127.11003,38.10194],[127.11003,38.10188],[127.1101,38.10188],[127.11019,38.10192],[127.11021,38.10203],[127.11016,38.10208],[127.11011,38.10208],[127.11015,38.1023],[127.11011,38.10233],[127.11004,38.10233]]]}},{"type":"Feature","properties":{"valleyId":"dongmak","layer":"shadow","date":"2026-08-01","timeLocal":"18:00"},"geometry":{"type":"Polygon","coordinates":[[[127.10829,38.10207],[127.10824,38.10205],[127.10824,38.102],[127.10815,38.10196],[127.10814,38.10183],[127.1082,38.10183],[127.10827,38.10191],[127.10827,38.10198],[127.10836,38.10202],[127.10836,38.10207],[127.10829,38.10207]]]}},{"type":"Feature","properties":{"valleyId":"dongmak","layer":"shadow","date":"2026-08-01","timeLocal":"18:00"},"geometry":{"type":"Polygon","coordinates":[[[127.10793,38.10188],[127.10788,38.10187],[127.10786,38.10176],[127.10793,38.10176],[127.108,38.10181],[127.108,38.10189],[127.10793,38.10188]]]}},{"type":"Feature","properties":{"valleyId":"dongmak","layer":"shadow","date":"2026-08-01","timeLocal":"18:00"},"geometry":{"type":"Polygon","coordinates":[[[127.10978,38.10188],[127.10976,38.10173],[127.10983,38.10173],[127.10989,38.10179],[127.10989,38.10188],[127.10978,38.10188]]]}},{"type":"Feature","properties":{"valleyId":"dongmak","layer":"shadow","date":"2026-08-01","timeLocal":"18:00"},"geometry":{"type":"Polygon","coordinates":[[[127.11079,38.10164],[127.11079,38.10159],[127.11086,38.10159],[127.11085,38.10164],[127.11079,38.10164]]]}},{"type":"Feature","properties":{"valleyId":"dongmak","layer":"shadow","date":"2026-08-01","timeLocal":"18:00"},"geometry":{"type":"Polygon","coordinates":[[[127.11063,38.10133],[127.11064,38.10123],[127.11071,38.10123],[127.1107,38.10133],[127.11063,38.10133]]]}},{"type":"Feature","properties":{"valleyId":"dongmak","layer":"shadow","date":"2026-08-01","timeLocal":"18:00"},"geometry":{"type":"Polygon","coordinates":[[[127.11182,38.10117],[127.11183,38.10105],[127.1119,38.10105],[127.11192,38.10116],[127.11182,38.10117]]]}},{"type":"Feature","properties":{"valleyId":"dongmak","layer":"shadow","date":"2026-08-01","timeLocal":"18:00"},"geometry":{"type":"Polygon","coordinates":[[[127.11226,38.101],[127.11226,38.10091],[127.11233,38.10091],[127.11233,38.101],[127.11226,38.101]]]}},{"type":"Feature","properties":{"valleyId":"dongmak","layer":"shadow","date":"2026-08-01","timeLocal":"18:00"},"geometry":{"type":"Polygon","coordinates":[[[127.11208,38.10085],[127.1119,38.10081],[127.1119,38.10076],[127.11215,38.10076],[127.11215,38.10085],[127.11208,38.10085]]]}},{"type":"Feature","properties":{"valleyId":"dongmak","layer":"shadow","date":"2026-08-01","timeLocal":"18:00"},"geometry":{"type":"Polygon","coordinates":[[[127.1125,38.10079],[127.1125,38.10071],[127.11259,38.1007],[127.11259,38.10079],[127.1125,38.10079]]]}},{"type":"Feature","properties":{"valleyId":"dongmak","layer":"shadow","date":"2026-08-01","timeLocal":"18:00"},"geometry":{"type":"Polygon","coordinates":[[[127.11068,38.1005],[127.11064,38.1004],[127.11073,38.1004],[127.11075,38.10043],[127.11079,38.10043],[127.11079,38.10051],[127.11068,38.1005]]]}},{"type":"Feature","properties":{"valleyId":"dongmak","layer":"shadow","date":"2026-08-01","timeLocal":"18:00"},"geometry":{"type":"Polygon","coordinates":[[[127.10656,38.10029],[127.10654,38.10008],[127.10661,38.10008],[127.10665,38.10013],[127.10665,38.10026],[127.10662,38.1003],[127.10656,38.10029]]]}},{"type":"Feature","properties":{"valleyId":"dongmak","layer":"shadow","date":"2026-08-01","timeLocal":"18:00"},"geometry":{"type":"Polygon","coordinates":[[[127.11048,38.10018],[127.11048,38.10012],[127.11055,38.10012],[127.11055,38.10018],[127.11048,38.10018]]]}},{"type":"Feature","properties":{"valleyId":"dongmak","layer":"shadow","date":"2026-08-01","timeLocal":"18:00"},"geometry":{"type":"Polygon","coordinates":[[[127.10957,38.10173],[127.10946,38.10162],[127.10931,38.10155],[127.10929,38.10142],[127.10913,38.10135],[127.10913,38.10122],[127.10895,38.10114],[127.10893,38.10105],[127.10875,38.10091],[127.10875,38.1008],[127.10853,38.1007],[127.10856,38.10056],[127.10842,38.10041],[127.10843,38.10027],[127.10838,38.10013],[127.10834,38.10009],[127.10834,38.09998],[127.1083,38.09998],[127.1083,38.09991],[127.10825,38.09987],[127.10826,38.09971],[127.10835,38.09973],[127.10835,38.0998],[127.10839,38.09982],[127.10841,38.09989],[127.10857,38.09991],[127.10862,38.1],[127.10873,38.1],[127.10873,38.10017],[127.10877,38.10019],[127.10877,38.10022],[127.10886,38.10026],[127.1089,38.10037],[127.1089,38.10051],[127.10892,38.10055],[127.10906,38.10055],[127.10905,38.10091],[127.10909,38.10091],[127.10913,38.10116],[127.10915,38.1012],[127.10925,38.10122],[127.10927,38.10133],[127.10936,38.10135],[127.10942,38.1014],[127.10942,38.10146],[127.10947,38.10146],[127.10947,38.10149],[127.10951,38.1015],[127.10974,38.10168],[127.10973,38.10173],[127.10957,38.10173]]]}},{"type":"Feature","properties":{"valleyId":"dongmak","layer":"shadow","date":"2026-08-01","timeLocal":"18:00"},"geometry":{"type":"Polygon","coordinates":[[[127.1075,38.10181],[127.10743,38.10175],[127.10743,38.10171],[127.10704,38.10171],[127.10705,38.10158],[127.10723,38.10151],[127.10723,38.10146],[127.10703,38.10147],[127.10698,38.10133],[127.10683,38.10125],[127.10674,38.10105],[127.10663,38.10105],[127.10656,38.10109],[127.10649,38.10109],[127.10647,38.10105],[127.10634,38.10062],[127.10634,38.10053],[127.10628,38.10038],[127.10628,38.10029],[127.10622,38.10014],[127.10622,38.10007],[127.10633,38.10007],[127.10634,38.09998],[127.1062,38.09998],[127.10616,38.09986],[127.10617,38.09944],[127.10624,38.09937],[127.10637,38.09941],[127.10639,38.09955],[127.10635,38.09955],[127.10635,38.09961],[127.10644,38.09964],[127.10645,38.09982],[127.1065,38.0999],[127.10649,38.10008],[127.10642,38.10013],[127.1064,38.10026],[127.10641,38.10045],[127.10651,38.10046],[127.10651,38.10042],[127.10657,38.10042],[127.10657,38.10046],[127.10666,38.10049],[127.10666,38.10084],[127.1067,38.10091],[127.10679,38.10095],[127.10681,38.10102],[127.10699,38.10106],[127.10703,38.10128],[127.10717,38.10133],[127.10733,38.10133],[127.10737,38.1015],[127.10746,38.1015],[127.10755,38.10159],[127.10766,38.10161],[127.1077,38.10177],[127.10766,38.10177],[127.10766,38.10181],[127.1075,38.10181]]]}},{"type":"Feature","properties":{"valleyId":"dongmak","layer":"shadow","date":"2026-08-01","timeLocal":"18:00"},"geometry":{"type":"Polygon","coordinates":[[[127.10803,38.0999],[127.10794,38.09981],[127.10789,38.09981],[127.10787,38.09965],[127.10806,38.09951],[127.10806,38.0994],[127.10817,38.0994],[127.10822,38.09946],[127.10819,38.09962],[127.10805,38.09963],[127.10805,38.09971],[127.1081,38.09971],[127.10814,38.09982],[127.10814,38.09991],[127.10803,38.0999]]]}},{"type":"Feature","properties":{"valleyId":"dongmak","layer":"shadow","date":"2026-08-01","timeLocal":"18:00"},"geometry":{"type":"Polygon","coordinates":[[[127.10656,38.09934],[127.10656,38.09923],[127.10665,38.09921],[127.10665,38.09932],[127.10656,38.09934]]]}},{"type":"Feature","properties":{"valleyId":"dongmak","layer":"shadow","date":"2026-08-01","timeLocal":"18:00"},"geometry":{"type":"Polygon","coordinates":[[[127.10783,38.09941],[127.10777,38.09932],[127.10777,38.0992],[127.10788,38.0992],[127.10788,38.09923],[127.10793,38.09924],[127.10795,38.09942],[127.10783,38.09941]]]}},{"type":"Feature","properties":{"valleyId":"dongmak","layer":"shadow","date":"2026-08-01","timeLocal":"18:00"},"geometry":{"type":"Polygon","coordinates":[[[127.1082,38.09929],[127.1082,38.09924],[127.10827,38.09924],[127.1083,38.09917],[127.10836,38.09917],[127.10834,38.09928],[127.1082,38.09929]]]}},{"type":"Feature","properties":{"valleyId":"dongmak","layer":"shadow","date":"2026-08-01","timeLocal":"18:00"},"geometry":{"type":"Polygon","coordinates":[[[127.10727,38.09922],[127.10727,38.09917],[127.10736,38.09915],[127.10736,38.09921],[127.10727,38.09922]]]}},{"type":"Feature","properties":{"valleyId":"dongmak","layer":"shadow","date":"2026-08-01","timeLocal":"18:00"},"geometry":{"type":"Polygon","coordinates":[[[127.108,38.09916],[127.10802,38.09907],[127.10809,38.09908],[127.10809,38.09915],[127.108,38.09916]]]}},{"type":"Feature","properties":{"valleyId":"dongmak","layer":"shadow","date":"2026-08-01","timeLocal":"18:00"},"geometry":{"type":"Polygon","coordinates":[[[127.1083,38.09902],[127.1083,38.09893],[127.10837,38.09894],[127.10837,38.09903],[127.1083,38.09902]]]}},{"type":"Feature","properties":{"valleyId":"dongmak","layer":"shadow","date":"2026-08-01","timeLocal":"18:00"},"geometry":{"type":"Polygon","coordinates":[[[127.10876,38.09896],[127.10876,38.09891],[127.1088,38.09891],[127.1088,38.09887],[127.10885,38.09887],[127.10892,38.09882],[127.10895,38.09869],[127.10904,38.09864],[127.10915,38.09864],[127.10913,38.09882],[127.10896,38.09887],[127.10896,38.09891],[127.10876,38.09896]]]}},{"type":"Feature","properties":{"valleyId":"dongmak","layer":"shadow","date":"2026-08-01","timeLocal":"18:00"},"geometry":{"type":"Polygon","coordinates":[[[127.1102,38.09871],[127.1102,38.09855],[127.11027,38.09855],[127.11032,38.09859],[127.11032,38.09864],[127.11027,38.09871],[127.1102,38.09871]]]}},{"type":"Feature","properties":{"valleyId":"dongmak","layer":"shadow","date":"2026-08-01","timeLocal":"18:00"},"geometry":{"type":"Polygon","coordinates":[[[127.10924,38.09868],[127.10932,38.09852],[127.10947,38.09852],[127.10945,38.09866],[127.10924,38.09868]]]}},{"type":"Feature","properties":{"valleyId":"dongmak","layer":"shadow","date":"2026-08-01","timeLocal":"18:00"},"geometry":{"type":"Polygon","coordinates":[[[127.11157,38.09774],[127.11158,38.09755],[127.11164,38.09755],[127.11166,38.09775],[127.11157,38.09774]]]}},{"type":"Feature","properties":{"valleyId":"dongmak","layer":"shadow","date":"2026-08-01","timeLocal":"18:00"},"geometry":{"type":"Polygon","coordinates":[[[127.11076,38.0975],[127.11076,38.09744],[127.11083,38.09744],[127.11082,38.0975],[127.11076,38.0975]]]}},{"type":"Feature","properties":{"valleyId":"dongmak","layer":"shadow","date":"2026-08-01","timeLocal":"18:00"},"geometry":{"type":"Polygon","coordinates":[[[127.11132,38.09754],[127.11133,38.09733],[127.1114,38.09733],[127.11147,38.09736],[127.11146,38.09753],[127.11132,38.09754]]]}},{"type":"Feature","properties":{"valleyId":"dongmak","layer":"shadow","date":"2026-08-01","timeLocal":"18:00"},"geometry":{"type":"Polygon","coordinates":[[[127.10935,38.09715],[127.10931,38.09713],[127.10931,38.09708],[127.10949,38.0971],[127.10949,38.09715],[127.10935,38.09715]]]}},{"type":"Feature","properties":{"valleyId":"dongmak","layer":"shadow","date":"2026-08-01","timeLocal":"18:00"},"geometry":{"type":"Polygon","coordinates":[[[127.10999,38.09712],[127.10995,38.09707],[127.1099,38.09707],[127.1099,38.09701],[127.11011,38.09705],[127.1101,38.09713],[127.10999,38.09712]]]}},{"type":"Feature","properties":{"valleyId":"dongmak","layer":"shadow","date":"2026-08-01","timeLocal":"18:00"},"geometry":{"type":"Polygon","coordinates":[[[127.10869,38.09721],[127.1087,38.0969],[127.10876,38.09691],[127.10883,38.09696],[127.1088,38.09709],[127.10883,38.09714],[127.10889,38.09716],[127.10889,38.09721],[127.10869,38.09721]]]}},{"type":"Feature","properties":{"valleyId":"dongmak","layer":"shadow","date":"2026-08-01","timeLocal":"18:00"},"geometry":{"type":"Polygon","coordinates":[[[127.10849,38.09697],[127.10847,38.0969],[127.10854,38.0969],[127.10856,38.09697],[127.10849,38.09697]]]}},{"type":"Feature","properties":{"valleyId":"dongmak","layer":"shadow","date":"2026-08-01","timeLocal":"18:00"},"geometry":{"type":"Polygon","coordinates":[[[127.1095,38.09854],[127.1095,38.09849],[127.10959,38.09843],[127.10962,38.09836],[127.10966,38.09834],[127.10966,38.09825],[127.10976,38.09824],[127.10983,38.09817],[127.10989,38.09815],[127.10995,38.09779],[127.11002,38.09774],[127.11004,38.09765],[127.1103,38.09749],[127.11035,38.0974],[127.11062,38.09735],[127.11063,38.09722],[127.11047,38.09715],[127.11033,38.09713],[127.11033,38.09707],[127.11054,38.09706],[127.11063,38.09713],[127.11072,38.09715],[127.11074,38.09728],[127.11069,38.09741],[127.11062,38.0974],[127.11057,38.09746],[127.11057,38.09751],[127.11062,38.09751],[127.11064,38.0976],[127.11059,38.0976],[127.11059,38.09764],[127.11055,38.09766],[127.11054,38.09771],[127.11066,38.09771],[127.11073,38.09766],[127.11077,38.09766],[127.1108,38.09755],[127.11091,38.09755],[127.11094,38.09745],[127.11092,38.09725],[127.11083,38.09725],[127.11081,38.0971],[127.11077,38.09701],[127.11072,38.09699],[127.11072,38.09694],[127.11095,38.09698],[127.11104,38.09714],[127.11104,38.09723],[127.11108,38.09723],[127.1111,38.09727],[127.1111,38.09736],[127.11115,38.09738],[127.11117,38.0975],[127.11105,38.09752],[127.11105,38.09756],[127.11101,38.09755],[127.111,38.09763],[127.11091,38.09764],[127.11091,38.09768],[127.11084,38.09768],[127.11084,38.09788],[127.1107,38.09787],[127.11068,38.09793],[127.11063,38.09793],[127.11058,38.098],[127.11049,38.09803],[127.11049,38.09814],[127.11031,38.09814],[127.11028,38.09817],[127.11017,38.09819],[127.11014,38.09841],[127.1098,38.0984],[127.1097,38.09845],[127.10968,38.09852],[127.1095,38.09854]]]}},{"type":"Feature","properties":{"valleyId":"dongmak","layer":"shadow","date":"2026-08-01","timeLocal":"18:00"},"geometry":{"type":"Polygon","coordinates":[[[127.11127,38.097],[127.11127,38.09689],[127.11134,38.09689],[127.11134,38.097],[127.11127,38.097]]]}},{"type":"Feature","properties":{"valleyId":"dongmak","layer":"shadow","date":"2026-08-01","timeLocal":"18:00"},"geometry":{"type":"Polygon","coordinates":[[[127.11161,38.09697],[127.11161,38.0969],[127.11173,38.09692],[127.11173,38.09697],[127.11161,38.09697]]]}},{"type":"Feature","properties":{"valleyId":"dongmak","layer":"shadow","date":"2026-08-01","timeLocal":"18:00"},"geometry":{"type":"Polygon","coordinates":[[[127.1112,38.09689],[127.11121,38.09684],[127.11127,38.09684],[127.11127,38.09689],[127.1112,38.09689]]]}},{"type":"Feature","properties":{"valleyId":"dongmak","layer":"shadow","date":"2026-08-01","timeLocal":"18:00"},"geometry":{"type":"Polygon","coordinates":[[[127.11063,38.09692],[127.11059,38.09677],[127.11055,38.09677],[127.11055,38.0967],[127.1105,38.0967],[127.11048,38.09654],[127.11067,38.09658],[127.11066,38.09661],[127.11071,38.09663],[127.1107,38.09692],[127.11063,38.09692]]]}},{"type":"Feature","properties":{"valleyId":"dongmak","layer":"shadow","date":"2026-08-01","timeLocal":"18:00"},"geometry":{"type":"Polygon","coordinates":[[[127.11101,38.09642],[127.11101,38.09631],[127.11108,38.09631],[127.11108,38.09642],[127.11101,38.09642]]]}},{"type":"Feature","properties":{"valleyId":"dongmak","layer":"shadow","date":"2026-08-01","timeLocal":"18:00"},"geometry":{"type":"Polygon","coordinates":[[[127.11044,38.09652],[127.11042,38.09645],[127.11028,38.09648],[127.11028,38.09641],[127.11019,38.09639],[127.11015,38.09635],[127.11015,38.0963],[127.11044,38.09634],[127.11044,38.09639],[127.11051,38.09639],[127.11051,38.09652],[127.11044,38.09652]]]}},{"type":"Feature","properties":{"valleyId":"dongmak","layer":"shadow","date":"2026-08-01","timeLocal":"18:00"},"geometry":{"type":"Polygon","coordinates":[[[127.10981,38.09624],[127.10981,38.09617],[127.10972,38.09615],[127.10967,38.09609],[127.10952,38.09605],[127.10949,38.09602],[127.10943,38.09601],[127.10943,38.09596],[127.10984,38.09597],[127.10986,38.09606],[127.11013,38.09606],[127.11017,38.09619],[127.10981,38.09624]]]}},{"type":"Feature","properties":{"valleyId":"dongmak","layer":"shadow","date":"2026-08-01","timeLocal":"18:00"},"geometry":{"type":"Polygon","coordinates":[[[127.11132,38.09504],[127.11132,38.09496],[127.11137,38.09493],[127.11148,38.09493],[127.11148,38.09498],[127.11141,38.095],[127.11141,38.09504],[127.11132,38.09504]]]}},{"type":"Feature","properties":{"valleyId":"dongmak","layer":"shadow","date":"2026-08-01","timeLocal":"18:00"},"geometry":{"type":"Polygon","coordinates":[[[127.10813,38.09491],[127.10813,38.09486],[127.1082,38.09486],[127.1082,38.09491],[127.10813,38.09491]]]}},{"type":"Feature","properties":{"valleyId":"dongmak","layer":"shadow","date":"2026-08-01","timeLocal":"18:00"},"geometry":{"type":"Polygon","coordinates":[[[127.10806,38.09486],[127.10804,38.09479],[127.10811,38.09479],[127.10813,38.09486],[127.10806,38.09486]]]}},{"type":"Feature","properties":{"valleyId":"dongmak","layer":"shadow","date":"2026-08-01","timeLocal":"18:00"},"geometry":{"type":"Polygon","coordinates":[[[127.10759,38.09465],[127.10759,38.0946],[127.10768,38.0946],[127.10768,38.09465],[127.10759,38.09465]]]}},{"type":"Feature","properties":{"valleyId":"dongmak","layer":"shadow","date":"2026-08-01","timeLocal":"18:00"},"geometry":{"type":"Polygon","coordinates":[[[127.10743,38.09451],[127.10744,38.09445],[127.1075,38.09445],[127.1075,38.09451],[127.10743,38.09451]]]}},{"type":"Feature","properties":{"valleyId":"dongmak","layer":"shadow","date":"2026-08-01","timeLocal":"18:00"},"geometry":{"type":"Polygon","coordinates":[[[127.10734,38.09294],[127.10734,38.09281],[127.10741,38.09281],[127.10741,38.09294],[127.10734,38.09294]]]}},{"type":"Feature","properties":{"valleyId":"dongmak","layer":"shadow","date":"2026-08-01","timeLocal":"18:00"},"geometry":{"type":"Polygon","coordinates":[[[127.10752,38.09215],[127.10752,38.09206],[127.10761,38.09206],[127.10759,38.09215],[127.10752,38.09215]]]}},{"type":"Feature","properties":{"valleyId":"dongmak","layer":"shadow","date":"2026-08-01","timeLocal":"18:00"},"geometry":{"type":"Polygon","coordinates":[[[127.11025,38.09219],[127.1101,38.0921],[127.1101,38.09202],[127.11021,38.09203],[127.1103,38.09214],[127.11037,38.09214],[127.11037,38.09219],[127.11025,38.09219]]]}},{"type":"Feature","properties":{"valleyId":"dongmak","layer":"shadow","date":"2026-08-01","timeLocal":"18:00"},"geometry":{"type":"Polygon","coordinates":[[[127.10985,38.09193],[127.10981,38.09188],[127.10976,38.09188],[127.10976,38.09182],[127.1099,38.09184],[127.10992,38.09193],[127.10985,38.09193]]]}},{"type":"Feature","properties":{"valleyId":"dongmak","layer":"shadow","date":"2026-08-01","timeLocal":"18:00"},"geometry":{"type":"Polygon","coordinates":[[[127.10917,38.09179],[127.10917,38.0917],[127.10926,38.0917],[127.10931,38.09174],[127.10931,38.0918],[127.10917,38.09179]]]}},{"type":"Feature","properties":{"valleyId":"dongmak","layer":"shadow","date":"2026-08-01","timeLocal":"18:00"},"geometry":{"type":"Polygon","coordinates":[[[127.10535,38.09564],[127.10529,38.09559],[127.10529,38.09555],[127.1052,38.0955],[127.10504,38.09526],[127.105,38.09524],[127.10485,38.09499],[127.1048,38.09497],[127.10467,38.09475],[127.10462,38.09473],[127.10451,38.09455],[127.10452,38.09449],[127.10445,38.09442],[127.10434,38.09404],[127.10431,38.09366],[127.10425,38.09343],[127.10426,38.09292],[127.10437,38.09292],[127.10447,38.09285],[127.10447,38.09282],[127.1047,38.09268],[127.10479,38.09252],[127.10486,38.09248],[127.10487,38.09243],[127.10496,38.09234],[127.10505,38.09232],[127.10514,38.09225],[127.10556,38.0922],[127.10565,38.09213],[127.10574,38.09213],[127.10579,38.09208],[127.10592,38.09203],[127.10595,38.09198],[127.10606,38.09196],[127.10618,38.09189],[127.10664,38.09182],[127.10682,38.09176],[127.10703,38.09176],[127.10708,38.09163],[127.10717,38.09156],[127.10719,38.09149],[127.10724,38.09146],[127.10735,38.09146],[127.1074,38.09148],[127.1074,38.09155],[127.10733,38.09155],[127.10726,38.0916],[127.10723,38.09187],[127.10718,38.09187],[127.10716,38.09196],[127.10697,38.0921],[127.10697,38.09214],[127.10688,38.09217],[127.10687,38.09241],[127.10669,38.0924],[127.10662,38.09251],[127.10653,38.09254],[127.10652,38.09267],[127.10634,38.09267],[127.1063,38.0927],[127.10629,38.09279],[127.10625,38.09283],[127.10617,38.09306],[127.10616,38.09348],[127.10598,38.09347],[127.10592,38.09389],[127.10585,38.09397],[127.10582,38.09421],[127.1058,38.09428],[127.10575,38.0943],[127.10565,38.09462],[127.10561,38.09467],[127.10558,38.09496],[127.1055,38.0951],[127.1055,38.0953],[127.10543,38.09537],[127.10542,38.09564],[127.10535,38.09564]]]}},{"type":"Feature","properties":{"valleyId":"dongmak","layer":"shadow","date":"2026-08-01","timeLocal":"18:00"},"geometry":{"type":"Polygon","coordinates":[[[127.10742,38.09149],[127.10742,38.09142],[127.10745,38.09139],[127.10749,38.09139],[127.10749,38.09133],[127.10734,38.09117],[127.10734,38.09112],[127.10764,38.0911],[127.10763,38.09119],[127.10784,38.09123],[127.10784,38.09129],[127.10772,38.09128],[127.1077,38.09139],[127.10763,38.09139],[127.10763,38.09143],[127.10754,38.09142],[127.10754,38.09148],[127.10742,38.09149]]]}},{"type":"Feature","properties":{"valleyId":"dongmak","layer":"shadow","date":"2026-08-01","timeLocal":"18:00"},"geometry":{"type":"Polygon","coordinates":[[[127.10777,38.09112],[127.10777,38.09105],[127.10784,38.09105],[127.10784,38.09112],[127.10777,38.09112]]]}},{"type":"Feature","properties":{"valleyId":"dongmak","layer":"shadow","date":"2026-08-01","timeLocal":"18:00"},"geometry":{"type":"Polygon","coordinates":[[[127.10793,38.09109],[127.10793,38.09103],[127.108,38.09104],[127.108,38.09109],[127.10793,38.09109]]]}},{"type":"Feature","properties":{"valleyId":"dongmak","layer":"shadow","date":"2026-08-01","timeLocal":"18:00"},"geometry":{"type":"Polygon","coordinates":[[[127.10802,38.09107],[127.10803,38.09102],[127.10819,38.091],[127.10821,38.09095],[127.10833,38.0909],[127.10833,38.09082],[127.10849,38.09079],[127.10869,38.09079],[127.1087,38.09072],[127.10877,38.09067],[127.10911,38.09062],[127.10911,38.09068],[127.10904,38.09067],[127.10904,38.09071],[127.10897,38.09073],[127.10897,38.09082],[127.10874,38.09081],[127.10874,38.09087],[127.10862,38.09087],[127.10862,38.09108],[127.10802,38.09107]]]}},{"type":"Feature","properties":{"valleyId":"dongmak","layer":"shadow","date":"2026-08-01","timeLocal":"18:00"},"geometry":{"type":"Polygon","coordinates":[[[127.10981,38.09013],[127.10981,38.08991],[127.10995,38.08991],[127.1099,38.09013],[127.10981,38.09013]]]}},{"type":"Feature","properties":{"valleyId":"dongmak","layer":"shadow","date":"2026-08-01","timeLocal":"18:00"},"geometry":{"type":"Polygon","coordinates":[[[127.10901,38.0901],[127.10894,38.09006],[127.10892,38.08992],[127.10899,38.08986],[127.10906,38.08986],[127.10908,38.08994],[127.10915,38.08999],[127.10915,38.09008],[127.10901,38.0901]]]}},{"type":"Feature","properties":{"valleyId":"dongmak","layer":"shadow","date":"2026-08-01","timeLocal":"18:00"},"geometry":{"type":"Polygon","coordinates":[[[127.10936,38.09061],[127.10936,38.09055],[127.10948,38.09054],[127.10957,38.09038],[127.10957,38.0903],[127.1095,38.0903],[127.10951,38.09027],[127.10933,38.09012],[127.10929,38.08988],[127.10922,38.08985],[127.1092,38.08978],[127.10899,38.08979],[127.10895,38.08972],[127.10879,38.0897],[127.1087,38.08962],[127.10861,38.0896],[127.10861,38.08953],[127.10882,38.08953],[127.10882,38.08957],[127.10893,38.08957],[127.10904,38.08965],[127.10911,38.08965],[127.10913,38.08968],[127.10918,38.08968],[127.10918,38.08972],[127.10927,38.08976],[127.10938,38.08976],[127.1094,38.08985],[127.10945,38.08985],[127.10945,38.08989],[127.10949,38.08991],[127.10949,38.09],[127.10953,38.09007],[127.10962,38.09011],[127.10962,38.09016],[127.10969,38.09016],[127.10969,38.0902],[127.10973,38.0902],[127.10973,38.09032],[127.10971,38.09043],[127.10966,38.09045],[127.10966,38.09056],[127.10947,38.09055],[127.10947,38.09059],[127.10936,38.09061]]]}}]}
