{"type":"FeatureCollection","metadata":{"description":"수관 아래(CHM > 2 m) — 시각 무관. 구간 회랑 ±200 m 절단","source":"위성 기반 추정 — Copernicus GLO-30 지형(30 m) + Meta/WRI 수관 높이(1 m CHM, 2019 촬영). 그늘 = 수관(CHM > 2 m) ∪ 나무·지형 그림자 ∪ 원거리 지형 마스크. 현장과 다를 수 있음.","datasetVersion":"2026-09-09.0","collectedAt":"2026-09-09","coordinateOrder":"[longitude, latitude]","crs":"EPSG:4326","representativeDate":"2026-08-01","hours":["10:00","11:00","12:00","13:00","14:00","15:00","16:00","17:00","18:00"],"chmAcquisition":["2019-05"],"assets":{"glo30":{"dataset":"Copernicus DEM GLO-30 (COG, s3://copernicus-dem-30m)","tiles":["Copernicus_DSM_COG_10_N35_00_E126_00_DEM","Copernicus_DSM_COG_10_N35_00_E127_00_DEM"]},"chm":{"dataset":"Meta/WRI Global Canopy Height Map v1 (alsgedi_global_v6_float, 1 m, CC-BY 4.0)","quadkeys":["132112120"],"acquisition":["2019-05"]}},"method":{"gridResM":2,"canopyThresholdM":2,"bufferHalfM":25,"corridorHalfM":200,"simplifyTolM":2,"minAreaM2":25,"coordDecimals":5},"generator":"scripts/shade 0.1.0","builtAt":"2026-09-08T15:42:52Z","layer":"canopy"},"features":[{"type":"Feature","properties":{"valleyId":"jeungsimsa","layer":"canopy","date":"2026-08-01"},"geometry":{"type":"Polygon","coordinates":[[[126.95345,35.13467],[126.95345,35.13459],[126.95352,35.13459],[126.95352,35.13467],[126.95345,35.13467]]]}},{"type":"Feature","properties":{"valleyId":"jeungsimsa","layer":"canopy","date":"2026-08-01"},"geometry":{"type":"Polygon","coordinates":[[[126.95567,35.13458],[126.95563,35.13452],[126.95563,35.13447],[126.95576,35.13451],[126.95576,35.13458],[126.95567,35.13458]]]}},{"type":"Feature","properties":{"valleyId":"jeungsimsa","layer":"canopy","date":"2026-08-01"},"geometry":{"type":"Polygon","coordinates":[[[126.95602,35.13444],[126.95605,35.13435],[126.95614,35.13433],[126.95613,35.13442],[126.95602,35.13444]]]}},{"type":"Feature","properties":{"valleyId":"jeungsimsa","layer":"canopy","date":"2026-08-01"},"geometry":{"type":"Polygon","coordinates":[[[126.95579,35.13431],[126.95577,35.13422],[126.95583,35.13416],[126.95597,35.13417],[126.95594,35.13426],[126.9559,35.13426],[126.95585,35.13431],[126.95579,35.13431]]]}},{"type":"Feature","properties":{"valleyId":"jeungsimsa","layer":"canopy","date":"2026-08-01"},"geometry":{"type":"Polygon","coordinates":[[[126.95353,35.1342],[126.95353,35.13413],[126.9536,35.13413],[126.95359,35.1342],[126.95353,35.1342]]]}},{"type":"Feature","properties":{"valleyId":"jeungsimsa","layer":"canopy","date":"2026-08-01"},"geometry":{"type":"Polygon","coordinates":[[[126.95625,35.13403],[126.95628,35.13396],[126.95645,35.13394],[126.95645,35.13399],[126.95625,35.13403]]]}},{"type":"Feature","properties":{"valleyId":"jeungsimsa","layer":"canopy","date":"2026-08-01"},"geometry":{"type":"Polygon","coordinates":[[[126.95601,35.13399],[126.95597,35.13397],[126.95597,35.1339],[126.95617,35.13388],[126.95617,35.13394],[126.95612,35.13397],[126.95601,35.13399]]]}},{"type":"Feature","properties":{"valleyId":"jeungsimsa","layer":"canopy","date":"2026-08-01"},"geometry":{"type":"Polygon","coordinates":[[[126.95562,35.13402],[126.95556,35.13391],[126.95556,35.13382],[126.95565,35.13382],[126.95569,35.13389],[126.95568,35.13402],[126.95562,35.13402]]]}},{"type":"Feature","properties":{"valleyId":"jeungsimsa","layer":"canopy","date":"2026-08-01"},"geometry":{"type":"Polygon","coordinates":[[[126.95619,35.13388],[126.95619,35.13383],[126.95628,35.13381],[126.95628,35.13388],[126.95619,35.13388]]]}},{"type":"Feature","properties":{"valleyId":"jeungsimsa","layer":"canopy","date":"2026-08-01"},"geometry":{"type":"Polygon","coordinates":[[[126.95781,35.13331],[126.95783,35.13324],[126.95792,35.13326],[126.95792,35.13332],[126.95781,35.13331]]]}},{"type":"Feature","properties":{"valleyId":"jeungsimsa","layer":"canopy","date":"2026-08-01"},"geometry":{"type":"Polygon","coordinates":[[[126.95557,35.13342],[126.95557,35.13337],[126.95563,35.13337],[126.95568,35.13321],[126.95579,35.13319],[126.95588,35.13312],[126.95599,35.13312],[126.95599,35.13323],[126.95592,35.13335],[126.9557,35.13342],[126.95557,35.13342]]]}},{"type":"Feature","properties":{"valleyId":"jeungsimsa","layer":"canopy","date":"2026-08-01"},"geometry":{"type":"Polygon","coordinates":[[[126.9606,35.13316],[126.96056,35.13302],[126.96043,35.13294],[126.96043,35.13287],[126.96052,35.13282],[126.96063,35.13282],[126.96072,35.13286],[126.96074,35.13293],[126.96069,35.13315],[126.9606,35.13316]]]}},{"type":"Feature","properties":{"valleyId":"jeungsimsa","layer":"canopy","date":"2026-08-01"},"geometry":{"type":"Polygon","coordinates":[[[126.96103,35.13277],[126.96103,35.13272],[126.96114,35.13272],[126.96114,35.13278],[126.96103,35.13277]]]}},{"type":"Feature","properties":{"valleyId":"jeungsimsa","layer":"canopy","date":"2026-08-01"},"geometry":{"type":"Polygon","coordinates":[[[126.96945,35.13281],[126.96946,35.13275],[126.96952,35.13275],[126.96952,35.13281],[126.96945,35.13281]]]}},{"type":"Feature","properties":{"valleyId":"jeungsimsa","layer":"canopy","date":"2026-08-01"},"geometry":{"type":"Polygon","coordinates":[[[126.96143,35.13262],[126.96145,35.13251],[126.96152,35.13251],[126.96156,35.13255],[126.96156,35.13262],[126.96143,35.13262]]]}},{"type":"Feature","properties":{"valleyId":"jeungsimsa","layer":"canopy","date":"2026-08-01"},"geometry":{"type":"Polygon","coordinates":[[[126.96026,35.13265],[126.96024,35.13256],[126.96029,35.13245],[126.96038,35.1324],[126.96055,35.1324],[126.96048,35.13257],[126.96037,35.13265],[126.96026,35.13265]]]}},{"type":"Feature","properties":{"valleyId":"jeungsimsa","layer":"canopy","date":"2026-08-01"},"geometry":{"type":"Polygon","coordinates":[[[126.96088,35.13241],[126.96088,35.13234],[126.96106,35.13234],[126.96106,35.1324],[126.96088,35.13241]]]}},{"type":"Feature","properties":{"valleyId":"jeungsimsa","layer":"canopy","date":"2026-08-01"},"geometry":{"type":"Polygon","coordinates":[[[126.96861,35.13243],[126.96859,35.13234],[126.96872,35.13236],[126.96872,35.13243],[126.96861,35.13243]]]}},{"type":"Feature","properties":{"valleyId":"jeungsimsa","layer":"canopy","date":"2026-08-01"},"geometry":{"type":"Polygon","coordinates":[[[126.96163,35.13224],[126.96163,35.13217],[126.96179,35.13216],[126.96176,35.13224],[126.96163,35.13224]]]}},{"type":"Feature","properties":{"valleyId":"jeungsimsa","layer":"canopy","date":"2026-08-01"},"geometry":{"type":"Polygon","coordinates":[[[126.96458,35.13188],[126.96458,35.13182],[126.96465,35.13182],[126.96465,35.13188],[126.96458,35.13188]]]}},{"type":"Feature","properties":{"valleyId":"jeungsimsa","layer":"canopy","date":"2026-08-01"},"geometry":{"type":"Polygon","coordinates":[[[126.96997,35.13065],[126.96975,35.13063],[126.96975,35.13054],[126.9701,35.13056],[126.97017,35.13053],[126.97034,35.13051],[126.9705,35.13057],[126.9705,35.13062],[126.96997,35.13065]]]}},{"type":"Feature","properties":{"valleyId":"jeungsimsa","layer":"canopy","date":"2026-08-01"},"geometry":{"type":"Polygon","coordinates":[[[126.97072,35.13056],[126.97072,35.13048],[126.97087,35.13049],[126.97087,35.13054],[126.97072,35.13056]]]}},{"type":"Feature","properties":{"valleyId":"jeungsimsa","layer":"canopy","date":"2026-08-01"},"geometry":{"type":"Polygon","coordinates":[[[126.97118,35.13038],[126.97118,35.13031],[126.97127,35.13024],[126.97147,35.13015],[126.97154,35.13016],[126.97154,35.13021],[126.97147,35.13026],[126.97143,35.13026],[126.97129,35.13037],[126.97118,35.13038]]]}},{"type":"Feature","properties":{"valleyId":"jeungsimsa","layer":"canopy","date":"2026-08-01"},"geometry":{"type":"Polygon","coordinates":[[[126.9695,35.13001],[126.9695,35.12996],[126.96961,35.12996],[126.96961,35.13001],[126.9695,35.13001]]]}},{"type":"Feature","properties":{"valleyId":"jeungsimsa","layer":"canopy","date":"2026-08-01"},"geometry":{"type":"Polygon","coordinates":[[[126.9717,35.13],[126.9717,35.12992],[126.97183,35.12989],[126.97183,35.12996],[126.97178,35.13],[126.9717,35.13]]]}},{"type":"Feature","properties":{"valleyId":"jeungsimsa","layer":"canopy","date":"2026-08-01"},"geometry":{"type":"Polygon","coordinates":[[[126.96961,35.12996],[126.96959,35.1298],[126.9697,35.1298],[126.96972,35.12993],[126.96968,35.12996],[126.96961,35.12996]]]}},{"type":"Feature","properties":{"valleyId":"jeungsimsa","layer":"canopy","date":"2026-08-01"},"geometry":{"type":"Polygon","coordinates":[[[126.96855,35.1294],[126.96851,35.12937],[126.96853,35.12924],[126.9686,35.12924],[126.96868,35.12933],[126.96875,35.12933],[126.96875,35.12939],[126.96855,35.1294]]]}},{"type":"Feature","properties":{"valleyId":"jeungsimsa","layer":"canopy","date":"2026-08-01"},"geometry":{"type":"Polygon","coordinates":[[[126.97218,35.12923],[126.97218,35.12916],[126.97224,35.12916],[126.97224,35.12923],[126.97218,35.12923]]]}},{"type":"Feature","properties":{"valleyId":"jeungsimsa","layer":"canopy","date":"2026-08-01"},"geometry":{"type":"Polygon","coordinates":[[[126.96952,35.12909],[126.96955,35.12902],[126.96966,35.12902],[126.96966,35.12908],[126.96952,35.12909]]]}},{"type":"Feature","properties":{"valleyId":"jeungsimsa","layer":"canopy","date":"2026-08-01"},"geometry":{"type":"Polygon","coordinates":[[[126.95528,35.13621],[126.95495,35.13615],[126.95469,35.13607],[126.95465,35.13604],[126.95447,35.13602],[126.95443,35.13598],[126.95425,35.13594],[126.95419,35.13587],[126.95415,35.13587],[126.95415,35.13581],[126.95419,35.13578],[126.9542,35.13563],[126.95406,35.13561],[126.95407,35.13543],[126.95416,35.13529],[126.9542,35.13529],[126.95419,35.13506],[126.95425,35.13506],[126.95434,35.13511],[126.95445,35.13511],[126.95449,35.13508],[126.95448,35.13493],[126.95461,35.13494],[126.95463,35.13505],[126.95478,35.13507],[126.95489,35.13501],[126.95492,35.13492],[126.95503,35.13485],[126.95548,35.13499],[126.95549,35.13488],[126.95542,35.13484],[126.9554,35.13479],[126.9554,35.13473],[126.95547,35.13472],[126.95547,35.13466],[126.95556,35.13465],[126.95558,35.1347],[126.95567,35.1347],[126.95573,35.13465],[126.95582,35.13465],[126.95582,35.13487],[126.95564,35.13497],[126.95564,35.13504],[126.95574,35.1351],[126.95579,35.13517],[126.95578,35.13532],[126.95583,35.13537],[126.95591,35.13537],[126.95594,35.13525],[126.95598,35.13521],[126.95605,35.13521],[126.95604,35.13548],[126.95602,35.13552],[126.95591,35.13554],[126.95589,35.13561],[126.95599,35.13565],[126.95601,35.13579],[126.95608,35.13579],[126.95615,35.13568],[126.95626,35.13569],[126.95626,35.13572],[126.9563,35.13576],[126.95641,35.13578],[126.95645,35.13585],[126.9566,35.13585],[126.95657,35.13551],[126.95644,35.13542],[126.9564,35.13542],[126.9564,35.13538],[126.95635,35.13538],[126.95625,35.13525],[126.95625,35.13515],[126.95632,35.13507],[126.9563,35.13497],[126.95621,35.13493],[126.95619,35.13482],[126.95606,35.13475],[126.95602,35.1346],[126.95591,35.13451],[126.95591,35.13445],[126.956,35.13446],[126.956,35.13451],[126.95604,35.13451],[126.95604,35.13455],[126.95624,35.13457],[126.95628,35.13459],[126.9563,35.1347],[126.95644,35.13468],[126.95646,35.13475],[126.95652,35.13475],[126.95655,35.13466],[126.95659,35.13466],[126.95659,35.13456],[126.95646,35.1345],[126.95636,35.13435],[126.95627,35.13433],[126.95627,35.13417],[126.95649,35.13418],[126.95662,35.13414],[126.95663,35.13407],[126.95654,35.13398],[126.9565,35.13398],[126.9565,35.13392],[126.9567,35.13385],[126.9567,35.1338],[126.95663,35.13378],[126.95664,35.13373],[126.95725,35.1337],[126.95729,35.13376],[126.95736,35.13376],[126.95736,35.13365],[126.95741,35.13361],[126.95752,35.13362],[126.9576,35.13356],[126.95774,35.13357],[126.95778,35.13349],[126.95783,35.13349],[126.95787,35.13344],[126.95794,35.13344],[126.95798,35.13341],[126.95818,35.13343],[126.95825,35.13338],[126.9586,35.13338],[126.95862,35.13335],[126.95875,35.13335],[126.95879,35.13342],[126.95899,35.13346],[126.95932,35.13347],[126.95941,35.13345],[126.95947,35.1334],[126.95976,35.13342],[126.9598,35.13351],[126.95989,35.13351],[126.95991,35.13346],[126.96002,35.13344],[126.96003,35.13333],[126.96011,35.13333],[126.96011,35.13337],[126.96022,35.13337],[126.96033,35.1333],[126.96042,35.1333],[126.96051,35.13338],[126.96046,35.13352],[126.96052,35.13358],[126.96063,35.13358],[126.9607,35.13345],[126.96079,35.13345],[126.96081,35.13349],[126.96094,35.13355],[126.96105,35.13355],[126.96105,35.13351],[126.96112,35.13346],[126.96127,35.13346],[126.96136,35.13337],[126.96136,35.1333],[126.9615,35.13321],[126.96154,35.13321],[126.96159,35.13314],[126.96179,35.13313],[126.96205,35.13303],[126.96205,35.13297],[126.96197,35.1329],[126.96192,35.1329],[126.9619,35.13284],[126.96184,35.13281],[126.96182,35.1327],[126.96167,35.13266],[126.96169,35.13253],[126.96174,35.13251],[126.96174,35.13239],[126.96187,35.13228],[126.96198,35.13228],[126.96196,35.13241],[126.96218,35.13236],[126.96225,35.13229],[126.96225,35.13213],[126.96232,35.13207],[126.96247,35.13208],[126.96249,35.13199],[126.96256,35.13197],[126.96256,35.1319],[126.96267,35.13186],[126.96268,35.13179],[126.96287,35.13172],[126.96296,35.13167],[126.96299,35.13162],[126.96305,35.13162],[126.96312,35.13156],[126.96319,35.13157],[126.96318,35.13162],[126.96314,35.13162],[126.96314,35.13169],[126.96303,35.1318],[126.96302,35.13187],[126.96296,35.13187],[126.96296,35.13192],[126.963,35.13194],[126.96313,35.13194],[126.96316,35.13189],[126.96322,35.13189],[126.96326,35.13193],[126.96326,35.13204],[126.96344,35.13207],[126.96363,35.13208],[126.9637,35.13195],[126.96375,35.13195],[126.96373,35.13185],[126.96331,35.13182],[126.96329,35.13171],[126.96358,35.13172],[126.96358,35.13159],[126.96367,35.13157],[126.964,35.13162],[126.96404,35.13163],[126.96406,35.13172],[126.96417,35.13173],[126.96421,35.1318],[126.9643,35.13184],[126.96432,35.13191],[126.96447,35.13189],[126.96452,35.13195],[126.96484,35.13197],[126.96493,35.13203],[126.9651,35.13207],[126.96512,35.13214],[126.96521,35.13219],[126.96521,35.13227],[126.96525,35.1323],[126.96532,35.1323],[126.96538,35.13236],[126.96554,35.13236],[126.96554,35.1324],[126.96558,35.1324],[126.96562,35.13245],[126.96575,35.13251],[126.96577,35.13258],[126.96588,35.13258],[126.96599,35.13253],[126.96617,35.13252],[126.96617,35.13246],[126.96613,35.13243],[126.96613,35.13237],[126.96617,35.13234],[126.96637,35.13232],[126.96641,35.13236],[126.96661,35.13236],[126.96665,35.1324],[126.96674,35.1324],[126.96679,35.13237],[126.96679,35.13229],[126.96672,35.13224],[126.96662,35.13222],[126.96657,35.13218],[126.96651,35.13218],[126.96646,35.13222],[126.96631,35.13221],[126.96627,35.13218],[126.96574,35.13219],[126.9657,35.132],[126.96566,35.13199],[126.96559,35.13184],[126.96544,35.13178],[126.96533,35.1318],[126.96515,35.13191],[126.96502,35.1319],[126.96498,35.13187],[126.96478,35.1319],[126.96476,35.13179],[126.96485,35.13176],[126.96485,35.1317],[126.96476,35.13165],[126.96474,35.13159],[126.96452,35.13161],[126.96452,35.13173],[126.96456,35.13175],[126.96456,35.13182],[126.96439,35.13184],[126.9643,35.13171],[126.96424,35.13169],[126.96424,35.13158],[126.96413,35.13158],[126.96406,35.13153],[126.96409,35.13142],[126.96405,35.1314],[126.96405,35.13133],[126.96416,35.13129],[126.96414,35.13113],[126.9639,35.13116],[126.96383,35.13123],[126.96376,35.13125],[126.96368,35.13125],[126.96352,35.13119],[126.9633,35.13119],[126.96322,35.13113],[126.96313,35.13113],[126.96306,35.1312],[126.96293,35.1312],[126.96291,35.13129],[126.96282,35.13134],[126.96279,35.13141],[126.96275,35.13145],[126.96266,35.13145],[126.96257,35.13154],[126.96246,35.13155],[126.96242,35.13159],[126.96242,35.13164],[126.96231,35.13164],[126.96231,35.1316],[126.96222,35.1316],[126.96217,35.13173],[126.96199,35.13187],[126.96169,35.13188],[126.96166,35.13199],[126.96153,35.13211],[126.96137,35.13211],[126.96137,35.13215],[126.96131,35.13215],[126.96135,35.13204],[126.96126,35.13204],[126.96122,35.13215],[126.96109,35.13214],[126.96107,35.13211],[126.96085,35.13207],[126.96076,35.13214],[126.96041,35.13217],[126.96029,35.13226],[126.96029,35.13229],[126.95996,35.13232],[126.96,35.13247],[126.95996,35.1325],[126.95996,35.13256],[126.95982,35.13264],[126.95976,35.13264],[126.95974,35.13261],[126.95958,35.13262],[126.95956,35.1325],[126.95956,35.13242],[126.95967,35.13241],[126.9597,35.13234],[126.95985,35.13234],[126.95985,35.13228],[126.95979,35.13227],[126.95984,35.13214],[126.95979,35.13214],[126.95977,35.1321],[126.95951,35.1321],[126.95946,35.13213],[126.95946,35.13224],[126.95941,35.13228],[126.95945,35.13258],[126.95938,35.13264],[126.95912,35.1326],[126.95901,35.13252],[126.9589,35.13252],[126.95891,35.13245],[126.95884,35.13245],[126.95882,35.13241],[126.95871,35.13237],[126.95871,35.13232],[126.95865,35.13226],[126.95863,35.13219],[126.95858,35.13219],[126.95852,35.13212],[126.95837,35.13208],[126.95836,35.13215],[126.95832,35.13219],[126.95821,35.1322],[126.95821,35.13229],[126.95808,35.13229],[126.95801,35.13231],[126.95801,35.13234],[126.95796,35.13234],[126.95796,35.13254],[126.95785,35.13258],[126.95785,35.13263],[126.95793,35.13267],[126.95791,35.13274],[126.9578,35.13274],[126.95763,35.13264],[126.95743,35.13264],[126.9573,35.13271],[126.95719,35.13271],[126.9571,35.13267],[126.95699,35.13256],[126.95669,35.1325],[126.95661,35.13281],[126.9567,35.13281],[126.95674,35.13285],[126.95694,35.13285],[126.95699,35.13289],[126.95698,35.13294],[126.95694,35.13297],[126.95683,35.13299],[126.95676,35.13304],[126.95654,35.13308],[126.9565,35.13311],[126.9561,35.13312],[126.95606,35.13307],[126.95606,35.13296],[126.95619,35.13294],[126.95619,35.13291],[126.95637,35.13279],[126.95636,35.1326],[126.95631,35.13259],[126.95632,35.13248],[126.9564,35.13244],[126.95641,35.13239],[126.95634,35.13239],[126.95632,35.13233],[126.95623,35.13233],[126.95621,35.13239],[126.95614,35.1324],[126.95614,35.13246],[126.95607,35.13246],[126.95592,35.13256],[126.95585,35.13267],[126.95589,35.13289],[126.95582,35.13292],[126.95578,35.13301],[126.95562,35.13301],[126.9556,35.13311],[126.95551,35.13317],[126.95513,35.13316],[126.95511,35.1332],[126.95487,35.13319],[126.95487,35.1333],[126.95478,35.13334],[126.95478,35.13346],[126.95451,35.13347],[126.95442,35.13355],[126.95412,35.1335],[126.95385,35.13352],[126.95372,35.13348],[126.95372,35.13344],[126.95368,35.13342],[126.95353,35.13342],[126.95344,35.13338],[126.9534,35.13331],[126.95333,35.13329],[126.95298,35.13329],[126.95298,35.1332],[126.95305,35.13311],[126.95305,35.13305],[126.95314,35.13291],[126.95319,35.13289],[126.95321,35.13282],[126.95337,35.13268],[126.95342,35.13254],[126.95358,35.13229],[126.95373,35.13215],[126.95373,35.13211],[126.95412,35.13181],[126.95416,35.13181],[126.95427,35.13172],[126.95465,35.13157],[126.95513,35.13147],[126.95564,35.13146],[126.9561,35.1315],[126.95649,35.1316],[126.95662,35.13167],[126.95675,35.13167],[126.95684,35.1316],[126.95693,35.13159],[126.95695,35.13155],[126.95709,35.1315],[126.9572,35.13148],[126.95742,35.13132],[126.9578,35.13117],[126.95824,35.13107],[126.95881,35.13106],[126.95912,35.13081],[126.95959,35.1306],[126.96023,35.13045],[126.96089,35.13043],[126.96104,35.13036],[126.96118,35.13025],[126.96118,35.13022],[126.96129,35.13013],[126.96133,35.13013],[126.96145,35.13002],[126.96149,35.13002],[126.96156,35.12995],[126.96165,35.12993],[126.96174,35.12986],[126.96205,35.12974],[126.96211,35.12974],[126.96238,35.12962],[126.96275,35.12952],[126.96291,35.12956],[126.96288,35.12981],[126.96292,35.12985],[126.96292,35.1299],[126.96288,35.12994],[126.96287,35.13003],[126.96294,35.13008],[126.96298,35.13008],[126.96298,35.13019],[126.96285,35.13021],[126.9628,35.13012],[126.96274,35.13012],[126.96272,35.13019],[126.96276,35.13022],[126.96285,35.13023],[126.96285,35.13026],[126.96295,35.13037],[126.96295,35.13043],[126.96304,35.13048],[126.96312,35.13061],[126.96319,35.13061],[126.96323,35.13057],[126.96323,35.1305],[126.96332,35.13047],[126.96338,35.13002],[126.96336,35.12993],[126.96327,35.12985],[126.96314,35.12982],[126.96314,35.12974],[126.96321,35.12971],[126.96321,35.12962],[126.96315,35.12956],[126.96302,35.12956],[126.963,35.12949],[126.96304,35.12949],[126.96306,35.12945],[126.96317,35.12946],[126.96317,35.12937],[126.96335,35.12922],[126.9634,35.12923],[126.96344,35.12917],[126.96366,35.12909],[126.96369,35.12905],[126.96411,35.12891],[126.96461,35.12885],[126.9651,35.12888],[126.96566,35.12903],[126.96566,35.12908],[126.96562,35.1291],[126.96561,35.12923],[126.96568,35.12934],[126.96568,35.12943],[126.96585,35.1295],[126.96602,35.1295],[126.96611,35.12947],[126.96612,35.12932],[126.9662,35.12933],[126.96646,35.12957],[126.96646,35.12962],[126.96639,35.12962],[126.96641,35.12976],[126.96659,35.12973],[126.96665,35.1298],[126.96676,35.12998],[126.96686,35.13035],[126.96741,35.13023],[126.96807,35.13024],[126.96816,35.13026],[126.96815,35.13039],[126.96832,35.13055],[126.96861,35.13054],[126.9687,35.13061],[126.96903,35.13058],[126.96924,35.13075],[126.96924,35.1308],[126.96913,35.1308],[126.96913,35.13087],[126.96924,35.13087],[126.96926,35.1308],[126.96933,35.1308],[126.96933,35.13084],[126.96946,35.13093],[126.9695,35.13102],[126.96961,35.13111],[126.96975,35.13137],[126.96984,35.13159],[126.96989,35.13189],[126.96989,35.13222],[126.96977,35.13265],[126.96972,35.1327],[126.96965,35.1327],[126.96957,35.13261],[126.96935,35.13261],[126.96928,35.13264],[126.96928,35.13275],[126.96939,35.13275],[126.96941,35.13286],[126.9695,35.13286],[126.96949,35.13297],[126.96954,35.13297],[126.96954,35.13302],[126.96936,35.13318],[126.96936,35.13322],[126.96909,35.13343],[126.96904,35.13343],[126.96898,35.1335],[126.96893,35.1335],[126.96884,35.13357],[126.96875,35.13359],[126.96873,35.13362],[126.96855,35.13369],[126.96802,35.13383],[126.96798,35.13386],[126.96789,35.13386],[126.96776,35.13391],[126.96767,35.13391],[126.96747,35.13398],[126.96718,35.13403],[126.96563,35.134],[126.96526,35.13396],[126.96484,35.13385],[126.96445,35.13366],[126.96415,35.13342],[126.96393,35.13335],[126.96391,35.13331],[126.96369,35.13329],[126.96362,35.13332],[126.96358,35.13343],[126.96353,35.13345],[126.96351,35.13352],[126.96335,35.13366],[126.96335,35.1337],[126.96302,35.13396],[126.96297,35.13396],[126.96293,35.13401],[126.96271,35.1341],[126.96268,35.13414],[126.96222,35.13427],[126.96208,35.13438],[126.96208,35.13441],[126.96199,35.13448],[126.96195,35.13448],[126.96184,35.13459],[126.96179,35.13459],[126.96168,35.13468],[126.96135,35.13482],[126.96088,35.13493],[126.96049,35.13498],[126.96031,35.13503],[126.96007,35.13507],[126.95963,35.13506],[126.95956,35.13509],[126.95948,35.13509],[126.95928,35.13489],[126.95915,35.13489],[126.95913,35.13483],[126.95907,35.13481],[126.95902,35.13476],[126.95889,35.13476],[126.95885,35.13479],[126.95886,35.13513],[126.9586,35.13513],[126.95807,35.13505],[126.95798,35.13517],[126.95792,35.13517],[126.95792,35.13503],[126.95783,35.13496],[126.95784,35.13485],[126.95795,35.13481],[126.95799,35.13474],[126.95812,35.13474],[126.95815,35.13469],[126.95824,35.13466],[126.95835,35.13466],[126.95841,35.13464],[126.95841,35.1346],[126.95846,35.13459],[126.95855,35.13459],[126.95855,35.13455],[126.95864,35.13448],[126.95864,35.13441],[126.95875,35.13439],[126.95873,35.13429],[126.95853,35.13426],[126.95845,35.13417],[126.95838,35.13417],[126.95834,35.13413],[126.9582,35.13415],[126.95816,35.1341],[126.95805,35.13409],[126.95803,35.13415],[126.95785,35.13413],[126.95786,35.13409],[126.95779,35.13409],[126.95772,35.13414],[126.95742,35.13412],[126.95737,35.13408],[126.95702,35.13411],[126.95698,35.13413],[126.95697,35.13418],[126.957,35.13426],[126.95708,35.13428],[126.9571,35.13431],[126.95708,35.13444],[126.95695,35.13442],[126.95695,35.13431],[126.95688,35.13431],[126.95682,35.1344],[126.95673,35.13441],[126.95672,35.13454],[126.95688,35.1346],[126.95685,35.13469],[126.95674,35.1347],[126.95672,35.13479],[126.95678,35.13485],[126.95704,35.13492],[126.95713,35.13502],[126.95722,35.13504],[126.95724,35.13511],[126.95734,35.1352],[126.95739,35.1352],[126.95743,35.13527],[126.9575,35.13529],[126.95752,35.13536],[126.95758,35.13542],[126.95758,35.13547],[126.95749,35.13551],[126.95745,35.13556],[126.95736,35.13558],[126.95733,35.13561],[126.95716,35.13567],[126.95696,35.13584],[126.95691,35.13584],[126.95678,35.13595],[126.9564,35.1361],[126.95605,35.13619],[126.95585,35.13618],[126.9558,35.13622],[126.95528,35.13621]],[[126.95599,35.13597],[126.95605,35.13597],[126.95605,35.1359],[126.95599,35.1359],[126.95599,35.13597]],[[126.95575,35.13559],[126.95582,35.13559],[126.95582,35.13553],[126.95576,35.13553],[126.95575,35.13559]],[[126.95506,35.13523],[126.95513,35.13523],[126.95513,35.1352],[126.95517,35.13518],[126.95515,35.13509],[126.95502,35.13511],[126.95506,35.13523]],[[126.95823,35.13502],[126.95831,35.13502],[126.95834,35.13493],[126.95821,35.13493],[126.95823,35.13502]],[[126.96839,35.13333],[126.96848,35.13333],[126.9685,35.13319],[126.96839,35.1332],[126.96839,35.13333]],[[126.96282,35.13295],[126.96291,35.13295],[126.96291,35.13288],[126.96276,35.13271],[126.9627,35.13271],[126.96261,35.13276],[126.96261,35.13282],[126.96282,35.13295]],[[126.96884,35.13263],[126.96913,35.1326],[126.96913,35.13251],[126.96905,35.13242],[126.96903,35.13233],[126.96896,35.13233],[126.96892,35.1324],[126.96885,35.1324],[126.96876,35.13234],[126.96876,35.13231],[126.96872,35.13231],[126.9687,35.1322],[126.96864,35.13214],[126.96837,35.13212],[126.96835,35.13219],[126.96828,35.13221],[126.96828,35.13228],[126.96832,35.13234],[126.9683,35.13246],[126.96847,35.13248],[126.96856,35.13256],[126.96871,35.13258],[126.96884,35.13263]],[[126.9618,35.13248],[126.96189,35.13248],[126.96189,35.13243],[126.9618,35.13243],[126.9618,35.13248]],[[126.95762,35.13219],[126.95793,35.13214],[126.95795,35.13207],[126.95802,35.13206],[126.95802,35.13198],[126.95769,35.13203],[126.9576,35.13212],[126.95762,35.13219]],[[126.96793,35.13231],[126.968,35.13231],[126.968,35.13224],[126.96789,35.13224],[126.96789,35.13229],[126.96793,35.13231]],[[126.96751,35.13225],[126.96771,35.1322],[126.96771,35.13215],[126.9676,35.13214],[126.96752,35.1322],[126.96751,35.13225]],[[126.95804,35.13198],[126.95813,35.13199],[126.95813,35.13191],[126.95806,35.13191],[126.95804,35.13198]],[[126.96137,35.13204],[126.96146,35.13204],[126.96153,35.13199],[126.96153,35.13193],[126.9614,35.13191],[126.96137,35.13204]],[[126.96407,35.132],[126.96418,35.132],[126.96419,35.13193],[126.96405,35.13192],[126.96407,35.132]],[[126.9584,35.13174],[126.95846,35.13174],[126.95846,35.13167],[126.9584,35.13167],[126.9584,35.13174]],[[126.96491,35.13179],[126.96498,35.13179],[126.96498,35.13174],[126.96492,35.13174],[126.96491,35.13179]],[[126.96433,35.13128],[126.96444,35.13126],[126.96445,35.13121],[126.96451,35.13114],[126.96458,35.13096],[126.96459,35.13081],[126.9647,35.13078],[126.96477,35.13071],[126.96477,35.13064],[126.9647,35.13056],[126.96471,35.13047],[126.9646,35.13047],[126.96459,35.13053],[126.96448,35.13065],[126.96448,35.13074],[126.96439,35.13083],[126.96436,35.13101],[126.9643,35.13104],[126.96429,35.1311],[126.96436,35.13115],[126.96433,35.13128]],[[126.96048,35.13112],[126.96054,35.13112],[126.96054,35.13107],[126.96048,35.13107],[126.96048,35.13112]],[[126.96556,35.13121],[126.96568,35.13119],[126.96568,35.13114],[126.96563,35.1311],[126.96555,35.13112],[126.96556,35.13121]],[[126.96603,35.13122],[126.96611,35.13122],[126.96611,35.13118],[126.9662,35.13117],[126.96636,35.13117],[126.96638,35.13113],[126.9666,35.13112],[126.96667,35.13108],[126.96667,35.13099],[126.96638,35.13097],[126.96634,35.13102],[126.96623,35.13102],[126.96605,35.13109],[126.96592,35.13109],[126.9659,35.13098],[126.96583,35.13098],[126.96581,35.13105],[126.9659,35.13107],[126.9659,35.13116],[126.966,35.13118],[126.96603,35.13122]],[[126.96061,35.13098],[126.96068,35.13098],[126.96068,35.13089],[126.96057,35.13087],[126.96057,35.13094],[126.96061,35.13098]],[[126.96037,35.13092],[126.9605,35.13093],[126.9605,35.13087],[126.96039,35.13085],[126.96037,35.13092]],[[126.96163,35.13071],[126.96176,35.13071],[126.96178,35.13068],[126.96187,35.13068],[126.96192,35.13046],[126.96201,35.13045],[126.96205,35.13027],[126.96201,35.13021],[126.96193,35.13017],[126.96193,35.13014],[126.96175,35.13014],[126.96175,35.13021],[126.96166,35.13022],[126.96165,35.13048],[126.96152,35.13049],[126.96152,35.13062],[126.96161,35.13062],[126.96163,35.13071]],[[126.96458,35.13036],[126.96466,35.13036],[126.96471,35.13029],[126.96486,35.1303],[126.96491,35.13022],[126.965,35.13021],[126.965,35.13015],[126.96489,35.13013],[126.96469,35.13018],[126.9646,35.13024],[126.96458,35.13036]],[[126.96531,35.12998],[126.96551,35.12996],[126.96553,35.12987],[126.96533,35.12991],[126.96531,35.12998]],[[126.96606,35.12983],[126.96613,35.12983],[126.96622,35.12978],[126.9662,35.12969],[126.96609,35.1297],[126.96606,35.12983]]]}},{"type":"Feature","properties":{"valleyId":"jeungsimsa","layer":"canopy","date":"2026-08-01"},"geometry":{"type":"Polygon","coordinates":[[[126.96811,35.12952],[126.96809,35.12947],[126.96802,35.12947],[126.96794,35.12923],[126.96794,35.12909],[126.9679,35.12903],[126.96791,35.12872],[126.96795,35.12872],[126.96798,35.12869],[126.96841,35.1287],[126.96843,35.12879],[126.96832,35.12886],[126.9683,35.12891],[126.96834,35.12904],[126.96816,35.1292],[126.96818,35.12936],[126.96827,35.12936],[126.96826,35.12947],[126.96817,35.12952],[126.96811,35.12952]]]}},{"type":"Feature","properties":{"valleyId":"jeungsimsa","layer":"canopy","date":"2026-08-01"},"geometry":{"type":"Polygon","coordinates":[[[126.96912,35.12938],[126.96904,35.1293],[126.96899,35.1293],[126.96891,35.12916],[126.96891,35.12903],[126.96896,35.12898],[126.96896,35.1289],[126.969,35.12889],[126.96901,35.12874],[126.9691,35.12869],[126.96934,35.12871],[126.96934,35.12866],[126.96943,35.12864],[126.96947,35.12866],[126.96947,35.12871],[126.9694,35.12875],[126.96942,35.12889],[126.96931,35.129],[126.96926,35.129],[126.96926,35.12904],[126.96917,35.12911],[126.96917,35.12927],[126.96923,35.12932],[126.96923,35.12938],[126.96912,35.12938]]]}},{"type":"Feature","properties":{"valleyId":"jeungsimsa","layer":"canopy","date":"2026-08-01"},"geometry":{"type":"Polygon","coordinates":[[[126.97067,35.12967],[126.97054,35.12965],[126.97048,35.12958],[126.96993,35.12955],[126.96982,35.12953],[126.96971,35.12946],[126.96947,35.12945],[126.96936,35.12942],[126.96936,35.12934],[126.96947,35.12935],[126.96956,35.12929],[126.96969,35.12929],[126.96978,35.12935],[126.96985,35.12935],[126.96996,35.12925],[126.97011,35.12923],[126.97016,35.12919],[126.97027,35.129],[126.97045,35.12898],[126.97045,35.12891],[126.97041,35.12889],[126.97041,35.12878],[126.97035,35.12871],[126.97028,35.12871],[126.97022,35.12865],[126.97015,35.12851],[126.97003,35.12836],[126.96987,35.12834],[126.96981,35.12829],[126.96954,35.12828],[126.96943,35.12833],[126.96928,35.12833],[126.96922,35.12826],[126.9688,35.12825],[126.96862,35.12838],[126.96862,35.12843],[126.96866,35.12843],[126.96866,35.1285],[126.9686,35.1285],[126.9686,35.12843],[126.9684,35.12843],[126.96833,35.12848],[126.96822,35.12849],[126.96813,35.12857],[126.96793,35.1286],[126.96794,35.12845],[126.96806,35.12815],[126.96815,35.12804],[126.96817,35.12795],[126.96821,35.12794],[126.96824,35.12786],[126.96837,35.12772],[126.9685,35.12774],[126.9686,35.12762],[126.96864,35.12762],[126.96871,35.12757],[126.96882,35.12757],[126.96886,35.1276],[126.96885,35.12777],[126.96892,35.1278],[126.96899,35.1278],[126.96899,35.12777],[126.96916,35.1277],[126.96919,35.12748],[126.96917,35.12745],[126.96906,35.12745],[126.96902,35.12737],[126.96904,35.12726],[126.96909,35.12723],[126.96915,35.12723],[126.96946,35.12711],[126.96988,35.12704],[126.97041,35.12705],[126.97074,35.12711],[126.97117,35.12726],[126.97119,35.1273],[126.97128,35.12732],[126.97145,35.12745],[126.9715,35.12745],[126.97158,35.12754],[126.97163,35.12754],[126.97173,35.12763],[126.97173,35.12767],[126.97186,35.12776],[126.97186,35.1278],[126.97193,35.12784],[126.97199,35.12796],[126.97203,35.12798],[126.97214,35.12816],[126.97216,35.12827],[126.9722,35.12831],[126.97226,35.12853],[126.9723,35.12885],[126.97227,35.12914],[126.9722,35.12914],[126.9722,35.12903],[126.97207,35.12897],[126.97201,35.12897],[126.97203,35.12908],[126.97183,35.12906],[126.97181,35.1289],[126.97172,35.1289],[126.97172,35.12893],[126.97163,35.12897],[126.97157,35.12897],[126.97155,35.12889],[126.97142,35.12891],[126.97139,35.12902],[126.97124,35.129],[126.97123,35.12916],[126.9713,35.12918],[126.97123,35.12952],[126.97116,35.12952],[126.97114,35.12955],[126.97101,35.12955],[126.97096,35.12962],[126.97067,35.12967]],[[126.96915,35.1282],[126.9693,35.12821],[126.96933,35.12812],[126.96915,35.12811],[126.96915,35.1282]],[[126.97075,35.12823],[126.97084,35.12823],[126.97084,35.12816],[126.97078,35.12816],[126.97075,35.12823]],[[126.96961,35.12819],[126.9697,35.12818],[126.9697,35.1281],[126.96961,35.12812],[126.96961,35.12819]],[[126.96929,35.12803],[126.96944,35.12801],[126.96945,35.12785],[126.96956,35.12783],[126.96954,35.12771],[126.96934,35.1277],[126.96936,35.12785],[126.96931,35.1279],[126.96929,35.12803]],[[126.97091,35.12796],[126.97098,35.12796],[126.97098,35.12791],[126.97094,35.12787],[126.97085,35.12787],[126.97085,35.12793],[126.97091,35.12796]],[[126.9698,35.12791],[126.96986,35.12791],[126.96991,35.12786],[126.96997,35.12784],[126.96993,35.12769],[126.96987,35.12769],[126.96984,35.1278],[126.96977,35.12784],[126.9698,35.12791]]]}},{"type":"Feature","properties":{"valleyId":"jeungsimsa","layer":"canopy","date":"2026-08-01"},"geometry":{"type":"Polygon","coordinates":[[[126.97139,35.12718],[126.97137,35.12709],[126.97142,35.12705],[126.97148,35.12705],[126.97148,35.12716],[126.97139,35.12718]]]}},{"type":"Feature","properties":{"valleyId":"jeungsimsa","layer":"canopy","date":"2026-08-01"},"geometry":{"type":"Polygon","coordinates":[[[126.97323,35.12584],[126.97318,35.1258],[126.97318,35.12575],[126.97327,35.12573],[126.97334,35.12579],[126.97334,35.12584],[126.97323,35.12584]]]}},{"type":"Feature","properties":{"valleyId":"jeungsimsa","layer":"canopy","date":"2026-08-01"},"geometry":{"type":"Polygon","coordinates":[[[126.95614,35.12633],[126.95614,35.12624],[126.95623,35.12617],[126.95634,35.12613],[126.95635,35.12599],[126.95652,35.12594],[126.95657,35.1259],[126.95661,35.12576],[126.95675,35.12572],[126.95681,35.12565],[126.95686,35.12565],[126.95684,35.12542],[126.95689,35.12533],[126.95702,35.12531],[126.95704,35.12535],[126.95711,35.12535],[126.95718,35.12524],[126.95729,35.12525],[126.95733,35.12528],[126.95733,35.12534],[126.95741,35.12536],[126.95742,35.12532],[126.95748,35.12527],[126.9577,35.12529],[126.9581,35.12524],[126.95812,35.12535],[126.95825,35.12539],[126.95822,35.1255],[126.95818,35.12551],[126.95809,35.12566],[126.958,35.12571],[126.958,35.12574],[126.95775,35.12594],[126.95771,35.12594],[126.95766,35.12599],[126.95762,35.12599],[126.95757,35.12604],[126.95742,35.1261],[126.9574,35.12613],[126.95717,35.12622],[126.95682,35.1263],[126.95658,35.12633],[126.95614,35.12633]],[[126.95761,35.12558],[126.95767,35.12558],[126.95767,35.12552],[126.95761,35.12552],[126.95761,35.12558]],[[126.95734,35.12555],[126.95748,35.12556],[126.95746,35.12546],[126.95737,35.12546],[126.95734,35.12555]]]}},{"type":"Feature","properties":{"valleyId":"jeungsimsa","layer":"canopy","date":"2026-08-01"},"geometry":{"type":"Polygon","coordinates":[[[126.97205,35.1253],[126.97203,35.1252],[126.97217,35.12521],[126.97217,35.12526],[126.97212,35.1253],[126.97205,35.1253]]]}},{"type":"Feature","properties":{"valleyId":"jeungsimsa","layer":"canopy","date":"2026-08-01"},"geometry":{"type":"Polygon","coordinates":[[[126.95608,35.12425],[126.95606,35.12416],[126.95613,35.12416],[126.95615,35.12425],[126.95608,35.12425]]]}},{"type":"Feature","properties":{"valleyId":"jeungsimsa","layer":"canopy","date":"2026-08-01"},"geometry":{"type":"Polygon","coordinates":[[[126.97117,35.12373],[126.97117,35.12366],[126.97124,35.12366],[126.97124,35.12373],[126.97117,35.12373]]]}},{"type":"Feature","properties":{"valleyId":"jeungsimsa","layer":"canopy","date":"2026-08-01"},"geometry":{"type":"Polygon","coordinates":[[[126.95826,35.12508],[126.95815,35.12501],[126.95802,35.12497],[126.95802,35.12493],[126.95789,35.12491],[126.95778,35.12491],[126.95769,35.12496],[126.95742,35.12496],[126.95736,35.12499],[126.95699,35.12497],[126.95688,35.12488],[126.95686,35.12479],[126.95679,35.12473],[126.9568,35.12461],[126.95687,35.1245],[126.9569,35.12418],[126.95698,35.12418],[126.95698,35.12412],[126.95692,35.1241],[126.95688,35.12405],[126.95688,35.12399],[126.95692,35.12398],[126.95695,35.12378],[126.95706,35.12366],[126.95706,35.12358],[126.95713,35.12357],[126.95713,35.12351],[126.95718,35.12348],[126.95722,35.12348],[126.95725,35.12332],[126.95731,35.12332],[126.95731,35.12337],[126.95755,35.12334],[126.95755,35.12327],[126.95734,35.12328],[126.95736,35.12316],[126.95778,35.12314],[126.9581,35.12342],[126.9581,35.12346],[126.95823,35.12357],[126.9584,35.12384],[126.95854,35.12428],[126.95855,35.12471],[126.95845,35.12507],[126.95826,35.12508]]]}},{"type":"Feature","properties":{"valleyId":"jeungsimsa","layer":"canopy","date":"2026-08-01"},"geometry":{"type":"Polygon","coordinates":[[[126.95705,35.12338],[126.95698,35.12333],[126.95699,35.12322],[126.95703,35.12319],[126.95703,35.12306],[126.9571,35.12306],[126.9571,35.12313],[126.95723,35.12314],[126.95723,35.12321],[126.95714,35.12326],[126.95713,35.12339],[126.95705,35.12338]]]}},{"type":"Feature","properties":{"valleyId":"jeungsimsa","layer":"canopy","date":"2026-08-01"},"geometry":{"type":"Polygon","coordinates":[[[126.9573,35.1231],[126.9573,35.12303],[126.95736,35.12303],[126.95736,35.1231],[126.9573,35.1231]]]}},{"type":"Feature","properties":{"valleyId":"jeungsimsa","layer":"canopy","date":"2026-08-01"},"geometry":{"type":"Polygon","coordinates":[[[126.9571,35.12301],[126.9571,35.12286],[126.95717,35.12286],[126.95717,35.12301],[126.9571,35.12301]]]}},{"type":"Feature","properties":{"valleyId":"jeungsimsa","layer":"canopy","date":"2026-08-01"},"geometry":{"type":"Polygon","coordinates":[[[126.95492,35.12591],[126.95456,35.12558],[126.9543,35.1252],[126.95416,35.12469],[126.95417,35.12431],[126.95422,35.12409],[126.95434,35.12381],[126.9545,35.12356],[126.95465,35.12342],[126.95466,35.12338],[126.95479,35.12329],[126.95479,35.12326],[126.95488,35.12319],[126.95492,35.12319],[126.95504,35.12308],[126.95508,35.12308],[126.9553,35.12294],[126.95552,35.12285],[126.95566,35.12284],[126.9557,35.1228],[126.95581,35.1228],[126.95583,35.12286],[126.95594,35.1229],[126.95605,35.12303],[126.95604,35.12313],[126.95593,35.12317],[126.95589,35.12324],[126.95582,35.12324],[126.95582,35.12331],[126.95575,35.1234],[126.95575,35.12347],[126.95583,35.12362],[126.95583,35.12371],[126.95592,35.12374],[126.95592,35.1238],[126.95589,35.12387],[126.95576,35.12389],[126.9558,35.12403],[126.95573,35.12417],[126.95562,35.12421],[126.9556,35.12432],[126.95547,35.12433],[126.95546,35.1244],[126.95551,35.12444],[126.9557,35.12446],[126.95575,35.1245],[126.95575,35.12455],[126.95572,35.12461],[126.95566,35.12462],[126.95541,35.1246],[126.95537,35.12464],[126.95534,35.12478],[126.95541,35.12482],[126.95561,35.12484],[126.95563,35.12491],[126.95543,35.125],[126.95547,35.12518],[126.95542,35.12518],[126.95535,35.12525],[126.95525,35.12523],[126.95525,35.12519],[126.95514,35.12519],[126.95518,35.12534],[126.95522,35.12534],[126.95524,35.12537],[126.95537,35.12538],[126.95539,35.12547],[126.95528,35.12557],[126.95528,35.12561],[126.95517,35.1257],[126.9551,35.1257],[126.9551,35.12586],[126.95503,35.12591],[126.95492,35.12591]],[[126.95501,35.1242],[126.95514,35.1242],[126.95514,35.12415],[126.95501,35.12414],[126.95501,35.1242]]]}},{"type":"Feature","properties":{"valleyId":"jeungsimsa","layer":"canopy","date":"2026-08-01"},"geometry":{"type":"Polygon","coordinates":[[[126.95746,35.12193],[126.95746,35.12186],[126.95752,35.12184],[126.95753,35.12175],[126.95766,35.12174],[126.95766,35.12179],[126.95761,35.12181],[126.95763,35.12193],[126.95746,35.12193]]]}},{"type":"Feature","properties":{"valleyId":"jeungsimsa","layer":"canopy","date":"2026-08-01"},"geometry":{"type":"Polygon","coordinates":[[[126.95784,35.12168],[126.95784,35.12163],[126.95793,35.12161],[126.95792,35.12169],[126.95784,35.12168]]]}},{"type":"Feature","properties":{"valleyId":"jeungsimsa","layer":"canopy","date":"2026-08-01"},"geometry":{"type":"Polygon","coordinates":[[[126.972,35.12733],[126.97174,35.12727],[126.97177,35.1272],[126.97196,35.12721],[126.97203,35.12717],[126.97203,35.1271],[126.9719,35.12706],[126.97184,35.127],[126.97184,35.12697],[126.97177,35.12697],[126.97175,35.12702],[126.97168,35.12702],[126.97162,35.12691],[126.97142,35.12693],[126.97142,35.12685],[126.97134,35.12685],[126.97131,35.12689],[126.97116,35.12689],[126.97114,35.12692],[126.97109,35.12692],[126.97109,35.12699],[126.97102,35.12699],[126.97094,35.12692],[126.9709,35.12692],[126.97053,35.12659],[126.97042,35.1264],[126.97038,35.12639],[126.97028,35.12619],[126.97028,35.12613],[126.97024,35.12609],[126.97014,35.12566],[126.97017,35.12521],[126.97019,35.12512],[126.97024,35.1251],[126.97024,35.12503],[126.97031,35.12503],[126.97033,35.12509],[126.97048,35.12507],[126.97048,35.12502],[126.97039,35.125],[126.97039,35.12496],[126.97031,35.12489],[126.97033,35.12478],[126.97042,35.12464],[126.97047,35.12462],[126.97049,35.12455],[126.97065,35.12441],[126.97065,35.12437],[126.97096,35.12412],[126.97101,35.12412],[126.97105,35.12407],[126.97119,35.12402],[126.97119,35.12396],[126.97106,35.12393],[126.97104,35.12389],[126.97095,35.12387],[126.97091,35.1238],[126.97078,35.12376],[126.9702,35.12326],[126.9702,35.12323],[126.97003,35.12304],[126.96988,35.12277],[126.96976,35.12226],[126.96979,35.12185],[126.96993,35.12146],[126.97014,35.12115],[126.97025,35.12106],[126.97025,35.12103],[126.97036,35.12096],[126.97036,35.12092],[126.97063,35.12073],[126.97068,35.12073],[126.97072,35.12068],[126.97094,35.12059],[126.97097,35.12055],[126.97103,35.12055],[126.97134,35.12043],[126.97178,35.12037],[126.97224,35.12038],[126.97248,35.12042],[126.97272,35.12047],[126.97272,35.12062],[126.97276,35.12064],[126.97287,35.12064],[126.97292,35.12057],[126.97298,35.12057],[126.97309,35.12064],[126.97318,35.12066],[126.97337,35.12081],[126.97342,35.12081],[126.97395,35.12127],[126.97397,35.12136],[126.97393,35.12136],[126.97393,35.1214],[126.97382,35.12147],[126.97382,35.12152],[126.97399,35.12156],[126.97406,35.12161],[126.97405,35.12165],[126.97423,35.12165],[126.97427,35.12173],[126.97441,35.12223],[126.9744,35.12263],[126.97438,35.12268],[126.97434,35.12268],[126.97435,35.12283],[126.97424,35.12311],[126.97399,35.12347],[126.97392,35.12352],[126.9737,35.12354],[126.9737,35.12361],[126.97376,35.12363],[126.97376,35.12368],[126.97338,35.12391],[126.97338,35.12397],[126.97349,35.124],[126.97349,35.12406],[126.97329,35.12405],[126.97327,35.12411],[126.97294,35.12408],[126.97285,35.12415],[126.97285,35.12421],[126.973,35.12421],[126.97305,35.12425],[126.97313,35.12425],[126.97316,35.12416],[126.97327,35.12416],[126.97333,35.1242],[126.9736,35.1242],[126.97364,35.12428],[126.9737,35.12428],[126.97373,35.12422],[126.97379,35.12422],[126.97381,35.1243],[126.97392,35.1243],[126.9742,35.12457],[126.97437,35.12485],[126.97437,35.1249],[126.97447,35.1251],[126.97453,35.12539],[126.97452,35.12577],[126.97436,35.12627],[126.97415,35.12657],[126.97368,35.12698],[126.97364,35.12698],[126.97341,35.12712],[126.97328,35.12714],[126.97328,35.12717],[126.9729,35.12729],[126.97257,35.12734],[126.972,35.12733]],[[126.97271,35.12722],[126.97291,35.12722],[126.973,35.12717],[126.97304,35.12706],[126.973,35.12706],[126.97291,35.12695],[126.97278,35.12695],[126.97278,35.12698],[126.97271,35.12698],[126.97269,35.12693],[126.97263,35.12693],[126.9726,35.127],[126.97265,35.12702],[126.97264,35.12716],[126.97271,35.12722]],[[126.97287,35.12679],[126.97307,35.12677],[126.97307,35.1267],[126.97297,35.12663],[126.97297,35.12657],[126.97292,35.12655],[126.97284,35.12641],[126.97284,35.12632],[126.9728,35.1263],[126.97276,35.12617],[126.97271,35.12614],[126.97263,35.12613],[126.9726,35.12617],[126.97256,35.12617],[126.97256,35.12628],[126.9726,35.12631],[126.9726,35.1264],[126.97255,35.1264],[126.97255,35.12646],[126.97271,35.12646],[126.97273,35.12653],[126.97283,35.12659],[126.97283,35.12664],[126.97266,35.1266],[126.97266,35.12666],[126.97268,35.12669],[126.97283,35.12673],[126.97287,35.12679]],[[126.97128,35.12653],[126.97137,35.12653],[126.97137,35.12647],[126.97146,35.12646],[126.97146,35.12633],[126.97159,35.12633],[126.97161,35.12623],[126.97172,35.12623],[126.97179,35.12617],[126.97186,35.12618],[126.97188,35.12609],[126.97186,35.12589],[126.97173,35.12589],[126.97171,35.12581],[126.97165,35.12581],[126.97164,35.12588],[126.97156,35.12588],[126.97156,35.12583],[126.9716,35.12579],[126.97156,35.12567],[126.9715,35.12566],[126.97149,35.12575],[126.97138,35.12575],[126.97132,35.12586],[126.97121,35.12586],[126.97119,35.12582],[126.97123,35.12564],[126.9711,35.12566],[126.97116,35.12521],[126.97135,35.12521],[126.97136,35.12514],[126.9714,35.12514],[126.97145,35.12498],[126.97156,35.12498],[126.97158,35.12489],[126.97138,35.12491],[126.97134,35.12494],[126.97134,35.12499],[126.97116,35.12497],[126.97116,35.12506],[126.97103,35.12515],[126.971,35.12524],[126.971,35.12542],[126.97104,35.12544],[126.97099,35.12555],[126.97102,35.1256],[126.97108,35.12562],[126.97105,35.12584],[126.97123,35.12588],[126.97125,35.12597],[126.97122,35.12604],[126.97111,35.12606],[126.97111,35.12615],[126.97122,35.12624],[126.97122,35.12633],[126.97128,35.12638],[126.97128,35.12653]],[[126.97218,35.12645],[126.97233,35.12645],[126.97234,35.12631],[126.97227,35.12629],[126.97223,35.12624],[126.97212,35.12622],[126.97207,35.12634],[126.97214,35.12638],[126.97218,35.12645]],[[126.97217,35.12614],[126.97227,35.12615],[126.97228,35.12606],[126.97237,35.12602],[126.97237,35.12599],[126.97243,35.12599],[126.97254,35.12593],[126.97255,35.12586],[126.97237,35.12584],[126.97235,35.12577],[126.97255,35.12579],[126.97257,35.12586],[126.97261,35.12588],[126.97283,35.12589],[126.97281,35.12578],[126.9729,35.12578],[126.97292,35.12589],[126.97303,35.12591],[126.97301,35.12578],[126.97303,35.12574],[126.97312,35.12575],[126.97311,35.12594],[126.97316,35.12598],[126.9734,35.126],[126.97349,35.126],[126.97349,35.12595],[126.97342,35.12593],[126.97342,35.12586],[126.97351,35.12582],[126.97354,35.12575],[126.9736,35.12575],[126.97362,35.12579],[126.97373,35.12579],[126.97384,35.12585],[126.97393,35.12585],[126.97391,35.12578],[126.97382,35.12578],[126.97382,35.12569],[126.97387,35.12569],[126.97391,35.12563],[126.97415,35.12564],[126.97411,35.12547],[126.97407,35.12546],[126.97407,35.12537],[126.97394,35.12536],[126.9739,35.12533],[126.9737,35.12534],[126.9737,35.1254],[126.97374,35.12541],[126.97376,35.12549],[126.97374,35.12556],[126.97363,35.12554],[126.97361,35.12548],[126.97337,35.12548],[126.97334,35.12557],[126.9731,35.12557],[126.97308,35.1256],[126.97303,35.1256],[126.97305,35.12573],[126.97292,35.12571],[126.97292,35.12565],[126.97284,35.12563],[126.97282,35.1256],[126.97271,35.12559],[126.9727,35.12563],[126.97257,35.12563],[126.97253,35.12568],[126.97242,35.12568],[126.97247,35.12554],[126.97242,35.12552],[126.97242,35.12543],[126.97236,35.12539],[126.97236,35.12525],[126.97245,35.12523],[126.97247,35.12527],[126.97254,35.12527],[126.97256,35.12516],[126.97215,35.12517],[126.97213,35.12506],[126.97197,35.12508],[126.97197,35.12513],[126.9719,35.12515],[126.9719,35.1252],[126.97192,35.12533],[126.97199,35.12535],[126.97199,35.1254],[126.97192,35.12546],[126.97177,35.12543],[126.97164,35.12532],[126.97164,35.12527],[126.97173,35.12524],[126.97171,35.12516],[126.97166,35.12516],[126.97164,35.12513],[126.97142,35.12514],[126.97142,35.12521],[126.97151,35.12525],[126.97153,35.12536],[126.97141,35.12543],[126.97141,35.12552],[126.9713,35.12552],[126.97126,35.12555],[126.97123,35.12564],[126.97147,35.12566],[126.97146,35.12552],[126.97157,35.12552],[126.97161,35.12558],[126.97181,35.1256],[126.97185,35.12554],[126.97203,35.12551],[126.97203,35.12546],[126.97212,35.12544],[126.97214,35.12535],[126.97227,35.12537],[126.97226,35.12568],[126.97224,35.12571],[126.97213,35.12571],[126.97213,35.12577],[126.9722,35.12577],[126.97219,35.12586],[126.97215,35.12589],[126.97217,35.12614]],[[126.97346,35.12537],[126.97352,35.12537],[126.97352,35.1253],[126.97348,35.12528],[126.97348,35.12525],[126.97342,35.12525],[126.97341,35.12532],[126.97346,35.12537]],[[126.97276,35.12516],[126.97285,35.12516],[126.97292,35.12511],[126.97292,35.12506],[126.97305,35.12504],[126.97309,35.12499],[126.97316,35.12499],[126.97318,35.12492],[126.97314,35.12488],[126.97307,35.12488],[126.97301,35.1249],[126.97296,35.12497],[126.97279,35.12497],[126.97276,35.12516]],[[126.97228,35.12496],[126.97235,35.12496],[126.97233,35.12476],[126.97238,35.12474],[126.97238,35.12467],[126.97225,35.12463],[126.97225,35.12456],[126.97229,35.12456],[126.97229,35.12451],[126.97223,35.12451],[126.97223,35.12456],[126.97216,35.12456],[126.97212,35.1245],[126.97183,35.12443],[126.97179,35.12437],[126.97148,35.12438],[126.9714,35.12427],[126.97131,35.12427],[126.97131,35.12442],[126.97107,35.12447],[126.97106,35.1245],[126.971,35.12454],[126.971,35.12459],[126.97104,35.12463],[126.97108,35.12463],[126.97113,35.12468],[126.97126,35.12471],[126.9713,35.12476],[126.97141,35.12474],[126.97148,35.12453],[126.97163,35.12455],[126.97165,35.12462],[126.97185,35.1247],[126.97189,35.12477],[126.97196,35.12481],[126.97196,35.12484],[126.97202,35.12484],[126.97204,35.12488],[126.97213,35.12488],[126.97215,35.12492],[126.97224,35.12492],[126.97228,35.12496]],[[126.97367,35.12484],[126.97376,35.12484],[126.97382,35.1248],[126.97385,35.12468],[126.97378,35.12468],[126.97376,35.12471],[126.97367,35.12473],[126.97367,35.12484]],[[126.97411,35.12482],[126.97417,35.12483],[126.97417,35.12477],[126.97411,35.12477],[126.97411,35.12482]],[[126.97219,35.12441],[126.97243,35.1244],[126.97243,35.12435],[126.97221,35.12434],[126.97219,35.12441]],[[126.97363,35.12442],[126.97372,35.12442],[126.97372,35.12435],[126.97364,35.12435],[126.97363,35.12442]],[[126.97252,35.12435],[126.9726,35.12435],[126.97261,35.12428],[126.97252,35.12428],[126.97252,35.12435]],[[126.97186,35.12421],[126.97208,35.1242],[126.97208,35.12414],[126.97197,35.12412],[126.97193,35.12409],[126.97193,35.12403],[126.97209,35.12403],[126.97215,35.12393],[126.97222,35.12391],[126.97222,35.12378],[126.97218,35.12369],[126.97181,35.12369],[126.97174,35.1237],[126.97174,35.12381],[126.97163,35.12381],[126.97157,35.12377],[126.97159,35.12366],[126.97135,35.12364],[126.97128,35.12361],[126.97107,35.1236],[126.97104,35.12366],[126.97091,35.12373],[126.97091,35.12378],[126.97115,35.12378],[126.97123,35.12384],[126.97123,35.12393],[126.97128,35.12395],[126.97127,35.12407],[126.97134,35.12411],[126.97158,35.12412],[126.97158,35.12403],[126.97145,35.12402],[126.97143,35.12399],[126.97141,35.12388],[126.97145,35.12384],[126.97159,35.12385],[126.97165,35.12392],[126.97165,35.12397],[126.97185,35.12398],[126.97189,35.12401],[126.97186,35.1241],[126.97167,35.1241],[126.97167,35.12415],[126.97171,35.12419],[126.97186,35.12421]],[[126.9733,35.12382],[126.97336,35.12382],[126.97337,35.12377],[126.9733,35.12377],[126.9733,35.12382]],[[126.97227,35.12371],[126.97236,35.12371],[126.97236,35.12366],[126.97227,35.12366],[126.97227,35.12371]],[[126.97072,35.12331],[126.97092,35.12328],[126.97094,35.12317],[126.97075,35.12318],[126.9707,35.12322],[126.97072,35.12331]],[[126.97347,35.12316],[126.9736,35.12316],[126.9736,35.12307],[126.97369,35.123],[126.97372,35.12293],[126.97376,35.12293],[126.9738,35.12285],[126.97392,35.12282],[126.97398,35.12271],[126.97399,35.12264],[126.97392,35.12262],[126.97392,35.12259],[126.97381,35.12258],[126.97377,35.12264],[126.97366,35.12265],[126.97363,35.12271],[126.9735,35.1228],[126.97343,35.12279],[126.97321,35.12288],[126.97321,35.12299],[126.97338,35.12305],[126.97347,35.12316]],[[126.97297,35.12304],[126.97305,35.12302],[126.97306,35.12291],[126.97286,35.12291],[126.97286,35.12296],[126.9729,35.12297],[126.97297,35.12304]],[[126.97247,35.12267],[126.97254,35.12267],[126.9726,35.1226],[126.97269,35.12257],[126.97272,35.12242],[126.9729,35.12224],[126.97288,35.12205],[126.97284,35.12201],[126.97284,35.12195],[126.97267,35.1219],[126.97271,35.12179],[126.97267,35.12174],[126.97256,35.1217],[126.97245,35.1217],[126.97241,35.12173],[126.9724,35.12179],[126.97234,35.12182],[126.97225,35.12182],[126.97221,35.12171],[126.97203,35.12174],[126.97207,35.12191],[126.97174,35.12192],[126.9717,35.12201],[126.97163,35.12201],[126.97159,35.12206],[126.97145,35.12209],[126.97136,35.12225],[126.97134,35.1224],[126.97125,35.12245],[126.97125,35.12251],[126.97136,35.12251],[126.97145,35.12242],[126.97151,35.12242],[126.97158,35.12247],[126.97171,35.12248],[126.97179,35.12253],[126.97186,35.12253],[126.97195,35.12263],[126.97214,35.12263],[126.97219,35.12259],[126.97228,35.12259],[126.97243,35.12262],[126.97247,35.12267]]]}},{"type":"Feature","properties":{"valleyId":"jeungsimsa","layer":"canopy","date":"2026-08-01"},"geometry":{"type":"Polygon","coordinates":[[[126.95853,35.12016],[126.95853,35.12009],[126.9586,35.12009],[126.9586,35.12017],[126.95853,35.12016]]]}},{"type":"Feature","properties":{"valleyId":"jeungsimsa","layer":"canopy","date":"2026-08-01"},"geometry":{"type":"Polygon","coordinates":[[[126.95824,35.12216],[126.95824,35.12212],[126.95818,35.12211],[126.95816,35.12205],[126.95811,35.12205],[126.95798,35.12196],[126.95796,35.12187],[126.95792,35.12185],[126.95792,35.12179],[126.95799,35.12176],[126.95799,35.12153],[126.95808,35.12145],[126.95807,35.12129],[126.958,35.12118],[126.958,35.12043],[126.95802,35.12039],[126.95811,35.12039],[126.9582,35.12028],[126.9584,35.12029],[126.95842,35.12032],[126.95857,35.12033],[126.9586,35.12018],[126.95879,35.1202],[126.9588,35.12011],[126.95867,35.12011],[126.95869,35.11997],[126.9586,35.11991],[126.95843,35.11991],[126.95843,35.11987],[126.95834,35.11982],[126.95834,35.11976],[126.95859,35.11977],[126.95857,35.11952],[126.95864,35.11943],[126.95864,35.11932],[126.95871,35.11932],[126.95871,35.11925],[126.95882,35.1192],[126.95882,35.11914],[126.95887,35.11911],[126.95893,35.11911],[126.95893,35.11905],[126.95906,35.11906],[126.95915,35.11897],[126.95916,35.11891],[126.95938,35.11888],[126.95966,35.11908],[126.95965,35.11914],[126.95974,35.11917],[126.95974,35.11925],[126.95978,35.1193],[126.95983,35.1193],[126.95985,35.11934],[126.95994,35.11934],[126.96019,35.11974],[126.96031,35.12018],[126.9603,35.12063],[126.96023,35.1209],[126.96013,35.12111],[126.95995,35.12138],[126.95977,35.12154],[126.95977,35.12157],[126.95952,35.12177],[126.95948,35.12177],[126.95932,35.12189],[126.9589,35.12206],[126.95853,35.12215],[126.95824,35.12216]],[[126.95984,35.11959],[126.95995,35.11959],[126.95995,35.11954],[126.95984,35.11954],[126.95984,35.11959]]]}},{"type":"Feature","properties":{"valleyId":"jeungsimsa","layer":"canopy","date":"2026-08-01"},"geometry":{"type":"Polygon","coordinates":[[[126.95676,35.12179],[126.95639,35.1215],[126.95639,35.12146],[126.95626,35.12135],[126.95605,35.12101],[126.95599,35.12084],[126.95593,35.12059],[126.95592,35.1203],[126.95597,35.11998],[126.95611,35.11962],[126.95629,35.11935],[126.95636,35.11932],[126.9564,35.11923],[126.95654,35.11914],[126.95654,35.1191],[126.95663,35.11903],[126.95667,35.11903],[126.95679,35.11893],[126.95683,35.11893],[126.95687,35.11887],[126.9571,35.11879],[126.95712,35.11875],[126.95718,35.11875],[126.9575,35.11863],[126.95791,35.11857],[126.95842,35.11858],[126.95866,35.11862],[126.95866,35.11867],[126.95861,35.11867],[126.9585,35.11878],[126.95832,35.11879],[126.95834,35.11892],[126.95828,35.11895],[126.95828,35.11899],[126.95808,35.11897],[126.95808,35.11902],[126.95814,35.11906],[126.95814,35.11913],[126.9581,35.11917],[126.95794,35.11914],[126.95788,35.11918],[126.95785,35.11934],[126.95774,35.11934],[126.95774,35.11939],[126.9578,35.11941],[126.9578,35.11947],[126.95776,35.1195],[126.95767,35.1195],[126.95763,35.11946],[126.95763,35.11941],[126.9573,35.1194],[126.9573,35.11957],[126.95734,35.1196],[126.9574,35.1196],[126.95743,35.11955],[126.95749,35.11955],[126.95756,35.11961],[126.95762,35.11961],[126.95762,35.11966],[126.95753,35.11973],[126.95753,35.11984],[126.95749,35.11988],[126.95722,35.11989],[126.95722,35.11996],[126.95746,35.12],[126.9575,35.12004],[126.9575,35.12009],[126.95741,35.12016],[126.9573,35.1202],[126.9573,35.12027],[126.95739,35.12029],[126.95732,35.12052],[126.9574,35.12052],[126.9574,35.1206],[126.95731,35.12067],[126.95729,35.12085],[126.95708,35.12106],[126.95708,35.12111],[126.95697,35.12113],[126.95693,35.12116],[126.95697,35.12131],[126.95696,35.12158],[126.95689,35.12163],[126.95689,35.12176],[126.95685,35.12179],[126.95676,35.12179]],[[126.95711,35.12074],[126.95718,35.12074],[126.95718,35.12068],[126.95711,35.12068],[126.95711,35.12074]],[[126.95696,35.119],[126.95702,35.119],[126.957,35.11893],[126.95694,35.11893],[126.95696,35.119]],[[126.95795,35.11898],[126.95801,35.11898],[126.95801,35.11891],[126.95795,35.11891],[126.95795,35.11898]]]}}]}
