{"type":"FeatureCollection","metadata":{"description":"개방지(CHM ≤ 2 m)에 드리운 나무·지형 그림자, 2026-08-01 16:00 KST. canopy 위에 겹쳐 그린다","source":"위성 기반 추정 — Copernicus GLO-30 지형(30 m) + Meta/WRI 수관 높이(1 m CHM, 2019 촬영). 그늘 = 수관(CHM > 2 m) ∪ 나무·지형 그림자 ∪ 원거리 지형 마스크. 현장과 다를 수 있음.","datasetVersion":"2026-09-09.0","collectedAt":"2026-09-09","coordinateOrder":"[longitude, latitude]","crs":"EPSG:4326","representativeDate":"2026-08-01","hours":["10:00","11:00","12:00","13:00","14:00","15:00","16:00","17:00","18:00"],"chmAcquisition":["2019-05"],"assets":{"glo30":{"dataset":"Copernicus DEM GLO-30 (COG, s3://copernicus-dem-30m)","tiles":["Copernicus_DSM_COG_10_N35_00_E126_00_DEM","Copernicus_DSM_COG_10_N35_00_E127_00_DEM"]},"chm":{"dataset":"Meta/WRI Global Canopy Height Map v1 (alsgedi_global_v6_float, 1 m, CC-BY 4.0)","quadkeys":["132112120"],"acquisition":["2019-05"]}},"method":{"gridResM":2,"canopyThresholdM":2,"bufferHalfM":25,"corridorHalfM":200,"simplifyTolM":2,"minAreaM2":25,"coordDecimals":5},"generator":"scripts/shade 0.1.0","builtAt":"2026-09-08T15:42:52Z","layer":"shadow","timeLocal":"16:00"},"features":[{"type":"Feature","properties":{"valleyId":"jeungsimsa","layer":"shadow","date":"2026-08-01","timeLocal":"16:00"},"geometry":{"type":"Polygon","coordinates":[[[126.95478,35.13344],[126.95478,35.13335],[126.95484,35.13335],[126.95484,35.13344],[126.95478,35.13344]]]}},{"type":"Feature","properties":{"valleyId":"jeungsimsa","layer":"shadow","date":"2026-08-01","timeLocal":"16:00"},"geometry":{"type":"Polygon","coordinates":[[[126.9556,35.1331],[126.95562,35.13301],[126.95569,35.13301],[126.95569,35.1331],[126.9556,35.1331]]]}},{"type":"Feature","properties":{"valleyId":"jeungsimsa","layer":"shadow","date":"2026-08-01","timeLocal":"16:00"},"geometry":{"type":"Polygon","coordinates":[[[126.95582,35.13297],[126.95582,35.13292],[126.95589,35.13292],[126.95589,35.13298],[126.95582,35.13297]]]}},{"type":"Feature","properties":{"valleyId":"jeungsimsa","layer":"shadow","date":"2026-08-01","timeLocal":"16:00"},"geometry":{"type":"Polygon","coordinates":[[[126.95589,35.1329],[126.95589,35.1328],[126.95596,35.1328],[126.95598,35.13289],[126.95589,35.1329]]]}},{"type":"Feature","properties":{"valleyId":"jeungsimsa","layer":"shadow","date":"2026-08-01","timeLocal":"16:00"},"geometry":{"type":"Polygon","coordinates":[[[126.95585,35.13276],[126.95585,35.13267],[126.95592,35.13256],[126.95598,35.13256],[126.95598,35.13265],[126.95596,35.13269],[126.95591,35.13269],[126.95591,35.13276],[126.95585,35.13276]]]}},{"type":"Feature","properties":{"valleyId":"jeungsimsa","layer":"shadow","date":"2026-08-01","timeLocal":"16:00"},"geometry":{"type":"Polygon","coordinates":[[[126.96034,35.13227],[126.96034,35.13222],[126.9604,35.13222],[126.9604,35.13228],[126.96034,35.13227]]]}},{"type":"Feature","properties":{"valleyId":"jeungsimsa","layer":"shadow","date":"2026-08-01","timeLocal":"16:00"},"geometry":{"type":"Polygon","coordinates":[[[126.9576,35.13217],[126.9576,35.13212],[126.95766,35.13212],[126.95766,35.13218],[126.9576,35.13217]]]}},{"type":"Feature","properties":{"valleyId":"jeungsimsa","layer":"shadow","date":"2026-08-01","timeLocal":"16:00"},"geometry":{"type":"Polygon","coordinates":[[[126.96282,35.1314],[126.96282,35.13134],[126.96288,35.13134],[126.96288,35.1314],[126.96282,35.1314]]]}},{"type":"Feature","properties":{"valleyId":"jeungsimsa","layer":"shadow","date":"2026-08-01","timeLocal":"16:00"},"geometry":{"type":"Polygon","coordinates":[[[126.96436,35.13094],[126.96437,35.13088],[126.96443,35.13088],[126.96443,35.13094],[126.96436,35.13094]]]}},{"type":"Feature","properties":{"valleyId":"jeungsimsa","layer":"shadow","date":"2026-08-01","timeLocal":"16:00"},"geometry":{"type":"Polygon","coordinates":[[[126.9645,35.13067],[126.9645,35.13061],[126.96457,35.13062],[126.96457,35.13067],[126.9645,35.13067]]]}},{"type":"Feature","properties":{"valleyId":"jeungsimsa","layer":"shadow","date":"2026-08-01","timeLocal":"16:00"},"geometry":{"type":"Polygon","coordinates":[[[126.96166,35.13046],[126.96166,35.1304],[126.96172,35.13041],[126.96172,35.13046],[126.96166,35.13046]]]}},{"type":"Feature","properties":{"valleyId":"jeungsimsa","layer":"shadow","date":"2026-08-01","timeLocal":"16:00"},"geometry":{"type":"Polygon","coordinates":[[[126.96458,35.13033],[126.96458,35.13027],[126.96464,35.13027],[126.96464,35.13033],[126.96458,35.13033]]]}},{"type":"Feature","properties":{"valleyId":"jeungsimsa","layer":"shadow","date":"2026-08-01","timeLocal":"16:00"},"geometry":{"type":"Polygon","coordinates":[[[126.96272,35.13019],[126.96272,35.13013],[126.96278,35.13013],[126.96278,35.13019],[126.96272,35.13019]]]}},{"type":"Feature","properties":{"valleyId":"jeungsimsa","layer":"shadow","date":"2026-08-01","timeLocal":"16:00"},"geometry":{"type":"Polygon","coordinates":[[[126.96298,35.13016],[126.96298,35.1301],[126.96305,35.1301],[126.96305,35.13016],[126.96298,35.13016]]]}},{"type":"Feature","properties":{"valleyId":"jeungsimsa","layer":"shadow","date":"2026-08-01","timeLocal":"16:00"},"geometry":{"type":"Polygon","coordinates":[[[126.9629,35.12996],[126.96291,35.1296],[126.96299,35.1296],[126.96301,35.12994],[126.9629,35.12996]]]}},{"type":"Feature","properties":{"valleyId":"jeungsimsa","layer":"shadow","date":"2026-08-01","timeLocal":"16:00"},"geometry":{"type":"Polygon","coordinates":[[[126.95523,35.12568],[126.95524,35.12563],[126.95539,35.12547],[126.95539,35.12539],[126.95546,35.1254],[126.95546,35.12534],[126.95553,35.12534],[126.95553,35.1254],[126.95548,35.1254],[126.95546,35.12549],[126.95548,35.12559],[126.95537,35.12559],[126.95537,35.12566],[126.95523,35.12568]]]}},{"type":"Feature","properties":{"valleyId":"jeungsimsa","layer":"shadow","date":"2026-08-01","timeLocal":"16:00"},"geometry":{"type":"Polygon","coordinates":[[[126.95553,35.12532],[126.95553,35.12525],[126.95562,35.12524],[126.95562,35.12531],[126.95553,35.12532]]]}},{"type":"Feature","properties":{"valleyId":"jeungsimsa","layer":"shadow","date":"2026-08-01","timeLocal":"16:00"},"geometry":{"type":"Polygon","coordinates":[[[126.9556,35.1243],[126.9556,35.12423],[126.95571,35.12421],[126.95569,35.1243],[126.9556,35.1243]]]}},{"type":"Feature","properties":{"valleyId":"jeungsimsa","layer":"shadow","date":"2026-08-01","timeLocal":"16:00"},"geometry":{"type":"Polygon","coordinates":[[[126.95573,35.12419],[126.95578,35.12405],[126.95587,35.12405],[126.95591,35.12418],[126.95573,35.12419]]]}},{"type":"Feature","properties":{"valleyId":"jeungsimsa","layer":"shadow","date":"2026-08-01","timeLocal":"16:00"},"geometry":{"type":"Polygon","coordinates":[[[126.95589,35.12389],[126.95592,35.12373],[126.95585,35.12373],[126.95585,35.12367],[126.95596,35.12367],[126.95605,35.12375],[126.95605,35.12382],[126.956,35.12382],[126.95596,35.12389],[126.95589,35.12389]]]}},{"type":"Feature","properties":{"valleyId":"jeungsimsa","layer":"shadow","date":"2026-08-01","timeLocal":"16:00"},"geometry":{"type":"Polygon","coordinates":[[[126.95577,35.12353],[126.95575,35.1234],[126.9558,35.12336],[126.9558,35.12331],[126.95591,35.12331],[126.95593,35.12317],[126.95604,35.12315],[126.95605,35.12304],[126.95611,35.12304],[126.95611,35.12317],[126.95607,35.12317],[126.95606,35.12321],[126.956,35.12322],[126.95597,35.12337],[126.95586,35.12336],[126.95586,35.12353],[126.95577,35.12353]]]}},{"type":"Feature","properties":{"valleyId":"jeungsimsa","layer":"shadow","date":"2026-08-01","timeLocal":"16:00"},"geometry":{"type":"Polygon","coordinates":[[[126.97125,35.12251],[126.97125,35.12245],[126.97134,35.12243],[126.97133,35.12249],[126.97125,35.12251]]]}},{"type":"Feature","properties":{"valleyId":"jeungsimsa","layer":"shadow","date":"2026-08-01","timeLocal":"16:00"},"geometry":{"type":"Polygon","coordinates":[[[126.95729,35.12085],[126.95731,35.12068],[126.95738,35.12069],[126.95737,35.12081],[126.95735,35.12085],[126.95729,35.12085]]]}},{"type":"Feature","properties":{"valleyId":"jeungsimsa","layer":"shadow","date":"2026-08-01","timeLocal":"16:00"},"geometry":{"type":"Polygon","coordinates":[[[126.9573,35.11953],[126.9573,35.1194],[126.95739,35.11941],[126.95741,35.11951],[126.9573,35.11953]]]}}]}
