{"type":"FeatureCollection","metadata":{"description":"개방지(CHM ≤ 2 m)에 드리운 나무·지형 그림자, 2026-08-01 18:00 KST. canopy 위에 겹쳐 그린다","source":"위성 기반 추정 — Copernicus GLO-30 지형(30 m) + Meta/WRI 수관 높이(1 m CHM, 2019 촬영). 그늘 = 수관(CHM > 2 m) ∪ 나무·지형 그림자 ∪ 원거리 지형 마스크. 현장과 다를 수 있음.","datasetVersion":"2026-09-09.0","collectedAt":"2026-09-09","coordinateOrder":"[longitude, latitude]","crs":"EPSG:4326","representativeDate":"2026-08-01","hours":["10:00","11:00","12:00","13:00","14:00","15:00","16:00","17:00","18:00"],"chmAcquisition":["2019-05"],"assets":{"glo30":{"dataset":"Copernicus DEM GLO-30 (COG, s3://copernicus-dem-30m)","tiles":["Copernicus_DSM_COG_10_N35_00_E126_00_DEM","Copernicus_DSM_COG_10_N35_00_E127_00_DEM"]},"chm":{"dataset":"Meta/WRI Global Canopy Height Map v1 (alsgedi_global_v6_float, 1 m, CC-BY 4.0)","quadkeys":["132112120"],"acquisition":["2019-05"]}},"method":{"gridResM":2,"canopyThresholdM":2,"bufferHalfM":25,"corridorHalfM":200,"simplifyTolM":2,"minAreaM2":25,"coordDecimals":5},"generator":"scripts/shade 0.1.0","builtAt":"2026-09-08T15:42:52Z","layer":"shadow","timeLocal":"18:00"},"features":[{"type":"Feature","properties":{"valleyId":"jeungsimsa","layer":"shadow","date":"2026-08-01","timeLocal":"18:00"},"geometry":{"type":"Polygon","coordinates":[[[126.95599,35.13597],[126.95599,35.1359],[126.95605,35.1359],[126.95605,35.13597],[126.95599,35.13597]]]}},{"type":"Feature","properties":{"valleyId":"jeungsimsa","layer":"shadow","date":"2026-08-01","timeLocal":"18:00"},"geometry":{"type":"Polygon","coordinates":[[[126.95575,35.13559],[126.95576,35.13553],[126.95582,35.13553],[126.95582,35.13559],[126.95575,35.13559]]]}},{"type":"Feature","properties":{"valleyId":"jeungsimsa","layer":"shadow","date":"2026-08-01","timeLocal":"18:00"},"geometry":{"type":"Polygon","coordinates":[[[126.95506,35.13523],[126.95502,35.13511],[126.95513,35.13509],[126.95517,35.13513],[126.95517,35.13518],[126.95513,35.1352],[126.95513,35.13523],[126.95506,35.13523]]]}},{"type":"Feature","properties":{"valleyId":"jeungsimsa","layer":"shadow","date":"2026-08-01","timeLocal":"18:00"},"geometry":{"type":"Polygon","coordinates":[[[126.95463,35.13505],[126.95463,35.13494],[126.9547,35.13494],[126.95469,35.13505],[126.95463,35.13505]]]}},{"type":"Feature","properties":{"valleyId":"jeungsimsa","layer":"shadow","date":"2026-08-01","timeLocal":"18:00"},"geometry":{"type":"Polygon","coordinates":[[[126.95823,35.13502],[126.95821,35.13494],[126.95827,35.13494],[126.95829,35.13502],[126.95823,35.13502]]]}},{"type":"Feature","properties":{"valleyId":"jeungsimsa","layer":"shadow","date":"2026-08-01","timeLocal":"18:00"},"geometry":{"type":"Polygon","coordinates":[[[126.95386,35.13575],[126.95371,35.13563],[126.95367,35.13562],[126.95335,35.13531],[126.95311,35.13495],[126.9531,35.13482],[126.95342,35.1349],[126.95362,35.13488],[126.95368,35.13517],[126.95396,35.13518],[126.95398,35.13561],[126.95395,35.13576],[126.95386,35.13575]]]}},{"type":"Feature","properties":{"valleyId":"jeungsimsa","layer":"shadow","date":"2026-08-01","timeLocal":"18:00"},"geometry":{"type":"Polygon","coordinates":[[[126.95535,35.13497],[126.9552,35.13491],[126.9552,35.13486],[126.95536,35.13486],[126.95546,35.13492],[126.95546,35.13497],[126.95535,35.13497]]]}},{"type":"Feature","properties":{"valleyId":"jeungsimsa","layer":"shadow","date":"2026-08-01","timeLocal":"18:00"},"geometry":{"type":"Polygon","coordinates":[[[126.95756,35.13542],[126.9575,35.13529],[126.95743,35.13527],[126.95741,35.13522],[126.95724,35.13511],[126.95722,35.13504],[126.95713,35.13502],[126.95704,35.13492],[126.95689,35.13489],[126.95689,35.13483],[126.95711,35.13487],[126.95715,35.13494],[126.95722,35.13495],[126.95726,35.135],[126.95735,35.135],[126.95739,35.13506],[126.95746,35.13506],[126.95748,35.13513],[126.95772,35.13513],[126.95778,35.13519],[126.95787,35.13519],[126.95787,35.13526],[126.95778,35.13535],[126.95774,35.13535],[126.95767,35.13542],[126.95756,35.13542]]]}},{"type":"Feature","properties":{"valleyId":"jeungsimsa","layer":"shadow","date":"2026-08-01","timeLocal":"18:00"},"geometry":{"type":"Polygon","coordinates":[[[126.95888,35.13514],[126.95884,35.13506],[126.95885,35.13479],[126.95894,35.13478],[126.95895,35.13514],[126.95888,35.13514]]]}},{"type":"Feature","properties":{"valleyId":"jeungsimsa","layer":"shadow","date":"2026-08-01","timeLocal":"18:00"},"geometry":{"type":"Polygon","coordinates":[[[126.95678,35.13485],[126.95676,35.13479],[126.95672,35.13479],[126.95672,35.13474],[126.95679,35.13474],[126.95678,35.13478],[126.95687,35.13479],[126.95687,35.13485],[126.95678,35.13485]]]}},{"type":"Feature","properties":{"valleyId":"jeungsimsa","layer":"shadow","date":"2026-08-01","timeLocal":"18:00"},"geometry":{"type":"Polygon","coordinates":[[[126.95316,35.13479],[126.95317,35.13466],[126.95325,35.13466],[126.95323,35.13479],[126.95316,35.13479]]]}},{"type":"Feature","properties":{"valleyId":"jeungsimsa","layer":"shadow","date":"2026-08-01","timeLocal":"18:00"},"geometry":{"type":"Polygon","coordinates":[[[126.95352,35.13472],[126.95352,35.13456],[126.95359,35.13456],[126.95363,35.13458],[126.9536,35.1347],[126.95352,35.13472]]]}},{"type":"Feature","properties":{"valleyId":"jeungsimsa","layer":"shadow","date":"2026-08-01","timeLocal":"18:00"},"geometry":{"type":"Polygon","coordinates":[[[126.95558,35.1347],[126.95554,35.13459],[126.95556,35.13456],[126.95563,35.13456],[126.95563,35.13461],[126.95569,35.13463],[126.95569,35.13468],[126.95558,35.1347]]]}},{"type":"Feature","properties":{"valleyId":"jeungsimsa","layer":"shadow","date":"2026-08-01","timeLocal":"18:00"},"geometry":{"type":"Polygon","coordinates":[[[126.9563,35.1347],[126.95628,35.13457],[126.95635,35.13457],[126.95642,35.13462],[126.95641,35.13468],[126.9563,35.1347]]]}},{"type":"Feature","properties":{"valleyId":"jeungsimsa","layer":"shadow","date":"2026-08-01","timeLocal":"18:00"},"geometry":{"type":"Polygon","coordinates":[[[126.95481,35.1346],[126.95481,35.13454],[126.9549,35.13455],[126.9549,35.1346],[126.95481,35.1346]]]}},{"type":"Feature","properties":{"valleyId":"jeungsimsa","layer":"shadow","date":"2026-08-01","timeLocal":"18:00"},"geometry":{"type":"Polygon","coordinates":[[[126.95645,35.13585],[126.95643,35.1358],[126.9563,35.13576],[126.95626,35.13569],[126.95615,35.13568],[126.9561,35.13572],[126.9561,35.13577],[126.95601,35.13579],[126.95597,35.13572],[126.95597,35.13563],[126.95589,35.13561],[126.95589,35.13555],[126.95602,35.13552],[126.95604,35.13548],[126.95605,35.13521],[126.95598,35.13521],[126.95594,35.13525],[126.95591,35.13537],[126.9558,35.13539],[126.95579,35.13517],[126.95574,35.1351],[126.95564,35.13504],[126.95564,35.13497],[126.95573,35.13494],[126.95584,35.13481],[126.95584,35.13467],[126.95582,35.13461],[126.95576,35.1346],[126.95574,35.13445],[126.95585,35.13445],[126.95587,35.13458],[126.956,35.13462],[126.95606,35.13469],[126.95606,35.1348],[126.95597,35.13485],[126.95597,35.13489],[126.9559,35.13494],[126.95586,35.13494],[126.95586,35.13501],[126.95616,35.13504],[126.95618,35.13518],[126.95623,35.13518],[126.95627,35.13533],[126.95631,35.13534],[126.9563,35.13563],[126.95643,35.13567],[126.95645,35.13573],[126.95658,35.13576],[126.95658,35.13585],[126.95645,35.13585]]]}},{"type":"Feature","properties":{"valleyId":"jeungsimsa","layer":"shadow","date":"2026-08-01","timeLocal":"18:00"},"geometry":{"type":"Polygon","coordinates":[[[126.95604,35.13455],[126.95604,35.13451],[126.956,35.13451],[126.956,35.13446],[126.95616,35.13446],[126.95615,35.13455],[126.95604,35.13455]]]}},{"type":"Feature","properties":{"valleyId":"jeungsimsa","layer":"shadow","date":"2026-08-01","timeLocal":"18:00"},"geometry":{"type":"Polygon","coordinates":[[[126.95672,35.13454],[126.95673,35.13443],[126.95679,35.13443],[126.95679,35.13454],[126.95672,35.13454]]]}},{"type":"Feature","properties":{"valleyId":"jeungsimsa","layer":"shadow","date":"2026-08-01","timeLocal":"18:00"},"geometry":{"type":"Polygon","coordinates":[[[126.95613,35.13444],[126.95614,35.13433],[126.95622,35.13433],[126.95622,35.13437],[126.95627,35.13437],[126.95627,35.13442],[126.95613,35.13444]]]}},{"type":"Feature","properties":{"valleyId":"jeungsimsa","layer":"shadow","date":"2026-08-01","timeLocal":"18:00"},"geometry":{"type":"Polygon","coordinates":[[[126.95712,35.13438],[126.95712,35.13433],[126.95719,35.13433],[126.95719,35.13439],[126.95712,35.13438]]]}},{"type":"Feature","properties":{"valleyId":"jeungsimsa","layer":"shadow","date":"2026-08-01","timeLocal":"18:00"},"geometry":{"type":"Polygon","coordinates":[[[126.95296,35.13431],[126.95296,35.13422],[126.95307,35.13423],[126.95307,35.13428],[126.95302,35.13432],[126.95296,35.13431]]]}},{"type":"Feature","properties":{"valleyId":"jeungsimsa","layer":"shadow","date":"2026-08-01","timeLocal":"18:00"},"geometry":{"type":"Polygon","coordinates":[[[126.95318,35.13423],[126.95318,35.13416],[126.95327,35.13416],[126.95326,35.13421],[126.95318,35.13423]]]}},{"type":"Feature","properties":{"valleyId":"jeungsimsa","layer":"shadow","date":"2026-08-01","timeLocal":"18:00"},"geometry":{"type":"Polygon","coordinates":[[[126.95594,35.13427],[126.95597,35.13415],[126.9561,35.13415],[126.9561,35.13422],[126.95601,35.13428],[126.95594,35.13427]]]}},{"type":"Feature","properties":{"valleyId":"jeungsimsa","layer":"shadow","date":"2026-08-01","timeLocal":"18:00"},"geometry":{"type":"Polygon","coordinates":[[[126.95408,35.13417],[126.95408,35.13412],[126.95415,35.13412],[126.95414,35.13417],[126.95408,35.13417]]]}},{"type":"Feature","properties":{"valleyId":"jeungsimsa","layer":"shadow","date":"2026-08-01","timeLocal":"18:00"},"geometry":{"type":"Polygon","coordinates":[[[126.95359,35.1342],[126.95362,35.13409],[126.95373,35.13411],[126.95373,35.13416],[126.95359,35.1342]]]}},{"type":"Feature","properties":{"valleyId":"jeungsimsa","layer":"shadow","date":"2026-08-01","timeLocal":"18:00"},"geometry":{"type":"Polygon","coordinates":[[[126.95303,35.13408],[126.95303,35.13403],[126.95309,35.13403],[126.95309,35.13408],[126.95303,35.13408]]]}},{"type":"Feature","properties":{"valleyId":"jeungsimsa","layer":"shadow","date":"2026-08-01","timeLocal":"18:00"},"geometry":{"type":"Polygon","coordinates":[[[126.95553,35.13411],[126.95553,35.13405],[126.9556,35.13405],[126.95559,35.13411],[126.95553,35.13411]]]}},{"type":"Feature","properties":{"valleyId":"jeungsimsa","layer":"shadow","date":"2026-08-01","timeLocal":"18:00"},"geometry":{"type":"Polygon","coordinates":[[[126.95301,35.13386],[126.95301,35.13376],[126.95308,35.13376],[126.95308,35.13387],[126.95301,35.13386]]]}},{"type":"Feature","properties":{"valleyId":"jeungsimsa","layer":"shadow","date":"2026-08-01","timeLocal":"18:00"},"geometry":{"type":"Polygon","coordinates":[[[126.95571,35.13402],[126.95567,35.13389],[126.95567,35.1338],[126.95576,35.1338],[126.95582,35.13384],[126.95582,35.13395],[126.95577,35.13395],[126.95577,35.13402],[126.95571,35.13402]]]}},{"type":"Feature","properties":{"valleyId":"jeungsimsa","layer":"shadow","date":"2026-08-01","timeLocal":"18:00"},"geometry":{"type":"Polygon","coordinates":[[[126.95628,35.13392],[126.95628,35.13379],[126.95646,35.13381],[126.95646,35.1339],[126.95628,35.13392]]]}},{"type":"Feature","properties":{"valleyId":"jeungsimsa","layer":"shadow","date":"2026-08-01","timeLocal":"18:00"},"geometry":{"type":"Polygon","coordinates":[[[126.95701,35.13366],[126.95701,35.13361],[126.95708,35.13361],[126.95708,35.13366],[126.95701,35.13366]]]}},{"type":"Feature","properties":{"valleyId":"jeungsimsa","layer":"shadow","date":"2026-08-01","timeLocal":"18:00"},"geometry":{"type":"Polygon","coordinates":[[[126.96052,35.13358],[126.9605,35.1335],[126.96059,35.13351],[126.96061,35.13358],[126.96052,35.13358]]]}},{"type":"Feature","properties":{"valleyId":"jeungsimsa","layer":"shadow","date":"2026-08-01","timeLocal":"18:00"},"geometry":{"type":"Polygon","coordinates":[[[126.9609,35.13353],[126.9609,35.13347],[126.96097,35.13348],[126.96096,35.13353],[126.9609,35.13353]]]}},{"type":"Feature","properties":{"valleyId":"jeungsimsa","layer":"shadow","date":"2026-08-01","timeLocal":"18:00"},"geometry":{"type":"Polygon","coordinates":[[[126.95917,35.13346],[126.95917,35.13341],[126.9593,35.13341],[126.9593,35.13347],[126.95917,35.13346]]]}},{"type":"Feature","properties":{"valleyId":"jeungsimsa","layer":"shadow","date":"2026-08-01","timeLocal":"18:00"},"geometry":{"type":"Polygon","coordinates":[[[126.95978,35.13349],[126.95978,35.1334],[126.95985,35.1334],[126.95985,35.13349],[126.95978,35.13349]]]}},{"type":"Feature","properties":{"valleyId":"jeungsimsa","layer":"shadow","date":"2026-08-01","timeLocal":"18:00"},"geometry":{"type":"Polygon","coordinates":[[[126.95877,35.1334],[126.95877,35.13335],[126.95884,35.13335],[126.95884,35.1334],[126.95877,35.1334]]]}},{"type":"Feature","properties":{"valleyId":"jeungsimsa","layer":"shadow","date":"2026-08-01","timeLocal":"18:00"},"geometry":{"type":"Polygon","coordinates":[[[126.96011,35.13337],[126.96011,35.13332],[126.9602,35.13332],[126.9602,35.13337],[126.96011,35.13337]]]}},{"type":"Feature","properties":{"valleyId":"jeungsimsa","layer":"shadow","date":"2026-08-01","timeLocal":"18:00"},"geometry":{"type":"Polygon","coordinates":[[[126.95478,35.13346],[126.95478,35.13334],[126.95487,35.1333],[126.95487,35.13319],[126.95502,35.13318],[126.95504,35.13329],[126.95493,35.1333],[126.95493,35.13343],[126.95478,35.13346]]]}},{"type":"Feature","properties":{"valleyId":"jeungsimsa","layer":"shadow","date":"2026-08-01","timeLocal":"18:00"},"geometry":{"type":"Polygon","coordinates":[[[126.95596,35.13334],[126.95599,35.1331],[126.95617,35.13314],[126.95617,35.1332],[126.95608,35.13321],[126.95607,35.13332],[126.95596,35.13334]]]}},{"type":"Feature","properties":{"valleyId":"jeungsimsa","layer":"shadow","date":"2026-08-01","timeLocal":"18:00"},"geometry":{"type":"Polygon","coordinates":[[[126.96839,35.13333],[126.96839,35.1332],[126.9685,35.13319],[126.96848,35.13333],[126.96839,35.13333]]]}},{"type":"Feature","properties":{"valleyId":"jeungsimsa","layer":"shadow","date":"2026-08-01","timeLocal":"18:00"},"geometry":{"type":"Polygon","coordinates":[[[126.95698,35.13294],[126.95696,35.13283],[126.9571,35.13285],[126.95709,35.13292],[126.95698,35.13294]]]}},{"type":"Feature","properties":{"valleyId":"jeungsimsa","layer":"shadow","date":"2026-08-01","timeLocal":"18:00"},"geometry":{"type":"Polygon","coordinates":[[[126.96069,35.13313],[126.96069,35.13306],[126.96073,35.13304],[126.96072,35.13282],[126.96078,35.13282],[126.96078,35.13288],[126.96083,35.1329],[126.96082,35.13302],[126.96078,35.13304],[126.96075,35.13313],[126.96069,35.13313]]]}},{"type":"Feature","properties":{"valleyId":"jeungsimsa","layer":"shadow","date":"2026-08-01","timeLocal":"18:00"},"geometry":{"type":"Polygon","coordinates":[[[126.96274,35.13291],[126.96269,35.13289],[126.96269,35.13284],[126.9628,35.13286],[126.9628,35.13291],[126.96274,35.13291]]]}},{"type":"Feature","properties":{"valleyId":"jeungsimsa","layer":"shadow","date":"2026-08-01","timeLocal":"18:00"},"geometry":{"type":"Polygon","coordinates":[[[126.96949,35.13297],[126.96947,35.13284],[126.96952,35.13284],[126.96952,35.13279],[126.96959,35.13279],[126.96958,35.13295],[126.96949,35.13297]]]}},{"type":"Feature","properties":{"valleyId":"jeungsimsa","layer":"shadow","date":"2026-08-01","timeLocal":"18:00"},"geometry":{"type":"Polygon","coordinates":[[[126.95793,35.13274],[126.95793,35.13267],[126.95785,35.13263],[126.95787,35.13256],[126.95798,35.13256],[126.95798,35.13263],[126.95802,35.13263],[126.95802,35.13274],[126.95793,35.13274]]]}},{"type":"Feature","properties":{"valleyId":"jeungsimsa","layer":"shadow","date":"2026-08-01","timeLocal":"18:00"},"geometry":{"type":"Polygon","coordinates":[[[126.95664,35.13281],[126.95664,35.13261],[126.95669,35.13259],[126.95669,35.1325],[126.95675,35.1325],[126.95677,35.13258],[126.95673,35.13259],[126.9567,35.13281],[126.95664,35.13281]]]}},{"type":"Feature","properties":{"valleyId":"jeungsimsa","layer":"shadow","date":"2026-08-01","timeLocal":"18:00"},"geometry":{"type":"Polygon","coordinates":[[[126.96156,35.1326],[126.96156,35.13251],[126.96163,35.13251],[126.96165,35.13259],[126.96156,35.1326]]]}},{"type":"Feature","properties":{"valleyId":"jeungsimsa","layer":"shadow","date":"2026-08-01","timeLocal":"18:00"},"geometry":{"type":"Polygon","coordinates":[[[126.96046,35.13262],[126.96053,35.13246],[126.96057,35.13242],[126.96071,35.13243],[126.96068,35.13253],[126.96059,35.13257],[126.96059,35.1326],[126.96046,35.13262]]]}},{"type":"Feature","properties":{"valleyId":"jeungsimsa","layer":"shadow","date":"2026-08-01","timeLocal":"18:00"},"geometry":{"type":"Polygon","coordinates":[[[126.9557,35.13319],[126.95568,35.13315],[126.9556,35.13315],[126.9556,35.13304],[126.95562,35.13301],[126.95578,35.13301],[126.95582,35.13292],[126.95589,35.13289],[126.95585,35.13267],[126.95592,35.13256],[126.95607,35.13246],[126.95612,35.13246],[126.95612,35.1324],[126.95621,35.13239],[126.95623,35.13233],[126.95632,35.13233],[126.95634,35.13239],[126.95641,35.13239],[126.9564,35.13244],[126.95632,35.13248],[126.95633,35.13278],[126.95624,35.13282],[126.95622,35.13287],[126.95615,35.13289],[126.95611,35.13294],[126.95595,35.13296],[126.95595,35.13305],[126.95584,35.13306],[126.95584,35.1331],[126.95579,35.1331],[126.95577,35.13319],[126.9557,35.13319]]]}},{"type":"Feature","properties":{"valleyId":"jeungsimsa","layer":"shadow","date":"2026-08-01","timeLocal":"18:00"},"geometry":{"type":"Polygon","coordinates":[[[126.95796,35.13254],[126.95796,35.13234],[126.95801,35.13234],[126.95801,35.13231],[126.95808,35.13231],[126.95807,35.13236],[126.95816,35.1324],[126.95816,35.13245],[126.95805,35.13249],[126.95803,35.13254],[126.95796,35.13254]]]}},{"type":"Feature","properties":{"valleyId":"jeungsimsa","layer":"shadow","date":"2026-08-01","timeLocal":"18:00"},"geometry":{"type":"Polygon","coordinates":[[[126.95996,35.13258],[126.95996,35.1325],[126.96,35.13247],[126.95998,35.13234],[126.96012,35.13234],[126.96012,35.13231],[126.9602,35.13231],[126.9602,35.13242],[126.96011,35.13243],[126.96011,35.13251],[126.96007,35.1325],[126.96002,35.13258],[126.95996,35.13258]]]}},{"type":"Feature","properties":{"valleyId":"jeungsimsa","layer":"shadow","date":"2026-08-01","timeLocal":"18:00"},"geometry":{"type":"Polygon","coordinates":[[[126.9611,35.13238],[126.9611,35.13231],[126.96119,35.13231],[126.96119,35.13238],[126.9611,35.13238]]]}},{"type":"Feature","properties":{"valleyId":"jeungsimsa","layer":"shadow","date":"2026-08-01","timeLocal":"18:00"},"geometry":{"type":"Polygon","coordinates":[[[126.95823,35.13237],[126.95821,35.1322],[126.95832,35.13219],[126.95829,35.13237],[126.95823,35.13237]]]}},{"type":"Feature","properties":{"valleyId":"jeungsimsa","layer":"shadow","date":"2026-08-01","timeLocal":"18:00"},"geometry":{"type":"Polygon","coordinates":[[[126.95834,35.13221],[126.95834,35.13215],[126.95841,35.13215],[126.95841,35.13221],[126.95834,35.13221]]]}},{"type":"Feature","properties":{"valleyId":"jeungsimsa","layer":"shadow","date":"2026-08-01","timeLocal":"18:00"},"geometry":{"type":"Polygon","coordinates":[[[126.96036,35.13226],[126.96036,35.1322],[126.96041,35.13217],[126.9606,35.13215],[126.96058,35.13222],[126.96036,35.13226]]]}},{"type":"Feature","properties":{"valleyId":"jeungsimsa","layer":"shadow","date":"2026-08-01","timeLocal":"18:00"},"geometry":{"type":"Polygon","coordinates":[[[126.95945,35.1326],[126.95941,35.13235],[126.95946,35.13213],[126.95951,35.1321],[126.95968,35.1321],[126.95973,35.13212],[126.95972,35.13217],[126.95966,35.13223],[126.95968,35.13237],[126.95957,35.13241],[126.95956,35.13259],[126.95945,35.1326]]]}},{"type":"Feature","properties":{"valleyId":"jeungsimsa","layer":"shadow","date":"2026-08-01","timeLocal":"18:00"},"geometry":{"type":"Polygon","coordinates":[[[126.96085,35.13212],[126.96085,35.13207],[126.96091,35.13207],[126.96091,35.13212],[126.96085,35.13212]]]}},{"type":"Feature","properties":{"valleyId":"jeungsimsa","layer":"shadow","date":"2026-08-01","timeLocal":"18:00"},"geometry":{"type":"Polygon","coordinates":[[[126.95762,35.13219],[126.9576,35.13212],[126.95769,35.13203],[126.9578,35.13203],[126.95791,35.13198],[126.958,35.13198],[126.95799,35.13204],[126.95793,35.13204],[126.95791,35.13207],[126.95782,35.13209],[126.95779,35.13216],[126.95762,35.13219]]]}},{"type":"Feature","properties":{"valleyId":"jeungsimsa","layer":"shadow","date":"2026-08-01","timeLocal":"18:00"},"geometry":{"type":"Polygon","coordinates":[[[126.95806,35.13197],[126.95806,35.13191],[126.95813,35.13191],[126.95813,35.13197],[126.95806,35.13197]]]}},{"type":"Feature","properties":{"valleyId":"jeungsimsa","layer":"shadow","date":"2026-08-01","timeLocal":"18:00"},"geometry":{"type":"Polygon","coordinates":[[[126.9614,35.13199],[126.9614,35.13191],[126.96149,35.13192],[126.96149,35.13199],[126.9614,35.13199]]]}},{"type":"Feature","properties":{"valleyId":"jeungsimsa","layer":"shadow","date":"2026-08-01","timeLocal":"18:00"},"geometry":{"type":"Polygon","coordinates":[[[126.96162,35.13206],[126.96164,35.13192],[126.96169,35.13188],[126.9618,35.13188],[126.96181,35.13198],[126.96168,35.13203],[126.96168,35.13206],[126.96162,35.13206]]]}},{"type":"Feature","properties":{"valleyId":"jeungsimsa","layer":"shadow","date":"2026-08-01","timeLocal":"18:00"},"geometry":{"type":"Polygon","coordinates":[[[126.96407,35.132],[126.96405,35.13192],[126.96419,35.13193],[126.96418,35.132],[126.96407,35.132]]]}},{"type":"Feature","properties":{"valleyId":"jeungsimsa","layer":"shadow","date":"2026-08-01","timeLocal":"18:00"},"geometry":{"type":"Polygon","coordinates":[[[126.96577,35.13258],[126.96575,35.13251],[126.96562,35.13245],[126.96558,35.1324],[126.96554,35.1324],[126.96554,35.13236],[126.96538,35.13236],[126.96532,35.1323],[126.96525,35.1323],[126.96521,35.13227],[126.96521,35.13219],[126.96512,35.13214],[126.9651,35.13207],[126.96484,35.13199],[126.96487,35.13188],[126.96493,35.13188],[126.96493,35.13196],[126.96515,35.13201],[126.96528,35.13212],[126.96556,35.13213],[126.96556,35.13225],[126.9656,35.13226],[126.9656,35.13231],[126.96565,35.13231],[126.96565,35.13235],[126.96573,35.13235],[126.96578,35.13242],[126.96589,35.13242],[126.96588,35.13248],[126.96593,35.1325],[126.96593,35.13257],[126.96577,35.13258]]]}},{"type":"Feature","properties":{"valleyId":"jeungsimsa","layer":"shadow","date":"2026-08-01","timeLocal":"18:00"},"geometry":{"type":"Polygon","coordinates":[[[126.9584,35.13174],[126.9584,35.13167],[126.95846,35.13167],[126.95846,35.13174],[126.9584,35.13174]]]}},{"type":"Feature","properties":{"valleyId":"jeungsimsa","layer":"shadow","date":"2026-08-01","timeLocal":"18:00"},"geometry":{"type":"Polygon","coordinates":[[[126.96465,35.13184],[126.96456,35.13181],[126.96452,35.13168],[126.96461,35.13168],[126.96465,35.13175],[126.96472,35.13177],[126.96472,35.13184],[126.96465,35.13184]]]}},{"type":"Feature","properties":{"valleyId":"jeungsimsa","layer":"shadow","date":"2026-08-01","timeLocal":"18:00"},"geometry":{"type":"Polygon","coordinates":[[[126.96217,35.13176],[126.9622,35.13162],[126.96231,35.1316],[126.9623,35.13175],[126.96217,35.13176]]]}},{"type":"Feature","properties":{"valleyId":"jeungsimsa","layer":"shadow","date":"2026-08-01","timeLocal":"18:00"},"geometry":{"type":"Polygon","coordinates":[[[126.96465,35.13197],[126.96452,35.13195],[126.96449,35.13189],[126.9643,35.13189],[126.9643,35.13184],[126.96425,35.13184],[126.96417,35.13173],[126.96406,35.13172],[126.96404,35.13162],[126.96422,35.13164],[126.96424,35.13171],[126.96428,35.13171],[126.96439,35.13184],[126.9645,35.13184],[126.96449,35.13188],[126.96467,35.13188],[126.96467,35.13192],[126.96474,35.13192],[126.96473,35.13197],[126.96465,35.13197]]]}},{"type":"Feature","properties":{"valleyId":"jeungsimsa","layer":"shadow","date":"2026-08-01","timeLocal":"18:00"},"geometry":{"type":"Polygon","coordinates":[[[126.96242,35.13166],[126.96242,35.13159],[126.96251,35.13157],[126.9625,35.13164],[126.96242,35.13166]]]}},{"type":"Feature","properties":{"valleyId":"jeungsimsa","layer":"shadow","date":"2026-08-01","timeLocal":"18:00"},"geometry":{"type":"Polygon","coordinates":[[[126.96318,35.13162],[126.96319,35.13157],[126.96325,35.13157],[126.96325,35.13162],[126.96318,35.13162]]]}},{"type":"Feature","properties":{"valleyId":"jeungsimsa","layer":"shadow","date":"2026-08-01","timeLocal":"18:00"},"geometry":{"type":"Polygon","coordinates":[[[126.96386,35.13161],[126.96387,35.13156],[126.964,35.13156],[126.964,35.13162],[126.96386,35.13161]]]}},{"type":"Feature","properties":{"valleyId":"jeungsimsa","layer":"shadow","date":"2026-08-01","timeLocal":"18:00"},"geometry":{"type":"Polygon","coordinates":[[[126.96391,35.13149],[126.96391,35.13143],[126.96398,35.13143],[126.96398,35.13149],[126.96391,35.13149]]]}},{"type":"Feature","properties":{"valleyId":"jeungsimsa","layer":"shadow","date":"2026-08-01","timeLocal":"18:00"},"geometry":{"type":"Polygon","coordinates":[[[126.96379,35.13129],[126.96379,35.13123],[126.96383,35.13123],[126.96385,35.13118],[126.96392,35.13118],[126.96392,35.13127],[126.96379,35.13129]]]}},{"type":"Feature","properties":{"valleyId":"jeungsimsa","layer":"shadow","date":"2026-08-01","timeLocal":"18:00"},"geometry":{"type":"Polygon","coordinates":[[[126.96282,35.13142],[126.96282,35.13134],[126.96288,35.13133],[126.96293,35.1312],[126.96306,35.1312],[126.96313,35.13113],[126.9632,35.13113],[126.96317,35.13128],[126.96304,35.13131],[126.96304,35.13136],[126.96293,35.13138],[126.96293,35.13142],[126.96282,35.13142]]]}},{"type":"Feature","properties":{"valleyId":"jeungsimsa","layer":"shadow","date":"2026-08-01","timeLocal":"18:00"},"geometry":{"type":"Polygon","coordinates":[[[126.96048,35.13112],[126.96048,35.13107],[126.96054,35.13107],[126.96054,35.13112],[126.96048,35.13112]]]}},{"type":"Feature","properties":{"valleyId":"jeungsimsa","layer":"shadow","date":"2026-08-01","timeLocal":"18:00"},"geometry":{"type":"Polygon","coordinates":[[[126.96556,35.13121],[126.96555,35.13112],[126.96563,35.1311],[126.96568,35.13114],[126.96568,35.13119],[126.96556,35.13121]]]}},{"type":"Feature","properties":{"valleyId":"jeungsimsa","layer":"shadow","date":"2026-08-01","timeLocal":"18:00"},"geometry":{"type":"Polygon","coordinates":[[[126.96594,35.13118],[126.9659,35.13116],[126.9659,35.13109],[126.96605,35.13109],[126.96605,35.13118],[126.96594,35.13118]]]}},{"type":"Feature","properties":{"valleyId":"jeungsimsa","layer":"shadow","date":"2026-08-01","timeLocal":"18:00"},"geometry":{"type":"Polygon","coordinates":[[[126.96061,35.13098],[126.96059,35.13091],[126.96066,35.13091],[126.96068,35.13098],[126.96061,35.13098]]]}},{"type":"Feature","properties":{"valleyId":"jeungsimsa","layer":"shadow","date":"2026-08-01","timeLocal":"18:00"},"geometry":{"type":"Polygon","coordinates":[[[126.96583,35.13107],[126.96581,35.131],[126.9659,35.131],[126.96592,35.13107],[126.96583,35.13107]]]}},{"type":"Feature","properties":{"valleyId":"jeungsimsa","layer":"shadow","date":"2026-08-01","timeLocal":"18:00"},"geometry":{"type":"Polygon","coordinates":[[[126.96037,35.13092],[126.96037,35.13087],[126.96046,35.13085],[126.96046,35.13092],[126.96037,35.13092]]]}},{"type":"Feature","properties":{"valleyId":"jeungsimsa","layer":"shadow","date":"2026-08-01","timeLocal":"18:00"},"geometry":{"type":"Polygon","coordinates":[[[126.96913,35.13087],[126.96913,35.1308],[126.96922,35.1308],[126.96922,35.13087],[126.96913,35.13087]]]}},{"type":"Feature","properties":{"valleyId":"jeungsimsa","layer":"shadow","date":"2026-08-01","timeLocal":"18:00"},"geometry":{"type":"Polygon","coordinates":[[[126.96163,35.13071],[126.96161,35.13064],[126.96152,35.13064],[126.96152,35.13051],[126.96163,35.13051],[126.96165,35.13062],[126.96176,35.13066],[126.96176,35.13071],[126.96163,35.13071]]]}},{"type":"Feature","properties":{"valleyId":"jeungsimsa","layer":"shadow","date":"2026-08-01","timeLocal":"18:00"},"geometry":{"type":"Polygon","coordinates":[[[126.96436,35.13122],[126.96436,35.13115],[126.96429,35.1311],[126.9643,35.13104],[126.96436,35.13101],[126.96439,35.13083],[126.96448,35.13074],[126.96448,35.13065],[126.96455,35.1306],[126.9646,35.13047],[126.96471,35.13047],[126.9647,35.13056],[126.96477,35.13064],[126.96477,35.13071],[126.9647,35.13078],[126.96463,35.13078],[126.96459,35.13081],[126.96458,35.13094],[126.96454,35.13101],[126.96449,35.13101],[126.96445,35.13106],[126.96447,35.13117],[126.96442,35.13119],[126.96442,35.13123],[126.96436,35.13122]]]}},{"type":"Feature","properties":{"valleyId":"jeungsimsa","layer":"shadow","date":"2026-08-01","timeLocal":"18:00"},"geometry":{"type":"Polygon","coordinates":[[[126.96165,35.13048],[126.96166,35.13022],[126.96175,35.13021],[126.96172,35.13031],[126.96181,35.13035],[126.96181,35.13042],[126.96179,35.13046],[126.96165,35.13048]]]}},{"type":"Feature","properties":{"valleyId":"jeungsimsa","layer":"shadow","date":"2026-08-01","timeLocal":"18:00"},"geometry":{"type":"Polygon","coordinates":[[[126.96815,35.13039],[126.96816,35.1303],[126.96822,35.1303],[126.96822,35.13039],[126.96815,35.13039]]]}},{"type":"Feature","properties":{"valleyId":"jeungsimsa","layer":"shadow","date":"2026-08-01","timeLocal":"18:00"},"geometry":{"type":"Polygon","coordinates":[[[126.96458,35.13036],[126.96458,35.13027],[126.96469,35.13018],[126.96485,35.13013],[126.965,35.13015],[126.965,35.13021],[126.96491,35.13022],[126.96486,35.1303],[126.96471,35.13029],[126.96466,35.13036],[126.96458,35.13036]]]}},{"type":"Feature","properties":{"valleyId":"jeungsimsa","layer":"shadow","date":"2026-08-01","timeLocal":"18:00"},"geometry":{"type":"Polygon","coordinates":[[[126.96531,35.12998],[126.96533,35.12991],[126.96553,35.12987],[126.96551,35.12996],[126.96531,35.12998]]]}},{"type":"Feature","properties":{"valleyId":"jeungsimsa","layer":"shadow","date":"2026-08-01","timeLocal":"18:00"},"geometry":{"type":"Polygon","coordinates":[[[126.9697,35.12993],[126.96973,35.1298],[126.96979,35.1298],[126.96979,35.12993],[126.9697,35.12993]]]}},{"type":"Feature","properties":{"valleyId":"jeungsimsa","layer":"shadow","date":"2026-08-01","timeLocal":"18:00"},"geometry":{"type":"Polygon","coordinates":[[[126.96641,35.12976],[126.96639,35.12965],[126.9665,35.12967],[126.9665,35.12976],[126.96641,35.12976]]]}},{"type":"Feature","properties":{"valleyId":"jeungsimsa","layer":"shadow","date":"2026-08-01","timeLocal":"18:00"},"geometry":{"type":"Polygon","coordinates":[[[126.96312,35.13061],[126.96304,35.13048],[126.96295,35.13043],[126.96295,35.13037],[126.96285,35.13026],[126.96285,35.13023],[126.96276,35.13022],[126.96272,35.13019],[126.96274,35.13012],[126.9628,35.13012],[126.96285,35.13021],[126.96298,35.13019],[126.96298,35.13008],[126.96294,35.13008],[126.96287,35.13003],[126.96288,35.12994],[126.96292,35.1299],[126.96292,35.12985],[126.96288,35.12981],[126.96289,35.12951],[126.96297,35.12951],[126.96302,35.12956],[126.96315,35.12956],[126.96321,35.12962],[126.96321,35.12971],[126.96314,35.12974],[126.96314,35.12982],[126.96321,35.12984],[126.9632,35.12993],[126.96331,35.12993],[126.96335,35.1302],[126.96332,35.13047],[126.96323,35.1305],[126.96323,35.13057],[126.96319,35.13061],[126.96312,35.13061]]]}},{"type":"Feature","properties":{"valleyId":"jeungsimsa","layer":"shadow","date":"2026-08-01","timeLocal":"18:00"},"geometry":{"type":"Polygon","coordinates":[[[126.97125,35.1295],[126.97125,35.12934],[126.97132,35.12934],[126.97134,35.12945],[126.97131,35.1295],[126.97125,35.1295]]]}},{"type":"Feature","properties":{"valleyId":"jeungsimsa","layer":"shadow","date":"2026-08-01","timeLocal":"18:00"},"geometry":{"type":"Polygon","coordinates":[[[126.96585,35.1295],[126.96565,35.12941],[126.96566,35.12928],[126.96561,35.12923],[126.96562,35.1291],[126.96566,35.12906],[126.96575,35.12907],[126.96601,35.1292],[126.96601,35.12925],[126.96596,35.12929],[126.96596,35.1295],[126.96585,35.1295]]]}},{"type":"Feature","properties":{"valleyId":"jeungsimsa","layer":"shadow","date":"2026-08-01","timeLocal":"18:00"},"geometry":{"type":"Polygon","coordinates":[[[126.9683,35.12896],[126.9683,35.12891],[126.96837,35.12891],[126.96836,35.12897],[126.9683,35.12896]]]}},{"type":"Feature","properties":{"valleyId":"jeungsimsa","layer":"shadow","date":"2026-08-01","timeLocal":"18:00"},"geometry":{"type":"Polygon","coordinates":[[[126.96915,35.1282],[126.96913,35.12813],[126.96926,35.1281],[126.96926,35.12821],[126.96915,35.1282]]]}},{"type":"Feature","properties":{"valleyId":"jeungsimsa","layer":"shadow","date":"2026-08-01","timeLocal":"18:00"},"geometry":{"type":"Polygon","coordinates":[[[126.96929,35.12803],[126.96931,35.1279],[126.96936,35.12785],[126.96934,35.12772],[126.96949,35.12772],[126.96949,35.12778],[126.96942,35.12783],[126.96942,35.12803],[126.96929,35.12803]]]}},{"type":"Feature","properties":{"valleyId":"jeungsimsa","layer":"shadow","date":"2026-08-01","timeLocal":"18:00"},"geometry":{"type":"Polygon","coordinates":[[[126.9698,35.12791],[126.96977,35.12784],[126.96984,35.1278],[126.96987,35.12769],[126.96993,35.12769],[126.96988,35.12787],[126.96986,35.12791],[126.9698,35.12791]]]}},{"type":"Feature","properties":{"valleyId":"jeungsimsa","layer":"shadow","date":"2026-08-01","timeLocal":"18:00"},"geometry":{"type":"Polygon","coordinates":[[[126.96892,35.1278],[126.96885,35.12777],[126.96886,35.1275],[126.96893,35.1275],[126.96903,35.1277],[126.96899,35.1278],[126.96892,35.1278]]]}},{"type":"Feature","properties":{"valleyId":"jeungsimsa","layer":"shadow","date":"2026-08-01","timeLocal":"18:00"},"geometry":{"type":"Polygon","coordinates":[[[126.97267,35.1272],[126.97265,35.12711],[126.97271,35.12711],[126.97273,35.1272],[126.97267,35.1272]]]}},{"type":"Feature","properties":{"valleyId":"jeungsimsa","layer":"shadow","date":"2026-08-01","timeLocal":"18:00"},"geometry":{"type":"Polygon","coordinates":[[[126.97148,35.12714],[126.97148,35.12707],[126.97155,35.12707],[126.97155,35.12714],[126.97148,35.12714]]]}},{"type":"Feature","properties":{"valleyId":"jeungsimsa","layer":"shadow","date":"2026-08-01","timeLocal":"18:00"},"geometry":{"type":"Polygon","coordinates":[[[126.97286,35.12664],[126.97284,35.12655],[126.9729,35.12655],[126.97292,35.12664],[126.97286,35.12664]]]}},{"type":"Feature","properties":{"valleyId":"jeungsimsa","layer":"shadow","date":"2026-08-01","timeLocal":"18:00"},"geometry":{"type":"Polygon","coordinates":[[[126.9726,35.12637],[126.9726,35.12631],[126.97256,35.12628],[126.97256,35.12617],[126.97269,35.12615],[126.97266,35.12637],[126.9726,35.12637]]]}},{"type":"Feature","properties":{"valleyId":"jeungsimsa","layer":"shadow","date":"2026-08-01","timeLocal":"18:00"},"geometry":{"type":"Polygon","coordinates":[[[126.97122,35.12633],[126.97122,35.12624],[126.97113,35.12618],[126.97111,35.12606],[126.97122,35.12604],[126.97123,35.12591],[126.97129,35.12591],[126.97133,35.12615],[126.97128,35.12633],[126.97122,35.12633]]]}},{"type":"Feature","properties":{"valleyId":"jeungsimsa","layer":"shadow","date":"2026-08-01","timeLocal":"18:00"},"geometry":{"type":"Polygon","coordinates":[[[126.97108,35.12586],[126.97106,35.12571],[126.97114,35.12571],[126.97116,35.12586],[126.97108,35.12586]]]}},{"type":"Feature","properties":{"valleyId":"jeungsimsa","layer":"shadow","date":"2026-08-01","timeLocal":"18:00"},"geometry":{"type":"Polygon","coordinates":[[[126.95735,35.12535],[126.95733,35.12526],[126.9574,35.12527],[126.95741,35.12536],[126.95735,35.12535]]]}},{"type":"Feature","properties":{"valleyId":"jeungsimsa","layer":"shadow","date":"2026-08-01","timeLocal":"18:00"},"geometry":{"type":"Polygon","coordinates":[[[126.97102,35.1256],[126.971,35.12549],[126.97106,35.1255],[126.97108,35.1256],[126.97102,35.1256]]]}},{"type":"Feature","properties":{"valleyId":"jeungsimsa","layer":"shadow","date":"2026-08-01","timeLocal":"18:00"},"geometry":{"type":"Polygon","coordinates":[[[126.971,35.12542],[126.971,35.12531],[126.97107,35.12531],[126.97106,35.12542],[126.971,35.12542]]]}},{"type":"Feature","properties":{"valleyId":"jeungsimsa","layer":"shadow","date":"2026-08-01","timeLocal":"18:00"},"geometry":{"type":"Polygon","coordinates":[[[126.97341,35.12532],[126.97342,35.12525],[126.97348,35.12525],[126.97348,35.12532],[126.97341,35.12532]]]}},{"type":"Feature","properties":{"valleyId":"jeungsimsa","layer":"shadow","date":"2026-08-01","timeLocal":"18:00"},"geometry":{"type":"Polygon","coordinates":[[[126.97276,35.12516],[126.97276,35.12504],[126.97285,35.12504],[126.97283,35.12516],[126.97276,35.12516]]]}},{"type":"Feature","properties":{"valleyId":"jeungsimsa","layer":"shadow","date":"2026-08-01","timeLocal":"18:00"},"geometry":{"type":"Polygon","coordinates":[[[126.97116,35.12506],[126.97116,35.12499],[126.97127,35.12501],[126.97127,35.12507],[126.97116,35.12506]]]}},{"type":"Feature","properties":{"valleyId":"jeungsimsa","layer":"shadow","date":"2026-08-01","timeLocal":"18:00"},"geometry":{"type":"Polygon","coordinates":[[[126.97033,35.12509],[126.97031,35.12503],[126.97024,35.12503],[126.97026,35.12492],[126.97035,35.12492],[126.97039,35.12496],[126.97041,35.12509],[126.97033,35.12509]]]}},{"type":"Feature","properties":{"valleyId":"jeungsimsa","layer":"shadow","date":"2026-08-01","timeLocal":"18:00"},"geometry":{"type":"Polygon","coordinates":[[[126.97367,35.12484],[126.97365,35.12476],[126.97367,35.12473],[126.97374,35.12473],[126.97373,35.12484],[126.97367,35.12484]]]}},{"type":"Feature","properties":{"valleyId":"jeungsimsa","layer":"shadow","date":"2026-08-01","timeLocal":"18:00"},"geometry":{"type":"Polygon","coordinates":[[[126.97165,35.1246],[126.97163,35.12453],[126.9717,35.12453],[126.97172,35.1246],[126.97165,35.1246]]]}},{"type":"Feature","properties":{"valleyId":"jeungsimsa","layer":"shadow","date":"2026-08-01","timeLocal":"18:00"},"geometry":{"type":"Polygon","coordinates":[[[126.97126,35.12449],[126.97126,35.12443],[126.97133,35.12444],[126.97133,35.12449],[126.97126,35.12449]]]}},{"type":"Feature","properties":{"valleyId":"jeungsimsa","layer":"shadow","date":"2026-08-01","timeLocal":"18:00"},"geometry":{"type":"Polygon","coordinates":[[[126.95501,35.1242],[126.95501,35.12414],[126.95514,35.12415],[126.95514,35.1242],[126.95501,35.1242]]]}},{"type":"Feature","properties":{"valleyId":"jeungsimsa","layer":"shadow","date":"2026-08-01","timeLocal":"18:00"},"geometry":{"type":"Polygon","coordinates":[[[126.97363,35.12442],[126.97364,35.12435],[126.9737,35.12435],[126.9737,35.12442],[126.97363,35.12442]]]}},{"type":"Feature","properties":{"valleyId":"jeungsimsa","layer":"shadow","date":"2026-08-01","timeLocal":"18:00"},"geometry":{"type":"Polygon","coordinates":[[[126.97189,35.12403],[126.97189,35.12398],[126.97196,35.12398],[126.97195,35.12403],[126.97189,35.12403]]]}},{"type":"Feature","properties":{"valleyId":"jeungsimsa","layer":"shadow","date":"2026-08-01","timeLocal":"18:00"},"geometry":{"type":"Polygon","coordinates":[[[126.97091,35.12378],[126.97091,35.12373],[126.97098,35.12367],[126.97102,35.12367],[126.97107,35.1236],[126.97126,35.12361],[126.97126,35.12366],[126.97117,35.12366],[126.97117,35.12378],[126.97091,35.12378]]]}},{"type":"Feature","properties":{"valleyId":"jeungsimsa","layer":"shadow","date":"2026-08-01","timeLocal":"18:00"},"geometry":{"type":"Polygon","coordinates":[[[126.95714,35.12333],[126.95714,35.12326],[126.95723,35.12324],[126.95722,35.12333],[126.95714,35.12333]]]}},{"type":"Feature","properties":{"valleyId":"jeungsimsa","layer":"shadow","date":"2026-08-01","timeLocal":"18:00"},"geometry":{"type":"Polygon","coordinates":[[[126.97072,35.12331],[126.9707,35.12322],[126.97075,35.12318],[126.97094,35.12317],[126.97092,35.12328],[126.97072,35.12331]]]}},{"type":"Feature","properties":{"valleyId":"jeungsimsa","layer":"shadow","date":"2026-08-01","timeLocal":"18:00"},"geometry":{"type":"Polygon","coordinates":[[[126.95572,35.12627],[126.9552,35.12608],[126.95518,35.12604],[126.95501,35.12596],[126.95501,35.12591],[126.9551,35.12586],[126.9551,35.1257],[126.95517,35.1257],[126.95539,35.12547],[126.95537,35.12538],[126.95524,35.12537],[126.95522,35.12534],[126.95518,35.12534],[126.95514,35.12519],[126.95525,35.12519],[126.95525,35.12523],[126.95535,35.12525],[126.95542,35.12518],[126.95547,35.12518],[126.95543,35.125],[126.95563,35.12491],[126.95561,35.12484],[126.95541,35.12482],[126.95534,35.12478],[126.95537,35.12464],[126.95541,35.1246],[126.95566,35.12462],[126.95572,35.12461],[126.95575,35.12455],[126.95575,35.1245],[126.9557,35.12446],[126.95551,35.12444],[126.95546,35.1244],[126.95547,35.12433],[126.9556,35.12432],[126.9556,35.12423],[126.95573,35.12417],[126.9558,35.12403],[126.95576,35.12389],[126.95589,35.12387],[126.95592,35.1238],[126.95592,35.12374],[126.95583,35.12371],[126.95583,35.12362],[126.95579,35.12358],[126.95575,35.1234],[126.9558,35.12336],[126.95582,35.12324],[126.95589,35.12324],[126.95593,35.12317],[126.95604,35.12313],[126.95605,35.12303],[126.95594,35.1229],[126.95583,35.12286],[126.95583,35.12279],[126.95594,35.12275],[126.95632,35.12272],[126.95673,35.12275],[126.95704,35.12281],[126.95708,35.12284],[126.9571,35.12304],[126.95723,35.12306],[126.95723,35.12314],[126.95712,35.12313],[126.95712,35.12317],[126.95703,35.12317],[126.95699,35.12322],[126.95698,35.12333],[126.95705,35.12338],[126.95709,35.12339],[126.95709,35.12346],[126.95707,35.12353],[126.95695,35.12362],[126.95697,35.12374],[126.95688,35.12398],[126.95687,35.1245],[126.9568,35.12461],[126.95679,35.12473],[126.95686,35.12479],[126.95685,35.12495],[126.95672,35.12495],[126.9567,35.12502],[126.95663,35.12505],[126.95661,35.12513],[126.95652,35.1252],[126.95651,35.12549],[126.95634,35.12548],[126.95634,35.12552],[126.95622,35.12559],[126.95622,35.12562],[126.95618,35.12564],[126.95618,35.12575],[126.95607,35.12575],[126.95607,35.1258],[126.956,35.12587],[126.95591,35.12591],[126.95584,35.12601],[126.95583,35.12627],[126.95572,35.12627]],[[126.95608,35.12425],[126.95615,35.12425],[126.95613,35.12416],[126.95606,35.12416],[126.95608,35.12425]],[[126.95703,35.12311],[126.9571,35.12311],[126.9571,35.12306],[126.95703,35.12306],[126.95703,35.12311]]]}},{"type":"Feature","properties":{"valleyId":"jeungsimsa","layer":"shadow","date":"2026-08-01","timeLocal":"18:00"},"geometry":{"type":"Polygon","coordinates":[[[126.97294,35.12302],[126.97292,35.12295],[126.97299,35.12295],[126.97301,35.12302],[126.97294,35.12302]]]}},{"type":"Feature","properties":{"valleyId":"jeungsimsa","layer":"shadow","date":"2026-08-01","timeLocal":"18:00"},"geometry":{"type":"Polygon","coordinates":[[[126.97325,35.12301],[126.97321,35.12299],[126.97321,35.12288],[126.97328,35.12288],[126.97328,35.12285],[126.97337,35.12285],[126.97332,35.12301],[126.97325,35.12301]]]}},{"type":"Feature","properties":{"valleyId":"jeungsimsa","layer":"shadow","date":"2026-08-01","timeLocal":"18:00"},"geometry":{"type":"Polygon","coordinates":[[[126.97365,35.12271],[126.97366,35.12265],[126.97372,35.12265],[126.97372,35.12271],[126.97365,35.12271]]]}},{"type":"Feature","properties":{"valleyId":"jeungsimsa","layer":"shadow","date":"2026-08-01","timeLocal":"18:00"},"geometry":{"type":"Polygon","coordinates":[[[126.97247,35.12267],[126.97247,35.12262],[126.97254,35.12262],[126.97254,35.12267],[126.97247,35.12267]]]}},{"type":"Feature","properties":{"valleyId":"jeungsimsa","layer":"shadow","date":"2026-08-01","timeLocal":"18:00"},"geometry":{"type":"Polygon","coordinates":[[[126.97125,35.12251],[126.97125,35.12245],[126.97134,35.1224],[126.97143,35.12211],[126.9715,35.12208],[126.97159,35.12208],[126.9716,35.12226],[126.97151,35.12229],[126.97151,35.12235],[126.97156,35.12235],[126.97158,35.12244],[126.97145,35.12242],[126.97136,35.12251],[126.97125,35.12251]]]}},{"type":"Feature","properties":{"valleyId":"jeungsimsa","layer":"shadow","date":"2026-08-01","timeLocal":"18:00"},"geometry":{"type":"Polygon","coordinates":[[[126.97172,35.12201],[126.97174,35.12192],[126.97185,35.12192],[126.97183,35.12199],[126.97172,35.12201]]]}},{"type":"Feature","properties":{"valleyId":"jeungsimsa","layer":"shadow","date":"2026-08-01","timeLocal":"18:00"},"geometry":{"type":"Polygon","coordinates":[[[126.97207,35.12192],[126.97203,35.12174],[126.97214,35.12174],[126.97216,35.12193],[126.97207,35.12192]]]}},{"type":"Feature","properties":{"valleyId":"jeungsimsa","layer":"shadow","date":"2026-08-01","timeLocal":"18:00"},"geometry":{"type":"Polygon","coordinates":[[[126.9724,35.12179],[126.97241,35.12173],[126.97245,35.1217],[126.97256,35.1217],[126.97256,35.12175],[126.97252,35.12175],[126.97249,35.12179],[126.9724,35.12179]]]}},{"type":"Feature","properties":{"valleyId":"jeungsimsa","layer":"shadow","date":"2026-08-01","timeLocal":"18:00"},"geometry":{"type":"Polygon","coordinates":[[[126.97405,35.12165],[126.97406,35.12161],[126.97399,35.12156],[126.97384,35.12154],[126.97382,35.12147],[126.97393,35.12145],[126.97393,35.12149],[126.97397,35.12149],[126.97399,35.12152],[126.97412,35.12154],[126.97417,35.12158],[126.97416,35.12165],[126.97405,35.12165]]]}},{"type":"Feature","properties":{"valleyId":"jeungsimsa","layer":"shadow","date":"2026-08-01","timeLocal":"18:00"},"geometry":{"type":"Polygon","coordinates":[[[126.95711,35.12074],[126.95711,35.12068],[126.95718,35.12068],[126.95718,35.12074],[126.95711,35.12074]]]}},{"type":"Feature","properties":{"valleyId":"jeungsimsa","layer":"shadow","date":"2026-08-01","timeLocal":"18:00"},"geometry":{"type":"Polygon","coordinates":[[[126.97272,35.12062],[126.97272,35.12056],[126.97281,35.12057],[126.97281,35.12062],[126.97272,35.12062]]]}},{"type":"Feature","properties":{"valleyId":"jeungsimsa","layer":"shadow","date":"2026-08-01","timeLocal":"18:00"},"geometry":{"type":"Polygon","coordinates":[[[126.95696,35.119],[126.95694,35.11893],[126.957,35.11893],[126.95702,35.119],[126.95696,35.119]]]}},{"type":"Feature","properties":{"valleyId":"jeungsimsa","layer":"shadow","date":"2026-08-01","timeLocal":"18:00"},"geometry":{"type":"Polygon","coordinates":[[[126.95795,35.11898],[126.95795,35.11891],[126.95801,35.11891],[126.95801,35.11898],[126.95795,35.11898]]]}},{"type":"Feature","properties":{"valleyId":"jeungsimsa","layer":"shadow","date":"2026-08-01","timeLocal":"18:00"},"geometry":{"type":"Polygon","coordinates":[[[126.95713,35.12198],[126.95695,35.1219],[126.95693,35.12187],[126.95684,35.12185],[126.95685,35.12178],[126.95689,35.12176],[126.95689,35.12163],[126.95696,35.12158],[126.95697,35.12131],[126.95693,35.12116],[126.95697,35.12113],[126.95708,35.12111],[126.95708,35.12106],[126.95729,35.12085],[126.95731,35.12067],[126.9574,35.1206],[126.9574,35.12052],[126.95732,35.12052],[126.95739,35.12029],[126.9573,35.12027],[126.9573,35.1202],[126.95741,35.12016],[126.9575,35.12009],[126.9575,35.12004],[126.95746,35.12],[126.95722,35.11996],[126.95722,35.11989],[126.95749,35.11988],[126.95753,35.11984],[126.95753,35.11973],[126.95762,35.11966],[126.95762,35.11961],[126.95756,35.11961],[126.95749,35.11955],[126.95743,35.11955],[126.9574,35.1196],[126.95734,35.1196],[126.9573,35.11957],[126.9573,35.1194],[126.95763,35.11941],[126.95763,35.11946],[126.95767,35.1195],[126.95776,35.1195],[126.9578,35.11947],[126.9578,35.11941],[126.95774,35.11939],[126.95774,35.11934],[126.95785,35.11934],[126.95785,35.11922],[126.9579,35.11916],[126.9581,35.11917],[126.95814,35.11913],[126.95814,35.11906],[126.95808,35.11902],[126.95808,35.11897],[126.95828,35.11899],[126.95828,35.11895],[126.95834,35.11892],[126.95832,35.11879],[126.9585,35.11878],[126.95868,35.11863],[126.95901,35.11871],[126.95901,35.11877],[126.95887,35.1188],[126.95887,35.11891],[126.9588,35.11896],[126.95876,35.11896],[126.95874,35.11901],[126.95869,35.11901],[126.95867,35.11905],[126.95864,35.1193],[126.95849,35.11932],[126.95846,35.11953],[126.95832,35.11969],[126.95829,35.12011],[126.95816,35.1201],[126.95816,35.12021],[126.95809,35.12025],[126.95809,35.12035],[126.958,35.12035],[126.958,35.12043],[126.95795,35.12044],[126.95795,35.12064],[126.95782,35.12064],[126.95782,35.12067],[126.95777,35.12069],[126.95777,35.12076],[126.95766,35.12083],[126.95766,35.12087],[126.95761,35.12087],[126.95761,35.12101],[126.95766,35.12101],[126.95765,35.12112],[126.9577,35.12112],[126.95769,35.12123],[126.95776,35.12129],[126.95776,35.12134],[126.95769,35.12136],[126.9576,35.12146],[126.95759,35.12172],[126.95751,35.12172],[126.95744,35.12182],[126.95739,35.12182],[126.95739,35.12186],[126.95726,35.12191],[126.95726,35.12198],[126.95713,35.12198]]]}}]}
