{"type":"FeatureCollection","metadata":{"description":"개방지(CHM ≤ 2 m)에 드리운 나무·지형 그림자, 2026-08-01 17:00 KST. canopy 위에 겹쳐 그린다","source":"위성 기반 추정 — Copernicus GLO-30 지형(30 m) + Meta/WRI 수관 높이(1 m CHM, 2019 촬영). 그늘 = 수관(CHM > 2 m) ∪ 나무·지형 그림자 ∪ 원거리 지형 마스크. 현장과 다를 수 있음.","datasetVersion":"2026-09-09.0","collectedAt":"2026-09-09","coordinateOrder":"[longitude, latitude]","crs":"EPSG:4326","representativeDate":"2026-08-01","hours":["10:00","11:00","12:00","13:00","14:00","15:00","16:00","17:00","18:00"],"chmAcquisition":["2019-05"],"assets":{"glo30":{"dataset":"Copernicus DEM GLO-30 (COG, s3://copernicus-dem-30m)","tiles":["Copernicus_DSM_COG_10_N35_00_E126_00_DEM","Copernicus_DSM_COG_10_N35_00_E127_00_DEM"]},"chm":{"dataset":"Meta/WRI Global Canopy Height Map v1 (alsgedi_global_v6_float, 1 m, CC-BY 4.0)","quadkeys":["132112120"],"acquisition":["2019-05"]}},"method":{"gridResM":2,"canopyThresholdM":2,"bufferHalfM":25,"corridorHalfM":200,"simplifyTolM":2,"minAreaM2":25,"coordDecimals":5},"generator":"scripts/shade 0.1.0","builtAt":"2026-09-08T15:42:52Z","layer":"shadow","timeLocal":"17:00"},"features":[{"type":"Feature","properties":{"valleyId":"jeungsimsa","layer":"shadow","date":"2026-08-01","timeLocal":"17:00"},"geometry":{"type":"Polygon","coordinates":[[[126.95599,35.13597],[126.95599,35.1359],[126.95605,35.1359],[126.95605,35.13597],[126.95599,35.13597]]]}},{"type":"Feature","properties":{"valleyId":"jeungsimsa","layer":"shadow","date":"2026-08-01","timeLocal":"17:00"},"geometry":{"type":"Polygon","coordinates":[[[126.95601,35.13579],[126.95597,35.13572],[126.95597,35.13563],[126.95608,35.13563],[126.95608,35.13579],[126.95601,35.13579]]]}},{"type":"Feature","properties":{"valleyId":"jeungsimsa","layer":"shadow","date":"2026-08-01","timeLocal":"17:00"},"geometry":{"type":"Polygon","coordinates":[[[126.95591,35.13561],[126.95591,35.13554],[126.95598,35.13554],[126.95597,35.13561],[126.95591,35.13561]]]}},{"type":"Feature","properties":{"valleyId":"jeungsimsa","layer":"shadow","date":"2026-08-01","timeLocal":"17:00"},"geometry":{"type":"Polygon","coordinates":[[[126.95756,35.13542],[126.95756,35.13538],[126.9575,35.13533],[126.9575,35.13527],[126.95758,35.13528],[126.95765,35.13535],[126.95765,35.13542],[126.95756,35.13542]]]}},{"type":"Feature","properties":{"valleyId":"jeungsimsa","layer":"shadow","date":"2026-08-01","timeLocal":"17:00"},"geometry":{"type":"Polygon","coordinates":[[[126.95604,35.13552],[126.95605,35.13521],[126.95612,35.13521],[126.95611,35.13552],[126.95604,35.13552]]]}},{"type":"Feature","properties":{"valleyId":"jeungsimsa","layer":"shadow","date":"2026-08-01","timeLocal":"17:00"},"geometry":{"type":"Polygon","coordinates":[[[126.9558,35.13539],[126.95579,35.13517],[126.95577,35.13512],[126.95583,35.13512],[126.95583,35.13516],[126.95587,35.13517],[126.95585,35.1353],[126.95589,35.1353],[126.95587,35.13539],[126.9558,35.13539]]]}},{"type":"Feature","properties":{"valleyId":"jeungsimsa","layer":"shadow","date":"2026-08-01","timeLocal":"17:00"},"geometry":{"type":"Polygon","coordinates":[[[126.95564,35.13504],[126.95564,35.13497],[126.9557,35.13497],[126.9557,35.13505],[126.95564,35.13504]]]}},{"type":"Feature","properties":{"valleyId":"jeungsimsa","layer":"shadow","date":"2026-08-01","timeLocal":"17:00"},"geometry":{"type":"Polygon","coordinates":[[[126.95584,35.13483],[126.95584,35.13467],[126.95591,35.13467],[126.95593,35.1348],[126.95591,35.13483],[126.95584,35.13483]]]}},{"type":"Feature","properties":{"valleyId":"jeungsimsa","layer":"shadow","date":"2026-08-01","timeLocal":"17:00"},"geometry":{"type":"Polygon","coordinates":[[[126.95556,35.13468],[126.95556,35.13463],[126.95562,35.13463],[126.95562,35.13468],[126.95556,35.13468]]]}},{"type":"Feature","properties":{"valleyId":"jeungsimsa","layer":"shadow","date":"2026-08-01","timeLocal":"17:00"},"geometry":{"type":"Polygon","coordinates":[[[126.95628,35.13466],[126.95628,35.1346],[126.95635,35.13461],[126.95635,35.13466],[126.95628,35.13466]]]}},{"type":"Feature","properties":{"valleyId":"jeungsimsa","layer":"shadow","date":"2026-08-01","timeLocal":"17:00"},"geometry":{"type":"Polygon","coordinates":[[[126.95359,35.13418],[126.9536,35.13413],[126.95366,35.13413],[126.95366,35.13418],[126.95359,35.13418]]]}},{"type":"Feature","properties":{"valleyId":"jeungsimsa","layer":"shadow","date":"2026-08-01","timeLocal":"17:00"},"geometry":{"type":"Polygon","coordinates":[[[126.95568,35.13398],[126.95567,35.13384],[126.95573,35.13384],[126.95575,35.13398],[126.95568,35.13398]]]}},{"type":"Feature","properties":{"valleyId":"jeungsimsa","layer":"shadow","date":"2026-08-01","timeLocal":"17:00"},"geometry":{"type":"Polygon","coordinates":[[[126.95478,35.13341],[126.95478,35.13335],[126.95484,35.13335],[126.95484,35.13341],[126.95478,35.13341]]]}},{"type":"Feature","properties":{"valleyId":"jeungsimsa","layer":"shadow","date":"2026-08-01","timeLocal":"17:00"},"geometry":{"type":"Polygon","coordinates":[[[126.95487,35.13332],[126.95487,35.13321],[126.95498,35.13321],[126.955,35.13328],[126.95496,35.13332],[126.95487,35.13332]]]}},{"type":"Feature","properties":{"valleyId":"jeungsimsa","layer":"shadow","date":"2026-08-01","timeLocal":"17:00"},"geometry":{"type":"Polygon","coordinates":[[[126.95601,35.13321],[126.95601,35.13314],[126.95608,35.13314],[126.95608,35.13321],[126.95601,35.13321]]]}},{"type":"Feature","properties":{"valleyId":"jeungsimsa","layer":"shadow","date":"2026-08-01","timeLocal":"17:00"},"geometry":{"type":"Polygon","coordinates":[[[126.9556,35.13311],[126.95562,35.13301],[126.95573,35.13301],[126.95571,35.13312],[126.9556,35.13311]]]}},{"type":"Feature","properties":{"valleyId":"jeungsimsa","layer":"shadow","date":"2026-08-01","timeLocal":"17:00"},"geometry":{"type":"Polygon","coordinates":[[[126.96839,35.13331],[126.96839,35.1332],[126.9685,35.13319],[126.96848,35.1333],[126.96839,35.13331]]]}},{"type":"Feature","properties":{"valleyId":"jeungsimsa","layer":"shadow","date":"2026-08-01","timeLocal":"17:00"},"geometry":{"type":"Polygon","coordinates":[[[126.95698,35.13294],[126.95699,35.13289],[126.95705,35.13289],[126.95705,35.13294],[126.95698,35.13294]]]}},{"type":"Feature","properties":{"valleyId":"jeungsimsa","layer":"shadow","date":"2026-08-01","timeLocal":"17:00"},"geometry":{"type":"Polygon","coordinates":[[[126.96048,35.13258],[126.96048,35.13251],[126.96057,35.1325],[126.96057,35.13257],[126.96048,35.13258]]]}},{"type":"Feature","properties":{"valleyId":"jeungsimsa","layer":"shadow","date":"2026-08-01","timeLocal":"17:00"},"geometry":{"type":"Polygon","coordinates":[[[126.95582,35.13299],[126.95582,35.13292],[126.95589,35.13289],[126.95585,35.13267],[126.95592,35.13256],[126.95607,35.13246],[126.95612,35.13246],[126.95612,35.1324],[126.95619,35.1324],[126.95618,35.13249],[126.95612,35.13255],[126.95611,35.13264],[126.956,35.13267],[126.956,35.13276],[126.95609,35.1328],[126.95609,35.13287],[126.95595,35.1329],[126.95593,35.13298],[126.95582,35.13299]]]}},{"type":"Feature","properties":{"valleyId":"jeungsimsa","layer":"shadow","date":"2026-08-01","timeLocal":"17:00"},"geometry":{"type":"Polygon","coordinates":[[[126.95796,35.13249],[126.95796,35.1324],[126.95805,35.1324],[126.95805,35.13249],[126.95796,35.13249]]]}},{"type":"Feature","properties":{"valleyId":"jeungsimsa","layer":"shadow","date":"2026-08-01","timeLocal":"17:00"},"geometry":{"type":"Polygon","coordinates":[[[126.96038,35.13224],[126.96038,35.13219],[126.96047,35.13217],[126.96047,35.13222],[126.96038,35.13224]]]}},{"type":"Feature","properties":{"valleyId":"jeungsimsa","layer":"shadow","date":"2026-08-01","timeLocal":"17:00"},"geometry":{"type":"Polygon","coordinates":[[[126.95945,35.1326],[126.95941,35.13228],[126.95946,35.13224],[126.95946,35.13213],[126.95955,35.13214],[126.95957,35.13221],[126.95953,35.13224],[126.95952,35.1326],[126.95945,35.1326]]]}},{"type":"Feature","properties":{"valleyId":"jeungsimsa","layer":"shadow","date":"2026-08-01","timeLocal":"17:00"},"geometry":{"type":"Polygon","coordinates":[[[126.95762,35.13219],[126.9576,35.13212],[126.95764,35.1321],[126.95764,35.13207],[126.95769,35.13203],[126.95777,35.13203],[126.95777,35.13209],[126.95771,35.13212],[126.9577,35.13219],[126.95762,35.13219]]]}},{"type":"Feature","properties":{"valleyId":"jeungsimsa","layer":"shadow","date":"2026-08-01","timeLocal":"17:00"},"geometry":{"type":"Polygon","coordinates":[[[126.95806,35.13197],[126.95806,35.13191],[126.95813,35.13191],[126.95813,35.13197],[126.95806,35.13197]]]}},{"type":"Feature","properties":{"valleyId":"jeungsimsa","layer":"shadow","date":"2026-08-01","timeLocal":"17:00"},"geometry":{"type":"Polygon","coordinates":[[[126.96407,35.132],[126.96408,35.13194],[126.96414,35.13194],[126.96414,35.132],[126.96407,35.132]]]}},{"type":"Feature","properties":{"valleyId":"jeungsimsa","layer":"shadow","date":"2026-08-01","timeLocal":"17:00"},"geometry":{"type":"Polygon","coordinates":[[[126.9584,35.13174],[126.9584,35.13167],[126.95846,35.13167],[126.95846,35.13174],[126.9584,35.13174]]]}},{"type":"Feature","properties":{"valleyId":"jeungsimsa","layer":"shadow","date":"2026-08-01","timeLocal":"17:00"},"geometry":{"type":"Polygon","coordinates":[[[126.9643,35.13189],[126.9643,35.13184],[126.96421,35.1318],[126.96421,35.13173],[126.96428,35.13173],[126.96432,35.13177],[126.96432,35.13184],[126.96436,35.13184],[126.96436,35.13189],[126.9643,35.13189]]]}},{"type":"Feature","properties":{"valleyId":"jeungsimsa","layer":"shadow","date":"2026-08-01","timeLocal":"17:00"},"geometry":{"type":"Polygon","coordinates":[[[126.9622,35.13168],[126.9622,35.13162],[126.96226,35.13162],[126.96226,35.13168],[126.9622,35.13168]]]}},{"type":"Feature","properties":{"valleyId":"jeungsimsa","layer":"shadow","date":"2026-08-01","timeLocal":"17:00"},"geometry":{"type":"Polygon","coordinates":[[[126.96282,35.13142],[126.96282,35.13134],[126.96288,35.13133],[126.96293,35.1312],[126.96304,35.1312],[126.96304,35.13127],[126.96295,35.13131],[126.96295,35.13136],[126.96288,35.13142],[126.96282,35.13142]]]}},{"type":"Feature","properties":{"valleyId":"jeungsimsa","layer":"shadow","date":"2026-08-01","timeLocal":"17:00"},"geometry":{"type":"Polygon","coordinates":[[[126.96557,35.13119],[126.96555,35.13112],[126.96563,35.1311],[126.96563,35.13119],[126.96557,35.13119]]]}},{"type":"Feature","properties":{"valleyId":"jeungsimsa","layer":"shadow","date":"2026-08-01","timeLocal":"17:00"},"geometry":{"type":"Polygon","coordinates":[[[126.9659,35.13116],[126.9659,35.13111],[126.96596,35.13111],[126.96596,35.13116],[126.9659,35.13116]]]}},{"type":"Feature","properties":{"valleyId":"jeungsimsa","layer":"shadow","date":"2026-08-01","timeLocal":"17:00"},"geometry":{"type":"Polygon","coordinates":[[[126.96913,35.13087],[126.96913,35.13082],[126.9692,35.13082],[126.96919,35.13087],[126.96913,35.13087]]]}},{"type":"Feature","properties":{"valleyId":"jeungsimsa","layer":"shadow","date":"2026-08-01","timeLocal":"17:00"},"geometry":{"type":"Polygon","coordinates":[[[126.96432,35.13112],[126.9643,35.13104],[126.96436,35.13101],[126.96437,35.13088],[126.96448,35.13074],[126.96448,35.13065],[126.96455,35.1306],[126.9646,35.13047],[126.96471,35.13047],[126.9647,35.13062],[126.96468,35.13065],[126.96464,35.13065],[126.96461,35.13078],[126.96457,35.13078],[126.96457,35.13081],[126.9645,35.13083],[126.96447,35.13097],[126.96445,35.13103],[126.96438,35.13106],[126.96438,35.13112],[126.96432,35.13112]]]}},{"type":"Feature","properties":{"valleyId":"jeungsimsa","layer":"shadow","date":"2026-08-01","timeLocal":"17:00"},"geometry":{"type":"Polygon","coordinates":[[[126.96165,35.13048],[126.96166,35.13035],[126.96172,35.13035],[126.96177,35.13039],[126.96176,35.13046],[126.96165,35.13048]]]}},{"type":"Feature","properties":{"valleyId":"jeungsimsa","layer":"shadow","date":"2026-08-01","timeLocal":"17:00"},"geometry":{"type":"Polygon","coordinates":[[[126.96166,35.13028],[126.96166,35.13022],[126.96173,35.13022],[126.96173,35.13028],[126.96166,35.13028]]]}},{"type":"Feature","properties":{"valleyId":"jeungsimsa","layer":"shadow","date":"2026-08-01","timeLocal":"17:00"},"geometry":{"type":"Polygon","coordinates":[[[126.96276,35.13022],[126.96272,35.13019],[126.96272,35.13013],[126.9628,35.13012],[126.96282,35.13023],[126.96276,35.13022]]]}},{"type":"Feature","properties":{"valleyId":"jeungsimsa","layer":"shadow","date":"2026-08-01","timeLocal":"17:00"},"geometry":{"type":"Polygon","coordinates":[[[126.96458,35.13036],[126.96458,35.13027],[126.96462,35.13022],[126.96478,35.13015],[126.96496,35.13013],[126.96495,35.13019],[126.96487,35.13021],[126.96482,35.13024],[126.96482,35.13029],[126.96471,35.13029],[126.96466,35.13036],[126.96458,35.13036]]]}},{"type":"Feature","properties":{"valleyId":"jeungsimsa","layer":"shadow","date":"2026-08-01","timeLocal":"17:00"},"geometry":{"type":"Polygon","coordinates":[[[126.96312,35.13061],[126.96304,35.13048],[126.96295,35.13043],[126.96293,35.13034],[126.96289,35.13032],[126.96289,35.13024],[126.96293,35.13025],[126.96293,35.13021],[126.96298,35.13019],[126.96298,35.13008],[126.96294,35.13008],[126.96294,35.13005],[126.96287,35.13003],[126.96288,35.12994],[126.96292,35.1299],[126.96292,35.12985],[126.96288,35.12981],[126.96291,35.12952],[126.96297,35.12952],[126.96299,35.12958],[126.9631,35.12958],[126.96315,35.12964],[126.96314,35.12973],[126.9631,35.12976],[126.96314,35.12991],[126.96296,35.12994],[126.96296,35.13003],[126.963,35.13003],[126.963,35.13007],[126.96316,35.1301],[126.96315,35.13016],[126.96304,35.13021],[126.96304,35.13026],[126.96313,35.1303],[126.96313,35.13034],[126.96317,35.13034],[126.96319,35.13038],[126.96319,35.13061],[126.96312,35.13061]]]}},{"type":"Feature","properties":{"valleyId":"jeungsimsa","layer":"shadow","date":"2026-08-01","timeLocal":"17:00"},"geometry":{"type":"Polygon","coordinates":[[[126.96977,35.12789],[126.96977,35.12784],[126.96984,35.12784],[126.96984,35.12789],[126.96977,35.12789]]]}},{"type":"Feature","properties":{"valleyId":"jeungsimsa","layer":"shadow","date":"2026-08-01","timeLocal":"17:00"},"geometry":{"type":"Polygon","coordinates":[[[126.96934,35.12779],[126.96934,35.12774],[126.9694,35.12774],[126.9694,35.12779],[126.96934,35.12779]]]}},{"type":"Feature","properties":{"valleyId":"jeungsimsa","layer":"shadow","date":"2026-08-01","timeLocal":"17:00"},"geometry":{"type":"Polygon","coordinates":[[[126.97256,35.12628],[126.97256,35.12619],[126.97262,35.12619],[126.97262,35.12628],[126.97256,35.12628]]]}},{"type":"Feature","properties":{"valleyId":"jeungsimsa","layer":"shadow","date":"2026-08-01","timeLocal":"17:00"},"geometry":{"type":"Polygon","coordinates":[[[126.97113,35.12618],[126.97111,35.12606],[126.97118,35.12606],[126.97118,35.12609],[126.97122,35.12611],[126.97122,35.12618],[126.97113,35.12618]]]}},{"type":"Feature","properties":{"valleyId":"jeungsimsa","layer":"shadow","date":"2026-08-01","timeLocal":"17:00"},"geometry":{"type":"Polygon","coordinates":[[[126.95524,35.12537],[126.95522,35.12534],[126.95518,35.12534],[126.95514,35.12519],[126.95525,35.12519],[126.95525,35.12523],[126.95533,35.12527],[126.95535,35.12538],[126.95524,35.12537]]]}},{"type":"Feature","properties":{"valleyId":"jeungsimsa","layer":"shadow","date":"2026-08-01","timeLocal":"17:00"},"geometry":{"type":"Polygon","coordinates":[[[126.9552,35.12608],[126.95518,35.12604],[126.95501,35.12596],[126.95501,35.12591],[126.9551,35.12586],[126.9551,35.1257],[126.95517,35.1257],[126.95539,35.12547],[126.95537,35.12534],[126.95542,35.12534],[126.95544,35.1253],[126.9554,35.1252],[126.95547,35.12518],[126.95543,35.125],[126.95547,35.12496],[126.95558,35.12495],[126.95563,35.12491],[126.95563,35.12484],[126.95572,35.12484],[126.95574,35.12493],[126.9556,35.125],[126.9556,35.12506],[126.95571,35.12509],[126.95575,35.1252],[126.95586,35.1252],[126.95585,35.12547],[126.95572,35.12547],[126.9557,35.12558],[126.95543,35.12568],[126.95536,35.12584],[126.95527,35.12586],[126.95525,35.12591],[126.95525,35.12599],[126.95531,35.12601],[126.95531,35.12606],[126.9552,35.12608]]]}},{"type":"Feature","properties":{"valleyId":"jeungsimsa","layer":"shadow","date":"2026-08-01","timeLocal":"17:00"},"geometry":{"type":"Polygon","coordinates":[[[126.97116,35.12506],[126.97116,35.12501],[126.97123,35.12501],[126.97123,35.12507],[126.97116,35.12506]]]}},{"type":"Feature","properties":{"valleyId":"jeungsimsa","layer":"shadow","date":"2026-08-01","timeLocal":"17:00"},"geometry":{"type":"Polygon","coordinates":[[[126.95537,35.1248],[126.95537,35.12464],[126.95546,35.12462],[126.95548,35.1248],[126.95537,35.1248]]]}},{"type":"Feature","properties":{"valleyId":"jeungsimsa","layer":"shadow","date":"2026-08-01","timeLocal":"17:00"},"geometry":{"type":"Polygon","coordinates":[[[126.95572,35.12461],[126.95575,35.12452],[126.95581,35.12452],[126.95581,35.12461],[126.95572,35.12461]]]}},{"type":"Feature","properties":{"valleyId":"jeungsimsa","layer":"shadow","date":"2026-08-01","timeLocal":"17:00"},"geometry":{"type":"Polygon","coordinates":[[[126.95572,35.1245],[126.9557,35.12443],[126.95577,35.12443],[126.95579,35.1245],[126.95572,35.1245]]]}},{"type":"Feature","properties":{"valleyId":"jeungsimsa","layer":"shadow","date":"2026-08-01","timeLocal":"17:00"},"geometry":{"type":"Polygon","coordinates":[[[126.9707,35.12329],[126.9707,35.12322],[126.97081,35.1232],[126.97081,35.12327],[126.9707,35.12329]]]}},{"type":"Feature","properties":{"valleyId":"jeungsimsa","layer":"shadow","date":"2026-08-01","timeLocal":"17:00"},"geometry":{"type":"Polygon","coordinates":[[[126.95551,35.12444],[126.95546,35.1244],[126.95547,35.12433],[126.9556,35.12432],[126.9556,35.12423],[126.95573,35.12417],[126.9558,35.12403],[126.95576,35.12389],[126.95589,35.12387],[126.95592,35.1238],[126.95592,35.12374],[126.95583,35.12371],[126.95583,35.12362],[126.95579,35.12358],[126.95575,35.1234],[126.9558,35.12336],[126.95582,35.12324],[126.95589,35.12324],[126.95593,35.12317],[126.95604,35.12313],[126.95603,35.12299],[126.95596,35.12295],[126.95594,35.1229],[126.95583,35.12286],[126.95586,35.12277],[126.95599,35.12277],[126.95599,35.12281],[126.95607,35.12283],[126.95616,35.1229],[126.95623,35.1229],[126.95631,35.12299],[126.95631,35.1231],[126.95626,35.12314],[126.95626,35.12319],[126.9563,35.12323],[126.95632,35.12361],[126.95625,35.12366],[126.95622,35.12386],[126.95614,35.12386],[126.95609,35.12391],[126.95609,35.12402],[126.95615,35.12404],[126.95615,35.12414],[126.95597,35.12416],[126.95597,35.12421],[126.95586,35.12421],[126.95586,35.12425],[126.9558,35.1243],[126.95569,35.12432],[126.95568,35.12441],[126.95551,35.12444]]]}},{"type":"Feature","properties":{"valleyId":"jeungsimsa","layer":"shadow","date":"2026-08-01","timeLocal":"17:00"},"geometry":{"type":"Polygon","coordinates":[[[126.97125,35.12251],[126.97125,35.12245],[126.97134,35.1224],[126.97141,35.12215],[126.97143,35.12211],[126.9715,35.12211],[126.97149,35.12226],[126.9714,35.12235],[126.9714,35.12247],[126.97136,35.12251],[126.97125,35.12251]]]}},{"type":"Feature","properties":{"valleyId":"jeungsimsa","layer":"shadow","date":"2026-08-01","timeLocal":"17:00"},"geometry":{"type":"Polygon","coordinates":[[[126.97172,35.12199],[126.97172,35.12194],[126.97179,35.12194],[126.97179,35.12199],[126.97172,35.12199]]]}},{"type":"Feature","properties":{"valleyId":"jeungsimsa","layer":"shadow","date":"2026-08-01","timeLocal":"17:00"},"geometry":{"type":"Polygon","coordinates":[[[126.9724,35.12179],[126.97241,35.12173],[126.97245,35.1217],[126.97252,35.1217],[126.97252,35.12175],[126.97247,35.12179],[126.9724,35.12179]]]}},{"type":"Feature","properties":{"valleyId":"jeungsimsa","layer":"shadow","date":"2026-08-01","timeLocal":"17:00"},"geometry":{"type":"Polygon","coordinates":[[[126.95687,35.12181],[126.95689,35.12163],[126.95696,35.12158],[126.95695,35.12122],[126.95701,35.12122],[126.95706,35.12124],[126.95706,35.12129],[126.95712,35.12129],[126.95709,35.12169],[126.95704,35.12178],[126.95687,35.12181]]]}},{"type":"Feature","properties":{"valleyId":"jeungsimsa","layer":"shadow","date":"2026-08-01","timeLocal":"17:00"},"geometry":{"type":"Polygon","coordinates":[[[126.95708,35.12119],[126.95708,35.12106],[126.95729,35.12085],[126.95731,35.12067],[126.9574,35.1206],[126.9574,35.12052],[126.95751,35.12051],[126.95751,35.12058],[126.95747,35.12061],[126.95746,35.12087],[126.95742,35.12087],[126.95739,35.12092],[126.95731,35.12094],[126.9573,35.12097],[126.95724,35.12101],[126.95717,35.12111],[126.95717,35.12119],[126.95708,35.12119]]]}},{"type":"Feature","properties":{"valleyId":"jeungsimsa","layer":"shadow","date":"2026-08-01","timeLocal":"17:00"},"geometry":{"type":"Polygon","coordinates":[[[126.95747,35.12045],[126.95747,35.12042],[126.95736,35.12041],[126.95739,35.12029],[126.9573,35.12027],[126.9573,35.1202],[126.95735,35.1202],[126.95741,35.12015],[126.95748,35.12015],[126.95748,35.1202],[126.95754,35.1202],[126.95754,35.12045],[126.95747,35.12045]]]}},{"type":"Feature","properties":{"valleyId":"jeungsimsa","layer":"shadow","date":"2026-08-01","timeLocal":"17:00"},"geometry":{"type":"Polygon","coordinates":[[[126.95757,35.12015],[126.9575,35.12013],[126.9575,35.12004],[126.95746,35.12],[126.95722,35.11996],[126.95722,35.11989],[126.95727,35.11987],[126.95744,35.11988],[126.95749,35.11989],[126.95748,35.11997],[126.95755,35.11997],[126.95755,35.1199],[126.95751,35.11989],[126.95751,35.11984],[126.95753,35.11973],[126.9576,35.1197],[126.95762,35.11961],[126.95756,35.11961],[126.95749,35.11955],[126.95743,35.11955],[126.9574,35.1196],[126.95734,35.1196],[126.9573,35.11957],[126.9573,35.1194],[126.95737,35.11939],[126.95763,35.11941],[126.95765,35.11954],[126.95774,35.11954],[126.95773,35.11959],[126.95782,35.11959],[126.95784,35.11965],[126.95779,35.11983],[126.95764,35.1199],[126.95764,35.11995],[126.9577,35.11997],[126.9577,35.12001],[126.95777,35.12001],[126.95777,35.12008],[126.95763,35.12011],[126.95763,35.12015],[126.95757,35.12015]]]}},{"type":"Feature","properties":{"valleyId":"jeungsimsa","layer":"shadow","date":"2026-08-01","timeLocal":"17:00"},"geometry":{"type":"Polygon","coordinates":[[[126.95776,35.11954],[126.95781,35.11939],[126.95787,35.1194],[126.95788,35.11918],[126.9581,35.11917],[126.95814,35.11913],[126.9581,35.11898],[126.95828,35.11901],[126.95827,35.11911],[126.95823,35.11913],[126.95823,35.11917],[126.95807,35.11922],[126.95807,35.11925],[126.95801,35.11925],[126.958,35.11931],[126.95794,35.11934],[126.95789,35.11954],[126.95776,35.11954]]]}},{"type":"Feature","properties":{"valleyId":"jeungsimsa","layer":"shadow","date":"2026-08-01","timeLocal":"17:00"},"geometry":{"type":"Polygon","coordinates":[[[126.95795,35.11898],[126.95795,35.11891],[126.95801,35.11891],[126.95801,35.11898],[126.95795,35.11898]]]}},{"type":"Feature","properties":{"valleyId":"jeungsimsa","layer":"shadow","date":"2026-08-01","timeLocal":"17:00"},"geometry":{"type":"Polygon","coordinates":[[[126.95832,35.11897],[126.95835,35.11883],[126.95848,35.11883],[126.9585,35.11892],[126.95841,35.11894],[126.95839,35.11897],[126.95832,35.11897]]]}},{"type":"Feature","properties":{"valleyId":"jeungsimsa","layer":"shadow","date":"2026-08-01","timeLocal":"17:00"},"geometry":{"type":"Polygon","coordinates":[[[126.95859,35.11874],[126.95859,35.11869],[126.95868,35.11867],[126.95868,35.11872],[126.95859,35.11874]]]}}]}
