{"type":"FeatureCollection","metadata":{"description":"개방지(CHM ≤ 2 m)에 드리운 나무·지형 그림자, 2026-08-01 10:00 KST. canopy 위에 겹쳐 그린다","source":"위성 기반 추정 — Copernicus GLO-30 지형(30 m) + Meta/WRI 수관 높이(1 m CHM, 2019 촬영). 그늘 = 수관(CHM > 2 m) ∪ 나무·지형 그림자 ∪ 원거리 지형 마스크. 현장과 다를 수 있음.","datasetVersion":"2026-09-09.0","collectedAt":"2026-09-09","coordinateOrder":"[longitude, latitude]","crs":"EPSG:4326","representativeDate":"2026-08-01","hours":["10:00","11:00","12:00","13:00","14:00","15:00","16:00","17:00","18:00"],"chmAcquisition":["2019-05"],"assets":{"glo30":{"dataset":"Copernicus DEM GLO-30 (COG, s3://copernicus-dem-30m)","tiles":["Copernicus_DSM_COG_10_N35_00_E126_00_DEM","Copernicus_DSM_COG_10_N35_00_E127_00_DEM"]},"chm":{"dataset":"Meta/WRI Global Canopy Height Map v1 (alsgedi_global_v6_float, 1 m, CC-BY 4.0)","quadkeys":["132112120"],"acquisition":["2019-05"]}},"method":{"gridResM":2,"canopyThresholdM":2,"bufferHalfM":25,"corridorHalfM":200,"simplifyTolM":2,"minAreaM2":25,"coordDecimals":5},"generator":"scripts/shade 0.1.0","builtAt":"2026-09-08T15:42:52Z","layer":"shadow","timeLocal":"10:00"},"features":[{"type":"Feature","properties":{"valleyId":"jeungsimsa","layer":"shadow","date":"2026-08-01","timeLocal":"10:00"},"geometry":{"type":"Polygon","coordinates":[[[126.95654,35.13574],[126.95652,35.13564],[126.95659,35.13564],[126.95661,35.13575],[126.95654,35.13574]]]}},{"type":"Feature","properties":{"valleyId":"jeungsimsa","layer":"shadow","date":"2026-08-01","timeLocal":"10:00"},"geometry":{"type":"Polygon","coordinates":[[[126.9565,35.13562],[126.9565,35.13551],[126.95657,35.13551],[126.95657,35.13562],[126.9565,35.13562]]]}},{"type":"Feature","properties":{"valleyId":"jeungsimsa","layer":"shadow","date":"2026-08-01","timeLocal":"10:00"},"geometry":{"type":"Polygon","coordinates":[[[126.96559,35.13119],[126.96557,35.1311],[126.96563,35.1311],[126.96568,35.13114],[126.96568,35.13119],[126.96559,35.13119]]]}},{"type":"Feature","properties":{"valleyId":"jeungsimsa","layer":"shadow","date":"2026-08-01","timeLocal":"10:00"},"geometry":{"type":"Polygon","coordinates":[[[126.97,35.12843],[126.97,35.12838],[126.97007,35.12838],[126.97007,35.12844],[126.97,35.12843]]]}},{"type":"Feature","properties":{"valleyId":"jeungsimsa","layer":"shadow","date":"2026-08-01","timeLocal":"10:00"},"geometry":{"type":"Polygon","coordinates":[[[126.97271,35.12632],[126.97267,35.12628],[126.97267,35.12621],[126.97269,35.12617],[126.97276,35.12617],[126.9728,35.12632],[126.97271,35.12632]]]}},{"type":"Feature","properties":{"valleyId":"jeungsimsa","layer":"shadow","date":"2026-08-01","timeLocal":"10:00"},"geometry":{"type":"Polygon","coordinates":[[[126.97384,35.12585],[126.97384,35.12578],[126.97391,35.12578],[126.97393,35.12585],[126.97384,35.12585]]]}},{"type":"Feature","properties":{"valleyId":"jeungsimsa","layer":"shadow","date":"2026-08-01","timeLocal":"10:00"},"geometry":{"type":"Polygon","coordinates":[[[126.97406,35.12156],[126.97401,35.12154],[126.97401,35.12149],[126.97404,35.12145],[126.9741,35.12145],[126.97412,35.12156],[126.97406,35.12156]]]}}]}
